{"type":"FeatureCollection","features":[{"type":"Feature","properties":{"id":"04013","name":"Maricopa Co."},"geometry":{"type":"Polygon","coordinates":[[[-111.0479,33.4657],[-111.2697,33.4659],[-111.4801,33.4659],[-111.5806,33.4658],[-111.5807,33.3787],[-111.5841,33.3788],[-111.5836,33.3209],[-111.5831,33.2926],[-111.5833,33.2848],[-111.5829,33.249],[-111.5826,33.2054],[-111.6859,33.2046],[-111.7554,33.2048],[-111.8064,33.2047],[-111.8237,33.2042],[-111.8926,33.2033],[-111.8931,33.2047],[-112.0819,33.2047],[-112.0835,33.2046],[-112.0921,33.2093],[-112.0882,33.2203],[-112.09,33.2255],[-112.0958,33.2304],[-112.103,33.2306],[-112.1087,33.2282],[-112.1137,33.2275],[-112.1162,33.2316],[-112.1196,33.2316],[-112.1213,33.2344],[-112.1265,33.2355],[-112.1305,33.2328],[-112.1325,33.2335],[-112.1347,33.238],[-112.1347,33.2416],[-112.1397,33.2437],[-112.1401,33.2467],[-112.1491,33.2538],[-112.1613,33.2543],[-112.1696,33.2596],[-112.1743,33.2582],[-112.1758,33.2631],[-112.181,33.2625],[-112.1872,33.2633],[-112.1918,33.265],[-112.1921,33.2681],[-112.1964,33.2739],[-112.1975,33.2784],[-112.1956,33.2848],[-112.1975,33.2893],[-112.1932,33.2965],[-112.1937,33.2989],[-112.2017,33.3075],[-112.2032,33.3105],[-112.2032,33.2905],[-112.202,33.2905],[-112.2021,33.2033],[-112.2021,33.0292],[-112.203,33.0292],[-112.203,32.942],[-112.2035,32.9417],[-112.2036,32.5067],[-112.5207,32.5068],[-112.5748,32.5061],[-112.7254,32.5054],[-112.9158,32.5054],[-113.0281,32.5051],[-113.3339,32.5052],[-113.3337,32.5936],[-113.3337,32.7675],[-113.3338,32.8251],[-113.3338,33.0235],[-113.3338,33.117],[-113.3334,33.2046],[-113.3336,33.2476],[-113.3342,33.25],[-113.3339,33.3774],[-113.335,33.3775],[-113.3351,33.6386],[-113.3333,34.0],[-113.142,34.0],[-112.7752,33.9999],[-112.7438,33.9999],[-112.685,33.9852],[-112.4279,33.9207],[-112.3419,33.899],[-112.2762,33.8825],[-112.2776,33.8904],[-112.2752,33.8934],[-112.2644,33.8992],[-112.2607,33.904],[-112.2556,33.9054],[-112.2494,33.9046],[-112.243,33.9054],[-112.2407,33.9083],[-112.2436,33.9131],[-112.2429,33.9155],[-112.2365,33.9151],[-112.2351,33.9164],[-112.2339,33.9262],[-112.2316,33.936],[-112.236,33.9395],[-112.2414,33.9405],[-112.2358,33.9473],[-112.2403,33.9505],[-112.2403,33.9566],[-112.2334,33.9558],[-112.2292,33.9542],[-112.2219,33.9607],[-112.2145,33.9637],[-112.215,33.9671],[-112.2078,33.9699],[-112.2029,33.9705],[-112.1965,33.9742],[-112.1941,33.9779],[-112.1934,33.9903],[-112.1897,33.9954],[-112.1862,33.9972],[-112.1849,34.0007],[-112.1819,34.0021],[-112.1804,34.0057],[-112.1827,34.0086],[-112.1821,34.0132],[-112.1764,34.0144],[-112.1715,34.0178],[-112.1662,34.0125],[-112.1611,34.0177],[-112.1648,34.027],[-112.1653,34.0331],[-112.1633,34.038],[-112.1587,34.04],[-112.155,34.0399],[-112.1541,34.0418],[-112.1584,34.0438],[-112.1615,34.0422],[-112.1626,34.0463],[-112.1648,34.0482],[-112.1456,34.0462],[-111.9962,34.0299],[-111.8746,34.0165],[-111.7263,34.0],[-111.5007,34.0],[-111.4917,33.9998],[-111.4909,34.0009],[-111.4816,34.0025],[-111.4782,34.0021],[-111.4724,34.0047],[-111.47,34.0038],[-111.4665,34.0059],[-111.4648,34.0043],[-111.4584,34.0022],[-111.4544,34.0048],[-111.4495,34.0004],[-111.4451,34.0012],[-111.4446,33.9992],[-111.4404,33.9964],[-111.4428,33.9914],[-111.4331,33.9844],[-111.4351,33.9807],[-111.4413,33.9784],[-111.445,33.9744],[-111.4481,33.9733],[-111.4489,33.9686],[-111.4526,33.9659],[-111.4527,33.9624],[-111.448,33.9575],[-111.4516,33.954],[-111.4522,33.9486],[-111.4474,33.9417],[-111.4472,33.9348],[-111.452,33.9338],[-111.4493,33.9294],[-111.4514,33.9251],[-111.4517,33.921],[-111.4433,33.9174],[-111.4373,33.9163],[-111.4306,33.924],[-111.4264,33.9261],[-111.4174,33.9226],[-111.4123,33.9219],[-111.4051,33.9192],[-111.4069,33.9134],[-111.4085,33.9124],[-111.4081,33.9052],[-111.4116,33.9037],[-111.4137,33.8974],[-111.4115,33.8914],[-111.4133,33.8881],[-111.4122,33.8846],[-111.4052,33.8818],[-111.4057,33.8795],[-111.3977,33.8778],[-111.3963,33.8732],[-111.3963,33.8686],[-111.3926,33.8654],[-111.3881,33.8634],[-111.387,33.8604],[-111.3923,33.8548],[-111.392,33.8526],[-111.3958,33.8443],[-111.3955,33.8409],[-111.3904,33.8377],[-111.3921,33.8359],[-111.3875,33.8337],[-111.3836,33.8336],[-111.3786,33.8296],[-111.378,33.8274],[-111.3723,33.8239],[-111.3715,33.8188],[-111.3737,33.8174],[-111.3781,33.8178],[-111.3841,33.8162],[-111.385,33.8107],[-111.3879,33.8032],[-111.3798,33.7957],[-111.3789,33.7919],[-111.3828,33.7881],[-111.3812,33.7852],[-111.3855,33.7832],[-111.3894,33.7767],[-111.3867,33.7734],[-111.3894,33.7708],[-111.387,33.7631],[-111.3833,33.7628],[-111.3823,33.7582],[-111.3868,33.75],[-111.3809,33.7477],[-111.3747,33.7498],[-111.3728,33.7491],[-111.3721,33.7452],[-111.3672,33.7441],[-111.3659,33.7423],[-111.3593,33.741],[-111.3558,33.7381],[-111.3548,33.7332],[-111.3507,33.7322],[-111.3451,33.7274],[-111.3436,33.7248],[-111.3375,33.7212],[-111.3386,33.7159],[-111.3371,33.7091],[-111.3383,33.7027],[-111.3338,33.6954],[-111.3338,33.6923],[-111.3314,33.6883],[-111.326,33.6844],[-111.3177,33.6828],[-111.3138,33.6805],[-111.3092,33.6739],[-111.3053,33.6721],[-111.3006,33.6651],[-111.295,33.6609],[-111.2876,33.659],[-111.2862,33.6563],[-111.2873,33.6524],[-111.2798,33.6459],[-111.2795,33.6434],[-111.2707,33.6336],[-111.2693,33.6292],[-111.2628,33.6232],[-111.2557,33.6211],[-111.2495,33.6243],[-111.2467,33.6215],[-111.2384,33.6184],[-111.2362,33.6155],[-111.2308,33.6124],[-111.2319,33.6095],[-111.2276,33.6072],[-111.2242,33.6031],[-111.2221,33.6024],[-111.2167,33.6083],[-111.2149,33.6141],[-111.2075,33.6206],[-111.2073,33.6241],[-111.2094,33.6335],[-111.2053,33.6379],[-111.2003,33.6403],[-111.1941,33.6468],[-111.1879,33.6521],[-111.1857,33.6553],[-111.1806,33.6598],[-111.1747,33.6594],[-111.1718,33.6614],[-111.1697,33.6673],[-111.1581,33.6737],[-111.1534,33.6776],[-111.1367,33.6463],[-111.0464,33.4786],[-111.04,33.466],[-111.0479,33.4657]]]}},{"type":"Feature","properties":{"id":"04021","name":"Pinal Co."},"geometry":{"type":"Polygon","coordinates":[[[-110.9877,33.3668],[-110.9746,33.3418],[-110.9467,33.2501],[-110.8707,33.1281],[-110.8656,33.1195],[-110.794,33.0023],[-110.7832,32.9848],[-110.7811,32.9837],[-110.7649,32.9864],[-110.7638,32.9904],[-110.7653,33.0006],[-110.7638,33.0049],[-110.7583,33.0052],[-110.7536,33.007],[-110.7514,33.0106],[-110.747,33.0106],[-110.745,33.0136],[-110.7458,33.0156],[-110.7433,33.0189],[-110.738,33.0201],[-110.7293,33.0273],[-110.7277,33.0331],[-110.7291,33.0355],[-110.7251,33.0419],[-110.7224,33.0432],[-110.7166,33.0408],[-110.7154,33.0447],[-110.7168,33.0528],[-110.7257,33.0696],[-110.7219,33.0723],[-110.721,33.0763],[-110.7178,33.0758],[-110.7127,33.078],[-110.7116,33.0816],[-110.7051,33.0838],[-110.6968,33.0783],[-110.6932,33.077],[-110.6883,33.0812],[-110.6894,33.0842],[-110.6946,33.0853],[-110.6944,33.0873],[-110.6874,33.0893],[-110.6833,33.0881],[-110.6825,33.0933],[-110.6833,33.1],[-110.6798,33.1012],[-110.6779,33.1114],[-110.6728,33.1116],[-110.6691,33.118],[-110.6662,33.12],[-110.6624,33.1191],[-110.6622,33.1138],[-110.6568,33.1135],[-110.6554,33.1163],[-110.6488,33.1224],[-110.6484,33.1243],[-110.6408,33.1324],[-110.639,33.1331],[-110.638,33.1376],[-110.6344,33.1424],[-110.6207,33.144],[-110.6113,33.1431],[-110.6005,33.1376],[-110.5987,33.1379],[-110.5976,33.1344],[-110.5935,33.1339],[-110.587,33.1373],[-110.5842,33.1424],[-110.5794,33.1471],[-110.5738,33.1443],[-110.569,33.1448],[-110.5667,33.1482],[-110.5617,33.1494],[-110.5613,33.1534],[-110.556,33.1553],[-110.5538,33.1529],[-110.5497,33.1531],[-110.5502,33.1574],[-110.546,33.1688],[-110.5427,33.1684],[-110.5407,33.1638],[-110.5344,33.1606],[-110.5281,33.1586],[-110.5238,33.1614],[-110.5275,33.1637],[-110.53,33.1616],[-110.5344,33.1647],[-110.5343,33.1677],[-110.5277,33.1723],[-110.5276,33.1763],[-110.5163,33.1757],[-110.5135,33.1793],[-110.5082,33.1812],[-110.5047,33.1862],[-110.4988,33.1868],[-110.4892,33.1833],[-110.4782,33.1822],[-110.4706,33.1821],[-110.4633,33.1833],[-110.4621,33.1871],[-110.4642,33.1924],[-110.4587,33.1961],[-110.4539,33.198],[-110.4517,33.1941],[-110.449,33.1945],[-110.4494,32.9902],[-110.4494,32.9475],[-110.4485,32.9475],[-110.4485,32.7712],[-110.4486,32.7023],[-110.4492,32.514],[-110.5006,32.5142],[-110.5065,32.5139],[-110.6529,32.5138],[-110.8451,32.5139],[-110.8451,32.5111],[-110.8992,32.5117],[-110.9284,32.5112],[-111.0472,32.5114],[-111.1575,32.5113],[-111.1576,32.5016],[-111.2257,32.5019],[-111.2327,32.5017],[-111.2872,32.5016],[-111.3667,32.5013],[-111.5693,32.5014],[-111.5693,32.5068],[-111.5908,32.5067],[-111.7925,32.5066],[-111.9551,32.5067],[-112.1867,32.5068],[-112.2036,32.5067],[-112.2035,32.9417],[-112.203,32.942],[-112.203,33.0292],[-112.2021,33.0292],[-112.2021,33.2033],[-112.202,33.2905],[-112.2032,33.2905],[-112.2032,33.3105],[-112.2017,33.3075],[-112.1937,33.2989],[-112.1932,33.2965],[-112.1975,33.2893],[-112.1956,33.2848],[-112.1975,33.2784],[-112.1964,33.2739],[-112.1921,33.2681],[-112.1918,33.265],[-112.1872,33.2633],[-112.181,33.2625],[-112.1758,33.2631],[-112.1743,33.2582],[-112.1696,33.2596],[-112.1613,33.2543],[-112.1491,33.2538],[-112.1401,33.2467],[-112.1397,33.2437],[-112.1347,33.2416],[-112.1347,33.238],[-112.1325,33.2335],[-112.1305,33.2328],[-112.1265,33.2355],[-112.1213,33.2344],[-112.1196,33.2316],[-112.1162,33.2316],[-112.1137,33.2275],[-112.1087,33.2282],[-112.103,33.2306],[-112.0958,33.2304],[-112.09,33.2255],[-112.0882,33.2203],[-112.0921,33.2093],[-112.0835,33.2046],[-112.0819,33.2047],[-111.8931,33.2047],[-111.8926,33.2033],[-111.8237,33.2042],[-111.8064,33.2047],[-111.7554,33.2048],[-111.6859,33.2046],[-111.5826,33.2054],[-111.5829,33.249],[-111.5833,33.2848],[-111.5831,33.2926],[-111.5836,33.3209],[-111.5841,33.3788],[-111.5807,33.3787],[-111.5806,33.4658],[-111.4801,33.4659],[-111.2697,33.4659],[-111.0479,33.4657],[-111.04,33.466],[-110.9877,33.3668]]]}}]}