{"type":"FeatureCollection","features":[{"type":"Feature","properties":{"id":"05085","name":"Lonoke Co."},"geometry":{"type":"Polygon","coordinates":[[[-92.1161,35.0671],[-92.1108,35.0656],[-92.1045,35.0657],[-92.1045,35.0683],[-92.0992,35.0678],[-92.0993,35.0656],[-92.0944,35.0645],[-92.094,35.0661],[-92.0891,35.0648],[-92.0877,35.0669],[-92.0802,35.0685],[-92.0751,35.075],[-92.0618,35.0728],[-92.0591,35.0736],[-92.0579,35.0689],[-92.0503,35.0671],[-92.0484,35.0685],[-92.0428,35.0687],[-92.0411,35.0714],[-92.0349,35.0732],[-92.0301,35.0714],[-92.0278,35.073],[-92.0257,35.0712],[-92.0216,35.0723],[-92.0131,35.0763],[-92.0092,35.0721],[-92.0084,35.0681],[-92.0029,35.0654],[-92.0012,35.0623],[-91.9976,35.0639],[-91.9966,35.0597],[-91.9943,35.0589],[-91.9913,35.0615],[-91.9806,35.0581],[-91.9823,35.0558],[-91.9792,35.0533],[-91.9775,35.0551],[-91.9761,35.0523],[-91.974,35.053],[-91.9704,35.0497],[-91.9618,35.0522],[-91.9575,35.0493],[-91.955,35.046],[-91.9494,35.0445],[-91.9488,35.0459],[-91.9436,35.0459],[-91.939,35.0437],[-91.9358,35.0462],[-91.9304,35.0443],[-91.9253,35.0459],[-91.9181,35.0413],[-91.9174,35.038],[-91.912,35.0349],[-91.9085,35.035],[-91.908,35.0328],[-91.904,35.0307],[-91.9026,35.0277],[-91.8952,35.0329],[-91.8924,35.0323],[-91.8864,35.0279],[-91.8816,35.0277],[-91.8788,35.0246],[-91.8751,35.0236],[-91.8698,35.0256],[-91.8693,35.0242],[-91.8574,35.0258],[-91.8526,35.0246],[-91.8498,35.0277],[-91.8432,35.0271],[-91.8407,35.0297],[-91.8359,35.0305],[-91.8322,35.0284],[-91.8283,35.0313],[-91.8243,35.0322],[-91.8145,35.032],[-91.8113,35.0335],[-91.8113,35.0309],[-91.8025,35.0307],[-91.8037,34.9215],[-91.6937,34.9196],[-91.6945,34.8831],[-91.6958,34.8437],[-91.6962,34.8394],[-91.6972,34.8019],[-91.6987,34.7593],[-91.6996,34.7267],[-91.7008,34.6721],[-91.6996,34.6731],[-91.6973,34.6694],[-91.6933,34.6709],[-91.689,34.6688],[-91.6871,34.6657],[-91.6806,34.6635],[-91.6739,34.6581],[-91.6691,34.6575],[-91.668,34.6546],[-91.6641,34.6527],[-91.6646,34.6493],[-91.6612,34.6453],[-91.6561,34.6428],[-91.6512,34.6433],[-91.6449,34.6387],[-91.6402,34.6323],[-91.6385,34.6257],[-91.6424,34.6159],[-91.6484,34.6128],[-91.648,34.6092],[-91.6531,34.6023],[-91.6596,34.6],[-91.6622,34.5859],[-91.665,34.5798],[-91.6623,34.5776],[-91.6583,34.577],[-91.6584,34.5729],[-91.6566,34.5693],[-91.6522,34.5667],[-91.6489,34.5697],[-91.6439,34.5693],[-91.6409,34.5672],[-91.6364,34.5664],[-91.6368,34.5644],[-91.6334,34.5622],[-91.6347,34.5579],[-91.6346,34.5465],[-91.6385,34.5421],[-91.6433,34.5401],[-91.6483,34.5342],[-91.6587,34.5284],[-91.6698,34.5187],[-91.6705,34.515],[-91.6751,34.5133],[-91.6744,34.5113],[-91.6771,34.5098],[-91.6758,34.5046],[-91.6785,34.4995],[-91.681,34.4995],[-91.6796,34.4921],[-91.6834,34.4925],[-91.6806,34.4896],[-91.6798,34.4862],[-91.6755,34.4829],[-91.6782,34.4819],[-91.7053,34.4827],[-91.8141,34.4842],[-91.9011,34.4872],[-91.9219,34.488],[-91.993,34.4889],[-92.0303,34.4895],[-92.0296,34.5365],[-92.0298,34.537],[-92.0295,34.6212],[-92.0297,34.6217],[-92.1091,34.6229],[-92.1099,34.6337],[-92.1079,34.6434],[-92.1085,34.6451],[-92.1033,34.6545],[-92.1007,34.6574],[-92.0988,34.6625],[-92.0984,34.6772],[-92.0963,34.6871],[-92.0966,34.6968],[-92.0959,34.7007],[-92.0929,34.7048],[-92.0929,34.7139],[-92.0974,34.7157],[-92.0971,34.722],[-92.0788,34.7218],[-92.0783,34.7439],[-92.0748,34.8373],[-92.0756,34.8374],[-92.0754,34.8519],[-92.0744,34.8666],[-92.0723,34.9246],[-92.0737,34.9254],[-92.072,34.9714],[-92.0718,34.9829],[-92.0707,35.0052],[-92.0708,35.0116],[-92.1215,35.0122],[-92.1197,35.0666],[-92.1161,35.0671]]]}},{"type":"Feature","properties":{"id":"05045","name":"Faulkner Co."},"geometry":{"type":"Polygon","coordinates":[[[-92.5539,35.1178],[-92.5477,35.1233],[-92.543,35.1261],[-92.5404,35.1219],[-92.5339,35.1148],[-92.5217,35.1146],[-92.5159,35.129],[-92.5122,35.1344],[-92.506,35.1382],[-92.507,35.1418],[-92.5131,35.1435],[-92.5059,35.1451],[-92.5041,35.1475],[-92.5041,35.1599],[-92.5015,35.1633],[-92.5067,35.1651],[-92.5049,35.1691],[-92.5026,35.1678],[-92.5001,35.1696],[-92.5032,35.1712],[-92.5007,35.1757],[-92.5044,35.1754],[-92.5085,35.1777],[-92.5111,35.1808],[-92.5191,35.1839],[-92.5196,35.1873],[-92.5236,35.1862],[-92.5234,35.1895],[-92.529,35.1897],[-92.5267,35.1935],[-92.5293,35.1956],[-92.527,35.1985],[-92.5274,35.2015],[-92.5247,35.2053],[-92.5273,35.2088],[-92.5243,35.2112],[-92.5251,35.2142],[-92.5227,35.2157],[-92.5199,35.2146],[-92.5202,35.2179],[-92.5233,35.2169],[-92.5251,35.2189],[-92.5224,35.2215],[-92.5297,35.2194],[-92.5314,35.2232],[-92.5277,35.2308],[-92.5227,35.2292],[-92.5225,35.2311],[-92.5152,35.2331],[-92.5124,35.2394],[-92.5138,35.242],[-92.5103,35.2454],[-92.5112,35.2402],[-92.5056,35.2423],[-92.5033,35.2465],[-92.5102,35.2491],[-92.5105,35.2513],[-92.5139,35.2533],[-92.5144,35.2563],[-92.5104,35.2586],[-92.5071,35.2579],[-92.4989,35.2641],[-92.4937,35.2664],[-92.499,35.2669],[-92.4963,35.2692],[-92.494,35.2737],[-92.4892,35.2735],[-92.4849,35.2755],[-92.4858,35.2792],[-92.4844,35.2807],[-92.4834,35.3255],[-92.4826,35.3545],[-92.4815,35.3684],[-92.4282,35.3678],[-92.3998,35.3668],[-92.3878,35.3667],[-92.3056,35.3648],[-92.2277,35.3631],[-92.1472,35.3623],[-92.1296,35.362],[-92.1115,35.3626],[-92.1134,35.2822],[-92.118,35.1212],[-92.1197,35.0666],[-92.1215,35.0122],[-92.2272,35.0146],[-92.2291,34.9493],[-92.2299,34.9275],[-92.3181,34.929],[-92.3706,34.9301],[-92.3881,34.9309],[-92.4137,34.9314],[-92.419,34.9312],[-92.4131,34.9249],[-92.4178,34.9238],[-92.4153,34.9191],[-92.4187,34.9155],[-92.4179,34.9132],[-92.4242,34.9101],[-92.4281,34.9112],[-92.4365,34.9069],[-92.4367,34.903],[-92.4394,34.9031],[-92.444,34.906],[-92.4447,34.9037],[-92.4496,34.9033],[-92.4499,34.9008],[-92.4468,34.8909],[-92.4477,34.8854],[-92.4433,34.8769],[-92.4437,34.8738],[-92.4423,34.8685],[-92.4472,34.857],[-92.4448,34.853],[-92.4383,34.847],[-92.4364,34.843],[-92.4522,34.8497],[-92.4587,34.8538],[-92.4629,34.8589],[-92.4646,34.8628],[-92.4649,34.8708],[-92.4633,34.8747],[-92.4562,34.8843],[-92.4536,34.8891],[-92.4513,34.8966],[-92.4511,34.9052],[-92.4547,34.9123],[-92.4635,34.9211],[-92.4666,34.9274],[-92.4675,34.9367],[-92.4688,34.9409],[-92.4735,34.947],[-92.4803,34.9515],[-92.4854,34.953],[-92.4918,34.9536],[-92.5045,34.9532],[-92.5224,34.9511],[-92.5279,34.9508],[-92.5371,34.9516],[-92.5442,34.9529],[-92.5611,34.957],[-92.5739,34.9635],[-92.5844,34.9715],[-92.5909,34.9793],[-92.5979,34.9931],[-92.5992,35.0007],[-92.5978,35.0065],[-92.5925,35.0142],[-92.5842,35.0208],[-92.5688,35.0291],[-92.5634,35.0327],[-92.5562,35.0392],[-92.5516,35.0446],[-92.5462,35.0535],[-92.5433,35.0602],[-92.5412,35.0717],[-92.5407,35.0877],[-92.5478,35.1058],[-92.5503,35.1103],[-92.5544,35.1134],[-92.5539,35.1178]]]}},{"type":"Feature","properties":{"id":"05119","name":"Pulaski Co."},"geometry":{"type":"Polygon","coordinates":[[[-92.5371,34.9516],[-92.5279,34.9508],[-92.5224,34.9511],[-92.5045,34.9532],[-92.4918,34.9536],[-92.4854,34.953],[-92.4803,34.9515],[-92.4735,34.947],[-92.4688,34.9409],[-92.4675,34.9367],[-92.4666,34.9274],[-92.4635,34.9211],[-92.4547,34.9123],[-92.4511,34.9052],[-92.4513,34.8966],[-92.4536,34.8891],[-92.4562,34.8843],[-92.4633,34.8747],[-92.4649,34.8708],[-92.4646,34.8628],[-92.4629,34.8589],[-92.4587,34.8538],[-92.4522,34.8497],[-92.4364,34.843],[-92.4383,34.847],[-92.4448,34.853],[-92.4472,34.857],[-92.4423,34.8685],[-92.4437,34.8738],[-92.4433,34.8769],[-92.4477,34.8854],[-92.4468,34.8909],[-92.4499,34.9008],[-92.4496,34.9033],[-92.4447,34.9037],[-92.444,34.906],[-92.4394,34.9031],[-92.4367,34.903],[-92.4365,34.9069],[-92.4281,34.9112],[-92.4242,34.9101],[-92.4179,34.9132],[-92.4187,34.9155],[-92.4153,34.9191],[-92.4178,34.9238],[-92.4131,34.9249],[-92.419,34.9312],[-92.4137,34.9314],[-92.3881,34.9309],[-92.3706,34.9301],[-92.3181,34.929],[-92.2299,34.9275],[-92.2291,34.9493],[-92.2272,35.0146],[-92.1215,35.0122],[-92.0708,35.0116],[-92.0707,35.0052],[-92.0718,34.9829],[-92.072,34.9714],[-92.0737,34.9254],[-92.0723,34.9246],[-92.0744,34.8666],[-92.0754,34.8519],[-92.0756,34.8374],[-92.0748,34.8373],[-92.0783,34.7439],[-92.0788,34.7218],[-92.0971,34.722],[-92.0974,34.7157],[-92.0929,34.7139],[-92.0929,34.7048],[-92.0959,34.7007],[-92.0966,34.6968],[-92.0963,34.6871],[-92.0984,34.6772],[-92.0988,34.6625],[-92.1007,34.6574],[-92.1033,34.6545],[-92.1085,34.6451],[-92.1079,34.6434],[-92.1099,34.6337],[-92.1091,34.6229],[-92.0297,34.6217],[-92.0295,34.6212],[-92.0298,34.537],[-92.0296,34.5365],[-92.0303,34.4895],[-92.1437,34.4916],[-92.208,34.4928],[-92.2458,34.4936],[-92.2442,34.5809],[-92.2487,34.581],[-92.3277,34.5819],[-92.3487,34.5823],[-92.3465,34.6256],[-92.3819,34.6263],[-92.4169,34.6266],[-92.4452,34.627],[-92.4433,34.672],[-92.5003,34.6736],[-92.4991,34.688],[-92.552,34.6893],[-92.55,34.7452],[-92.5497,34.7617],[-92.6543,34.7645],[-92.6512,34.8517],[-92.7397,34.8536],[-92.7554,34.8537],[-92.7549,34.8787],[-92.7539,34.9116],[-92.6847,34.9104],[-92.6496,34.9102],[-92.6487,34.9386],[-92.6478,34.9392],[-92.6154,34.9384],[-92.5446,34.9364],[-92.5442,34.9529],[-92.5371,34.9516]]]}},{"type":"Feature","properties":{"id":"05125","name":"Saline Co."},"geometry":{"type":"Polygon","coordinates":[[[-92.6512,34.8517],[-92.6543,34.7645],[-92.5497,34.7617],[-92.55,34.7452],[-92.552,34.6893],[-92.4991,34.688],[-92.5003,34.6736],[-92.4433,34.672],[-92.4452,34.627],[-92.4169,34.6266],[-92.3819,34.6263],[-92.3465,34.6256],[-92.3487,34.5823],[-92.3277,34.5819],[-92.2487,34.581],[-92.2442,34.5809],[-92.2458,34.4936],[-92.3462,34.495],[-92.3691,34.4951],[-92.4034,34.4957],[-92.4047,34.4519],[-92.4774,34.4533],[-92.5418,34.4542],[-92.5895,34.4556],[-92.5972,34.4526],[-92.5983,34.4481],[-92.5975,34.4445],[-92.6015,34.439],[-92.6107,34.432],[-92.6135,34.4285],[-92.6138,34.4324],[-92.6174,34.4312],[-92.6234,34.4254],[-92.6243,34.42],[-92.6171,34.4169],[-92.6167,34.4138],[-92.6198,34.4151],[-92.6246,34.4132],[-92.6687,34.4145],[-92.6862,34.4147],[-92.6851,34.4731],[-92.7388,34.4739],[-92.7383,34.5032],[-92.7756,34.5038],[-92.7932,34.5036],[-92.7919,34.5513],[-92.7915,34.562],[-92.809,34.5622],[-92.808,34.5904],[-92.8769,34.5912],[-92.8757,34.6205],[-92.8754,34.6352],[-92.907,34.6356],[-92.9445,34.6365],[-92.9528,34.6363],[-92.9629,34.637],[-92.98,34.6372],[-92.9798,34.6548],[-92.9793,34.6663],[-92.9791,34.6849],[-92.9698,34.6848],[-92.9698,34.7284],[-92.9693,34.7723],[-93.0752,34.7719],[-93.0751,34.8013],[-93.074,34.8582],[-92.9694,34.8591],[-92.8298,34.8553],[-92.8285,34.8524],[-92.823,34.8493],[-92.8093,34.8471],[-92.8029,34.8516],[-92.7999,34.8513],[-92.7985,34.8475],[-92.7904,34.8443],[-92.7838,34.8399],[-92.7805,34.8397],[-92.7714,34.8425],[-92.7673,34.8393],[-92.7563,34.8426],[-92.7533,34.8408],[-92.7506,34.8361],[-92.7455,34.8345],[-92.7442,34.8312],[-92.7403,34.8278],[-92.7397,34.8536],[-92.6512,34.8517]]]}},{"type":"Feature","properties":{"id":"05053","name":"Grant Co."},"geometry":{"type":"Polygon","coordinates":[[[-92.6246,34.4132],[-92.6198,34.4151],[-92.6167,34.4138],[-92.6171,34.4169],[-92.6243,34.42],[-92.6234,34.4254],[-92.6174,34.4312],[-92.6138,34.4324],[-92.6135,34.4285],[-92.6107,34.432],[-92.6015,34.439],[-92.5975,34.4445],[-92.5983,34.4481],[-92.5972,34.4526],[-92.5895,34.4556],[-92.5418,34.4542],[-92.4774,34.4533],[-92.4047,34.4519],[-92.4034,34.4957],[-92.3691,34.4951],[-92.3462,34.495],[-92.2458,34.4936],[-92.208,34.4928],[-92.2093,34.4101],[-92.2096,34.4056],[-92.21,34.3473],[-92.2105,34.3182],[-92.2111,34.3181],[-92.2116,34.2888],[-92.2128,34.2304],[-92.2325,34.2309],[-92.2324,34.1492],[-92.2326,34.1208],[-92.2333,34.0624],[-92.3367,34.0595],[-92.3368,34.0634],[-92.3391,34.0658],[-92.3463,34.066],[-92.3451,34.0675],[-92.3473,34.0705],[-92.3498,34.0689],[-92.3536,34.0718],[-92.3549,34.0671],[-92.3645,34.0704],[-92.3691,34.0734],[-92.3736,34.0745],[-92.3704,34.0767],[-92.3723,34.0783],[-92.3752,34.0867],[-92.3789,34.0874],[-92.3781,34.0901],[-92.3816,34.0921],[-92.3838,34.0965],[-92.3857,34.0941],[-92.3882,34.0948],[-92.388,34.0989],[-92.3908,34.1026],[-92.3975,34.106],[-92.4023,34.1042],[-92.4055,34.1071],[-92.401,34.1099],[-92.4033,34.11],[-92.4049,34.1146],[-92.4114,34.1133],[-92.4177,34.1172],[-92.4208,34.1205],[-92.4251,34.1216],[-92.4266,34.1252],[-92.4309,34.1242],[-92.4308,34.126],[-92.4358,34.1255],[-92.4415,34.1263],[-92.4417,34.124],[-92.4461,34.1252],[-92.4475,34.1235],[-92.4528,34.1281],[-92.4581,34.1267],[-92.4581,34.131],[-92.4606,34.133],[-92.4645,34.133],[-92.4687,34.1374],[-92.4691,34.1351],[-92.472,34.135],[-92.4769,34.1323],[-92.4756,34.1354],[-92.4793,34.1323],[-92.4851,34.1344],[-92.4888,34.1345],[-92.4887,34.1327],[-92.4923,34.1335],[-92.4936,34.1443],[-92.5205,34.1459],[-92.5731,34.1474],[-92.6784,34.1496],[-92.676,34.2394],[-92.6733,34.2394],[-92.6717,34.3124],[-92.6687,34.4145],[-92.6246,34.4132]]]}},{"type":"Feature","properties":{"id":"05105","name":"Perry Co."},"geometry":{"type":"Polygon","coordinates":[[[-92.5503,35.1103],[-92.5478,35.1058],[-92.5407,35.0877],[-92.5412,35.0717],[-92.5433,35.0602],[-92.5462,35.0535],[-92.5516,35.0446],[-92.5562,35.0392],[-92.5634,35.0327],[-92.5688,35.0291],[-92.5842,35.0208],[-92.5925,35.0142],[-92.5978,35.0065],[-92.5992,35.0007],[-92.5979,34.9931],[-92.5909,34.9793],[-92.5844,34.9715],[-92.5739,34.9635],[-92.5611,34.957],[-92.5442,34.9529],[-92.5446,34.9364],[-92.6154,34.9384],[-92.6478,34.9392],[-92.6487,34.9386],[-92.6496,34.9102],[-92.6847,34.9104],[-92.7539,34.9116],[-92.7549,34.8787],[-92.7554,34.8537],[-92.7397,34.8536],[-92.7403,34.8278],[-92.7442,34.8312],[-92.7455,34.8345],[-92.7506,34.8361],[-92.7533,34.8408],[-92.7563,34.8426],[-92.7673,34.8393],[-92.7714,34.8425],[-92.7805,34.8397],[-92.7838,34.8399],[-92.7904,34.8443],[-92.7985,34.8475],[-92.7999,34.8513],[-92.8029,34.8516],[-92.8093,34.8471],[-92.823,34.8493],[-92.8285,34.8524],[-92.8298,34.8553],[-92.9694,34.8591],[-93.074,34.8582],[-93.0751,34.8013],[-93.0752,34.7719],[-93.27,34.772],[-93.2878,34.7732],[-93.2883,34.8609],[-93.3059,34.861],[-93.3057,34.8755],[-93.2883,34.8753],[-93.2882,34.8889],[-93.2707,34.8891],[-93.2704,34.9037],[-93.2526,34.9038],[-93.2523,34.9182],[-93.235,34.9181],[-93.2351,34.9326],[-93.2175,34.9327],[-93.2173,34.9478],[-93.2005,34.9476],[-93.2,34.9623],[-93.1817,34.9619],[-93.1814,34.9763],[-93.1602,34.976],[-93.1602,34.9905],[-93.1422,34.9902],[-93.1418,35.0046],[-93.1241,35.0041],[-93.1237,35.0186],[-93.1059,35.0181],[-93.1056,35.0343],[-93.0873,35.0339],[-93.0872,35.0483],[-93.0694,35.0481],[-93.0692,35.0626],[-93.0515,35.0624],[-93.0513,35.0768],[-93.0335,35.0769],[-93.0174,35.076],[-92.9625,35.0752],[-92.9623,35.0757],[-92.9094,35.0746],[-92.8654,35.074],[-92.8215,35.073],[-92.7506,35.0724],[-92.7189,35.0719],[-92.7163,35.0745],[-92.7094,35.0722],[-92.6969,35.0734],[-92.6784,35.0773],[-92.6746,35.0798],[-92.6613,35.0928],[-92.6564,35.1006],[-92.6534,35.1038],[-92.6448,35.1104],[-92.6339,35.1149],[-92.6296,35.1148],[-92.6251,35.1124],[-92.6214,35.1088],[-92.6206,35.0997],[-92.6223,35.0959],[-92.6302,35.0904],[-92.643,35.0858],[-92.6476,35.0824],[-92.6483,35.0773],[-92.6395,35.0753],[-92.6269,35.0766],[-92.6124,35.0796],[-92.6025,35.0828],[-92.5957,35.0871],[-92.5909,35.0919],[-92.5837,35.1024],[-92.5799,35.1067],[-92.5734,35.1122],[-92.566,35.1149],[-92.5603,35.1151],[-92.5544,35.1134],[-92.5503,35.1103]]]}}]}