{"type":"FeatureCollection","features":[{"type":"Feature","properties":{"id":"48257","name":"Kaufman Co."},"geometry":{"type":"Polygon","coordinates":[[[-96.4904,32.8133],[-96.4646,32.8134],[-96.3851,32.8142],[-96.3699,32.8139],[-96.2974,32.8142],[-96.2973,32.8417],[-96.2506,32.8409],[-96.2275,32.8411],[-96.1677,32.8401],[-96.0768,32.8385],[-96.0766,32.8237],[-96.0759,32.6507],[-96.0759,32.591],[-96.0755,32.5069],[-96.076,32.5001],[-96.0758,32.3811],[-96.0759,32.3575],[-96.0979,32.3575],[-96.1956,32.3582],[-96.1969,32.3548],[-96.2074,32.3551],[-96.2315,32.3547],[-96.2497,32.355],[-96.2497,32.3587],[-96.3303,32.3588],[-96.4508,32.3586],[-96.4524,32.3587],[-96.4545,32.3611],[-96.45,32.3645],[-96.4537,32.3682],[-96.4522,32.3708],[-96.4486,32.3665],[-96.4439,32.3707],[-96.4474,32.3727],[-96.4486,32.376],[-96.4461,32.375],[-96.4444,32.3784],[-96.4374,32.3786],[-96.4389,32.3825],[-96.4356,32.3867],[-96.4383,32.3881],[-96.4345,32.3892],[-96.4373,32.3934],[-96.4398,32.4001],[-96.4368,32.4037],[-96.4377,32.4075],[-96.4352,32.409],[-96.435,32.4118],[-96.4383,32.4122],[-96.4413,32.4165],[-96.4493,32.4221],[-96.4507,32.4246],[-96.4571,32.4244],[-96.4629,32.4267],[-96.4706,32.4316],[-96.477,32.4341],[-96.4842,32.4441],[-96.4832,32.4464],[-96.4843,32.4515],[-96.4879,32.4511],[-96.4931,32.4531],[-96.4974,32.4531],[-96.4973,32.4549],[-96.4937,32.4563],[-96.4949,32.4599],[-96.4928,32.4651],[-96.4935,32.467],[-96.5017,32.4706],[-96.5042,32.4772],[-96.509,32.4806],[-96.51,32.4835],[-96.5062,32.4864],[-96.5023,32.4874],[-96.5026,32.4898],[-96.5087,32.4919],[-96.5087,32.4947],[-96.5055,32.4981],[-96.5038,32.4942],[-96.5006,32.4947],[-96.501,32.497],[-96.5054,32.5022],[-96.5089,32.5016],[-96.5111,32.5088],[-96.5133,32.5121],[-96.5094,32.5112],[-96.5065,32.5132],[-96.504,32.5116],[-96.5015,32.5127],[-96.5034,32.5153],[-96.5071,32.5164],[-96.5051,32.518],[-96.5033,32.5266],[-96.5058,32.5251],[-96.5094,32.5265],[-96.5104,32.5303],[-96.5078,32.5332],[-96.5141,32.5364],[-96.5153,32.5322],[-96.5191,32.5315],[-96.5205,32.5354],[-96.524,32.5366],[-96.5235,32.5404],[-96.5292,32.5404],[-96.5297,32.5453],[-96.5231,32.5452],[-96.5216,32.6449],[-96.5206,32.6842],[-96.5207,32.7002],[-96.5196,32.7545],[-96.5193,32.7896],[-96.519,32.8136],[-96.4904,32.8133]]]}},{"type":"Feature","properties":{"id":"48085","name":"Collin Co."},"geometry":{"type":"Polygon","coordinates":[[[-96.7919,33.4045],[-96.7695,33.4038],[-96.6538,33.4013],[-96.6101,33.4005],[-96.5827,33.4003],[-96.5528,33.3996],[-96.4456,33.3988],[-96.4247,33.3982],[-96.3948,33.3983],[-96.3846,33.3978],[-96.3845,33.3411],[-96.3319,33.3474],[-96.2954,33.3519],[-96.2952,33.2699],[-96.2953,33.2083],[-96.2959,33.1403],[-96.2962,33.0754],[-96.2964,33.0648],[-96.2967,33.0048],[-96.2972,32.9818],[-96.3032,32.9816],[-96.3419,32.982],[-96.389,32.9822],[-96.397,32.9819],[-96.438,32.9821],[-96.4439,32.9824],[-96.517,32.9829],[-96.6134,32.9843],[-96.7113,32.9857],[-96.8441,32.9874],[-96.8423,33.0685],[-96.8417,33.0937],[-96.8413,33.119],[-96.8404,33.1525],[-96.8397,33.1964],[-96.8384,33.2305],[-96.8386,33.2319],[-96.8374,33.2771],[-96.8362,33.3219],[-96.836,33.3372],[-96.8341,33.4055],[-96.7919,33.4045]]]}},{"type":"Feature","properties":{"id":"48139","name":"Ellis Co."},"geometry":{"type":"Polygon","coordinates":[[[-97.0387,32.5487],[-96.956,32.5478],[-96.8739,32.5475],[-96.8394,32.5472],[-96.8394,32.5463],[-96.8248,32.5462],[-96.8247,32.5472],[-96.8053,32.5471],[-96.7425,32.5466],[-96.6934,32.5464],[-96.5297,32.5453],[-96.5292,32.5404],[-96.5235,32.5404],[-96.524,32.5366],[-96.5205,32.5354],[-96.5191,32.5315],[-96.5153,32.5322],[-96.5141,32.5364],[-96.5078,32.5332],[-96.5104,32.5303],[-96.5094,32.5265],[-96.5058,32.5251],[-96.5033,32.5266],[-96.5051,32.518],[-96.5071,32.5164],[-96.5034,32.5153],[-96.5015,32.5127],[-96.504,32.5116],[-96.5065,32.5132],[-96.5094,32.5112],[-96.5133,32.5121],[-96.5111,32.5088],[-96.5089,32.5016],[-96.5054,32.5022],[-96.501,32.497],[-96.5006,32.4947],[-96.5038,32.4942],[-96.5055,32.4981],[-96.5087,32.4947],[-96.5087,32.4919],[-96.5026,32.4898],[-96.5023,32.4874],[-96.5062,32.4864],[-96.51,32.4835],[-96.509,32.4806],[-96.5042,32.4772],[-96.5017,32.4706],[-96.4935,32.467],[-96.4928,32.4651],[-96.4949,32.4599],[-96.4937,32.4563],[-96.4973,32.4549],[-96.4974,32.4531],[-96.4931,32.4531],[-96.4879,32.4511],[-96.4843,32.4515],[-96.4832,32.4464],[-96.4842,32.4441],[-96.477,32.4341],[-96.4706,32.4316],[-96.4629,32.4267],[-96.4571,32.4244],[-96.4507,32.4246],[-96.4493,32.4221],[-96.4413,32.4165],[-96.4383,32.4122],[-96.435,32.4118],[-96.4352,32.409],[-96.4377,32.4075],[-96.4368,32.4037],[-96.4398,32.4001],[-96.4373,32.3934],[-96.4345,32.3892],[-96.4383,32.3881],[-96.4356,32.3867],[-96.4389,32.3825],[-96.4374,32.3786],[-96.4444,32.3784],[-96.4461,32.375],[-96.4486,32.376],[-96.4474,32.3727],[-96.4439,32.3707],[-96.4486,32.3665],[-96.4522,32.3708],[-96.4537,32.3682],[-96.45,32.3645],[-96.4545,32.3611],[-96.4524,32.3587],[-96.4537,32.3572],[-96.4484,32.3545],[-96.4493,32.351],[-96.4546,32.3523],[-96.452,32.3454],[-96.4363,32.3454],[-96.4369,32.3414],[-96.4305,32.3394],[-96.431,32.3334],[-96.4291,32.3322],[-96.4238,32.3353],[-96.42,32.3326],[-96.4204,32.3348],[-96.4175,32.3355],[-96.4157,32.3331],[-96.4121,32.3327],[-96.4081,32.3285],[-96.4004,32.3288],[-96.3908,32.3339],[-96.3852,32.332],[-96.3829,32.3289],[-96.3951,32.3236],[-96.4293,32.3057],[-96.5058,32.2671],[-96.5125,32.2635],[-96.5478,32.2459],[-96.6091,32.2149],[-96.6253,32.2066],[-96.7029,32.1691],[-96.7589,32.142],[-96.8708,32.0866],[-96.9407,32.0521],[-96.999,32.1369],[-97.0564,32.222],[-97.087,32.2668],[-97.0871,32.5493],[-97.0387,32.5487]]]}},{"type":"Feature","properties":{"id":"48397","name":"Rockwall Co."},"geometry":{"type":"Polygon","coordinates":[[[-96.4439,32.9824],[-96.438,32.9821],[-96.397,32.9819],[-96.389,32.9822],[-96.3419,32.982],[-96.3032,32.9816],[-96.2972,32.9818],[-96.2973,32.9139],[-96.2972,32.898],[-96.2973,32.8417],[-96.2974,32.8142],[-96.3699,32.8139],[-96.3851,32.8142],[-96.4646,32.8134],[-96.4904,32.8133],[-96.519,32.8136],[-96.5185,32.876],[-96.5179,32.9172],[-96.517,32.9639],[-96.517,32.9829],[-96.4439,32.9824]]]}},{"type":"Feature","properties":{"id":"48367","name":"Parker Co."},"geometry":{"type":"Polygon","coordinates":[[[-97.8623,33.0002],[-97.767,32.9981],[-97.6794,32.9964],[-97.5791,32.9951],[-97.5492,32.9949],[-97.5442,32.9942],[-97.5447,32.953],[-97.5467,32.8667],[-97.547,32.8637],[-97.5477,32.8219],[-97.5491,32.7027],[-97.5496,32.6811],[-97.55,32.6111],[-97.5502,32.6097],[-97.5506,32.5554],[-97.5849,32.5553],[-97.617,32.5555],[-97.7031,32.5565],[-97.7592,32.557],[-97.799,32.557],[-97.8753,32.5574],[-97.9193,32.5571],[-97.9978,32.5579],[-98.0003,32.5582],[-98.0668,32.5588],[-98.0649,32.6174],[-98.0616,32.7492],[-98.0618,32.7501],[-98.0595,32.8426],[-98.0572,32.9461],[-98.0561,33.0033],[-97.9216,33.0013],[-97.8623,33.0002]]]}},{"type":"Feature","properties":{"id":"48497","name":"Wise Co."},"geometry":{"type":"Polygon","coordinates":[[[-97.3839,33.4048],[-97.3843,33.4042],[-97.3858,33.3648],[-97.3857,33.3629],[-97.3881,33.3078],[-97.3883,33.295],[-97.3908,33.2461],[-97.3947,33.113],[-97.3979,33.0132],[-97.3985,32.9917],[-97.3985,32.9908],[-97.4148,32.992],[-97.4461,32.9922],[-97.4698,32.9931],[-97.515,32.994],[-97.5442,32.9942],[-97.5492,32.9949],[-97.5791,32.9951],[-97.6794,32.9964],[-97.767,32.9981],[-97.8623,33.0002],[-97.9216,33.0013],[-97.9204,33.0993],[-97.92,33.1439],[-97.9196,33.1725],[-97.9189,33.237],[-97.9191,33.3074],[-97.9188,33.3216],[-97.9181,33.4227],[-97.9182,33.4339],[-97.88,33.434],[-97.8399,33.4338],[-97.61,33.434],[-97.5021,33.4339],[-97.4871,33.4337],[-97.383,33.4329],[-97.3831,33.4305],[-97.3839,33.4048]]]}},{"type":"Feature","properties":{"id":"48231","name":"Hunt Co."},"geometry":{"type":"Polygon","coordinates":[[[-96.2967,33.0048],[-96.2964,33.0648],[-96.2962,33.0754],[-96.2959,33.1403],[-96.2953,33.2083],[-96.2952,33.2699],[-96.2954,33.3519],[-96.2519,33.3576],[-96.2284,33.3609],[-96.1573,33.3702],[-96.0121,33.3896],[-95.992,33.3921],[-95.8587,33.4095],[-95.8593,33.3585],[-95.8597,33.3532],[-95.8614,33.2786],[-95.8617,33.2281],[-95.8628,33.1295],[-95.863,33.0651],[-95.8633,33.0499],[-95.8631,32.9997],[-95.8625,32.9796],[-95.8718,32.9794],[-95.8982,32.9798],[-95.9453,32.9799],[-95.9725,32.9021],[-95.9745,32.8953],[-95.9774,32.8938],[-95.9768,32.8897],[-95.9781,32.8862],[-95.9829,32.8854],[-95.9828,32.8818],[-95.9861,32.8804],[-95.9873,32.8764],[-95.9866,32.8731],[-95.9742,32.8617],[-95.9711,32.8606],[-95.9686,32.856],[-95.9638,32.8541],[-95.9585,32.8505],[-95.9579,32.846],[-95.9559,32.8449],[-95.9501,32.8452],[-95.949,32.8424],[-95.9473,32.8448],[-95.9441,32.8452],[-95.9431,32.8413],[-95.9381,32.843],[-95.9349,32.8403],[-95.9344,32.8372],[-95.9789,32.8377],[-96.0768,32.8385],[-96.1677,32.8401],[-96.2275,32.8411],[-96.2506,32.8409],[-96.2973,32.8417],[-96.2972,32.898],[-96.2973,32.9139],[-96.2972,32.9818],[-96.2967,33.0048]]]}},{"type":"Feature","properties":{"id":"48121","name":"Denton Co."},"geometry":{"type":"Polygon","coordinates":[[[-97.3436,33.4291],[-97.2201,33.4251],[-97.1118,33.4221],[-97.0221,33.419],[-96.9381,33.4162],[-96.9193,33.415],[-96.8759,33.4135],[-96.8683,33.4139],[-96.8411,33.4134],[-96.8412,33.4056],[-96.8341,33.4055],[-96.836,33.3372],[-96.8362,33.3219],[-96.8374,33.2771],[-96.8386,33.2319],[-96.8384,33.2305],[-96.8397,33.1964],[-96.8404,33.1525],[-96.8413,33.119],[-96.8417,33.0937],[-96.8423,33.0685],[-96.8441,32.9874],[-96.9587,32.989],[-97.031,32.9897],[-97.1855,32.9907],[-97.321,32.9914],[-97.3985,32.9917],[-97.3979,33.0132],[-97.3947,33.113],[-97.3908,33.2461],[-97.3883,33.295],[-97.3881,33.3078],[-97.3857,33.3629],[-97.3858,33.3648],[-97.3843,33.4042],[-97.3839,33.4048],[-97.3831,33.4305],[-97.3436,33.4291]]]}},{"type":"Feature","properties":{"id":"48251","name":"Johnson Co."},"geometry":{"type":"Polygon","coordinates":[[[-97.5849,32.5553],[-97.5506,32.5554],[-97.5034,32.5554],[-97.4725,32.555],[-97.3991,32.5535],[-97.352,32.5533],[-97.3461,32.5529],[-97.2608,32.552],[-97.2056,32.5511],[-97.1863,32.5511],[-97.177,32.5506],[-97.1299,32.5498],[-97.0996,32.5498],[-97.0871,32.5493],[-97.087,32.2668],[-97.087,32.2653],[-97.1334,32.2547],[-97.1474,32.2523],[-97.1608,32.2504],[-97.378,32.2036],[-97.476,32.1817],[-97.4718,32.1755],[-97.4761,32.1735],[-97.4834,32.1724],[-97.489,32.1699],[-97.4945,32.1646],[-97.503,32.1628],[-97.5085,32.1634],[-97.5121,32.1614],[-97.5138,32.1556],[-97.5122,32.1467],[-97.5083,32.1406],[-97.5096,32.1361],[-97.5157,32.1338],[-97.5218,32.1348],[-97.5377,32.1405],[-97.5496,32.1475],[-97.5546,32.1496],[-97.5585,32.1492],[-97.5683,32.1502],[-97.5707,32.1539],[-97.565,32.1606],[-97.5648,32.1628],[-97.5681,32.1678],[-97.5677,32.175],[-97.5692,32.1776],[-97.5734,32.1803],[-97.5786,32.1808],[-97.5929,32.1744],[-97.5977,32.1741],[-97.6017,32.1757],[-97.6016,32.1799],[-97.5922,32.1848],[-97.5899,32.1885],[-97.5902,32.1951],[-97.5926,32.2],[-97.5998,32.2042],[-97.6151,32.2035],[-97.6157,32.3186],[-97.6152,32.3187],[-97.6153,32.347],[-97.6158,32.3995],[-97.6171,32.4711],[-97.6159,32.4905],[-97.6169,32.532],[-97.617,32.5555],[-97.5849,32.5553]]]}},{"type":"Feature","properties":{"id":"48113","name":"Dallas Co."},"geometry":{"type":"Polygon","coordinates":[[[-96.9587,32.989],[-96.8441,32.9874],[-96.7113,32.9857],[-96.6134,32.9843],[-96.517,32.9829],[-96.517,32.9639],[-96.5179,32.9172],[-96.5185,32.876],[-96.519,32.8136],[-96.5193,32.7896],[-96.5196,32.7545],[-96.5207,32.7002],[-96.5206,32.6842],[-96.5216,32.6449],[-96.5231,32.5452],[-96.5297,32.5453],[-96.6934,32.5464],[-96.7425,32.5466],[-96.8053,32.5471],[-96.8247,32.5472],[-96.8248,32.5462],[-96.8394,32.5463],[-96.8394,32.5472],[-96.8739,32.5475],[-96.956,32.5478],[-97.0387,32.5487],[-97.0355,32.7397],[-97.0349,32.7799],[-97.0331,32.8783],[-97.0314,32.9728],[-97.031,32.9897],[-96.9587,32.989]]]}},{"type":"Feature","properties":{"id":"48439","name":"Tarrant Co."},"geometry":{"type":"Polygon","coordinates":[[[-97.515,32.994],[-97.4698,32.9931],[-97.4461,32.9922],[-97.4148,32.992],[-97.3985,32.9908],[-97.3985,32.9917],[-97.321,32.9914],[-97.1855,32.9907],[-97.031,32.9897],[-97.0314,32.9728],[-97.0331,32.8783],[-97.0349,32.7799],[-97.0355,32.7397],[-97.0387,32.5487],[-97.0871,32.5493],[-97.0996,32.5498],[-97.1299,32.5498],[-97.177,32.5506],[-97.1863,32.5511],[-97.2056,32.5511],[-97.2608,32.552],[-97.3461,32.5529],[-97.352,32.5533],[-97.3991,32.5535],[-97.4725,32.555],[-97.5034,32.5554],[-97.5506,32.5554],[-97.5502,32.6097],[-97.55,32.6111],[-97.5496,32.6811],[-97.5491,32.7027],[-97.5477,32.8219],[-97.547,32.8637],[-97.5467,32.8667],[-97.5447,32.953],[-97.5442,32.9942],[-97.515,32.994]]]}}]}