{"type":"FeatureCollection","features":[{"type":"Feature","properties":{"id":"53053","name":"Pierce Co."},"geometry":{"type":"MultiPolygon","coordinates":[[[[-122.6359,47.164],[-122.6311,47.1677],[-122.6288,47.1579],[-122.6304,47.1535],[-122.6391,47.1463],[-122.6406,47.1494],[-122.6359,47.164]]],[[[-122.6638,47.2776],[-122.657,47.2752],[-122.6495,47.2752],[-122.6418,47.2703],[-122.6345,47.267],[-122.6281,47.2675],[-122.6271,47.2605],[-122.6216,47.2586],[-122.6073,47.2496],[-122.6019,47.2431],[-122.5889,47.2371],[-122.5905,47.2278],[-122.5983,47.2226],[-122.6025,47.2175],[-122.6083,47.2176],[-122.6142,47.2209],[-122.6222,47.229],[-122.6252,47.2347],[-122.6299,47.2371],[-122.6347,47.2434],[-122.6411,47.2466],[-122.6466,47.2536],[-122.6573,47.2627],[-122.6686,47.2704],[-122.6703,47.2736],[-122.6696,47.2765],[-122.6638,47.2776]]],[[[-122.3474,47.2716],[-122.3348,47.2631],[-122.3349,47.2576],[-122.3313,47.2574],[-122.2912,47.2572],[-122.2298,47.2576],[-122.1868,47.2573],[-122.1745,47.2575],[-122.144,47.2575],[-122.1368,47.2545],[-122.1383,47.2506],[-122.1376,47.2468],[-122.1343,47.244],[-122.1238,47.2399],[-122.1224,47.238],[-122.1255,47.2323],[-122.1205,47.2308],[-122.1159,47.2313],[-122.1149,47.229],[-122.1176,47.2266],[-122.1132,47.2238],[-122.1157,47.2208],[-122.1139,47.2187],[-122.1159,47.2162],[-122.1114,47.213],[-122.1005,47.2],[-122.0973,47.1997],[-122.0939,47.1967],[-122.095,47.1952],[-122.0878,47.1941],[-122.0782,47.1892],[-122.0687,47.1879],[-122.0634,47.1859],[-122.0584,47.1799],[-122.0556,47.1791],[-122.0537,47.1757],[-122.0481,47.1714],[-122.0358,47.173],[-122.0319,47.175],[-122.0223,47.174],[-122.0127,47.176],[-122.0067,47.1729],[-122.0068,47.171],[-122.0006,47.1702],[-121.9939,47.1726],[-121.9938,47.1683],[-121.9914,47.1632],[-121.9885,47.163],[-121.981,47.1646],[-121.9732,47.1607],[-121.97,47.1565],[-121.9647,47.156],[-121.9587,47.1572],[-121.9521,47.1545],[-121.9499,47.151],[-121.9506,47.1456],[-121.9435,47.14],[-121.9349,47.1382],[-121.9314,47.1401],[-121.9309,47.1427],[-121.9279,47.1448],[-121.9279,47.1477],[-121.9179,47.1503],[-121.9084,47.151],[-121.9015,47.1557],[-121.8929,47.1549],[-121.8862,47.1529],[-121.878,47.1538],[-121.8741,47.1507],[-121.8665,47.1526],[-121.8608,47.1507],[-121.8611,47.1475],[-121.849,47.1471],[-121.8461,47.1444],[-121.8391,47.1435],[-121.832,47.1482],[-121.832,47.1514],[-121.8271,47.1527],[-121.8193,47.1588],[-121.8144,47.159],[-121.8104,47.1639],[-121.8064,47.1653],[-121.8033,47.1692],[-121.7994,47.1698],[-121.7958,47.1732],[-121.7827,47.1723],[-121.7773,47.1733],[-121.7779,47.171],[-121.7739,47.1668],[-121.7698,47.1654],[-121.7617,47.1673],[-121.7495,47.1621],[-121.7439,47.1647],[-121.7386,47.1607],[-121.7292,47.1581],[-121.7199,47.1513],[-121.7051,47.152],[-121.6971,47.1515],[-121.6882,47.1496],[-121.6842,47.1498],[-121.6817,47.1519],[-121.675,47.1549],[-121.6687,47.1559],[-121.6645,47.1596],[-121.6558,47.1586],[-121.6487,47.155],[-121.6438,47.1556],[-121.6376,47.1533],[-121.631,47.1535],[-121.6208,47.1494],[-121.6175,47.1467],[-121.6176,47.1447],[-121.6115,47.143],[-121.6096,47.1384],[-121.6009,47.1315],[-121.5945,47.1222],[-121.582,47.1187],[-121.576,47.1202],[-121.5708,47.1193],[-121.5599,47.1196],[-121.5545,47.1223],[-121.5433,47.1232],[-121.5354,47.1226],[-121.5315,47.1246],[-121.5248,47.1241],[-121.5159,47.1216],[-121.5125,47.123],[-121.509,47.1223],[-121.5067,47.1187],[-121.4996,47.1183],[-121.4977,47.1166],[-121.4906,47.1168],[-121.4863,47.1124],[-121.4811,47.1109],[-121.4782,47.1082],[-121.4758,47.1033],[-121.4661,47.0961],[-121.4586,47.0927],[-121.4547,47.0894],[-121.4499,47.0884],[-121.4471,47.086],[-121.4418,47.0844],[-121.4282,47.0873],[-121.4174,47.0884],[-121.412,47.0907],[-121.4068,47.0886],[-121.3923,47.0889],[-121.3866,47.0873],[-121.3823,47.0882],[-121.38,47.0872],[-121.3833,47.0848],[-121.3789,47.0756],[-121.3754,47.0733],[-121.3753,47.0671],[-121.3766,47.0615],[-121.3741,47.057],[-121.3793,47.0539],[-121.3811,47.0504],[-121.3859,47.0492],[-121.3863,47.0461],[-121.3926,47.041],[-121.3998,47.0335],[-121.3966,47.0289],[-121.3971,47.0263],[-121.3947,47.0233],[-121.3961,47.0194],[-121.4062,47.0122],[-121.4062,47.009],[-121.4096,47.0036],[-121.4065,46.9987],[-121.4091,46.9952],[-121.4135,46.9952],[-121.4193,46.9919],[-121.4209,46.9886],[-121.427,46.9881],[-121.4336,46.9848],[-121.4381,46.984],[-121.4463,46.9797],[-121.4438,46.9747],[-121.4419,46.9735],[-121.4551,46.9648],[-121.4576,46.9642],[-121.4584,46.9603],[-121.4532,46.957],[-121.4532,46.9516],[-121.4503,46.9483],[-121.4524,46.9453],[-121.4522,46.9413],[-121.4495,46.9344],[-121.4547,46.929],[-121.457,46.928],[-121.4568,46.9231],[-121.4659,46.9202],[-121.4754,46.9133],[-121.485,46.9128],[-121.4917,46.9091],[-121.497,46.9083],[-121.5028,46.9013],[-121.5104,46.8966],[-121.5142,46.891],[-121.5133,46.8848],[-121.5203,46.8792],[-121.5231,46.8728],[-121.5152,46.871],[-121.5075,46.8648],[-121.4973,46.8629],[-121.4955,46.8549],[-121.4909,46.8478],[-121.4854,46.841],[-121.4842,46.8343],[-121.4747,46.8314],[-121.4702,46.8264],[-121.4713,46.8219],[-121.4744,46.8204],[-121.4607,46.812],[-121.457,46.8107],[-121.4582,46.8078],[-121.455,46.8021],[-121.4506,46.8006],[-121.4493,46.7975],[-121.4425,46.793],[-121.4485,46.7919],[-121.4538,46.7882],[-121.4552,46.7838],[-121.7588,46.7836],[-121.7668,46.7805],[-121.7731,46.7771],[-121.7764,46.7766],[-121.7877,46.7698],[-121.7906,46.7642],[-121.7994,46.761],[-121.8054,46.7561],[-121.8042,46.7511],[-121.8099,46.7478],[-121.8174,46.7473],[-121.8207,46.7449],[-121.8259,46.738],[-121.8298,46.7352],[-121.8333,46.7296],[-121.8451,46.7284],[-121.8544,46.7304],[-121.855,46.7292],[-121.8674,46.7291],[-121.8808,46.7326],[-121.8893,46.7329],[-121.9059,46.7379],[-121.9123,46.7369],[-121.9182,46.739],[-121.9255,46.7388],[-121.9315,46.7407],[-121.9392,46.7481],[-121.9468,46.7505],[-121.9468,46.7527],[-121.9571,46.755],[-121.9622,46.754],[-121.964,46.7502],[-121.9695,46.7494],[-121.974,46.7458],[-121.9792,46.7443],[-121.9845,46.7443],[-121.9875,46.7467],[-121.9948,46.7486],[-121.9942,46.7513],[-121.9997,46.7508],[-122.0025,46.7533],[-122.0081,46.7526],[-122.0124,46.7482],[-122.0175,46.7472],[-122.0199,46.7439],[-122.0233,46.7423],[-122.0286,46.7436],[-122.0359,46.7436],[-122.0413,46.7425],[-122.0503,46.7466],[-122.0573,46.7472],[-122.0603,46.7492],[-122.0649,46.7469],[-122.075,46.7506],[-122.0823,46.7522],[-122.0918,46.752],[-122.0967,46.75],[-122.1004,46.7511],[-122.1156,46.7489],[-122.129,46.7547],[-122.1355,46.7526],[-122.1391,46.7547],[-122.1457,46.7542],[-122.1475,46.7528],[-122.1515,46.7541],[-122.1573,46.7538],[-122.1598,46.7564],[-122.1646,46.7575],[-122.1687,46.7555],[-122.1748,46.7563],[-122.1779,46.7552],[-122.1854,46.7582],[-122.1928,46.7623],[-122.2002,46.7608],[-122.2034,46.7638],[-122.208,46.7655],[-122.2113,46.7702],[-122.2159,46.7687],[-122.2227,46.7701],[-122.2265,46.7688],[-122.2306,46.7723],[-122.2361,46.7729],[-122.2406,46.7759],[-122.2478,46.7751],[-122.25,46.7718],[-122.2568,46.7726],[-122.261,46.7713],[-122.2625,46.7652],[-122.2696,46.7668],[-122.2778,46.775],[-122.2809,46.7762],[-122.2847,46.7737],[-122.2887,46.7782],[-122.293,46.7805],[-122.2967,46.7856],[-122.3006,46.786],[-122.3033,46.7885],[-122.3085,46.7892],[-122.3125,46.796],[-122.3103,46.8009],[-122.3063,46.8063],[-122.3025,46.809],[-122.3042,46.8152],[-122.3036,46.8281],[-122.3101,46.8299],[-122.3186,46.8284],[-122.3251,46.8305],[-122.3239,46.8344],[-122.3294,46.8389],[-122.3256,46.8414],[-122.3277,46.8443],[-122.3341,46.8421],[-122.3383,46.838],[-122.3442,46.8371],[-122.356,46.839],[-122.3604,46.8433],[-122.3641,46.8417],[-122.3712,46.8454],[-122.3749,46.8437],[-122.3785,46.8394],[-122.383,46.84],[-122.3907,46.8457],[-122.4017,46.844],[-122.406,46.8425],[-122.4095,46.8435],[-122.4078,46.8456],[-122.4166,46.8453],[-122.417,46.8479],[-122.4228,46.8487],[-122.4264,46.8506],[-122.4324,46.85],[-122.4438,46.853],[-122.446,46.8562],[-122.4498,46.8553],[-122.4517,46.8526],[-122.4589,46.8591],[-122.4581,46.8636],[-122.4666,46.866],[-122.4738,46.862],[-122.4762,46.8658],[-122.4855,46.8681],[-122.4909,46.8675],[-122.4914,46.875],[-122.4879,46.8789],[-122.4936,46.88],[-122.4911,46.8851],[-122.4973,46.8972],[-122.496,46.9038],[-122.4941,46.9048],[-122.4978,46.9088],[-122.5061,46.9134],[-122.5118,46.9153],[-122.5206,46.9156],[-122.5257,46.9201],[-122.5279,46.925],[-122.5466,46.9308],[-122.5569,46.932],[-122.5635,46.9356],[-122.5662,46.9398],[-122.5668,46.9476],[-122.5688,46.9496],[-122.5719,46.9611],[-122.5631,46.9644],[-122.566,46.9668],[-122.5732,46.9644],[-122.5754,46.967],[-122.5824,46.9682],[-122.585,46.966],[-122.5872,46.9668],[-122.587,46.9706],[-122.5846,46.9715],[-122.5769,46.9704],[-122.5754,46.9716],[-122.5778,46.9759],[-122.5816,46.9772],[-122.5845,46.9743],[-122.596,46.974],[-122.6012,46.9761],[-122.611,46.9767],[-122.6105,46.9715],[-122.6116,46.9672],[-122.6185,46.9702],[-122.6291,46.9715],[-122.6374,46.9771],[-122.6386,46.9791],[-122.6367,46.9831],[-122.6315,46.9881],[-122.6303,46.9983],[-122.6328,46.9992],[-122.6381,46.9982],[-122.6392,47.0014],[-122.6464,47.0039],[-122.6487,47.0065],[-122.652,47.0074],[-122.657,47.003],[-122.6599,47.0032],[-122.657,47.0061],[-122.6588,47.0095],[-122.6649,47.0118],[-122.6666,47.0136],[-122.6716,47.0149],[-122.6744,47.0191],[-122.6726,47.0236],[-122.6799,47.0282],[-122.6795,47.0328],[-122.6755,47.0372],[-122.6773,47.0433],[-122.6857,47.0516],[-122.6932,47.0533],[-122.6899,47.0574],[-122.6956,47.0594],[-122.6961,47.0618],[-122.7033,47.065],[-122.7006,47.0678],[-122.7081,47.0776],[-122.7058,47.0827],[-122.7075,47.0853],[-122.6972,47.0896],[-122.697,47.0943],[-122.693,47.0964],[-122.6927,47.1013],[-122.69,47.1009],[-122.6872,47.0973],[-122.6847,47.097],[-122.6765,47.1021],[-122.6749,47.1066],[-122.6697,47.1146],[-122.658,47.1272],[-122.6506,47.1327],[-122.6451,47.1351],[-122.6362,47.1356],[-122.6328,47.139],[-122.6262,47.1419],[-122.6219,47.1479],[-122.6169,47.1569],[-122.6157,47.1643],[-122.6138,47.1696],[-122.6043,47.1721],[-122.597,47.1753],[-122.5929,47.1758],[-122.5848,47.1875],[-122.5827,47.1925],[-122.584,47.1996],[-122.5805,47.2104],[-122.5722,47.2183],[-122.5672,47.2218],[-122.5649,47.2272],[-122.5647,47.2346],[-122.5634,47.2365],[-122.5639,47.2435],[-122.5623,47.2452],[-122.5563,47.2444],[-122.5523,47.2483],[-122.5535,47.2519],[-122.5523,47.2543],[-122.5444,47.2641],[-122.533,47.2764],[-122.5297,47.2833],[-122.5289,47.2931],[-122.5368,47.3044],[-122.5477,47.3164],[-122.5474,47.3177],[-122.5413,47.3189],[-122.5333,47.3166],[-122.5197,47.308],[-122.515,47.3061],[-122.5124,47.3075],[-122.5078,47.3056],[-122.507,47.3028],[-122.4993,47.2966],[-122.4993,47.2949],[-122.4902,47.2891],[-122.4867,47.2857],[-122.4798,47.2825],[-122.4717,47.2773],[-122.4611,47.2754],[-122.4531,47.2724],[-122.4442,47.2667],[-122.4403,47.262],[-122.4332,47.2635],[-122.4296,47.2685],[-122.4261,47.2704],[-122.4213,47.2702],[-122.4185,47.2759],[-122.4118,47.2825],[-122.4138,47.285],[-122.4092,47.2886],[-122.4137,47.2939],[-122.4242,47.2975],[-122.4325,47.297],[-122.4446,47.3004],[-122.4444,47.3061],[-122.4346,47.3075],[-122.433,47.3101],[-122.43,47.3197],[-122.4235,47.3191],[-122.4179,47.3203],[-122.3474,47.2716]]],[[[-122.7197,47.211],[-122.7167,47.2168],[-122.7072,47.2248],[-122.7046,47.231],[-122.6918,47.2312],[-122.6852,47.2324],[-122.6799,47.2312],[-122.6761,47.2261],[-122.6675,47.2234],[-122.6687,47.2158],[-122.662,47.2142],[-122.6625,47.2174],[-122.6596,47.2193],[-122.6487,47.2156],[-122.6418,47.205],[-122.6424,47.2008],[-122.6478,47.1973],[-122.6573,47.1935],[-122.6777,47.1911],[-122.6927,47.193],[-122.6967,47.1961],[-122.7019,47.1979],[-122.7153,47.199],[-122.7221,47.2015],[-122.7269,47.2044],[-122.7269,47.2074],[-122.7197,47.211]]],[[[-122.7324,47.1593],[-122.7272,47.1607],[-122.7298,47.1636],[-122.7298,47.1669],[-122.7239,47.1765],[-122.7176,47.1791],[-122.7108,47.1854],[-122.7067,47.1874],[-122.6958,47.189],[-122.6926,47.1843],[-122.6817,47.1812],[-122.6739,47.1747],[-122.6741,47.1678],[-122.6734,47.1499],[-122.6772,47.1484],[-122.6775,47.145],[-122.6755,47.142],[-122.6842,47.1399],[-122.6884,47.1434],[-122.6948,47.1438],[-122.697,47.1357],[-122.693,47.1307],[-122.6947,47.1259],[-122.7024,47.1239],[-122.712,47.1277],[-122.7222,47.1371],[-122.7298,47.1407],[-122.7333,47.146],[-122.7429,47.1515],[-122.7417,47.155],[-122.7324,47.1593]]],[[[-122.8282,47.2517],[-122.8153,47.2751],[-122.8114,47.2762],[-122.8034,47.2839],[-122.7956,47.2886],[-122.7871,47.2997],[-122.7885,47.3058],[-122.7933,47.3076],[-122.7926,47.3104],[-122.7949,47.3192],[-122.789,47.3384],[-122.7802,47.3387],[-122.7786,47.3379],[-122.77,47.3391],[-122.7708,47.3413],[-122.7801,47.3417],[-122.7953,47.3462],[-122.7968,47.3483],[-122.7953,47.3506],[-122.7913,47.3518],[-122.7913,47.3556],[-122.7862,47.358],[-122.7892,47.3615],[-122.7974,47.3607],[-122.8011,47.3586],[-122.8013,47.3888],[-122.8012,47.4036],[-122.7191,47.4033],[-122.695,47.4035],[-122.6531,47.4031],[-122.6271,47.4035],[-122.5889,47.4037],[-122.5509,47.4034],[-122.5523,47.3946],[-122.5513,47.3896],[-122.5468,47.3833],[-122.5416,47.3804],[-122.5385,47.3759],[-122.544,47.3681],[-122.5482,47.3658],[-122.5515,47.3595],[-122.5558,47.3475],[-122.568,47.3344],[-122.5713,47.3272],[-122.576,47.3264],[-122.5737,47.3184],[-122.5712,47.3156],[-122.5663,47.3065],[-122.5556,47.297],[-122.5501,47.2905],[-122.5475,47.2853],[-122.5506,47.2801],[-122.5579,47.2723],[-122.5656,47.2654],[-122.5782,47.2559],[-122.5858,47.2539],[-122.5911,47.2562],[-122.5962,47.2606],[-122.6001,47.2624],[-122.5989,47.2669],[-122.5943,47.269],[-122.5924,47.272],[-122.6003,47.272],[-122.6143,47.2696],[-122.6191,47.2707],[-122.6307,47.2772],[-122.6376,47.2777],[-122.6485,47.2799],[-122.6545,47.2827],[-122.6599,47.2823],[-122.6713,47.2862],[-122.6785,47.2859],[-122.6809,47.2801],[-122.6863,47.2794],[-122.6958,47.2814],[-122.6974,47.284],[-122.6912,47.2981],[-122.6867,47.2994],[-122.6842,47.3031],[-122.6902,47.3074],[-122.6894,47.3101],[-122.6842,47.3141],[-122.6806,47.3184],[-122.6782,47.3233],[-122.6795,47.3278],[-122.678,47.3315],[-122.6751,47.3329],[-122.6697,47.3325],[-122.6661,47.3336],[-122.6606,47.33],[-122.6585,47.3331],[-122.6616,47.3371],[-122.6664,47.3379],[-122.6713,47.3413],[-122.6713,47.3438],[-122.6671,47.3455],[-122.6599,47.3526],[-122.6566,47.3528],[-122.6485,47.3586],[-122.6417,47.3605],[-122.6381,47.3626],[-122.6366,47.3663],[-122.6331,47.37],[-122.629,47.3722],[-122.6262,47.3756],[-122.6278,47.3824],[-122.6364,47.3808],[-122.6502,47.3746],[-122.6592,47.3719],[-122.6659,47.3713],[-122.669,47.3685],[-122.6839,47.3652],[-122.687,47.3611],[-122.6946,47.3541],[-122.7067,47.3497],[-122.711,47.3443],[-122.7192,47.3421],[-122.7256,47.3383],[-122.7296,47.3387],[-122.7302,47.3333],[-122.728,47.3288],[-122.7333,47.3178],[-122.7425,47.308],[-122.7481,47.296],[-122.752,47.2906],[-122.7523,47.2808],[-122.7574,47.2767],[-122.7574,47.274],[-122.7526,47.2722],[-122.7491,47.2738],[-122.7465,47.2725],[-122.75,47.2669],[-122.7495,47.2596],[-122.746,47.2604],[-122.7412,47.2661],[-122.735,47.2659],[-122.7379,47.2612],[-122.7379,47.2554],[-122.7339,47.2501],[-122.7248,47.2488],[-122.7213,47.2517],[-122.7184,47.2515],[-122.717,47.248],[-122.7222,47.2446],[-122.7229,47.2373],[-122.7248,47.2359],[-122.722,47.2291],[-122.7189,47.2265],[-122.7198,47.2209],[-122.7279,47.2154],[-122.7369,47.2104],[-122.7374,47.2082],[-122.741,47.2062],[-122.7457,47.2065],[-122.7481,47.2109],[-122.7486,47.2197],[-122.7552,47.2097],[-122.7524,47.2081],[-122.7498,47.1992],[-122.7405,47.2002],[-122.7385,47.1992],[-122.7472,47.1892],[-122.7462,47.1855],[-122.7474,47.181],[-122.7441,47.1786],[-122.7512,47.1755],[-122.7522,47.1724],[-122.7638,47.1661],[-122.7716,47.1671],[-122.775,47.1724],[-122.7755,47.1766],[-122.779,47.1854],[-122.7842,47.1852],[-122.7897,47.1876],[-122.7975,47.1994],[-122.8065,47.2106],[-122.8075,47.2172],[-122.8073,47.2222],[-122.8106,47.2257],[-122.8187,47.2278],[-122.8239,47.231],[-122.8277,47.2388],[-122.8328,47.2434],[-122.8287,47.2482],[-122.8282,47.2517]]],[[[-122.8414,47.2643],[-122.8401,47.2681],[-122.8355,47.2699],[-122.8323,47.2729],[-122.8253,47.2705],[-122.8322,47.2618],[-122.8341,47.2568],[-122.8381,47.2553],[-122.8419,47.2577],[-122.8403,47.2603],[-122.8414,47.2643]]]]}},{"type":"Feature","properties":{"id":"53033","name":"King Co."},"geometry":{"type":"MultiPolygon","coordinates":[[[[-122.3353,47.7778],[-122.271,47.7771],[-122.2494,47.777],[-122.207,47.7765],[-122.0995,47.7759],[-122.087,47.7761],[-122.0547,47.7757],[-122.0339,47.7757],[-121.9918,47.7753],[-121.9678,47.7762],[-121.923,47.777],[-121.8619,47.7773],[-121.8514,47.7769],[-121.8407,47.7774],[-121.8192,47.777],[-121.7555,47.7771],[-121.7445,47.7778],[-121.7132,47.7771],[-121.6668,47.7772],[-121.5845,47.7771],[-121.5405,47.7778],[-121.4999,47.7778],[-121.4555,47.7784],[-121.4555,47.7806],[-121.1957,47.7791],[-121.1956,47.7801],[-121.1192,47.7799],[-121.1195,47.7758],[-121.1139,47.7702],[-121.1077,47.7667],[-121.1105,47.7616],[-121.1109,47.7584],[-121.1065,47.7568],[-121.101,47.7573],[-121.0992,47.759],[-121.094,47.7582],[-121.0897,47.7461],[-121.0828,47.7434],[-121.079,47.7392],[-121.0818,47.7342],[-121.0849,47.7323],[-121.0874,47.7285],[-121.0836,47.7227],[-121.0783,47.72],[-121.0696,47.7177],[-121.066,47.7136],[-121.0671,47.7063],[-121.069,47.7062],[-121.0794,47.702],[-121.0883,47.7031],[-121.0914,47.7013],[-121.0911,47.6987],[-121.0941,47.6954],[-121.1055,47.6888],[-121.1092,47.6888],[-121.1216,47.6852],[-121.1237,47.6802],[-121.1288,47.6762],[-121.1293,47.6733],[-121.1232,47.6633],[-121.1256,47.6572],[-121.1319,47.6557],[-121.131,47.6542],[-121.1337,47.6456],[-121.1313,47.6445],[-121.1266,47.6384],[-121.1278,47.6324],[-121.1246,47.6273],[-121.1188,47.627],[-121.1137,47.6216],[-121.1137,47.618],[-121.1199,47.6157],[-121.1201,47.6116],[-121.1156,47.6042],[-121.1132,47.6035],[-121.1111,47.5998],[-121.1136,47.5973],[-121.1158,47.5979],[-121.1185,47.5957],[-121.1201,47.5913],[-121.1297,47.5933],[-121.1343,47.5954],[-121.139,47.5954],[-121.1416,47.5921],[-121.1483,47.5937],[-121.151,47.5954],[-121.1557,47.5938],[-121.1639,47.5926],[-121.1722,47.5901],[-121.1708,47.586],[-121.173,47.5834],[-121.1699,47.5792],[-121.1724,47.5737],[-121.1769,47.5697],[-121.1766,47.5669],[-121.1822,47.5652],[-121.1883,47.5687],[-121.1946,47.5661],[-121.2086,47.566],[-121.2129,47.5688],[-121.217,47.5698],[-121.2289,47.5656],[-121.2331,47.5604],[-121.2339,47.5563],[-121.2334,47.5506],[-121.2356,47.5481],[-121.2354,47.5446],[-121.2433,47.543],[-121.2429,47.5359],[-121.2455,47.5357],[-121.2516,47.532],[-121.2548,47.5339],[-121.2571,47.5291],[-121.2634,47.5234],[-121.2789,47.523],[-121.2855,47.517],[-121.2833,47.5151],[-121.2874,47.5131],[-121.2919,47.5136],[-121.2886,47.5087],[-121.2925,47.5018],[-121.2966,47.4999],[-121.3004,47.4958],[-121.3031,47.486],[-121.3111,47.483],[-121.3115,47.4796],[-121.3141,47.4779],[-121.3164,47.4797],[-121.3246,47.4794],[-121.332,47.4737],[-121.3387,47.4764],[-121.3415,47.4747],[-121.3435,47.4704],[-121.348,47.4653],[-121.3515,47.4645],[-121.3589,47.4654],[-121.364,47.4647],[-121.3707,47.4604],[-121.3749,47.4564],[-121.3791,47.4544],[-121.379,47.4507],[-121.3853,47.4449],[-121.3815,47.4387],[-121.3851,47.4345],[-121.3932,47.4336],[-121.3966,47.432],[-121.4005,47.4322],[-121.4083,47.4281],[-121.4113,47.4231],[-121.4147,47.4218],[-121.4224,47.4223],[-121.4274,47.4206],[-121.4284,47.4164],[-121.4245,47.4159],[-121.4223,47.4127],[-121.4231,47.4056],[-121.4276,47.4025],[-121.4299,47.4034],[-121.4336,47.399],[-121.4275,47.3959],[-121.4262,47.3896],[-121.4298,47.3871],[-121.4405,47.3858],[-121.4414,47.3803],[-121.4401,47.3749],[-121.4378,47.372],[-121.445,47.3738],[-121.454,47.3718],[-121.4593,47.3731],[-121.464,47.3706],[-121.4659,47.3666],[-121.4615,47.3591],[-121.4642,47.3544],[-121.4562,47.3497],[-121.4498,47.348],[-121.4447,47.3438],[-121.4387,47.3438],[-121.4304,47.3341],[-121.4317,47.3297],[-121.4359,47.3287],[-121.44,47.322],[-121.4384,47.3177],[-121.445,47.3109],[-121.4444,47.3082],[-121.4359,47.3068],[-121.433,47.3051],[-121.4307,47.2963],[-121.4328,47.2942],[-121.4275,47.2891],[-121.4192,47.287],[-121.4192,47.2904],[-121.415,47.2932],[-121.4117,47.2899],[-121.4035,47.2885],[-121.3939,47.2887],[-121.3908,47.2861],[-121.3848,47.2851],[-121.3787,47.2863],[-121.3732,47.285],[-121.3693,47.2866],[-121.3708,47.2883],[-121.3671,47.2909],[-121.3616,47.2919],[-121.3605,47.2863],[-121.354,47.2838],[-121.3437,47.2826],[-121.3412,47.2813],[-121.341,47.2777],[-121.3384,47.276],[-121.3392,47.2736],[-121.3358,47.2606],[-121.3321,47.2589],[-121.3342,47.2541],[-121.3378,47.2525],[-121.3398,47.2472],[-121.3454,47.2467],[-121.3519,47.2426],[-121.3607,47.2405],[-121.3584,47.2344],[-121.3656,47.2269],[-121.3651,47.2246],[-121.3558,47.2221],[-121.3462,47.2187],[-121.3379,47.2182],[-121.3352,47.2192],[-121.325,47.2159],[-121.3211,47.2129],[-121.3176,47.2121],[-121.313,47.2081],[-121.3091,47.2028],[-121.3116,47.1995],[-121.3065,47.1928],[-121.3063,47.1877],[-121.31,47.1853],[-121.3126,47.1787],[-121.3178,47.1741],[-121.3134,47.1658],[-121.3103,47.1632],[-121.306,47.162],[-121.3019,47.1561],[-121.2978,47.1489],[-121.3014,47.1448],[-121.3034,47.1389],[-121.3155,47.1338],[-121.3206,47.1353],[-121.3274,47.1334],[-121.3349,47.1327],[-121.3379,47.135],[-121.3448,47.1372],[-121.3496,47.1375],[-121.3539,47.1405],[-121.3578,47.14],[-121.3647,47.1418],[-121.3735,47.1381],[-121.3813,47.1373],[-121.3886,47.1335],[-121.394,47.1328],[-121.3949,47.1287],[-121.3997,47.126],[-121.4027,47.1218],[-121.4054,47.1213],[-121.4081,47.1181],[-121.4061,47.112],[-121.4028,47.1064],[-121.3995,47.1051],[-121.3998,47.1017],[-121.4029,47.0986],[-121.391,47.0921],[-121.3834,47.0951],[-121.3797,47.0904],[-121.3768,47.0887],[-121.38,47.0872],[-121.3823,47.0882],[-121.3866,47.0873],[-121.3923,47.0889],[-121.4068,47.0886],[-121.412,47.0907],[-121.4174,47.0884],[-121.4282,47.0873],[-121.4418,47.0844],[-121.4471,47.086],[-121.4499,47.0884],[-121.4547,47.0894],[-121.4586,47.0927],[-121.4661,47.0961],[-121.4758,47.1033],[-121.4782,47.1082],[-121.4811,47.1109],[-121.4863,47.1124],[-121.4906,47.1168],[-121.4977,47.1166],[-121.4996,47.1183],[-121.5067,47.1187],[-121.509,47.1223],[-121.5125,47.123],[-121.5159,47.1216],[-121.5248,47.1241],[-121.5315,47.1246],[-121.5354,47.1226],[-121.5433,47.1232],[-121.5545,47.1223],[-121.5599,47.1196],[-121.5708,47.1193],[-121.576,47.1202],[-121.582,47.1187],[-121.5945,47.1222],[-121.6009,47.1315],[-121.6096,47.1384],[-121.6115,47.143],[-121.6176,47.1447],[-121.6175,47.1467],[-121.6208,47.1494],[-121.631,47.1535],[-121.6376,47.1533],[-121.6438,47.1556],[-121.6487,47.155],[-121.6558,47.1586],[-121.6645,47.1596],[-121.6687,47.1559],[-121.675,47.1549],[-121.6817,47.1519],[-121.6842,47.1498],[-121.6882,47.1496],[-121.6971,47.1515],[-121.7051,47.152],[-121.7199,47.1513],[-121.7292,47.1581],[-121.7386,47.1607],[-121.7439,47.1647],[-121.7495,47.1621],[-121.7617,47.1673],[-121.7698,47.1654],[-121.7739,47.1668],[-121.7779,47.171],[-121.7773,47.1733],[-121.7827,47.1723],[-121.7958,47.1732],[-121.7994,47.1698],[-121.8033,47.1692],[-121.8064,47.1653],[-121.8104,47.1639],[-121.8144,47.159],[-121.8193,47.1588],[-121.8271,47.1527],[-121.832,47.1514],[-121.832,47.1482],[-121.8391,47.1435],[-121.8461,47.1444],[-121.849,47.1471],[-121.8611,47.1475],[-121.8608,47.1507],[-121.8665,47.1526],[-121.8741,47.1507],[-121.878,47.1538],[-121.8862,47.1529],[-121.8929,47.1549],[-121.9015,47.1557],[-121.9084,47.151],[-121.9179,47.1503],[-121.9279,47.1477],[-121.9279,47.1448],[-121.9309,47.1427],[-121.9314,47.1401],[-121.9349,47.1382],[-121.9435,47.14],[-121.9506,47.1456],[-121.9499,47.151],[-121.9521,47.1545],[-121.9587,47.1572],[-121.9647,47.156],[-121.97,47.1565],[-121.9732,47.1607],[-121.981,47.1646],[-121.9885,47.163],[-121.9914,47.1632],[-121.9938,47.1683],[-121.9939,47.1726],[-122.0006,47.1702],[-122.0068,47.171],[-122.0067,47.1729],[-122.0127,47.176],[-122.0223,47.174],[-122.0319,47.175],[-122.0358,47.173],[-122.0481,47.1714],[-122.0537,47.1757],[-122.0556,47.1791],[-122.0584,47.1799],[-122.0634,47.1859],[-122.0687,47.1879],[-122.0782,47.1892],[-122.0878,47.1941],[-122.095,47.1952],[-122.0939,47.1967],[-122.0973,47.1997],[-122.1005,47.2],[-122.1114,47.213],[-122.1159,47.2162],[-122.1139,47.2187],[-122.1157,47.2208],[-122.1132,47.2238],[-122.1176,47.2266],[-122.1149,47.229],[-122.1159,47.2313],[-122.1205,47.2308],[-122.1255,47.2323],[-122.1224,47.238],[-122.1238,47.2399],[-122.1343,47.244],[-122.1376,47.2468],[-122.1383,47.2506],[-122.1368,47.2545],[-122.144,47.2575],[-122.1745,47.2575],[-122.1868,47.2573],[-122.2298,47.2576],[-122.2912,47.2572],[-122.3313,47.2574],[-122.3349,47.2576],[-122.3348,47.2631],[-122.3474,47.2716],[-122.4179,47.3203],[-122.4028,47.3225],[-122.3962,47.3269],[-122.391,47.3283],[-122.386,47.3274],[-122.3841,47.3256],[-122.3771,47.3276],[-122.3743,47.3331],[-122.3642,47.336],[-122.3369,47.3414],[-122.3274,47.3457],[-122.3248,47.3485],[-122.3251,47.3676],[-122.3239,47.3706],[-122.3252,47.3738],[-122.3272,47.3877],[-122.3257,47.3915],[-122.3273,47.3956],[-122.3305,47.3964],[-122.3352,47.4084],[-122.348,47.4159],[-122.3512,47.4231],[-122.3512,47.4308],[-122.3543,47.4364],[-122.3551,47.4419],[-122.3605,47.4425],[-122.3625,47.4455],[-122.367,47.4476],[-122.3831,47.4505],[-122.3724,47.4558],[-122.368,47.4592],[-122.3702,47.4678],[-122.3688,47.4727],[-122.3641,47.4772],[-122.3613,47.4814],[-122.3616,47.4853],[-122.3685,47.4923],[-122.3866,47.5022],[-122.394,47.5097],[-122.3965,47.5152],[-122.3988,47.5174],[-122.3952,47.5201],[-122.3939,47.5248],[-122.4011,47.5299],[-122.3967,47.5355],[-122.3994,47.5458],[-122.3983,47.5501],[-122.4024,47.5573],[-122.4097,47.5665],[-122.4098,47.5689],[-122.4211,47.576],[-122.4018,47.5839],[-122.3871,47.5957],[-122.3817,47.5939],[-122.3812,47.5904],[-122.3754,47.5852],[-122.3702,47.5831],[-122.3685,47.5849],[-122.3621,47.5838],[-122.3559,47.5873],[-122.3429,47.5912],[-122.3395,47.5991],[-122.3449,47.6091],[-122.3531,47.6135],[-122.3645,47.6203],[-122.3702,47.6252],[-122.3779,47.6265],[-122.3837,47.6263],[-122.384,47.6319],[-122.3918,47.63],[-122.4042,47.6339],[-122.4146,47.6398],[-122.4183,47.6444],[-122.4178,47.6484],[-122.4214,47.6529],[-122.4298,47.6589],[-122.4369,47.6617],[-122.4255,47.6647],[-122.4158,47.6706],[-122.4092,47.6717],[-122.4097,47.6762],[-122.4038,47.6894],[-122.4062,47.693],[-122.4034,47.6977],[-122.3857,47.7045],[-122.3804,47.7091],[-122.3811,47.7121],[-122.3764,47.7165],[-122.3763,47.7226],[-122.3731,47.7292],[-122.3764,47.7384],[-122.3827,47.7478],[-122.3802,47.7585],[-122.3877,47.7645],[-122.389,47.7669],[-122.3944,47.7722],[-122.3952,47.7779],[-122.3353,47.7778]]],[[[-122.5239,47.3665],[-122.5178,47.3687],[-122.5163,47.3773],[-122.5277,47.3923],[-122.5267,47.3986],[-122.524,47.4021],[-122.522,47.4073],[-122.5147,47.414],[-122.5132,47.4233],[-122.514,47.4489],[-122.509,47.4611],[-122.5025,47.468],[-122.4979,47.4759],[-122.4827,47.4831],[-122.4788,47.4969],[-122.4766,47.5111],[-122.4686,47.5101],[-122.4524,47.5035],[-122.4586,47.4982],[-122.4604,47.4938],[-122.459,47.4923],[-122.46,47.4869],[-122.4525,47.4811],[-122.4474,47.4783],[-122.445,47.4732],[-122.4334,47.4664],[-122.4431,47.4535],[-122.4395,47.4489],[-122.4386,47.442],[-122.4399,47.4378],[-122.4364,47.4303],[-122.4299,47.4237],[-122.4307,47.4215],[-122.4357,47.4198],[-122.4399,47.417],[-122.4375,47.4126],[-122.4377,47.4074],[-122.4273,47.4021],[-122.395,47.3993],[-122.3736,47.3887],[-122.3785,47.3853],[-122.391,47.3828],[-122.4004,47.3816],[-122.4044,47.3786],[-122.418,47.3749],[-122.4213,47.371],[-122.4296,47.3692],[-122.4378,47.3656],[-122.4449,47.3594],[-122.4446,47.3569],[-122.4484,47.355],[-122.454,47.3433],[-122.4575,47.3426],[-122.4697,47.3446],[-122.4757,47.3471],[-122.4771,47.3511],[-122.4745,47.3591],[-122.4707,47.3659],[-122.4667,47.3686],[-122.4662,47.3725],[-122.4638,47.3751],[-122.4567,47.3717],[-122.4531,47.3725],[-122.4424,47.3847],[-122.4358,47.3863],[-122.4331,47.3881],[-122.4372,47.3907],[-122.4391,47.3945],[-122.4396,47.4042],[-122.4426,47.4045],[-122.4479,47.4021],[-122.454,47.4026],[-122.46,47.4016],[-122.464,47.3992],[-122.4659,47.3952],[-122.4645,47.3907],[-122.4602,47.3934],[-122.4522,47.3952],[-122.445,47.3894],[-122.4514,47.383],[-122.465,47.3873],[-122.4733,47.3871],[-122.4842,47.3801],[-122.4878,47.3651],[-122.4876,47.3572],[-122.4897,47.3517],[-122.4912,47.3352],[-122.4931,47.3303],[-122.5049,47.3307],[-122.5085,47.3327],[-122.5189,47.3333],[-122.5234,47.3376],[-122.5281,47.3455],[-122.526,47.3589],[-122.5239,47.3665]]]]}},{"type":"Feature","properties":{"id":"53061","name":"Snohomish Co."},"geometry":{"type":"MultiPolygon","coordinates":[[[[-122.3224,48.021],[-122.3203,48.0169],[-122.3149,48.0135],[-122.3097,48.0128],[-122.3088,48.0098],[-122.3035,48.0056],[-122.3066,48.0044],[-122.3174,48.0072],[-122.3261,48.0103],[-122.3345,48.0189],[-122.3283,48.0213],[-122.3224,48.021]]],[[[-122.3968,47.7824],[-122.3921,47.7854],[-122.3913,47.7924],[-122.3956,47.8068],[-122.392,47.8077],[-122.3815,47.8139],[-122.374,47.8213],[-122.3532,47.8406],[-122.3465,47.8424],[-122.3399,47.8467],[-122.3359,47.8523],[-122.3347,47.8563],[-122.335,47.8613],[-122.3295,47.8694],[-122.3301,47.8753],[-122.3335,47.8802],[-122.3278,47.894],[-122.3285,47.8979],[-122.3226,47.9092],[-122.3219,47.9131],[-122.3184,47.9176],[-122.3107,47.9251],[-122.3097,47.9291],[-122.3111,47.9367],[-122.3087,47.9463],[-122.307,47.9491],[-122.2968,47.9506],[-122.2892,47.9526],[-122.278,47.9565],[-122.249,47.9595],[-122.2366,47.966],[-122.23,47.9709],[-122.2283,47.9751],[-122.2308,47.9801],[-122.2337,47.9816],[-122.2302,47.9849],[-122.2292,47.9994],[-122.2311,48.0087],[-122.2259,48.0183],[-122.2235,48.0204],[-122.219,48.0203],[-122.2247,48.0262],[-122.2274,48.0309],[-122.2318,48.0299],[-122.2382,48.0306],[-122.2469,48.0342],[-122.2744,48.0482],[-122.2899,48.0524],[-122.2895,48.0555],[-122.2825,48.052],[-122.2749,48.0504],[-122.2722,48.0526],[-122.2735,48.0567],[-122.2769,48.0585],[-122.28,48.0631],[-122.284,48.0645],[-122.2915,48.065],[-122.2934,48.0619],[-122.2983,48.0653],[-122.2983,48.0685],[-122.301,48.0713],[-122.3214,48.081],[-122.3217,48.0855],[-122.3261,48.0929],[-122.3432,48.0976],[-122.3448,48.105],[-122.3474,48.1067],[-122.3477,48.1107],[-122.3516,48.1144],[-122.3588,48.1175],[-122.3616,48.1202],[-122.3651,48.1258],[-122.3621,48.1299],[-122.3636,48.1333],[-122.3678,48.1349],[-122.364,48.14],[-122.365,48.1459],[-122.3647,48.1513],[-122.3674,48.1554],[-122.3703,48.1648],[-122.3635,48.1744],[-122.3588,48.1794],[-122.3575,48.1823],[-122.3638,48.1845],[-122.3672,48.1892],[-122.3703,48.1909],[-122.3678,48.1971],[-122.3716,48.2052],[-122.369,48.2107],[-122.3683,48.2146],[-122.3712,48.2197],[-122.3763,48.2242],[-122.3839,48.2275],[-122.3866,48.2261],[-122.3907,48.2299],[-122.3947,48.2299],[-122.393,48.2374],[-122.3992,48.2421],[-122.4008,48.2463],[-122.4055,48.252],[-122.397,48.2532],[-122.3916,48.2678],[-122.3873,48.2705],[-122.3871,48.2737],[-122.3676,48.2917],[-122.37,48.2931],[-122.3748,48.2916],[-122.3781,48.2927],[-122.377,48.2956],[-122.3729,48.2977],[-122.3247,48.2975],[-122.2518,48.2975],[-122.1943,48.2977],[-122.1836,48.2973],[-122.1619,48.2972],[-122.1403,48.2978],[-121.9447,48.2974],[-121.9049,48.2976],[-121.858,48.2975],[-121.8351,48.298],[-121.7625,48.2989],[-121.6861,48.299],[-121.6364,48.2985],[-121.5775,48.299],[-121.5776,48.2974],[-121.5606,48.2971],[-121.445,48.296],[-121.0017,48.296],[-121.0006,48.2905],[-121.0044,48.2854],[-121.0115,48.2835],[-121.0113,48.2782],[-121.0045,48.2739],[-121.0056,48.2701],[-120.9999,48.2629],[-120.9951,48.2604],[-120.9904,48.2556],[-120.9825,48.2513],[-120.9812,48.2467],[-120.9744,48.2388],[-120.9731,48.2353],[-120.9627,48.2302],[-120.9598,48.2278],[-120.9621,48.225],[-120.9636,48.2201],[-120.9657,48.2178],[-120.9648,48.2113],[-120.9523,48.2091],[-120.947,48.201],[-120.9327,48.1971],[-120.9255,48.1918],[-120.9193,48.1904],[-120.9206,48.1873],[-120.9174,48.1798],[-120.9105,48.1736],[-120.9074,48.1656],[-120.9074,48.1632],[-120.9128,48.1617],[-120.9152,48.1597],[-120.9319,48.1616],[-120.9343,48.1595],[-120.9332,48.1568],[-120.9383,48.1551],[-120.9484,48.155],[-120.9556,48.152],[-120.956,48.1477],[-120.9644,48.143],[-120.9656,48.1403],[-120.9638,48.1356],[-120.9652,48.134],[-120.9631,48.1314],[-120.9583,48.1292],[-120.9557,48.1252],[-120.9567,48.1226],[-120.9526,48.1172],[-120.9463,48.1152],[-120.9488,48.1121],[-120.9529,48.1113],[-120.9562,48.1081],[-120.9637,48.1097],[-120.9725,48.1085],[-120.9722,48.104],[-120.9778,48.1011],[-120.9804,48.0981],[-120.9804,48.0952],[-120.9848,48.0933],[-120.9873,48.0939],[-120.993,48.0899],[-120.9994,48.0897],[-120.9988,48.0883],[-121.0047,48.0814],[-121.0112,48.0792],[-121.0159,48.0748],[-121.0252,48.0782],[-121.0362,48.0768],[-121.0412,48.0727],[-121.0486,48.0702],[-121.0646,48.0701],[-121.0721,48.0677],[-121.083,48.0616],[-121.0901,48.0649],[-121.097,48.0644],[-121.1016,48.0627],[-121.1052,48.0578],[-121.1098,48.0567],[-121.116,48.058],[-121.122,48.051],[-121.1282,48.0481],[-121.1305,48.0452],[-121.1373,48.0443],[-121.1442,48.0423],[-121.1503,48.042],[-121.1533,48.0397],[-121.149,48.0342],[-121.1474,48.0295],[-121.136,48.024],[-121.1292,48.0198],[-121.1285,48.0138],[-121.1252,48.0103],[-121.1179,48.0063],[-121.119,48.0031],[-121.1182,47.9971],[-121.1248,47.9937],[-121.1306,47.9868],[-121.1345,47.9854],[-121.1359,47.9828],[-121.1407,47.9835],[-121.1471,47.9815],[-121.1488,47.9783],[-121.1484,47.9707],[-121.1526,47.9673],[-121.1532,47.9642],[-121.1583,47.9595],[-121.1651,47.9562],[-121.1619,47.9483],[-121.1622,47.9441],[-121.1664,47.9382],[-121.1711,47.9364],[-121.1728,47.9337],[-121.1727,47.9297],[-121.1705,47.9244],[-121.179,47.9195],[-121.1788,47.917],[-121.1737,47.9153],[-121.1714,47.9133],[-121.1733,47.9088],[-121.1773,47.9055],[-121.1808,47.8988],[-121.1767,47.8954],[-121.1754,47.8859],[-121.168,47.8819],[-121.1668,47.8796],[-121.1629,47.8794],[-121.1573,47.8823],[-121.1583,47.8766],[-121.1523,47.869],[-121.1499,47.8618],[-121.1472,47.8575],[-121.1532,47.851],[-121.1535,47.8453],[-121.1469,47.8435],[-121.1343,47.843],[-121.1334,47.8397],[-121.1237,47.8384],[-121.1213,47.8366],[-121.1212,47.8327],[-121.1188,47.831],[-121.1069,47.829],[-121.0958,47.8327],[-121.0857,47.8328],[-121.0802,47.8341],[-121.0767,47.8316],[-121.0709,47.8302],[-121.0707,47.8266],[-121.0817,47.816],[-121.0847,47.8077],[-121.0924,47.8051],[-121.0926,47.8007],[-121.0999,47.7971],[-121.1052,47.7957],[-121.1094,47.7928],[-121.1094,47.7897],[-121.1117,47.7878],[-121.1164,47.7868],[-121.1203,47.7843],[-121.1192,47.7799],[-121.1956,47.7801],[-121.1957,47.7791],[-121.4555,47.7806],[-121.4555,47.7784],[-121.4999,47.7778],[-121.5405,47.7778],[-121.5845,47.7771],[-121.6668,47.7772],[-121.7132,47.7771],[-121.7445,47.7778],[-121.7555,47.7771],[-121.8192,47.777],[-121.8407,47.7774],[-121.8514,47.7769],[-121.8619,47.7773],[-121.923,47.777],[-121.9678,47.7762],[-121.9918,47.7753],[-122.0339,47.7757],[-122.0547,47.7757],[-122.087,47.7761],[-122.0995,47.7759],[-122.207,47.7765],[-122.2494,47.777],[-122.271,47.7771],[-122.3353,47.7778],[-122.3952,47.7779],[-122.3968,47.7824]]]]}}]}