{"type":"FeatureCollection","features":[{"type":"Feature","properties":{"id":"18061","name":"Harrison Co., IN"},"geometry":{"type":"Polygon","coordinates":[[[-86.2124,38.4221],[-86.1839,38.4214],[-86.125,38.4194],[-86.1233,38.4197],[-86.0901,38.4189],[-86.0821,38.4185],[-86.0328,38.4179],[-86.0331,38.3743],[-86.0323,38.3743],[-86.0326,38.3308],[-86.0143,38.3306],[-86.0142,38.3018],[-85.9954,38.3018],[-85.9952,38.287],[-85.9924,38.2871],[-85.9924,38.2728],[-85.9738,38.2728],[-85.9738,38.2581],[-85.9552,38.2577],[-85.9553,38.2134],[-85.9555,38.1995],[-85.9576,38.1993],[-85.958,38.1859],[-85.94,38.1861],[-85.9001,38.1855],[-85.8995,38.1804],[-85.9039,38.1741],[-85.908,38.1615],[-85.9091,38.1444],[-85.9088,38.1338],[-85.9052,38.1111],[-85.9042,38.0998],[-85.9053,38.0889],[-85.912,38.0734],[-85.9138,38.072],[-85.9163,38.0609],[-85.9189,38.0412],[-85.9213,38.0303],[-85.9257,38.0218],[-85.9312,38.016],[-85.9422,38.0073],[-85.9471,38.0051],[-85.9546,38.0047],[-85.9729,38.0026],[-85.9774,38.0034],[-85.999,38.0],[-86.0185,37.9965],[-86.0256,37.9945],[-86.0325,37.9901],[-86.0354,37.9814],[-86.0336,37.9702],[-86.0344,37.9646],[-86.0382,37.9596],[-86.0423,37.9582],[-86.05,37.9605],[-86.058,37.9677],[-86.0649,37.9756],[-86.0699,37.9837],[-86.0759,37.9955],[-86.0755,37.9972],[-86.0794,38.0006],[-86.0863,38.0049],[-86.1042,38.0126],[-86.1175,38.0154],[-86.1283,38.0162],[-86.1479,38.0147],[-86.1525,38.013],[-86.1653,38.0099],[-86.1766,38.0102],[-86.1909,38.0164],[-86.2207,38.0282],[-86.2233,38.0315],[-86.2334,38.0382],[-86.2333,38.0396],[-86.2469,38.0447],[-86.2593,38.0512],[-86.2672,38.0568],[-86.2714,38.062],[-86.2736,38.0674],[-86.2777,38.0825],[-86.2791,38.1008],[-86.2754,38.1141],[-86.2703,38.1298],[-86.2706,38.1358],[-86.2728,38.1408],[-86.2871,38.1579],[-86.2957,38.1641],[-86.3171,38.1729],[-86.3297,38.1817],[-86.3244,38.1822],[-86.3173,38.1781],[-86.3128,38.1781],[-86.31,38.1818],[-86.3152,38.1846],[-86.3182,38.1881],[-86.317,38.1894],[-86.3117,38.1889],[-86.3086,38.2002],[-86.3065,38.2025],[-86.2998,38.2025],[-86.295,38.2037],[-86.292,38.2013],[-86.2899,38.2027],[-86.2951,38.2091],[-86.29,38.2105],[-86.2891,38.2142],[-86.2974,38.2182],[-86.2981,38.2209],[-86.2949,38.224],[-86.2909,38.2241],[-86.2863,38.2211],[-86.2839,38.2209],[-86.277,38.2271],[-86.2756,38.2661],[-86.2748,38.28],[-86.2799,38.283],[-86.2778,38.2868],[-86.2698,38.2784],[-86.2675,38.2802],[-86.2655,38.2862],[-86.2614,38.2841],[-86.2567,38.2844],[-86.2564,38.2878],[-86.2531,38.2919],[-86.2551,38.2965],[-86.2612,38.2967],[-86.2644,38.2947],[-86.2651,38.3024],[-86.2589,38.3056],[-86.2658,38.3086],[-86.2696,38.3079],[-86.2746,38.3008],[-86.2784,38.303],[-86.2762,38.3085],[-86.2816,38.3109],[-86.2889,38.3155],[-86.2891,38.3175],[-86.2848,38.3207],[-86.2835,38.3252],[-86.2867,38.3274],[-86.2871,38.3304],[-86.2845,38.332],[-86.2827,38.3298],[-86.2817,38.3237],[-86.2785,38.3208],[-86.2735,38.3211],[-86.2737,38.3244],[-86.277,38.3274],[-86.2737,38.3297],[-86.2764,38.3403],[-86.2715,38.3411],[-86.2751,38.3495],[-86.2811,38.3484],[-86.2811,38.3506],[-86.2734,38.3562],[-86.2708,38.3613],[-86.265,38.362],[-86.2612,38.3556],[-86.2536,38.3523],[-86.2508,38.3485],[-86.2479,38.3488],[-86.2476,38.3512],[-86.2527,38.3553],[-86.2479,38.3612],[-86.2484,38.3637],[-86.2562,38.3656],[-86.2592,38.3726],[-86.2591,38.3764],[-86.2612,38.3804],[-86.2599,38.3882],[-86.2557,38.3889],[-86.255,38.3844],[-86.2505,38.3833],[-86.2456,38.3874],[-86.2512,38.3915],[-86.259,38.3932],[-86.2616,38.3948],[-86.259,38.3981],[-86.2533,38.3944],[-86.2507,38.3979],[-86.2525,38.4006],[-86.2517,38.4061],[-86.2583,38.4101],[-86.2648,38.4111],[-86.2608,38.4138],[-86.255,38.4227],[-86.2124,38.4221]]]}},{"type":"Feature","properties":{"id":"18175","name":"Washington Co., IN"},"geometry":{"type":"Polygon","coordinates":[[[-85.8476,38.5471],[-85.8663,38.5471],[-85.8663,38.5184],[-85.8847,38.5182],[-85.8848,38.5035],[-85.9033,38.5026],[-85.9276,38.5026],[-85.9571,38.5019],[-85.9562,38.4991],[-85.9562,38.489],[-85.9933,38.4885],[-85.994,38.4723],[-85.9941,38.4534],[-85.9939,38.4327],[-85.9946,38.4297],[-85.9946,38.4183],[-86.0141,38.4191],[-86.0144,38.4187],[-86.0328,38.4179],[-86.0821,38.4185],[-86.0901,38.4189],[-86.1233,38.4197],[-86.125,38.4194],[-86.1839,38.4214],[-86.2124,38.4221],[-86.255,38.4227],[-86.3087,38.4229],[-86.3084,38.4704],[-86.3088,38.4704],[-86.3079,38.5212],[-86.308,38.5572],[-86.3082,38.5572],[-86.308,38.5862],[-86.3077,38.6445],[-86.3083,38.6591],[-86.3078,38.6716],[-86.3087,38.6881],[-86.3096,38.7307],[-86.3101,38.7331],[-86.3022,38.7358],[-86.3019,38.7304],[-86.298,38.7352],[-86.2921,38.7351],[-86.2904,38.7363],[-86.2916,38.7425],[-86.288,38.7478],[-86.2866,38.7551],[-86.282,38.7611],[-86.2846,38.7651],[-86.2828,38.7663],[-86.2797,38.7631],[-86.2725,38.7655],[-86.263,38.7654],[-86.2626,38.7697],[-86.2571,38.772],[-86.2541,38.7701],[-86.2577,38.765],[-86.2534,38.7635],[-86.2512,38.7667],[-86.2472,38.7678],[-86.2432,38.7656],[-86.2371,38.7678],[-86.2322,38.7732],[-86.2241,38.7791],[-86.2208,38.7772],[-86.2203,38.7717],[-86.2165,38.7714],[-86.2143,38.7738],[-86.2154,38.7778],[-86.2132,38.7794],[-86.2078,38.7783],[-86.2053,38.774],[-86.1977,38.7738],[-86.1974,38.7754],[-86.2022,38.7759],[-86.2055,38.7818],[-86.2001,38.7824],[-86.197,38.7807],[-86.1948,38.7771],[-86.1869,38.7775],[-86.1887,38.7794],[-86.1841,38.7836],[-86.1817,38.7824],[-86.1795,38.7775],[-86.1723,38.7728],[-86.1675,38.7726],[-86.1636,38.7748],[-86.1533,38.7688],[-86.1402,38.7654],[-86.1349,38.7624],[-86.1315,38.7638],[-86.125,38.7641],[-86.1171,38.7669],[-86.1128,38.7662],[-86.1069,38.7671],[-86.1024,38.7658],[-86.0992,38.7689],[-86.1005,38.7758],[-86.0963,38.7824],[-86.0917,38.7834],[-86.0809,38.7805],[-86.0751,38.7747],[-86.0728,38.7745],[-86.067,38.7781],[-86.0642,38.7786],[-86.0602,38.7771],[-86.0575,38.7745],[-86.0502,38.7708],[-86.0433,38.7625],[-86.0406,38.7609],[-86.0318,38.7613],[-86.0279,38.7562],[-86.0262,38.7558],[-86.0263,38.7613],[-86.0221,38.7669],[-86.0204,38.7676],[-86.0155,38.7654],[-86.0174,38.7611],[-86.0149,38.757],[-86.0096,38.757],[-86.0065,38.76],[-85.9978,38.7609],[-85.9963,38.765],[-85.9926,38.7674],[-85.9843,38.7681],[-85.9856,38.7582],[-85.9806,38.7591],[-85.9801,38.7549],[-85.9766,38.7524],[-85.9679,38.7551],[-85.9661,38.7612],[-85.9609,38.7642],[-85.9578,38.7614],[-85.9501,38.7605],[-85.9523,38.7573],[-85.9501,38.7538],[-85.9462,38.7542],[-85.9457,38.7584],[-85.9387,38.7624],[-85.9361,38.7619],[-85.938,38.7594],[-85.9365,38.7558],[-85.9275,38.7561],[-85.928,38.7507],[-85.916,38.7457],[-85.9153,38.7468],[-85.9195,38.7506],[-85.9186,38.7542],[-85.9124,38.7475],[-85.9098,38.7482],[-85.9125,38.7527],[-85.9117,38.7566],[-85.9084,38.7551],[-85.9089,38.7512],[-85.9059,38.7529],[-85.903,38.7518],[-85.9006,38.7538],[-85.8962,38.7501],[-85.8984,38.7476],[-85.8972,38.7439],[-85.9001,38.7433],[-85.8987,38.7405],[-85.8965,38.7413],[-85.8953,38.7381],[-85.8919,38.7365],[-85.8945,38.7314],[-85.8934,38.7297],[-85.8896,38.7305],[-85.8883,38.7344],[-85.8877,38.6805],[-85.8881,38.6488],[-85.8868,38.6488],[-85.8856,38.5754],[-85.8486,38.5763],[-85.8486,38.5621],[-85.8479,38.5613],[-85.8476,38.5471]]]}},{"type":"Feature","properties":{"id":"21179","name":"Nelson Co., KY"},"geometry":{"type":"Polygon","coordinates":[[[-85.734,37.811],[-85.7315,37.8122],[-85.7297,37.8105],[-85.7214,37.8102],[-85.721,37.8078],[-85.7149,37.8082],[-85.7148,37.8103],[-85.7107,37.8107],[-85.7108,37.8124],[-85.7025,37.8142],[-85.6989,37.8112],[-85.693,37.8152],[-85.6912,37.8185],[-85.6874,37.8179],[-85.6822,37.8197],[-85.6834,37.8154],[-85.6793,37.8172],[-85.6755,37.8205],[-85.6747,37.8234],[-85.6703,37.8225],[-85.668,37.8247],[-85.6624,37.8248],[-85.6513,37.829],[-85.6542,37.8317],[-85.6433,37.834],[-85.6388,37.8385],[-85.6381,37.8411],[-85.6354,37.8411],[-85.6298,37.8453],[-85.6267,37.8501],[-85.6204,37.8504],[-85.6168,37.8524],[-85.6103,37.8589],[-85.611,37.8649],[-85.6136,37.8676],[-85.6133,37.87],[-85.608,37.8692],[-85.604,37.8706],[-85.5997,37.8694],[-85.5987,37.8722],[-85.5926,37.8761],[-85.5883,37.8758],[-85.5766,37.8846],[-85.5811,37.8866],[-85.5848,37.8936],[-85.5845,37.9037],[-85.5857,37.9077],[-85.5839,37.911],[-85.5791,37.9129],[-85.5752,37.9169],[-85.5728,37.916],[-85.5656,37.9201],[-85.5653,37.9249],[-85.5608,37.923],[-85.5557,37.924],[-85.5491,37.9282],[-85.5471,37.933],[-85.5424,37.9405],[-85.534,37.944],[-85.5299,37.9472],[-85.5252,37.9527],[-85.524,37.9572],[-85.5279,37.9626],[-85.5342,37.9652],[-85.4892,37.9907],[-85.4634,37.9714],[-85.441,37.9648],[-85.4401,37.9635],[-85.4258,37.9596],[-85.4199,37.9562],[-85.4129,37.9492],[-85.4083,37.9469],[-85.3996,37.9399],[-85.3833,37.9398],[-85.3791,37.9404],[-85.3051,37.9532],[-85.1678,37.9718],[-85.1528,37.8977],[-85.1538,37.8947],[-85.1505,37.8903],[-85.1532,37.8901],[-85.1518,37.8877],[-85.1542,37.8855],[-85.1588,37.8864],[-85.1604,37.8898],[-85.166,37.8908],[-85.1688,37.8879],[-85.1722,37.8878],[-85.176,37.891],[-85.1814,37.8924],[-85.1864,37.8912],[-85.1849,37.8878],[-85.1861,37.8839],[-85.1931,37.8865],[-85.1942,37.8894],[-85.1902,37.8931],[-85.1911,37.8966],[-85.1975,37.9023],[-85.1998,37.8983],[-85.1987,37.8855],[-85.1962,37.8808],[-85.1961,37.8764],[-85.1983,37.8731],[-85.1936,37.8655],[-85.1965,37.8635],[-85.1974,37.8681],[-85.2009,37.8687],[-85.2054,37.8632],[-85.2012,37.8615],[-85.1971,37.8582],[-85.1963,37.8555],[-85.201,37.8542],[-85.2034,37.8471],[-85.2063,37.8466],[-85.208,37.8506],[-85.2156,37.8525],[-85.2181,37.8558],[-85.2138,37.8583],[-85.2136,37.8613],[-85.2162,37.8713],[-85.2187,37.8709],[-85.2192,37.8669],[-85.2239,37.863],[-85.2269,37.8552],[-85.2319,37.856],[-85.2333,37.8619],[-85.2329,37.866],[-85.2294,37.87],[-85.2392,37.8684],[-85.2384,37.8634],[-85.2443,37.863],[-85.2466,37.8656],[-85.2518,37.8674],[-85.2555,37.8658],[-85.256,37.86],[-85.2513,37.8576],[-85.2465,37.8539],[-85.243,37.8483],[-85.2462,37.8471],[-85.2583,37.8488],[-85.2643,37.8443],[-85.268,37.8445],[-85.2709,37.8479],[-85.2746,37.8484],[-85.2768,37.8536],[-85.2805,37.8514],[-85.2806,37.8487],[-85.2771,37.8388],[-85.2803,37.8355],[-85.2856,37.8339],[-85.2903,37.8312],[-85.2979,37.8324],[-85.3009,37.8255],[-85.2998,37.8217],[-85.3061,37.8206],[-85.3078,37.8182],[-85.3083,37.8136],[-85.3136,37.8097],[-85.3137,37.8049],[-85.3075,37.8013],[-85.306,37.7986],[-85.3082,37.7938],[-85.3194,37.7878],[-85.3252,37.787],[-85.3312,37.7884],[-85.3363,37.7869],[-85.3379,37.7803],[-85.347,37.7811],[-85.3557,37.7841],[-85.3558,37.7814],[-85.3533,37.7738],[-85.3543,37.7707],[-85.3525,37.7687],[-85.3457,37.7658],[-85.3449,37.7636],[-85.3488,37.7623],[-85.353,37.7574],[-85.3572,37.7583],[-85.3687,37.764],[-85.375,37.7645],[-85.3752,37.7583],[-85.3723,37.7491],[-85.374,37.7433],[-85.3733,37.7396],[-85.378,37.7401],[-85.3832,37.7392],[-85.3863,37.7407],[-85.3913,37.7364],[-85.3923,37.733],[-85.4018,37.7307],[-85.4505,37.6859],[-85.4825,37.6284],[-85.5045,37.5845],[-85.5213,37.5543],[-85.5251,37.555],[-85.5257,37.5612],[-85.528,37.5626],[-85.5308,37.5607],[-85.5352,37.5629],[-85.5381,37.5618],[-85.5436,37.5624],[-85.5486,37.558],[-85.5511,37.554],[-85.5507,37.5498],[-85.5488,37.5476],[-85.5502,37.5426],[-85.5525,37.5411],[-85.548,37.5334],[-85.5471,37.5303],[-85.5527,37.5319],[-85.5589,37.5305],[-85.56,37.5249],[-85.5642,37.523],[-85.5693,37.5251],[-85.5708,37.5272],[-85.5763,37.5281],[-85.5839,37.5307],[-85.5874,37.5328],[-85.5888,37.5317],[-85.5924,37.5343],[-85.5938,37.532],[-85.5987,37.535],[-85.5956,37.5379],[-85.5944,37.5412],[-85.5957,37.5451],[-85.5983,37.5442],[-85.5986,37.5403],[-85.601,37.5393],[-85.6048,37.5437],[-85.601,37.5457],[-85.6062,37.5483],[-85.6084,37.5448],[-85.6119,37.5438],[-85.6126,37.5413],[-85.6181,37.5406],[-85.621,37.543],[-85.6239,37.5405],[-85.6261,37.5454],[-85.6239,37.5465],[-85.6233,37.5516],[-85.6196,37.5533],[-85.6185,37.5567],[-85.613,37.5601],[-85.6105,37.5577],[-85.6078,37.558],[-85.6075,37.5618],[-85.6099,37.5631],[-85.6059,37.5647],[-85.6042,37.5691],[-85.6056,37.5737],[-85.6034,37.5781],[-85.6049,37.5794],[-85.6013,37.5825],[-85.6059,37.5842],[-85.6048,37.588],[-85.6068,37.5904],[-85.6029,37.5932],[-85.5976,37.5921],[-85.5945,37.5953],[-85.5921,37.5942],[-85.5904,37.5963],[-85.5948,37.599],[-85.5897,37.6016],[-85.5872,37.6051],[-85.5897,37.6053],[-85.5943,37.6027],[-85.6032,37.606],[-85.6114,37.6073],[-85.6153,37.6133],[-85.614,37.6159],[-85.605,37.6174],[-85.5978,37.6156],[-85.5954,37.6133],[-85.5925,37.6138],[-85.5873,37.6176],[-85.5897,37.6196],[-85.5851,37.6253],[-85.5798,37.6267],[-85.5794,37.6232],[-85.5755,37.6202],[-85.574,37.6173],[-85.5701,37.6172],[-85.5698,37.6219],[-85.5682,37.6235],[-85.5739,37.6295],[-85.5728,37.6383],[-85.5775,37.6396],[-85.5837,37.6443],[-85.5888,37.6443],[-85.5908,37.6422],[-85.5951,37.643],[-85.5953,37.6398],[-85.5985,37.6385],[-85.6011,37.6399],[-85.5995,37.6445],[-85.6004,37.647],[-85.5976,37.6479],[-85.5978,37.6505],[-85.5953,37.6532],[-85.5989,37.6527],[-85.6018,37.655],[-85.601,37.6575],[-85.5961,37.659],[-85.5974,37.6628],[-85.5935,37.6663],[-85.5927,37.6693],[-85.5963,37.6686],[-85.5956,37.6762],[-85.5922,37.6842],[-85.5933,37.6874],[-85.5915,37.6913],[-85.5925,37.6939],[-85.6002,37.6993],[-85.606,37.7008],[-85.619,37.6969],[-85.6258,37.6942],[-85.6276,37.6961],[-85.6335,37.6939],[-85.6379,37.6967],[-85.6373,37.7005],[-85.6413,37.7022],[-85.6398,37.7044],[-85.6468,37.7075],[-85.6421,37.7112],[-85.6454,37.7131],[-85.6453,37.7161],[-85.6521,37.7188],[-85.652,37.7211],[-85.656,37.7207],[-85.6593,37.7245],[-85.6651,37.7248],[-85.6649,37.7281],[-85.6709,37.7299],[-85.6718,37.7323],[-85.6768,37.7294],[-85.6805,37.7323],[-85.6762,37.7337],[-85.6766,37.737],[-85.6789,37.7366],[-85.6832,37.7328],[-85.6875,37.7331],[-85.6848,37.7369],[-85.682,37.7367],[-85.6795,37.7393],[-85.6826,37.7404],[-85.6838,37.7454],[-85.6866,37.7467],[-85.6828,37.7496],[-85.6846,37.754],[-85.6875,37.755],[-85.6824,37.7577],[-85.6852,37.7591],[-85.6885,37.756],[-85.6929,37.7553],[-85.6957,37.762],[-85.6986,37.7583],[-85.7011,37.7599],[-85.6997,37.7625],[-85.7045,37.7682],[-85.7108,37.7658],[-85.7165,37.7685],[-85.7126,37.7713],[-85.7129,37.7734],[-85.7178,37.7759],[-85.7249,37.7739],[-85.7281,37.7742],[-85.7335,37.7775],[-85.7363,37.7817],[-85.7337,37.7839],[-85.7306,37.783],[-85.727,37.7847],[-85.727,37.7878],[-85.7318,37.789],[-85.7363,37.788],[-85.7405,37.7892],[-85.7426,37.7922],[-85.7389,37.7956],[-85.7387,37.7979],[-85.7421,37.8034],[-85.7387,37.8082],[-85.7378,37.8118],[-85.734,37.811]]]}},{"type":"Feature","properties":{"id":"21029","name":"Bullitt Co., KY"},"geometry":{"type":"Polygon","coordinates":[[[-85.4305,38.1073],[-85.4348,38.1057],[-85.438,38.1019],[-85.4471,38.1016],[-85.4519,38.1023],[-85.4629,38.0959],[-85.4692,38.0962],[-85.4866,38.0624],[-85.5119,38.0129],[-85.5128,38.0108],[-85.5169,38.0113],[-85.4892,37.9907],[-85.5342,37.9652],[-85.5279,37.9626],[-85.524,37.9572],[-85.5252,37.9527],[-85.5299,37.9472],[-85.534,37.944],[-85.5424,37.9405],[-85.5471,37.933],[-85.5491,37.9282],[-85.5557,37.924],[-85.5608,37.923],[-85.5653,37.9249],[-85.5656,37.9201],[-85.5728,37.916],[-85.5752,37.9169],[-85.5791,37.9129],[-85.5839,37.911],[-85.5857,37.9077],[-85.5845,37.9037],[-85.5848,37.8936],[-85.5811,37.8866],[-85.5766,37.8846],[-85.5883,37.8758],[-85.5926,37.8761],[-85.5987,37.8722],[-85.5997,37.8694],[-85.604,37.8706],[-85.608,37.8692],[-85.6133,37.87],[-85.6136,37.8676],[-85.611,37.8649],[-85.6103,37.8589],[-85.6168,37.8524],[-85.6204,37.8504],[-85.6267,37.8501],[-85.6298,37.8453],[-85.6354,37.8411],[-85.6381,37.8411],[-85.6388,37.8385],[-85.6433,37.834],[-85.6542,37.8317],[-85.6513,37.829],[-85.6624,37.8248],[-85.668,37.8247],[-85.6703,37.8225],[-85.6747,37.8234],[-85.6755,37.8205],[-85.6793,37.8172],[-85.6834,37.8154],[-85.6822,37.8197],[-85.6874,37.8179],[-85.6912,37.8185],[-85.693,37.8152],[-85.6989,37.8112],[-85.7025,37.8142],[-85.7108,37.8124],[-85.7107,37.8107],[-85.7148,37.8103],[-85.7149,37.8082],[-85.721,37.8078],[-85.7214,37.8102],[-85.7297,37.8105],[-85.7315,37.8122],[-85.734,37.811],[-85.7378,37.8118],[-85.7421,37.8155],[-85.7412,37.8204],[-85.7448,37.8228],[-85.7501,37.8235],[-85.7502,37.8267],[-85.7595,37.8316],[-85.7616,37.8364],[-85.7683,37.8389],[-85.7753,37.8427],[-85.7856,37.8429],[-85.7939,37.848],[-85.7973,37.8532],[-85.8005,37.8544],[-85.8001,37.859],[-85.8031,37.86],[-85.809,37.8573],[-85.814,37.8569],[-85.8173,37.8583],[-85.8183,37.8616],[-85.8234,37.8668],[-85.828,37.8691],[-85.8382,37.8793],[-85.8403,37.8844],[-85.8391,37.8899],[-85.8339,37.8927],[-85.8227,37.8876],[-85.8185,37.8865],[-85.8133,37.889],[-85.8173,37.8928],[-85.8185,37.8959],[-85.8275,37.9006],[-85.8282,37.9079],[-85.8275,37.9134],[-85.8302,37.9188],[-85.836,37.9211],[-85.8449,37.9217],[-85.849,37.9261],[-85.8475,37.9301],[-85.8499,37.9378],[-85.8549,37.9454],[-85.8593,37.9476],[-85.8678,37.9486],[-85.8735,37.947],[-85.8798,37.9485],[-85.8942,37.9401],[-85.9002,37.9393],[-85.9052,37.9426],[-85.9033,37.9491],[-85.9044,37.9577],[-85.9032,37.9643],[-85.9008,37.9695],[-85.9041,37.9844],[-85.9068,37.9912],[-85.9096,37.9919],[-85.9256,37.9923],[-85.9315,37.9936],[-85.9383,37.9988],[-85.9346,37.9972],[-85.932,37.9986],[-85.9299,38.0023],[-85.9199,38.0103],[-85.9181,38.0091],[-85.9139,38.0108],[-85.9154,38.0139],[-85.9128,38.0207],[-85.9101,38.0196],[-85.9101,38.023],[-85.9051,38.0224],[-85.9067,38.024],[-85.9044,38.0288],[-85.8976,38.0297],[-85.8864,38.0367],[-85.8835,38.0376],[-85.8828,38.0405],[-85.877,38.0418],[-85.8586,38.047],[-85.7126,38.0873],[-85.5962,38.0773],[-85.5573,38.0738],[-85.5159,38.0888],[-85.4803,38.1],[-85.4288,38.1184],[-85.4305,38.1073]]]}},{"type":"Feature","properties":{"id":"21163","name":"Meade Co., KY"},"geometry":{"type":"Polygon","coordinates":[[[-85.9759,37.8758],[-86.0074,37.8185],[-86.1513,37.7989],[-86.2091,37.8459],[-86.2429,37.8771],[-86.3057,37.9183],[-86.3857,37.9703],[-86.4908,38.0457],[-86.4804,38.0456],[-86.4621,38.0475],[-86.4522,38.0505],[-86.4382,38.0604],[-86.4328,38.0672],[-86.4301,38.0786],[-86.4314,38.0835],[-86.434,38.0868],[-86.4475,38.0918],[-86.45,38.092],[-86.4588,38.096],[-86.4639,38.1012],[-86.4662,38.1068],[-86.4661,38.1144],[-86.4632,38.1193],[-86.4571,38.1245],[-86.4498,38.1272],[-86.4397,38.1274],[-86.4295,38.1253],[-86.4182,38.1171],[-86.4051,38.1058],[-86.4019,38.1043],[-86.3961,38.1072],[-86.3918,38.1171],[-86.3878,38.1244],[-86.3798,38.1293],[-86.3753,38.1306],[-86.3525,38.1285],[-86.3406,38.1277],[-86.3337,38.1292],[-86.3291,38.132],[-86.3238,38.1384],[-86.3212,38.147],[-86.3239,38.1524],[-86.328,38.1548],[-86.3449,38.159],[-86.3576,38.1599],[-86.3661,38.1615],[-86.3717,38.1642],[-86.3774,38.1714],[-86.3786,38.1786],[-86.3782,38.1858],[-86.3738,38.1934],[-86.3675,38.1973],[-86.3577,38.1988],[-86.3477,38.1954],[-86.3297,38.1817],[-86.3171,38.1729],[-86.2957,38.1641],[-86.2871,38.1579],[-86.2728,38.1408],[-86.2706,38.1358],[-86.2703,38.1298],[-86.2754,38.1141],[-86.2791,38.1008],[-86.2777,38.0825],[-86.2736,38.0674],[-86.2714,38.062],[-86.2672,38.0568],[-86.2593,38.0512],[-86.2469,38.0447],[-86.2333,38.0396],[-86.2334,38.0382],[-86.2233,38.0315],[-86.2207,38.0282],[-86.1909,38.0164],[-86.1766,38.0102],[-86.1653,38.0099],[-86.1525,38.013],[-86.1479,38.0147],[-86.1283,38.0162],[-86.1175,38.0154],[-86.1042,38.0126],[-86.0863,38.0049],[-86.0794,38.0006],[-86.0755,37.9972],[-86.0759,37.9955],[-86.0699,37.9837],[-86.0649,37.9756],[-86.058,37.9677],[-86.05,37.9605],[-86.0423,37.9582],[-86.0382,37.9596],[-86.0344,37.9646],[-86.0336,37.9702],[-86.0354,37.9814],[-86.0325,37.9901],[-86.0256,37.9945],[-86.0185,37.9965],[-85.999,38.0],[-85.9759,37.8758]]]}},{"type":"Feature","properties":{"id":"21215","name":"Spencer Co., KY"},"geometry":{"type":"Polygon","coordinates":[[[-85.4241,38.1474],[-85.3387,38.121],[-85.2756,38.1024],[-85.2326,38.0895],[-85.1016,38.0373],[-85.1093,38.0272],[-85.1131,38.0256],[-85.1204,38.0259],[-85.1192,38.021],[-85.1265,38.0203],[-85.1234,38.0106],[-85.1264,38.0037],[-85.1284,38.002],[-85.1311,37.9959],[-85.139,37.9981],[-85.1402,38.0026],[-85.1426,37.9969],[-85.15,37.9996],[-85.148,37.9965],[-85.151,37.9939],[-85.1508,37.989],[-85.1532,37.9884],[-85.1552,37.9922],[-85.1586,37.9927],[-85.1619,37.9906],[-85.1638,37.9916],[-85.1638,37.998],[-85.1611,38.0005],[-85.1647,38.0014],[-85.1692,37.9979],[-85.17,37.9947],[-85.1686,37.9901],[-85.1663,37.9875],[-85.1692,37.9814],[-85.1678,37.9718],[-85.3051,37.9532],[-85.3791,37.9404],[-85.3833,37.9398],[-85.3996,37.9399],[-85.4083,37.9469],[-85.4129,37.9492],[-85.4199,37.9562],[-85.4258,37.9596],[-85.4401,37.9635],[-85.441,37.9648],[-85.4634,37.9714],[-85.4892,37.9907],[-85.5169,38.0113],[-85.5128,38.0108],[-85.5119,38.0129],[-85.4866,38.0624],[-85.4692,38.0962],[-85.4629,38.0959],[-85.4519,38.1023],[-85.4471,38.1016],[-85.438,38.1019],[-85.4348,38.1057],[-85.4305,38.1073],[-85.4288,38.1184],[-85.4241,38.1474]]]}},{"type":"Feature","properties":{"id":"21103","name":"Henry Co., KY"},"geometry":{"type":"Polygon","coordinates":[[[-85.3098,38.4994],[-85.3055,38.4975],[-85.2987,38.4971],[-85.2889,38.4981],[-85.2796,38.4963],[-85.2734,38.5001],[-85.2477,38.5261],[-85.1938,38.5668],[-85.1683,38.5854],[-85.0746,38.5968],[-85.0741,38.594],[-85.0758,38.5854],[-85.0759,38.578],[-85.0732,38.574],[-85.0668,38.5671],[-85.063,38.5645],[-85.0595,38.5647],[-85.0531,38.5689],[-85.0426,38.5739],[-85.0387,38.5735],[-85.032,38.5698],[-85.0092,38.5611],[-85.0026,38.554],[-85.0027,38.5521],[-85.0115,38.5487],[-85.0129,38.5456],[-85.0141,38.5374],[-85.0253,38.5234],[-85.0299,38.5108],[-85.0289,38.5074],[-85.0241,38.5043],[-85.0174,38.5048],[-85.0072,38.5139],[-85.0033,38.5161],[-84.9956,38.5181],[-84.985,38.5184],[-84.9791,38.5163],[-84.9772,38.513],[-84.9879,38.5025],[-84.9922,38.4953],[-84.9914,38.4893],[-84.9888,38.4871],[-84.9788,38.4848],[-84.9684,38.4808],[-84.9568,38.4736],[-84.9521,38.465],[-84.9518,38.457],[-84.9552,38.4522],[-84.957,38.4453],[-84.9632,38.4371],[-84.9544,38.4278],[-84.9498,38.4262],[-84.9443,38.4263],[-84.9393,38.4278],[-84.9375,38.4318],[-84.9382,38.4504],[-84.9362,38.4551],[-84.929,38.462],[-84.9226,38.4645],[-84.9149,38.4618],[-84.9122,38.4598],[-84.9096,38.4549],[-84.9098,38.4494],[-84.9165,38.4456],[-84.9233,38.4428],[-84.9267,38.4402],[-84.9281,38.4363],[-84.9266,38.4321],[-84.9247,38.4312],[-84.9164,38.4308],[-84.9102,38.4277],[-84.8958,38.4249],[-84.8822,38.4201],[-84.8802,38.4162],[-84.8864,38.4082],[-84.8885,38.402],[-84.8948,38.3946],[-84.8976,38.3896],[-84.8986,38.379],[-84.8944,38.3753],[-84.8759,38.3729],[-84.8684,38.3686],[-84.8671,38.362],[-84.8687,38.3576],[-84.8727,38.3565],[-84.8817,38.3567],[-84.884,38.3515],[-84.8862,38.3537],[-84.8924,38.3552],[-84.9063,38.3748],[-84.9977,38.3356],[-85.1106,38.3446],[-85.2831,38.3581],[-85.2956,38.3739],[-85.3251,38.4041],[-85.3318,38.4431],[-85.3461,38.4595],[-85.3151,38.4921],[-85.314,38.4926],[-85.3098,38.4994]]]}},{"type":"Feature","properties":{"id":"18019","name":"Clark Co., IN"},"geometry":{"type":"Polygon","coordinates":[[[-85.8212,38.5614],[-85.8215,38.5754],[-85.8122,38.5756],[-85.8123,38.5829],[-85.803,38.583],[-85.8031,38.5903],[-85.7936,38.5903],[-85.7936,38.6048],[-85.75,38.6058],[-85.7238,38.6055],[-85.6703,38.6057],[-85.6327,38.6056],[-85.4967,38.6067],[-85.4965,38.5922],[-85.4787,38.5924],[-85.4788,38.5862],[-85.4431,38.586],[-85.4286,38.5864],[-85.419,38.5713],[-85.4158,38.5636],[-85.4157,38.5467],[-85.417,38.5417],[-85.4224,38.5329],[-85.4287,38.5271],[-85.4332,38.5247],[-85.4384,38.5219],[-85.4586,38.5147],[-85.4669,38.5108],[-85.4751,38.5037],[-85.4795,38.4945],[-85.4812,38.4884],[-85.4914,38.4747],[-85.4989,38.4682],[-85.5094,38.4635],[-85.5248,38.4576],[-85.5382,38.4552],[-85.5524,38.4536],[-85.5749,38.4526],[-85.586,38.4501],[-85.5971,38.4451],[-85.6045,38.4408],[-85.6097,38.4348],[-85.6183,38.4264],[-85.6241,38.4123],[-85.63,38.4023],[-85.6329,38.3957],[-85.6379,38.3802],[-85.6387,38.3639],[-85.6443,38.346],[-85.6514,38.3307],[-85.6554,38.3238],[-85.6679,38.3106],[-85.6736,38.3023],[-85.6836,38.2955],[-85.7409,38.2679],[-85.7451,38.2672],[-85.7515,38.268],[-85.7609,38.272],[-85.7672,38.2773],[-85.766,38.2803],[-85.7723,38.2856],[-85.781,38.2885],[-85.7911,38.2878],[-85.7903,38.2905],[-85.7908,38.2982],[-85.7921,38.3019],[-85.7957,38.3052],[-85.7952,38.3072],[-85.7906,38.3073],[-85.7879,38.3095],[-85.7935,38.3127],[-85.7933,38.3153],[-85.7884,38.3186],[-85.7836,38.3201],[-85.7834,38.3216],[-85.7911,38.3246],[-85.7941,38.3248],[-85.7971,38.3325],[-85.7934,38.3343],[-85.7877,38.3317],[-85.7833,38.3319],[-85.7837,38.3355],[-85.7895,38.3376],[-85.7899,38.3399],[-85.783,38.3389],[-85.7815,38.3419],[-85.7739,38.3428],[-85.7611,38.3504],[-85.7813,38.3736],[-85.7827,38.3728],[-85.8034,38.3956],[-85.8082,38.4007],[-85.8077,38.4043],[-85.8833,38.4042],[-85.9493,38.4036],[-85.9667,38.4037],[-85.9669,38.4109],[-85.9946,38.4109],[-85.9946,38.4183],[-85.9946,38.4297],[-85.9939,38.4327],[-85.9941,38.4534],[-85.994,38.4723],[-85.9933,38.4885],[-85.9562,38.489],[-85.9562,38.4991],[-85.9571,38.5019],[-85.9276,38.5026],[-85.9033,38.5026],[-85.8848,38.5035],[-85.8847,38.5182],[-85.8663,38.5184],[-85.8663,38.5471],[-85.8476,38.5471],[-85.8479,38.5613],[-85.8212,38.5614]]]}},{"type":"Feature","properties":{"id":"21111","name":"Jefferson Co., KY"},"geometry":{"type":"Polygon","coordinates":[[[-85.9422,38.0073],[-85.9312,38.016],[-85.9257,38.0218],[-85.9213,38.0303],[-85.9189,38.0412],[-85.9163,38.0609],[-85.9138,38.072],[-85.912,38.0734],[-85.9053,38.0889],[-85.9042,38.0998],[-85.9052,38.1111],[-85.9088,38.1338],[-85.9091,38.1444],[-85.908,38.1615],[-85.9039,38.1741],[-85.8995,38.1804],[-85.8935,38.189],[-85.8803,38.2034],[-85.8719,38.2096],[-85.8524,38.2219],[-85.8444,38.231],[-85.8391,38.2397],[-85.8374,38.25],[-85.8376,38.2592],[-85.8362,38.2653],[-85.8292,38.2765],[-85.8245,38.2799],[-85.8174,38.2824],[-85.7973,38.2857],[-85.7911,38.2878],[-85.781,38.2885],[-85.7723,38.2856],[-85.766,38.2803],[-85.7672,38.2773],[-85.7609,38.272],[-85.7515,38.268],[-85.7451,38.2672],[-85.7409,38.2679],[-85.6836,38.2955],[-85.6736,38.3023],[-85.6679,38.3106],[-85.6554,38.3238],[-85.6514,38.3307],[-85.6443,38.346],[-85.6387,38.3639],[-85.6379,38.3802],[-85.6254,38.3734],[-85.5694,38.3418],[-85.5784,38.341],[-85.5853,38.3394],[-85.5747,38.334],[-85.5613,38.3371],[-85.5146,38.311],[-85.4983,38.3017],[-85.4682,38.2853],[-85.4049,38.2637],[-85.4073,38.2484],[-85.4241,38.1474],[-85.4288,38.1184],[-85.4803,38.1],[-85.5159,38.0888],[-85.5573,38.0738],[-85.5962,38.0773],[-85.7126,38.0873],[-85.8586,38.047],[-85.877,38.0418],[-85.8828,38.0405],[-85.8835,38.0376],[-85.8864,38.0367],[-85.8976,38.0297],[-85.9044,38.0288],[-85.9067,38.024],[-85.9051,38.0224],[-85.9101,38.023],[-85.9101,38.0196],[-85.9128,38.0207],[-85.9154,38.0139],[-85.9139,38.0108],[-85.9181,38.0091],[-85.9199,38.0103],[-85.9299,38.0023],[-85.932,37.9986],[-85.9346,37.9972],[-85.9383,37.9988],[-85.945,38.0024],[-85.9471,38.0051],[-85.9422,38.0073]]]}},{"type":"Feature","properties":{"id":"21211","name":"Shelby Co., KY"},"geometry":{"type":"Polygon","coordinates":[[[-85.4607,38.286],[-85.4628,38.2913],[-85.4568,38.2909],[-85.455,38.2921],[-85.4543,38.2993],[-85.4481,38.304],[-85.4478,38.3008],[-85.4514,38.2988],[-85.4487,38.2961],[-85.4451,38.2994],[-85.4383,38.2987],[-85.4375,38.2968],[-85.4321,38.2935],[-85.4267,38.293],[-85.4275,38.3035],[-85.4233,38.3022],[-85.4168,38.3024],[-85.4142,38.2961],[-85.4124,38.2942],[-85.4085,38.2946],[-85.4098,38.3017],[-85.4086,38.304],[-85.3954,38.3054],[-85.3928,38.3079],[-85.3861,38.308],[-85.3518,38.3031],[-85.3246,38.3101],[-85.2831,38.3581],[-85.1106,38.3446],[-84.9977,38.3356],[-84.957,38.3323],[-84.9989,38.275],[-85.001,38.2262],[-85.0075,38.1758],[-85.006,38.1706],[-85.0091,38.1685],[-85.0032,38.1675],[-85.0067,38.1649],[-85.0098,38.1656],[-85.0098,38.1628],[-85.0038,38.1607],[-85.02,38.1415],[-85.0187,38.1366],[-85.0229,38.1338],[-85.0243,38.1306],[-85.0223,38.1282],[-85.0268,38.1242],[-85.0313,38.1242],[-85.0334,38.122],[-85.0397,38.1193],[-85.042,38.1135],[-85.0463,38.111],[-85.0449,38.1074],[-85.0481,38.1],[-85.049,38.0947],[-85.0529,38.0888],[-85.0514,38.0875],[-85.0545,38.0842],[-85.0526,38.0754],[-85.0478,38.0723],[-85.059,38.0681],[-85.0617,38.0628],[-85.0668,38.0595],[-85.0717,38.0578],[-85.0751,38.0498],[-85.0779,38.0454],[-85.0835,38.0411],[-85.0904,38.0396],[-85.0934,38.0399],[-85.0992,38.0368],[-85.1016,38.0373],[-85.2326,38.0895],[-85.2756,38.1024],[-85.3387,38.121],[-85.4241,38.1474],[-85.4073,38.2484],[-85.4049,38.2637],[-85.4682,38.2853],[-85.4607,38.286]]]}},{"type":"Feature","properties":{"id":"18043","name":"Floyd Co., IN"},"geometry":{"type":"Polygon","coordinates":[[[-86.0144,38.4187],[-86.0141,38.4191],[-85.9946,38.4183],[-85.9946,38.4109],[-85.9669,38.4109],[-85.9667,38.4037],[-85.9493,38.4036],[-85.8833,38.4042],[-85.8077,38.4043],[-85.8082,38.4007],[-85.8034,38.3956],[-85.7827,38.3728],[-85.7813,38.3736],[-85.7611,38.3504],[-85.7739,38.3428],[-85.7815,38.3419],[-85.783,38.3389],[-85.7899,38.3399],[-85.7895,38.3376],[-85.7837,38.3355],[-85.7833,38.3319],[-85.7877,38.3317],[-85.7934,38.3343],[-85.7971,38.3325],[-85.7941,38.3248],[-85.7911,38.3246],[-85.7834,38.3216],[-85.7836,38.3201],[-85.7884,38.3186],[-85.7933,38.3153],[-85.7935,38.3127],[-85.7879,38.3095],[-85.7906,38.3073],[-85.7952,38.3072],[-85.7957,38.3052],[-85.7921,38.3019],[-85.7908,38.2982],[-85.7903,38.2905],[-85.7911,38.2878],[-85.7973,38.2857],[-85.8174,38.2824],[-85.8245,38.2799],[-85.8292,38.2765],[-85.8362,38.2653],[-85.8376,38.2592],[-85.8374,38.25],[-85.8391,38.2397],[-85.8444,38.231],[-85.8524,38.2219],[-85.8719,38.2096],[-85.8803,38.2034],[-85.8935,38.189],[-85.8995,38.1804],[-85.9001,38.1855],[-85.94,38.1861],[-85.958,38.1859],[-85.9576,38.1993],[-85.9555,38.1995],[-85.9553,38.2134],[-85.9552,38.2577],[-85.9738,38.2581],[-85.9738,38.2728],[-85.9924,38.2728],[-85.9924,38.2871],[-85.9952,38.287],[-85.9954,38.3018],[-86.0142,38.3018],[-86.0143,38.3306],[-86.0326,38.3308],[-86.0323,38.3743],[-86.0331,38.3743],[-86.0328,38.4179],[-86.0144,38.4187]]]}},{"type":"Feature","properties":{"id":"21185","name":"Oldham Co., KY"},"geometry":{"type":"Polygon","coordinates":[[[-85.4291,38.5196],[-85.4223,38.5209],[-85.4132,38.5179],[-85.4055,38.5189],[-85.3955,38.5181],[-85.3908,38.5156],[-85.3787,38.5188],[-85.3773,38.5167],[-85.3728,38.515],[-85.371,38.5107],[-85.3651,38.5075],[-85.3566,38.5097],[-85.3512,38.509],[-85.343,38.5056],[-85.3389,38.5028],[-85.3262,38.5006],[-85.3238,38.5008],[-85.3156,38.4959],[-85.314,38.4926],[-85.3151,38.4921],[-85.3461,38.4595],[-85.3318,38.4431],[-85.3251,38.4041],[-85.2956,38.3739],[-85.2831,38.3581],[-85.3246,38.3101],[-85.3518,38.3031],[-85.3861,38.308],[-85.3928,38.3079],[-85.3954,38.3054],[-85.4086,38.304],[-85.4098,38.3017],[-85.4085,38.2946],[-85.4124,38.2942],[-85.4142,38.2961],[-85.4168,38.3024],[-85.4233,38.3022],[-85.4275,38.3035],[-85.4267,38.293],[-85.4321,38.2935],[-85.4375,38.2968],[-85.4383,38.2987],[-85.4451,38.2994],[-85.4487,38.2961],[-85.4514,38.2988],[-85.4478,38.3008],[-85.4481,38.304],[-85.4543,38.2993],[-85.455,38.2921],[-85.4568,38.2909],[-85.4628,38.2913],[-85.4607,38.286],[-85.4682,38.2853],[-85.4983,38.3017],[-85.5146,38.311],[-85.5613,38.3371],[-85.5747,38.334],[-85.5853,38.3394],[-85.5784,38.341],[-85.5694,38.3418],[-85.6254,38.3734],[-85.6379,38.3802],[-85.6329,38.3957],[-85.63,38.4023],[-85.6241,38.4123],[-85.6183,38.4264],[-85.6097,38.4348],[-85.6045,38.4408],[-85.5971,38.4451],[-85.586,38.4501],[-85.5749,38.4526],[-85.5524,38.4536],[-85.5382,38.4552],[-85.5248,38.4576],[-85.5094,38.4635],[-85.4989,38.4682],[-85.4914,38.4747],[-85.4812,38.4884],[-85.4795,38.4945],[-85.4751,38.5037],[-85.4669,38.5108],[-85.4586,38.5147],[-85.4384,38.5219],[-85.4332,38.5247],[-85.4291,38.5196]]]}}]}