{"type":"FeatureCollection","features":[{"type":"Feature","properties":{"id":"31155","name":"Saunders Co., NE"},"geometry":{"type":"Polygon","coordinates":[[[-96.4595,41.3803],[-96.4504,41.3752],[-96.4396,41.3701],[-96.4244,41.3661],[-96.4203,41.363],[-96.4145,41.355],[-96.4091,41.3419],[-96.407,41.3343],[-96.4069,41.3287],[-96.408,41.3217],[-96.4097,41.3201],[-96.4076,41.3146],[-96.4004,41.3094],[-96.3986,41.3091],[-96.3882,41.302],[-96.3819,41.3005],[-96.3751,41.2956],[-96.3671,41.2885],[-96.3606,41.2804],[-96.3506,41.2652],[-96.3497,41.2622],[-96.3508,41.2562],[-96.3571,41.249],[-96.3625,41.2409],[-96.3656,41.2341],[-96.3614,41.2192],[-96.3543,41.2075],[-96.3507,41.2042],[-96.3365,41.198],[-96.3325,41.1956],[-96.3274,41.19],[-96.3247,41.1859],[-96.3216,41.1767],[-96.3216,41.1665],[-96.3185,41.1528],[-96.3163,41.1486],[-96.3159,41.144],[-96.3193,41.1365],[-96.319,41.1289],[-96.3128,41.1198],[-96.311,41.1153],[-96.3169,41.1085],[-96.3263,41.1042],[-96.3329,41.0996],[-96.3389,41.0914],[-96.3398,41.0825],[-96.3381,41.078],[-96.3308,41.069],[-96.3249,41.0591],[-96.3225,41.0515],[-96.3192,41.045],[-96.3482,41.045],[-96.3491,41.0445],[-96.3495,41.0153],[-96.3685,41.0152],[-96.4639,41.0161],[-96.4639,41.0451],[-96.7013,41.0457],[-96.8705,41.0461],[-96.9085,41.0461],[-96.9086,41.0996],[-96.9088,41.1182],[-96.9087,41.1479],[-96.9087,41.2059],[-96.9085,41.2204],[-96.909,41.2679],[-96.909,41.2891],[-96.9085,41.3218],[-96.908,41.3363],[-96.9085,41.3507],[-96.9082,41.3941],[-96.9058,41.3941],[-96.9059,41.4534],[-96.8897,41.4534],[-96.8701,41.4499],[-96.862,41.4493],[-96.8543,41.4455],[-96.8418,41.4447],[-96.8377,41.4459],[-96.8191,41.4402],[-96.8103,41.4401],[-96.7978,41.4447],[-96.7946,41.4439],[-96.7886,41.4445],[-96.7813,41.4483],[-96.7743,41.4501],[-96.765,41.4494],[-96.7572,41.4499],[-96.7465,41.4496],[-96.7316,41.4448],[-96.7242,41.4393],[-96.7178,41.4362],[-96.7102,41.4307],[-96.7035,41.4299],[-96.6947,41.4259],[-96.6727,41.4261],[-96.6557,41.4294],[-96.6508,41.4328],[-96.6403,41.4362],[-96.634,41.4344],[-96.6132,41.4343],[-96.6078,41.4331],[-96.6047,41.4345],[-96.5838,41.4338],[-96.5777,41.4342],[-96.5694,41.4333],[-96.5591,41.4299],[-96.5487,41.4234],[-96.5317,41.4154],[-96.5203,41.4083],[-96.5095,41.4042],[-96.5042,41.3966],[-96.4959,41.394],[-96.4922,41.3975],[-96.4882,41.3933],[-96.4707,41.3932],[-96.4595,41.3803]]]}},{"type":"Feature","properties":{"id":"31055","name":"Douglas Co., NE"},"geometry":{"type":"Polygon","coordinates":[[[-96.329,41.3931],[-96.278,41.393],[-96.1584,41.3932],[-96.0431,41.3931],[-95.9967,41.3932],[-95.9375,41.3931],[-95.9352,41.3844],[-95.9293,41.3749],[-95.9288,41.3701],[-95.931,41.3647],[-95.9355,41.3606],[-95.941,41.3575],[-95.9522,41.3535],[-95.9568,41.3492],[-95.9567,41.3455],[-95.9531,41.3399],[-95.9469,41.3341],[-95.9393,41.3289],[-95.9257,41.3222],[-95.9138,41.3202],[-95.8993,41.3212],[-95.8887,41.3191],[-95.8831,41.3167],[-95.8782,41.3125],[-95.8747,41.3071],[-95.8715,41.2958],[-95.8729,41.2895],[-95.8769,41.2851],[-95.8824,41.2814],[-95.9025,41.2734],[-95.9125,41.2795],[-95.9043,41.2935],[-95.9043,41.2996],[-95.9059,41.3009],[-95.9203,41.3011],[-95.9275,41.2984],[-95.9296,41.2923],[-95.9296,41.2851],[-95.9287,41.2814],[-95.914,41.2714],[-95.9204,41.2684],[-95.9219,41.2646],[-95.9213,41.2585],[-95.9114,41.238],[-95.9109,41.2318],[-95.9151,41.223],[-95.9249,41.2112],[-95.9275,41.2022],[-95.926,41.1957],[-95.9233,41.1912],[-95.9398,41.191],[-96.0046,41.1907],[-96.0814,41.1908],[-96.1196,41.1906],[-96.1388,41.1908],[-96.1967,41.1907],[-96.2343,41.1903],[-96.2535,41.1904],[-96.3274,41.19],[-96.3325,41.1956],[-96.3365,41.198],[-96.3507,41.2042],[-96.3543,41.2075],[-96.3614,41.2192],[-96.3656,41.2341],[-96.3625,41.2409],[-96.3571,41.249],[-96.3508,41.2562],[-96.3497,41.2622],[-96.3506,41.2652],[-96.3606,41.2804],[-96.3671,41.2885],[-96.3751,41.2956],[-96.3819,41.3005],[-96.3882,41.302],[-96.3986,41.3091],[-96.4004,41.3094],[-96.4076,41.3146],[-96.4097,41.3201],[-96.408,41.3217],[-96.4069,41.3287],[-96.407,41.3343],[-96.4091,41.3419],[-96.4145,41.355],[-96.4203,41.363],[-96.4244,41.3661],[-96.4396,41.3701],[-96.4504,41.3752],[-96.4595,41.3803],[-96.4707,41.3932],[-96.329,41.3931]]]}},{"type":"Feature","properties":{"id":"31153","name":"Sarpy Co., NE"},"geometry":{"type":"Polygon","coordinates":[[[-96.2535,41.1904],[-96.2343,41.1903],[-96.1967,41.1907],[-96.1388,41.1908],[-96.1196,41.1906],[-96.0814,41.1908],[-96.0046,41.1907],[-95.9398,41.191],[-95.9233,41.1912],[-95.9183,41.1867],[-95.9097,41.1844],[-95.8648,41.1883],[-95.8568,41.1871],[-95.8502,41.1848],[-95.8441,41.1806],[-95.8413,41.175],[-95.8419,41.1711],[-95.8462,41.1667],[-95.8528,41.1654],[-95.8651,41.1678],[-95.8719,41.1681],[-95.8763,41.1651],[-95.8809,41.1603],[-95.8835,41.1549],[-95.8821,41.144],[-95.8789,41.1381],[-95.8687,41.1247],[-95.8659,41.1179],[-95.8654,41.1013],[-95.8633,41.0938],[-95.8626,41.0884],[-95.8655,41.0804],[-95.8706,41.0752],[-95.8781,41.0696],[-95.8814,41.0652],[-95.8824,41.0604],[-95.8795,41.0533],[-95.8892,41.0584],[-95.8967,41.0594],[-95.9097,41.0586],[-95.9146,41.0598],[-95.9306,41.0586],[-95.9355,41.0577],[-95.9484,41.0579],[-95.9531,41.0599],[-95.961,41.0608],[-95.9673,41.0594],[-95.9718,41.0559],[-95.982,41.0525],[-95.9873,41.0527],[-95.9919,41.0542],[-96.0031,41.0605],[-96.0141,41.0608],[-96.0281,41.0636],[-96.0341,41.066],[-96.0563,41.0654],[-96.0632,41.0633],[-96.0736,41.058],[-96.0812,41.0571],[-96.0937,41.0532],[-96.1002,41.0532],[-96.1099,41.0484],[-96.1126,41.0451],[-96.1208,41.038],[-96.1312,41.0314],[-96.1395,41.0243],[-96.1447,41.0176],[-96.1533,41.0159],[-96.158,41.0132],[-96.174,41.0078],[-96.1803,41.0062],[-96.1875,41.0022],[-96.1979,40.9997],[-96.2076,40.9956],[-96.2189,40.9943],[-96.2233,40.9956],[-96.233,41.0009],[-96.2358,41.0073],[-96.2408,41.0134],[-96.2476,41.0178],[-96.2508,41.0188],[-96.2626,41.0188],[-96.2755,41.0201],[-96.2844,41.0217],[-96.2973,41.0268],[-96.302,41.0294],[-96.3113,41.0364],[-96.3192,41.045],[-96.3225,41.0515],[-96.3249,41.0591],[-96.3308,41.069],[-96.3381,41.078],[-96.3398,41.0825],[-96.3389,41.0914],[-96.3329,41.0996],[-96.3263,41.1042],[-96.3169,41.1085],[-96.311,41.1153],[-96.3128,41.1198],[-96.319,41.1289],[-96.3193,41.1365],[-96.3159,41.144],[-96.3163,41.1486],[-96.3185,41.1528],[-96.3216,41.1665],[-96.3216,41.1767],[-96.3247,41.1859],[-96.3274,41.19],[-96.2535,41.1904]]]}},{"type":"Feature","properties":{"id":"31025","name":"Cass Co., NE"},"geometry":{"type":"Polygon","coordinates":[[[-96.3685,41.0152],[-96.3495,41.0153],[-96.3491,41.0445],[-96.3482,41.045],[-96.3192,41.045],[-96.3113,41.0364],[-96.302,41.0294],[-96.2973,41.0268],[-96.2844,41.0217],[-96.2755,41.0201],[-96.2626,41.0188],[-96.2508,41.0188],[-96.2476,41.0178],[-96.2408,41.0134],[-96.2358,41.0073],[-96.233,41.0009],[-96.2233,40.9956],[-96.2189,40.9943],[-96.2076,40.9956],[-96.1979,40.9997],[-96.1875,41.0022],[-96.1803,41.0062],[-96.174,41.0078],[-96.158,41.0132],[-96.1533,41.0159],[-96.1447,41.0176],[-96.1395,41.0243],[-96.1312,41.0314],[-96.1208,41.038],[-96.1126,41.0451],[-96.1099,41.0484],[-96.1002,41.0532],[-96.0937,41.0532],[-96.0812,41.0571],[-96.0736,41.058],[-96.0632,41.0633],[-96.0563,41.0654],[-96.0341,41.066],[-96.0281,41.0636],[-96.0141,41.0608],[-96.0031,41.0605],[-95.9919,41.0542],[-95.9873,41.0527],[-95.982,41.0525],[-95.9718,41.0559],[-95.9673,41.0594],[-95.961,41.0608],[-95.9531,41.0599],[-95.9484,41.0579],[-95.9355,41.0577],[-95.9306,41.0586],[-95.9146,41.0598],[-95.9097,41.0586],[-95.8967,41.0594],[-95.8892,41.0584],[-95.8795,41.0533],[-95.8698,41.0452],[-95.8618,41.0394],[-95.8597,41.0357],[-95.8591,41.0316],[-95.8599,41.0254],[-95.8659,41.0174],[-95.8695,41.0094],[-95.8673,41.0016],[-95.8635,40.9973],[-95.8525,40.9917],[-95.8444,40.9895],[-95.8335,40.9827],[-95.8303,40.9783],[-95.8283,40.9724],[-95.8298,40.9639],[-95.838,40.9506],[-95.8403,40.9399],[-95.8397,40.9328],[-95.8364,40.9216],[-95.8307,40.915],[-95.8187,40.9068],[-95.8135,40.9017],[-95.8098,40.8954],[-95.8095,40.8912],[-95.8121,40.8842],[-95.8159,40.8798],[-95.825,40.875],[-95.8387,40.8722],[-95.8441,40.8692],[-95.8478,40.8643],[-95.8485,40.8586],[-95.8471,40.8542],[-95.8413,40.8456],[-95.8372,40.8353],[-95.8386,40.8262],[-95.8439,40.8177],[-95.8453,40.8113],[-95.8437,40.8038],[-95.8358,40.7906],[-95.8342,40.7838],[-95.8925,40.7841],[-96.0069,40.7841],[-96.022,40.7839],[-96.0544,40.7841],[-96.1212,40.7841],[-96.2363,40.7837],[-96.3316,40.7835],[-96.35,40.7839],[-96.4638,40.784],[-96.4637,40.9579],[-96.4639,41.0161],[-96.3685,41.0152]]]}},{"type":"Feature","properties":{"id":"19155","name":"Pottawattamie Co., IA"},"geometry":{"type":"Polygon","coordinates":[[[-95.9559,41.5065],[-95.8407,41.5066],[-95.7086,41.5063],[-95.6899,41.5064],[-95.6544,41.506],[-95.5911,41.506],[-95.57,41.5062],[-95.498,41.5061],[-95.4606,41.5061],[-95.4395,41.5059],[-95.2694,41.5057],[-95.1547,41.5052],[-95.1553,41.5],[-95.1546,41.3885],[-95.1557,41.357],[-95.1552,41.339],[-95.1553,41.3022],[-95.1554,41.245],[-95.1556,41.2187],[-95.1553,41.2173],[-95.1559,41.1592],[-95.27,41.1595],[-95.3276,41.1599],[-95.3843,41.16],[-95.4803,41.1602],[-95.5756,41.16],[-95.5895,41.1597],[-95.595,41.16],[-95.6667,41.1601],[-95.7275,41.16],[-95.7747,41.1601],[-95.7942,41.1599],[-95.8079,41.1603],[-95.8809,41.1603],[-95.8763,41.1651],[-95.8719,41.1681],[-95.8651,41.1678],[-95.8528,41.1654],[-95.8462,41.1667],[-95.8419,41.1711],[-95.8413,41.175],[-95.8441,41.1806],[-95.8502,41.1848],[-95.8568,41.1871],[-95.8648,41.1883],[-95.9097,41.1844],[-95.9183,41.1867],[-95.9233,41.1912],[-95.926,41.1957],[-95.9275,41.2022],[-95.9249,41.2112],[-95.9151,41.223],[-95.9109,41.2318],[-95.9114,41.238],[-95.9213,41.2585],[-95.9219,41.2646],[-95.9204,41.2684],[-95.914,41.2714],[-95.9287,41.2814],[-95.9296,41.2851],[-95.9296,41.2923],[-95.9275,41.2984],[-95.9203,41.3011],[-95.9059,41.3009],[-95.9043,41.2996],[-95.9043,41.2935],[-95.9125,41.2795],[-95.9025,41.2734],[-95.8824,41.2814],[-95.8769,41.2851],[-95.8729,41.2895],[-95.8715,41.2958],[-95.8747,41.3071],[-95.8782,41.3125],[-95.8831,41.3167],[-95.8887,41.3191],[-95.8993,41.3212],[-95.9138,41.3202],[-95.9257,41.3222],[-95.9393,41.3289],[-95.9469,41.3341],[-95.9531,41.3399],[-95.9567,41.3455],[-95.9568,41.3492],[-95.9522,41.3535],[-95.941,41.3575],[-95.9355,41.3606],[-95.931,41.3647],[-95.9288,41.3701],[-95.9293,41.3749],[-95.9352,41.3844],[-95.9375,41.3931],[-95.9369,41.3964],[-95.9308,41.4062],[-95.9299,41.4152],[-95.9323,41.4221],[-95.9332,41.4294],[-95.9307,41.4339],[-95.9239,41.4397],[-95.9206,41.4443],[-95.9203,41.4516],[-95.9257,41.4594],[-95.9329,41.4638],[-95.942,41.4663],[-95.9465,41.4662],[-95.957,41.4628],[-95.9655,41.4635],[-95.9734,41.4673],[-95.983,41.4698],[-95.991,41.4704],[-96.0047,41.4723],[-96.0118,41.4762],[-96.0164,41.4816],[-96.0195,41.4866],[-96.0192,41.4893],[-96.016,41.4927],[-96.0073,41.4976],[-95.9979,41.5048],[-95.9962,41.507],[-95.9559,41.5065]]]}},{"type":"Feature","properties":{"id":"31177","name":"Washington Co., NE"},"geometry":{"type":"Polygon","coordinates":[[[-96.121,41.6779],[-96.115,41.6712],[-96.0998,41.661],[-96.0954,41.6527],[-96.095,41.6474],[-96.0977,41.6396],[-96.1007,41.6355],[-96.1141,41.624],[-96.1179,41.6174],[-96.1176,41.61],[-96.1138,41.6023],[-96.1094,41.5969],[-96.1015,41.5916],[-96.0887,41.5875],[-96.0834,41.5833],[-96.0818,41.5804],[-96.0812,41.5743],[-96.0848,41.5678],[-96.0918,41.5611],[-96.0936,41.5583],[-96.0959,41.5509],[-96.0966,41.5454],[-96.092,41.5339],[-96.0827,41.526],[-96.0742,41.5239],[-96.0686,41.5191],[-96.0636,41.5162],[-96.0537,41.5089],[-96.0481,41.5073],[-96.0407,41.5071],[-96.0366,41.509],[-96.0337,41.5171],[-96.0344,41.5211],[-96.0317,41.5222],[-96.0293,41.528],[-96.0267,41.5404],[-96.0235,41.5434],[-96.0191,41.5451],[-96.0139,41.5453],[-96.0051,41.5433],[-96.0,41.5395],[-95.9939,41.5234],[-95.9927,41.5173],[-95.9928,41.512],[-95.9962,41.507],[-95.9979,41.5048],[-96.0073,41.4976],[-96.016,41.4927],[-96.0192,41.4893],[-96.0195,41.4866],[-96.0164,41.4816],[-96.0118,41.4762],[-96.0047,41.4723],[-95.991,41.4704],[-95.983,41.4698],[-95.9734,41.4673],[-95.9655,41.4635],[-95.957,41.4628],[-95.9465,41.4662],[-95.942,41.4663],[-95.9329,41.4638],[-95.9257,41.4594],[-95.9203,41.4516],[-95.9206,41.4443],[-95.9239,41.4397],[-95.9307,41.4339],[-95.9332,41.4294],[-95.9323,41.4221],[-95.9299,41.4152],[-95.9308,41.4062],[-95.9369,41.3964],[-95.9375,41.3931],[-95.9967,41.3932],[-96.0431,41.3931],[-96.1584,41.3932],[-96.278,41.393],[-96.329,41.3931],[-96.3286,41.4069],[-96.3289,41.4366],[-96.3577,41.4363],[-96.3673,41.4367],[-96.3672,41.451],[-96.3865,41.4513],[-96.3864,41.4657],[-96.4056,41.4658],[-96.4059,41.4805],[-96.4252,41.4803],[-96.4252,41.4949],[-96.4348,41.4949],[-96.4345,41.5239],[-96.4439,41.5239],[-96.4443,41.5675],[-96.4444,41.5964],[-96.4441,41.6109],[-96.4448,41.6836],[-96.367,41.6833],[-96.276,41.6834],[-96.1547,41.683],[-96.1343,41.6827],[-96.1217,41.683],[-96.121,41.6779]]]}},{"type":"Feature","properties":{"id":"19085","name":"Harrison Co., IA"},"geometry":{"type":"Polygon","coordinates":[[[-95.57,41.5062],[-95.5911,41.506],[-95.6544,41.506],[-95.6899,41.5064],[-95.7086,41.5063],[-95.8407,41.5066],[-95.9559,41.5065],[-95.9962,41.507],[-95.9928,41.512],[-95.9927,41.5173],[-95.9939,41.5234],[-96.0,41.5395],[-96.0051,41.5433],[-96.0139,41.5453],[-96.0191,41.5451],[-96.0235,41.5434],[-96.0267,41.5404],[-96.0293,41.528],[-96.0317,41.5222],[-96.0344,41.5211],[-96.0337,41.5171],[-96.0366,41.509],[-96.0407,41.5071],[-96.0481,41.5073],[-96.0537,41.5089],[-96.0636,41.5162],[-96.0686,41.5191],[-96.0742,41.5239],[-96.0827,41.526],[-96.092,41.5339],[-96.0966,41.5454],[-96.0959,41.5509],[-96.0936,41.5583],[-96.0918,41.5611],[-96.0848,41.5678],[-96.0812,41.5743],[-96.0818,41.5804],[-96.0834,41.5833],[-96.0887,41.5875],[-96.1015,41.5916],[-96.1094,41.5969],[-96.1138,41.6023],[-96.1176,41.61],[-96.1179,41.6174],[-96.1141,41.624],[-96.1007,41.6355],[-96.0977,41.6396],[-96.095,41.6474],[-96.0954,41.6527],[-96.0998,41.661],[-96.115,41.6712],[-96.121,41.6779],[-96.1217,41.683],[-96.1214,41.6885],[-96.1178,41.6942],[-96.112,41.6978],[-96.1051,41.6999],[-96.0906,41.6974],[-96.0824,41.6982],[-96.076,41.7017],[-96.0731,41.705],[-96.0725,41.7088],[-96.0752,41.7133],[-96.0797,41.718],[-96.0876,41.7222],[-96.1026,41.728],[-96.1056,41.7316],[-96.1064,41.7379],[-96.1046,41.7442],[-96.0975,41.7491],[-96.0917,41.7504],[-96.0847,41.7533],[-96.0799,41.7579],[-96.0783,41.7616],[-96.0789,41.7714],[-96.0775,41.7778],[-96.0732,41.783],[-96.0664,41.7889],[-96.0645,41.793],[-96.0649,41.7962],[-96.0697,41.8035],[-96.0755,41.8078],[-96.081,41.8101],[-96.0938,41.8128],[-96.1037,41.8172],[-96.1076,41.8207],[-96.1108,41.8282],[-96.1109,41.8308],[-96.1079,41.8403],[-96.108,41.8444],[-96.1102,41.8489],[-96.1162,41.8549],[-96.1232,41.8586],[-96.1306,41.8608],[-96.139,41.8663],[-96.0596,41.8647],[-96.0213,41.8638],[-95.9831,41.8635],[-95.9056,41.8634],[-95.8864,41.8635],[-95.7813,41.8633],[-95.6728,41.8631],[-95.5573,41.8634],[-95.5572,41.8308],[-95.5574,41.7542],[-95.5577,41.7216],[-95.5579,41.6169],[-95.5581,41.6024],[-95.4978,41.6023],[-95.498,41.5854],[-95.498,41.5061],[-95.57,41.5062]]]}},{"type":"Feature","properties":{"id":"19129","name":"Mills Co., IA"},"geometry":{"type":"Polygon","coordinates":[[[-95.8079,41.1603],[-95.7942,41.1599],[-95.7747,41.1601],[-95.7275,41.16],[-95.6667,41.1601],[-95.595,41.16],[-95.5895,41.1597],[-95.5756,41.16],[-95.4803,41.1602],[-95.3843,41.16],[-95.3844,41.13],[-95.3847,41.0733],[-95.3844,41.0124],[-95.3847,40.9874],[-95.3847,40.9087],[-95.385,40.9016],[-95.4609,40.9015],[-95.523,40.9017],[-95.6143,40.9016],[-95.7049,40.9014],[-95.7469,40.9017],[-95.8093,40.9016],[-95.8135,40.9017],[-95.8187,40.9068],[-95.8307,40.915],[-95.8364,40.9216],[-95.8397,40.9328],[-95.8403,40.9399],[-95.838,40.9506],[-95.8298,40.9639],[-95.8283,40.9724],[-95.8303,40.9783],[-95.8335,40.9827],[-95.8444,40.9895],[-95.8525,40.9917],[-95.8635,40.9973],[-95.8673,41.0016],[-95.8695,41.0094],[-95.8659,41.0174],[-95.8599,41.0254],[-95.8591,41.0316],[-95.8597,41.0357],[-95.8618,41.0394],[-95.8698,41.0452],[-95.8795,41.0533],[-95.8824,41.0604],[-95.8814,41.0652],[-95.8781,41.0696],[-95.8706,41.0752],[-95.8655,41.0804],[-95.8626,41.0884],[-95.8633,41.0938],[-95.8654,41.1013],[-95.8659,41.1179],[-95.8687,41.1247],[-95.8789,41.1381],[-95.8821,41.144],[-95.8835,41.1549],[-95.8809,41.1603],[-95.8079,41.1603]]]}}]}