{"type":"FeatureCollection","features":[{"type":"Feature","properties":{"id":"47021","name":"Cheatham Co."},"geometry":{"type":"Polygon","coordinates":[[[-87.0983,36.4423],[-87.0979,36.4456],[-87.0945,36.445],[-87.095,36.4403],[-87.0277,36.4006],[-87.0054,36.3924],[-86.9845,36.3651],[-86.9862,36.3695],[-86.9822,36.3711],[-86.9772,36.3672],[-86.9717,36.3666],[-86.9708,36.3734],[-86.9658,36.3741],[-86.9623,36.3771],[-86.9564,36.3769],[-86.9541,36.3789],[-86.9493,36.3794],[-86.9417,36.3783],[-86.938,36.3799],[-86.9367,36.3826],[-86.9365,36.388],[-86.9314,36.3836],[-86.9279,36.3825],[-86.9196,36.3871],[-86.9132,36.3826],[-86.9098,36.3792],[-86.9121,36.3771],[-86.9149,36.3781],[-86.9156,36.3709],[-86.9098,36.3721],[-86.9063,36.3662],[-86.91,36.3633],[-86.91,36.3605],[-86.9208,36.3307],[-86.9233,36.3254],[-86.9479,36.2824],[-86.9577,36.2758],[-86.9744,36.2499],[-86.984,36.2254],[-86.9804,36.217],[-86.9823,36.2137],[-86.9843,36.2138],[-86.9853,36.2101],[-86.9836,36.2096],[-86.9977,36.1285],[-87.0382,36.0943],[-87.0386,36.0867],[-87.0355,36.0864],[-87.0353,36.0829],[-87.0383,36.082],[-87.039,36.0773],[-87.041,36.0423],[-87.0437,36.0435],[-87.0445,36.0469],[-87.0491,36.0467],[-87.0547,36.05],[-87.0537,36.0456],[-87.0668,36.0445],[-87.0849,36.0438],[-87.124,36.0464],[-87.1423,36.048],[-87.1826,36.0497],[-87.1786,36.0675],[-87.1731,36.0709],[-87.1768,36.0822],[-87.173,36.0818],[-87.1728,36.1094],[-87.1659,36.1546],[-87.1679,36.1551],[-87.1721,36.1605],[-87.1708,36.166],[-87.1673,36.1692],[-87.1615,36.1722],[-87.1559,36.1732],[-87.1499,36.1769],[-87.1524,36.1826],[-87.1587,36.1911],[-87.1627,36.1922],[-87.1711,36.193],[-87.1719,36.1967],[-87.17,36.2012],[-87.1714,36.2035],[-87.1793,36.2103],[-87.1865,36.2098],[-87.1874,36.2152],[-87.1815,36.2257],[-87.1783,36.2283],[-87.1715,36.2265],[-87.1662,36.2301],[-87.1649,36.2355],[-87.171,36.2433],[-87.1694,36.2441],[-87.174,36.2477],[-87.1781,36.2469],[-87.1861,36.2421],[-87.194,36.2453],[-87.1933,36.249],[-87.1879,36.254],[-87.1826,36.2574],[-87.1818,36.2598],[-87.1634,36.2682],[-87.1605,36.2686],[-87.1564,36.2716],[-87.155,36.2748],[-87.1585,36.2799],[-87.1566,36.2831],[-87.1534,36.2838],[-87.1692,36.2853],[-87.1682,36.2917],[-87.1625,36.2906],[-87.1569,36.2913],[-87.155,36.2955],[-87.1517,36.2966],[-87.1508,36.2994],[-87.153,36.3054],[-87.1566,36.3077],[-87.1674,36.3101],[-87.1773,36.3141],[-87.1918,36.3142],[-87.2021,36.316],[-87.2111,36.3148],[-87.2167,36.3159],[-87.2242,36.321],[-87.2308,36.3278],[-87.2325,36.3313],[-87.2356,36.3256],[-87.2407,36.3251],[-87.2425,36.3234],[-87.2508,36.3218],[-87.2511,36.323],[-87.2665,36.3208],[-87.2865,36.3219],[-87.282,36.3429],[-87.2798,36.3486],[-87.2812,36.3528],[-87.2769,36.3558],[-87.2755,36.3533],[-87.2728,36.3534],[-87.2665,36.3563],[-87.2634,36.3543],[-87.2566,36.3611],[-87.2569,36.3642],[-87.2545,36.3674],[-87.2539,36.3734],[-87.2489,36.3764],[-87.25,36.3779],[-87.2218,36.3943],[-87.2151,36.3959],[-87.2056,36.4095],[-87.2052,36.4124],[-87.2006,36.4118],[-87.193,36.4077],[-87.1794,36.4066],[-87.1794,36.4097],[-87.1824,36.4128],[-87.1785,36.4198],[-87.1795,36.424],[-87.1748,36.4252],[-87.1713,36.4276],[-87.1687,36.4266],[-87.1632,36.4214],[-87.1627,36.4133],[-87.1579,36.4156],[-87.151,36.4166],[-87.1484,36.4193],[-87.1486,36.4228],[-87.1522,36.427],[-87.1516,36.4334],[-87.1501,36.4378],[-87.1502,36.445],[-87.128,36.4512],[-87.1227,36.4557],[-87.1204,36.4555],[-87.0983,36.4423]],[[-87.1393,36.2924],[-87.1418,36.2946],[-87.1442,36.2921],[-87.1469,36.2933],[-87.1524,36.2886],[-87.1424,36.2907],[-87.1393,36.2924]]]}},{"type":"Feature","properties":{"id":"47149","name":"Rutherford Co."},"geometry":{"type":"Polygon","coordinates":[[[-86.6144,35.9678],[-86.6136,35.9756],[-86.6104,35.9755],[-86.6096,35.9798],[-86.608,35.9798],[-86.6072,35.9855],[-86.6101,35.9858],[-86.6096,35.9909],[-86.6156,35.9916],[-86.6123,36.01],[-86.6058,36.0102],[-86.6007,36.0119],[-86.5916,36.0241],[-86.5825,36.0267],[-86.5785,36.0268],[-86.5688,36.0344],[-86.5624,36.0353],[-86.5607,36.0398],[-86.5664,36.0488],[-86.5621,36.0542],[-86.5618,36.0583],[-86.5643,36.0636],[-86.5617,36.0674],[-86.5574,36.0657],[-86.5505,36.0653],[-86.5465,36.0665],[-86.5461,36.0775],[-86.5485,36.0802],[-86.549,36.0859],[-86.5451,36.0866],[-86.5407,36.0776],[-86.539,36.0766],[-86.5295,36.0775],[-86.5275,36.074],[-86.5329,36.06],[-86.5308,36.0576],[-86.5257,36.0573],[-86.5244,36.059],[-86.525,36.0689],[-86.5209,36.0725],[-86.5194,36.0842],[-86.5176,36.0841],[-86.5156,36.1006],[-86.493,36.086],[-86.472,36.0721],[-86.4631,36.0702],[-86.4635,36.0687],[-86.452,36.0627],[-86.4373,36.054],[-86.4383,36.0518],[-86.4336,36.0497],[-86.4325,36.051],[-86.4181,36.042],[-86.3951,36.031],[-86.3941,36.0364],[-86.3825,36.0353],[-86.3838,36.0267],[-86.3884,36.0272],[-86.377,36.012],[-86.374,36.018],[-86.3675,36.0179],[-86.3644,36.0143],[-86.3649,36.0106],[-86.3463,36.0001],[-86.3263,35.985],[-86.3241,35.9872],[-86.31,35.9861],[-86.3104,35.9786],[-86.2871,35.975],[-86.2876,35.9727],[-86.2506,35.9677],[-86.2517,35.9611],[-86.2378,35.9594],[-86.2369,35.9633],[-86.2251,35.9629],[-86.2232,35.9651],[-86.223,35.9693],[-86.2169,35.9694],[-86.2169,35.9677],[-86.2098,35.967],[-86.2103,35.9629],[-86.2025,35.9623],[-86.2024,35.9634],[-86.1859,35.9622],[-86.1865,35.9579],[-86.1705,35.9573],[-86.1753,35.9589],[-86.1754,35.9603],[-86.1651,35.9601],[-86.1652,35.9632],[-86.1611,35.9632],[-86.1613,35.9568],[-86.1566,35.9565],[-86.1566,35.9545],[-86.1532,35.9544],[-86.1527,35.9487],[-86.1553,35.9326],[-86.1418,35.9144],[-86.1456,35.9085],[-86.1529,35.9091],[-86.1559,35.8881],[-86.1578,35.8877],[-86.1586,35.8808],[-86.1629,35.8811],[-86.1627,35.8837],[-86.1686,35.8844],[-86.1691,35.8777],[-86.1657,35.8778],[-86.1731,35.8742],[-86.1728,35.873],[-86.1756,35.8544],[-86.1778,35.8549],[-86.1762,35.8502],[-86.1797,35.8241],[-86.1774,35.8197],[-86.1795,35.8052],[-86.1821,35.8011],[-86.1828,35.7964],[-86.1812,35.795],[-86.1886,35.7959],[-86.1882,35.7875],[-86.1904,35.7871],[-86.1906,35.7824],[-86.1884,35.7772],[-86.1899,35.7718],[-86.188,35.7695],[-86.1828,35.7684],[-86.1835,35.7634],[-86.1871,35.7637],[-86.1899,35.7569],[-86.1883,35.754],[-86.1921,35.7518],[-86.1955,35.7414],[-86.2042,35.7372],[-86.2079,35.7323],[-86.2075,35.7299],[-86.203,35.7277],[-86.2064,35.7244],[-86.2066,35.717],[-86.2088,35.7124],[-86.2071,35.7038],[-86.2155,35.7009],[-86.2179,35.7045],[-86.2216,35.7064],[-86.2238,35.702],[-86.2273,35.6977],[-86.2253,35.6952],[-86.2305,35.6943],[-86.2336,35.6912],[-86.2387,35.6899],[-86.2411,35.6907],[-86.2454,35.6889],[-86.2468,35.6854],[-86.244,35.6816],[-86.2456,35.6797],[-86.2424,35.6742],[-86.2417,35.6685],[-86.2437,35.6667],[-86.2479,35.6665],[-86.2479,35.6624],[-86.2447,35.6618],[-86.2408,35.658],[-86.2449,35.6488],[-86.2449,35.6425],[-86.2414,35.6364],[-86.2452,35.6319],[-86.2577,35.6319],[-86.2575,35.6343],[-86.2606,35.6379],[-86.2666,35.6398],[-86.2689,35.6426],[-86.2733,35.6426],[-86.2798,35.6459],[-86.2809,35.6486],[-86.2876,35.6483],[-86.2869,35.6434],[-86.2935,35.6473],[-86.3013,35.6457],[-86.3052,35.6464],[-86.3055,35.6515],[-86.3028,35.6514],[-86.3003,35.6557],[-86.3041,35.6596],[-86.3093,35.6595],[-86.3104,35.6616],[-86.3172,35.6608],[-86.3189,35.662],[-86.3279,35.6624],[-86.3341,35.6581],[-86.337,35.6592],[-86.336,35.6621],[-86.3419,35.6643],[-86.3451,35.6637],[-86.3438,35.6609],[-86.3473,35.6587],[-86.3527,35.6605],[-86.3544,35.6556],[-86.3507,35.6532],[-86.3522,35.6502],[-86.3595,35.6504],[-86.3597,35.6522],[-86.3656,35.6509],[-86.3667,35.6485],[-86.3734,35.6458],[-86.3768,35.6472],[-86.3786,35.6428],[-86.375,35.6392],[-86.3756,35.6348],[-86.3729,35.6307],[-86.3797,35.6299],[-86.3828,35.6268],[-86.3878,35.6261],[-86.3942,35.6266],[-86.3951,35.6232],[-86.3987,35.6221],[-86.4027,35.6186],[-86.4067,35.6229],[-86.4137,35.6232],[-86.4179,35.6283],[-86.4138,35.637],[-86.4134,35.64],[-86.4189,35.6406],[-86.4182,35.6472],[-86.4166,35.6496],[-86.4249,35.6498],[-86.4241,35.653],[-86.4302,35.6497],[-86.4327,35.6469],[-86.4384,35.6452],[-86.4447,35.6462],[-86.4451,35.6435],[-86.455,35.6445],[-86.4561,35.6372],[-86.4622,35.6379],[-86.4614,35.6452],[-86.4732,35.6463],[-86.4721,35.6547],[-86.4878,35.6565],[-86.4884,35.6577],[-86.494,35.658],[-86.4937,35.6608],[-86.4998,35.6615],[-86.4994,35.6646],[-86.5016,35.6671],[-86.5054,35.6676],[-86.5048,35.6708],[-86.5095,35.6714],[-86.5088,35.6756],[-86.5194,35.6778],[-86.5191,35.6809],[-86.5167,35.6806],[-86.5155,35.6884],[-86.5202,35.6885],[-86.5204,35.6859],[-86.5233,35.6861],[-86.5234,35.6899],[-86.5269,35.6914],[-86.5375,35.6922],[-86.5373,35.6933],[-86.5437,35.6943],[-86.5431,35.6976],[-86.5681,35.6992],[-86.5811,35.6994],[-86.6004,35.7016],[-86.6219,35.7028],[-86.6364,35.702],[-86.6394,35.6859],[-86.6424,35.6862],[-86.642,35.689],[-86.6514,35.6901],[-86.6512,35.6916],[-86.6616,35.6927],[-86.6613,35.6948],[-86.6671,35.6964],[-86.6743,35.697],[-86.6737,35.7033],[-86.6826,35.7041],[-86.6807,35.7096],[-86.6862,35.7101],[-86.6859,35.7136],[-86.6891,35.7133],[-86.6886,35.7184],[-86.6947,35.7188],[-86.6993,35.7178],[-86.7003,35.7226],[-86.6987,35.7318],[-86.6978,35.7463],[-86.6969,35.7523],[-86.6924,35.7511],[-86.6818,35.7501],[-86.6795,35.7563],[-86.6781,35.7658],[-86.6751,35.7657],[-86.6751,35.769],[-86.672,35.7689],[-86.6713,35.7717],[-86.6638,35.771],[-86.6613,35.7674],[-86.6597,35.7814],[-86.6642,35.7829],[-86.6615,35.7863],[-86.6629,35.7909],[-86.6514,35.79],[-86.6478,35.7905],[-86.647,35.7956],[-86.6321,35.7945],[-86.632,35.7954],[-86.624,35.7948],[-86.6237,35.7912],[-86.6133,35.7903],[-86.6109,35.8041],[-86.6135,35.81],[-86.619,35.8085],[-86.6195,35.8057],[-86.6224,35.8052],[-86.6252,35.8089],[-86.6233,35.8157],[-86.617,35.8162],[-86.6169,35.8135],[-86.613,35.8135],[-86.6118,35.8245],[-86.626,35.8265],[-86.6255,35.8322],[-86.6173,35.8313],[-86.6164,35.8388],[-86.6034,35.8387],[-86.6015,35.8415],[-86.6015,35.8489],[-86.6004,35.8532],[-86.6071,35.8558],[-86.6062,35.859],[-86.6121,35.8599],[-86.6174,35.8641],[-86.6186,35.8713],[-86.6214,35.8826],[-86.6196,35.8837],[-86.6138,35.8838],[-86.6176,35.8999],[-86.6263,35.9073],[-86.628,35.9102],[-86.625,35.9203],[-86.615,35.9437],[-86.625,35.9539],[-86.622,35.9641],[-86.625,35.9667],[-86.6189,35.9682],[-86.6144,35.9678]]]}},{"type":"Feature","properties":{"id":"47081","name":"Hickman Co."},"geometry":{"type":"Polygon","coordinates":[[[-87.4899,35.9883],[-87.4897,35.9839],[-87.4777,35.9848],[-87.4821,35.9854],[-87.4824,35.9876],[-87.3994,35.9789],[-87.3199,35.9704],[-87.3019,35.9684],[-87.3022,35.9664],[-87.2858,35.9649],[-87.2803,35.9633],[-87.2799,35.9614],[-87.2745,35.9626],[-87.2742,35.9646],[-87.2248,35.961],[-87.2042,35.9592],[-87.2042,35.9528],[-87.2057,35.941],[-87.2014,35.9406],[-87.2051,35.9146],[-87.2122,35.8674],[-87.2151,35.8507],[-87.2254,35.7768],[-87.2293,35.7501],[-87.2341,35.7247],[-87.2408,35.7237],[-87.2447,35.7208],[-87.2515,35.7198],[-87.2621,35.72],[-87.2654,35.719],[-87.2628,35.7174],[-87.2533,35.7148],[-87.2503,35.7091],[-87.2509,35.7064],[-87.2558,35.7003],[-87.2607,35.6965],[-87.266,35.6958],[-87.2793,35.6962],[-87.2841,35.6972],[-87.2894,35.6969],[-87.2949,35.6953],[-87.298,35.6895],[-87.3045,35.6863],[-87.3079,35.6861],[-87.3098,35.6804],[-87.3194,35.6742],[-87.3178,35.6715],[-87.3195,35.6648],[-87.3216,35.6609],[-87.3253,35.6578],[-87.3291,35.659],[-87.3351,35.6575],[-87.3392,35.6591],[-87.3441,35.6585],[-87.3462,35.6597],[-87.3513,35.6582],[-87.3524,35.6548],[-87.3577,35.6569],[-87.3574,35.6595],[-87.4187,35.6249],[-87.4483,35.6197],[-87.4521,35.62],[-87.4523,35.616],[-87.4579,35.6165],[-87.4596,35.6151],[-87.5078,35.6284],[-87.53,35.6262],[-87.5297,35.6277],[-87.5418,35.6287],[-87.5493,35.6303],[-87.5546,35.6379],[-87.5628,35.641],[-87.5656,35.6443],[-87.5655,35.6478],[-87.5688,35.6523],[-87.5771,35.6524],[-87.5813,35.6514],[-87.5867,35.6531],[-87.5949,35.6465],[-87.5991,35.646],[-87.6041,35.6427],[-87.607,35.6362],[-87.6134,35.6331],[-87.6234,35.6327],[-87.6176,35.627],[-87.6181,35.6194],[-87.6242,35.6197],[-87.6271,35.6158],[-87.6261,35.6209],[-87.6317,35.6204],[-87.6329,35.6165],[-87.6354,35.6144],[-87.6402,35.6147],[-87.6468,35.6099],[-87.6602,35.6089],[-87.661,35.6138],[-87.6758,35.6242],[-87.6765,35.6271],[-87.6839,35.63],[-87.6869,35.6337],[-87.6929,35.6345],[-87.6971,35.6386],[-87.7027,35.6394],[-87.7075,35.6424],[-87.7081,35.6454],[-87.7119,35.647],[-87.7165,35.6468],[-87.719,35.6492],[-87.7243,35.6503],[-87.7261,35.6545],[-87.733,35.6559],[-87.7392,35.6615],[-87.7437,35.664],[-87.7378,35.7023],[-87.726,35.7015],[-87.724,35.7043],[-87.7107,35.7036],[-87.71,35.7101],[-87.7169,35.7101],[-87.7243,35.729],[-87.7268,35.7293],[-87.7274,35.7256],[-87.7329,35.7263],[-87.7173,35.8348],[-87.707,35.9059],[-87.7031,35.9044],[-87.7024,35.9081],[-87.6961,35.9118],[-87.6873,35.911],[-87.6836,35.9161],[-87.6682,35.9176],[-87.6629,35.9154],[-87.6587,35.9155],[-87.6538,35.9213],[-87.6481,35.923],[-87.6454,35.9219],[-87.6408,35.9238],[-87.6382,35.9274],[-87.6345,35.9283],[-87.6346,35.9301],[-87.6295,35.9306],[-87.6264,35.9344],[-87.6199,35.9377],[-87.6162,35.9437],[-87.6107,35.9443],[-87.6092,35.9464],[-87.6119,35.95],[-87.6024,35.95],[-87.599,35.9519],[-87.5876,35.9534],[-87.5849,35.9478],[-87.5796,35.9518],[-87.5756,35.9512],[-87.5693,35.9477],[-87.5622,35.9483],[-87.5572,35.9507],[-87.5542,35.9538],[-87.5541,35.9574],[-87.5501,35.9608],[-87.5467,35.9619],[-87.5425,35.9662],[-87.5383,35.966],[-87.5325,35.9695],[-87.5298,35.9756],[-87.5331,35.9869],[-87.5317,35.9893],[-87.5346,35.9905],[-87.5345,35.9931],[-87.4899,35.9883]]]}},{"type":"Feature","properties":{"id":"47111","name":"Macon Co."},"geometry":{"type":"Polygon","coordinates":[[[-86.225,36.4886],[-86.2259,36.4905],[-86.2223,36.491],[-86.2213,36.4981],[-86.2189,36.4981],[-86.2186,36.5057],[-86.2165,36.507],[-86.2148,36.5249],[-86.2186,36.5252],[-86.2179,36.5292],[-86.2251,36.5288],[-86.2211,36.5502],[-86.2093,36.6148],[-86.2082,36.625],[-86.2055,36.6398],[-86.0819,36.6338],[-86.0807,36.6339],[-86.0328,36.6304],[-85.96,36.6281],[-85.8739,36.6236],[-85.8322,36.622],[-85.8015,36.6224],[-85.7886,36.6218],[-85.788,36.6153],[-85.793,36.6133],[-85.7965,36.6135],[-85.7977,36.6043],[-85.8062,36.5559],[-85.8071,36.5525],[-85.8114,36.5165],[-85.8125,36.5124],[-85.8139,36.4995],[-85.828,36.4118],[-85.8512,36.415],[-85.8778,36.4156],[-85.8943,36.4179],[-85.8957,36.4204],[-85.8982,36.4183],[-85.8982,36.4155],[-85.904,36.4158],[-85.9039,36.4184],[-85.942,36.4224],[-85.9464,36.4201],[-85.9494,36.4229],[-85.9676,36.4245],[-85.9789,36.4261],[-86.0029,36.429],[-86.0782,36.4359],[-86.123,36.4402],[-86.1683,36.4443],[-86.1757,36.4542],[-86.1833,36.467],[-86.1901,36.4827],[-86.2287,36.4864],[-86.2284,36.4875],[-86.225,36.4886]]]}},{"type":"Feature","properties":{"id":"47159","name":"Smith Co."},"geometry":{"type":"Polygon","coordinates":[[[-86.1262,36.2941],[-86.1227,36.3022],[-86.1178,36.3121],[-86.1108,36.3233],[-86.1012,36.3358],[-86.0927,36.3449],[-86.0812,36.3551],[-86.0668,36.3656],[-86.054,36.3733],[-86.0361,36.382],[-86.0212,36.3857],[-86.0185,36.3884],[-86.0023,36.393],[-85.9904,36.3953],[-85.9827,36.3959],[-85.9811,36.4002],[-85.9771,36.4051],[-85.9763,36.4154],[-85.9711,36.4194],[-85.9747,36.4225],[-85.9789,36.4221],[-85.9789,36.4261],[-85.9676,36.4245],[-85.9494,36.4229],[-85.9464,36.4201],[-85.942,36.4224],[-85.9039,36.4184],[-85.904,36.4158],[-85.8982,36.4155],[-85.8982,36.4183],[-85.8957,36.4204],[-85.8943,36.4179],[-85.8778,36.4156],[-85.8512,36.415],[-85.828,36.4118],[-85.8358,36.3518],[-85.8312,36.3512],[-85.8292,36.3479],[-85.8293,36.3438],[-85.8329,36.3421],[-85.8374,36.3417],[-85.8465,36.2882],[-85.838,36.2818],[-85.8355,36.2771],[-85.8346,36.267],[-85.8334,36.2637],[-85.8277,36.2553],[-85.8239,36.2513],[-85.8134,36.2488],[-85.8064,36.2512],[-85.8037,36.2557],[-85.7972,36.2539],[-85.7916,36.2513],[-85.7896,36.2476],[-85.7842,36.2436],[-85.7837,36.2398],[-85.7801,36.238],[-85.7865,36.2301],[-85.7825,36.2305],[-85.7821,36.2247],[-85.7786,36.2212],[-85.7831,36.2198],[-85.7815,36.2143],[-85.7829,36.2114],[-85.7862,36.2107],[-85.7988,36.2115],[-85.8039,36.2112],[-85.8092,36.2066],[-85.8067,36.2039],[-85.7995,36.2063],[-85.7988,36.2014],[-85.8008,36.195],[-85.7993,36.1914],[-85.7955,36.1917],[-85.7954,36.1879],[-85.798,36.1867],[-85.8005,36.1828],[-85.8048,36.183],[-85.8031,36.1747],[-85.7998,36.1744],[-85.7988,36.1717],[-85.7958,36.1742],[-85.793,36.1735],[-85.7929,36.1797],[-85.7869,36.1802],[-85.7872,36.1764],[-85.7842,36.176],[-85.7857,36.1724],[-85.7992,36.1703],[-85.8036,36.1703],[-85.8072,36.1478],[-85.804,36.1449],[-85.8051,36.1424],[-85.8016,36.1387],[-85.8046,36.1341],[-85.8212,36.1242],[-85.8286,36.1226],[-85.8351,36.1282],[-85.8383,36.1289],[-85.8424,36.1195],[-85.8529,36.1203],[-85.855,36.1164],[-85.8523,36.1145],[-85.8528,36.1112],[-85.8564,36.1066],[-85.8599,36.1051],[-85.8616,36.1],[-85.864,36.0977],[-85.865,36.0938],[-85.8705,36.0957],[-85.8713,36.0975],[-85.8837,36.098],[-85.8871,36.1009],[-85.8863,36.1054],[-85.8887,36.1021],[-85.8944,36.105],[-85.8921,36.1084],[-85.8928,36.1136],[-85.8969,36.1163],[-85.9026,36.1147],[-85.904,36.1164],[-85.9101,36.1167],[-85.9109,36.1121],[-85.9144,36.1122],[-85.9156,36.1082],[-85.9132,36.1048],[-85.9113,36.0975],[-85.915,36.0972],[-85.9173,36.1025],[-85.9283,36.104],[-85.9305,36.1095],[-85.9379,36.1091],[-85.9356,36.105],[-85.9381,36.1038],[-85.94,36.1058],[-85.9484,36.102],[-85.9528,36.1061],[-85.9571,36.108],[-85.9593,36.1106],[-85.9646,36.1088],[-85.9673,36.105],[-85.9692,36.0991],[-85.9759,36.0975],[-85.9785,36.0991],[-85.9799,36.0954],[-85.9832,36.0933],[-85.9861,36.0871],[-85.9921,36.0875],[-85.9914,36.0931],[-85.9934,36.0939],[-85.9965,36.087],[-86.0022,36.0876],[-86.0016,36.0843],[-86.0064,36.0827],[-86.0058,36.0892],[-86.0123,36.09],[-86.0134,36.0834],[-86.0246,36.0847],[-86.0281,36.0834],[-86.0393,36.0876],[-86.0429,36.0864],[-86.0427,36.0893],[-86.0561,36.0904],[-86.0597,36.086],[-86.0671,36.1114],[-86.0701,36.1098],[-86.0695,36.1144],[-86.067,36.1142],[-86.0661,36.1242],[-86.0702,36.1246],[-86.0702,36.1275],[-86.0746,36.1308],[-86.074,36.1348],[-86.0772,36.1351],[-86.0967,36.1889],[-86.0982,36.1926],[-86.1004,36.1935],[-86.0993,36.196],[-86.0912,36.198],[-86.0942,36.2057],[-86.1028,36.2051],[-86.1113,36.2286],[-86.1207,36.2298],[-86.1205,36.2368],[-86.1145,36.2377],[-86.1155,36.2406],[-86.1126,36.2422],[-86.1164,36.2433],[-86.123,36.261],[-86.1192,36.2619],[-86.119,36.265],[-86.1156,36.2689],[-86.1201,36.2701],[-86.1249,36.2655],[-86.1261,36.2697],[-86.1357,36.2946],[-86.1368,36.2959],[-86.1262,36.2941]]]}},{"type":"Feature","properties":{"id":"47147","name":"Robertson Co."},"geometry":{"type":"Polygon","coordinates":[[[-86.5723,36.6194],[-86.5935,36.5888],[-86.5971,36.5818],[-86.6028,36.5728],[-86.6124,36.5636],[-86.634,36.5364],[-86.6414,36.5129],[-86.6422,36.5073],[-86.6408,36.4963],[-86.6451,36.4874],[-86.6459,36.481],[-86.6519,36.4701],[-86.6626,36.4615],[-86.6752,36.45],[-86.6813,36.438],[-86.6863,36.4334],[-86.6944,36.4237],[-86.6946,36.4179],[-86.6908,36.4097],[-86.6933,36.4072],[-86.6987,36.4074],[-86.7012,36.4101],[-86.7075,36.4106],[-86.7113,36.4141],[-86.7188,36.414],[-86.7198,36.4183],[-86.725,36.4168],[-86.7274,36.414],[-86.7344,36.4149],[-86.7355,36.4183],[-86.7483,36.4185],[-86.7473,36.4161],[-86.7493,36.4136],[-86.7466,36.4112],[-86.7499,36.4105],[-86.7548,36.4055],[-86.7552,36.4025],[-86.7581,36.3999],[-86.7642,36.3997],[-86.7643,36.3943],[-86.7812,36.3902],[-86.7807,36.3872],[-86.7839,36.3837],[-86.7847,36.3794],[-86.7873,36.3771],[-86.791,36.3768],[-86.7919,36.3693],[-86.7869,36.3658],[-86.7874,36.3596],[-86.797,36.3596],[-86.8026,36.3567],[-86.8157,36.3528],[-86.8231,36.3516],[-86.8248,36.3499],[-86.8302,36.3534],[-86.8307,36.356],[-86.8338,36.3567],[-86.8345,36.3598],[-86.8368,36.3584],[-86.8445,36.3651],[-86.8514,36.3671],[-86.8543,36.3698],[-86.8529,36.3801],[-86.8628,36.3812],[-86.8621,36.3696],[-86.8702,36.3742],[-86.8743,36.3737],[-86.8761,36.3719],[-86.8788,36.3747],[-86.8786,36.3786],[-86.8812,36.3809],[-86.8834,36.3803],[-86.8893,36.3867],[-86.8943,36.3891],[-86.9013,36.3891],[-86.9092,36.3903],[-86.9132,36.3826],[-86.9196,36.3871],[-86.9279,36.3825],[-86.9314,36.3836],[-86.9365,36.388],[-86.9367,36.3826],[-86.938,36.3799],[-86.9417,36.3783],[-86.9493,36.3794],[-86.9541,36.3789],[-86.9564,36.3769],[-86.9623,36.3771],[-86.9658,36.3741],[-86.9708,36.3734],[-86.9717,36.3666],[-86.9772,36.3672],[-86.9822,36.3711],[-86.9862,36.3695],[-86.9845,36.3651],[-87.0054,36.3924],[-87.0277,36.4006],[-87.095,36.4403],[-87.0945,36.445],[-87.0979,36.4456],[-87.0983,36.4423],[-87.1204,36.4555],[-87.1196,36.4611],[-87.1287,36.462],[-87.124,36.4886],[-87.1207,36.5109],[-87.1176,36.5105],[-87.1132,36.523],[-87.1186,36.5237],[-87.1161,36.5392],[-87.1201,36.5388],[-87.1219,36.5425],[-87.1177,36.5496],[-87.1223,36.5499],[-87.1297,36.5465],[-87.1314,36.5481],[-87.1316,36.5537],[-87.1357,36.552],[-87.1413,36.5549],[-87.1374,36.5585],[-87.138,36.5621],[-87.142,36.5636],[-87.15,36.564],[-87.1502,36.5677],[-87.148,36.5685],[-87.1368,36.5631],[-87.1333,36.5628],[-87.1327,36.5665],[-87.1336,36.5728],[-87.1298,36.5723],[-87.121,36.6135],[-87.1313,36.622],[-87.1268,36.6214],[-87.1259,36.629],[-87.1174,36.6281],[-87.115,36.6424],[-87.0115,36.6439],[-86.9066,36.6463],[-86.8543,36.6469],[-86.813,36.6476],[-86.7589,36.649],[-86.7138,36.6493],[-86.5899,36.6525],[-86.5639,36.6336],[-86.5723,36.6194]]]}},{"type":"Feature","properties":{"id":"47165","name":"Sumner Co."},"geometry":{"type":"Polygon","coordinates":[[[-86.7499,36.4105],[-86.7466,36.4112],[-86.7493,36.4136],[-86.7473,36.4161],[-86.7483,36.4185],[-86.7355,36.4183],[-86.7344,36.4149],[-86.7274,36.414],[-86.725,36.4168],[-86.7198,36.4183],[-86.7188,36.414],[-86.7113,36.4141],[-86.7075,36.4106],[-86.7012,36.4101],[-86.6987,36.4074],[-86.6933,36.4072],[-86.6908,36.4097],[-86.6946,36.4179],[-86.6944,36.4237],[-86.6863,36.4334],[-86.6813,36.438],[-86.6752,36.45],[-86.6626,36.4615],[-86.6519,36.4701],[-86.6459,36.481],[-86.6451,36.4874],[-86.6408,36.4963],[-86.6422,36.5073],[-86.6414,36.5129],[-86.634,36.5364],[-86.6124,36.5636],[-86.6028,36.5728],[-86.5971,36.5818],[-86.5935,36.5888],[-86.5723,36.6194],[-86.5639,36.6336],[-86.5513,36.638],[-86.5501,36.6448],[-86.5434,36.6439],[-86.5438,36.6405],[-86.5078,36.6524],[-86.4735,36.6517],[-86.4685,36.6518],[-86.375,36.6498],[-86.3591,36.6498],[-86.3331,36.6488],[-86.2934,36.6454],[-86.2055,36.6398],[-86.2082,36.625],[-86.2093,36.6148],[-86.2211,36.5502],[-86.2251,36.5288],[-86.2179,36.5292],[-86.2186,36.5252],[-86.2148,36.5249],[-86.2165,36.507],[-86.2186,36.5057],[-86.2189,36.4981],[-86.2213,36.4981],[-86.2223,36.491],[-86.2259,36.4905],[-86.225,36.4886],[-86.2284,36.4875],[-86.2358,36.4876],[-86.2352,36.4856],[-86.24,36.4864],[-86.2393,36.482],[-86.2352,36.4828],[-86.2335,36.4813],[-86.2372,36.4519],[-86.25,36.4524],[-86.25,36.451],[-86.2688,36.4529],[-86.2715,36.3871],[-86.2725,36.359],[-86.2763,36.359],[-86.2775,36.3609],[-86.2818,36.3614],[-86.2852,36.3508],[-86.2833,36.3475],[-86.2873,36.3462],[-86.2945,36.339],[-86.2964,36.3346],[-86.2966,36.3241],[-86.2985,36.3136],[-86.3001,36.3124],[-86.307,36.3129],[-86.3207,36.3169],[-86.3305,36.3188],[-86.3364,36.3179],[-86.3548,36.3097],[-86.3585,36.3092],[-86.362,36.3115],[-86.3613,36.3154],[-86.3563,36.3223],[-86.3461,36.3298],[-86.3457,36.3409],[-86.3465,36.3451],[-86.351,36.3523],[-86.3613,36.3577],[-86.3664,36.3577],[-86.3704,36.3561],[-86.3769,36.3509],[-86.384,36.341],[-86.3873,36.3353],[-86.3897,36.3278],[-86.3904,36.3227],[-86.3891,36.3174],[-86.3904,36.3102],[-86.3956,36.3067],[-86.4011,36.3059],[-86.4078,36.3077],[-86.4154,36.3137],[-86.4186,36.3221],[-86.4177,36.3276],[-86.4184,36.3328],[-86.428,36.3385],[-86.4337,36.34],[-86.4382,36.3394],[-86.4447,36.3369],[-86.4517,36.3356],[-86.468,36.3262],[-86.4741,36.3215],[-86.4773,36.3204],[-86.4905,36.3126],[-86.5012,36.3084],[-86.51,36.3025],[-86.5134,36.2983],[-86.517,36.2852],[-86.5213,36.2783],[-86.5263,36.2785],[-86.5336,36.284],[-86.5378,36.2907],[-86.5403,36.3011],[-86.5399,36.3082],[-86.5414,36.317],[-86.5434,36.3206],[-86.5466,36.3213],[-86.5528,36.3191],[-86.5652,36.3064],[-86.5651,36.298],[-86.5596,36.2901],[-86.5572,36.2811],[-86.5604,36.2727],[-86.5682,36.2614],[-86.5709,36.259],[-86.5739,36.2538],[-86.5821,36.2492],[-86.5877,36.2469],[-86.5944,36.2454],[-86.5983,36.2447],[-86.6134,36.2441],[-86.6282,36.2511],[-86.6387,36.2544],[-86.6417,36.2612],[-86.6433,36.2742],[-86.6417,36.2877],[-86.6444,36.2911],[-86.6625,36.2994],[-86.6707,36.3011],[-86.6666,36.3035],[-86.6722,36.3091],[-86.675,36.3164],[-86.6803,36.3159],[-86.6874,36.3182],[-86.6884,36.3199],[-86.6969,36.3218],[-86.6969,36.3267],[-86.703,36.3272],[-86.7066,36.3294],[-86.708,36.334],[-86.7149,36.3362],[-86.7211,36.3421],[-86.7235,36.3477],[-86.7228,36.3516],[-86.7247,36.3534],[-86.7262,36.361],[-86.7254,36.3633],[-86.7275,36.3723],[-86.7304,36.3813],[-86.7334,36.3858],[-86.7402,36.3907],[-86.7417,36.3973],[-86.7461,36.3996],[-86.7457,36.4031],[-86.7485,36.4047],[-86.7539,36.4043],[-86.7548,36.4055],[-86.7499,36.4105]]]}},{"type":"Feature","properties":{"id":"47119","name":"Maury Co."},"geometry":{"type":"Polygon","coordinates":[[[-87.3351,35.6575],[-87.3291,35.659],[-87.3253,35.6578],[-87.3216,35.6609],[-87.3195,35.6648],[-87.3178,35.6715],[-87.3194,35.6742],[-87.3098,35.6804],[-87.3079,35.6861],[-87.3045,35.6863],[-87.298,35.6895],[-87.2949,35.6953],[-87.2894,35.6969],[-87.2841,35.6972],[-87.2793,35.6962],[-87.266,35.6958],[-87.2607,35.6965],[-87.2558,35.7003],[-87.2509,35.7064],[-87.2503,35.7091],[-87.2533,35.7148],[-87.2628,35.7174],[-87.2654,35.719],[-87.2621,35.72],[-87.2515,35.7198],[-87.2447,35.7208],[-87.2408,35.7237],[-87.2341,35.7247],[-87.2293,35.7501],[-87.2254,35.7768],[-87.2151,35.8507],[-87.1854,35.8413],[-87.1574,35.8322],[-87.0541,35.7993],[-87.0397,35.7946],[-87.0357,35.7962],[-87.033,35.7925],[-87.0155,35.787],[-87.0161,35.7857],[-87.0112,35.7819],[-87.0037,35.7807],[-87.004,35.779],[-86.9975,35.7785],[-86.9969,35.7805],[-86.9695,35.7717],[-86.964,35.7726],[-86.966,35.7757],[-86.9622,35.7763],[-86.9625,35.7829],[-86.9507,35.7816],[-86.9522,35.7735],[-86.9443,35.7727],[-86.9423,35.7752],[-86.9417,35.7796],[-86.9288,35.7781],[-86.9337,35.766],[-86.9383,35.762],[-86.929,35.7572],[-86.9157,35.7536],[-86.8794,35.7408],[-86.8541,35.7343],[-86.8495,35.7315],[-86.8455,35.7252],[-86.8438,35.7276],[-86.8407,35.7253],[-86.8229,35.7232],[-86.8231,35.7217],[-86.8119,35.7205],[-86.8113,35.7159],[-86.8063,35.7157],[-86.807,35.7125],[-86.7974,35.7114],[-86.8,35.709],[-86.7979,35.708],[-86.782,35.7066],[-86.7933,35.7029],[-86.7969,35.6915],[-86.8028,35.692],[-86.8032,35.6994],[-86.8119,35.6964],[-86.8205,35.6321],[-86.8231,35.614],[-86.8224,35.6086],[-86.8238,35.6087],[-86.8248,35.6009],[-86.8284,35.5962],[-86.8398,35.5915],[-86.8408,35.5832],[-86.8274,35.5821],[-86.8299,35.5741],[-86.8364,35.5755],[-86.8368,35.5732],[-86.8344,35.5668],[-86.8405,35.5673],[-86.8417,35.5597],[-86.8382,35.5594],[-86.839,35.5521],[-86.8381,35.5508],[-86.8496,35.5255],[-86.8713,35.5025],[-86.8728,35.5035],[-86.8706,35.5208],[-86.8756,35.5213],[-86.8771,35.5097],[-86.8797,35.5034],[-86.8806,35.4942],[-86.8955,35.4811],[-86.9245,35.4637],[-86.919,35.4563],[-86.9221,35.4548],[-86.9274,35.4556],[-86.9278,35.4543],[-86.9326,35.4554],[-86.9322,35.4576],[-86.9364,35.4591],[-86.955,35.4515],[-86.9563,35.4392],[-86.9608,35.417],[-86.9606,35.4131],[-86.9682,35.4121],[-86.9714,35.4161],[-86.9747,35.4148],[-86.9818,35.4171],[-86.9829,35.42],[-86.987,35.418],[-86.9858,35.4135],[-86.9867,35.4094],[-86.9909,35.4082],[-86.992,35.41],[-86.9988,35.4096],[-87.0014,35.4125],[-87.0092,35.413],[-87.0176,35.4159],[-87.0162,35.4192],[-87.019,35.4201],[-87.0195,35.424],[-87.0215,35.4227],[-87.0243,35.425],[-87.0256,35.4295],[-87.0301,35.4322],[-87.037,35.4288],[-87.0453,35.4284],[-87.0505,35.4294],[-87.0533,35.4317],[-87.0592,35.4314],[-87.062,35.4346],[-87.0668,35.4355],[-87.0718,35.4404],[-87.0774,35.4422],[-87.0782,35.4406],[-87.0814,35.4428],[-87.0873,35.4435],[-87.094,35.4418],[-87.0966,35.4442],[-87.1018,35.4457],[-87.1017,35.4497],[-87.1092,35.449],[-87.1136,35.4524],[-87.1173,35.4517],[-87.1178,35.4546],[-87.1209,35.4557],[-87.1277,35.455],[-87.1339,35.4532],[-87.1373,35.4487],[-87.1409,35.4492],[-87.1432,35.4474],[-87.1499,35.4469],[-87.1523,35.4435],[-87.1603,35.4354],[-87.1637,35.4351],[-87.1657,35.4369],[-87.1932,35.4309],[-87.2066,35.4332],[-87.2173,35.4384],[-87.2263,35.4404],[-87.2257,35.4337],[-87.2279,35.4293],[-87.25,35.4337],[-87.2952,35.4421],[-87.2937,35.4516],[-87.2898,35.4513],[-87.289,35.4594],[-87.2815,35.4587],[-87.2793,35.47],[-87.2768,35.4701],[-87.2748,35.4834],[-87.2797,35.4839],[-87.2793,35.4887],[-87.2767,35.4922],[-87.2801,35.4935],[-87.2834,35.4969],[-87.2828,35.4995],[-87.279,35.5015],[-87.2705,35.5007],[-87.2694,35.5059],[-87.2778,35.5068],[-87.2824,35.5049],[-87.2823,35.5209],[-87.2837,35.5209],[-87.2836,35.526],[-87.2856,35.5258],[-87.2847,35.5309],[-87.2864,35.5312],[-87.286,35.5422],[-87.2906,35.5425],[-87.2899,35.548],[-87.3132,35.5492],[-87.3177,35.5491],[-87.3149,35.5676],[-87.3219,35.5691],[-87.3276,35.5686],[-87.3274,35.5725],[-87.3384,35.5728],[-87.3385,35.5844],[-87.3523,35.5846],[-87.3532,35.5945],[-87.3543,35.5971],[-87.3541,35.6103],[-87.3529,35.6103],[-87.3529,35.6179],[-87.3453,35.6219],[-87.3416,35.6293],[-87.3371,35.6299],[-87.3372,35.6339],[-87.3328,35.6347],[-87.332,35.6403],[-87.3334,35.642],[-87.3316,35.6563],[-87.3397,35.6568],[-87.3392,35.6591],[-87.3351,35.6575]]]}},{"type":"Feature","properties":{"id":"47189","name":"Wilson Co."},"geometry":{"type":"Polygon","coordinates":[[[-86.5877,36.2469],[-86.5821,36.2492],[-86.5739,36.2538],[-86.5709,36.259],[-86.5682,36.2614],[-86.5604,36.2727],[-86.5572,36.2811],[-86.5596,36.2901],[-86.5651,36.298],[-86.5652,36.3064],[-86.5528,36.3191],[-86.5466,36.3213],[-86.5434,36.3206],[-86.5414,36.317],[-86.5399,36.3082],[-86.5403,36.3011],[-86.5378,36.2907],[-86.5336,36.284],[-86.5263,36.2785],[-86.5213,36.2783],[-86.517,36.2852],[-86.5134,36.2983],[-86.51,36.3025],[-86.5012,36.3084],[-86.4905,36.3126],[-86.4773,36.3204],[-86.4741,36.3215],[-86.468,36.3262],[-86.4517,36.3356],[-86.4447,36.3369],[-86.4382,36.3394],[-86.4337,36.34],[-86.428,36.3385],[-86.4184,36.3328],[-86.4177,36.3276],[-86.4186,36.3221],[-86.4154,36.3137],[-86.4078,36.3077],[-86.4011,36.3059],[-86.3956,36.3067],[-86.3904,36.3102],[-86.3891,36.3174],[-86.3904,36.3227],[-86.3897,36.3278],[-86.3873,36.3353],[-86.384,36.341],[-86.3769,36.3509],[-86.3704,36.3561],[-86.3664,36.3577],[-86.3613,36.3577],[-86.351,36.3523],[-86.3465,36.3451],[-86.3457,36.3409],[-86.3461,36.3298],[-86.3563,36.3223],[-86.3613,36.3154],[-86.362,36.3115],[-86.3585,36.3092],[-86.3548,36.3097],[-86.3364,36.3179],[-86.3305,36.3188],[-86.3207,36.3169],[-86.307,36.3129],[-86.3001,36.3124],[-86.2985,36.3136],[-86.2966,36.3241],[-86.2964,36.3346],[-86.2945,36.339],[-86.2873,36.3462],[-86.2833,36.3475],[-86.2791,36.3485],[-86.2728,36.3476],[-86.2691,36.3449],[-86.2658,36.3374],[-86.2646,36.3283],[-86.2726,36.3154],[-86.2735,36.3094],[-86.2727,36.3073],[-86.2661,36.3009],[-86.2634,36.2994],[-86.258,36.3004],[-86.25,36.305],[-86.2474,36.3115],[-86.2483,36.3274],[-86.2445,36.3364],[-86.2301,36.3492],[-86.2263,36.349],[-86.227,36.3427],[-86.2179,36.3416],[-86.2124,36.3447],[-86.2066,36.3427],[-86.2064,36.3365],[-86.2041,36.3323],[-86.1976,36.3262],[-86.1893,36.3201],[-86.1843,36.3193],[-86.1808,36.3216],[-86.1759,36.3288],[-86.164,36.3209],[-86.1558,36.3139],[-86.1555,36.3103],[-86.1522,36.3108],[-86.1447,36.3045],[-86.1368,36.2959],[-86.1357,36.2946],[-86.1261,36.2697],[-86.1249,36.2655],[-86.1201,36.2701],[-86.1156,36.2689],[-86.119,36.265],[-86.1192,36.2619],[-86.123,36.261],[-86.1164,36.2433],[-86.1126,36.2422],[-86.1155,36.2406],[-86.1145,36.2377],[-86.1205,36.2368],[-86.1207,36.2298],[-86.1113,36.2286],[-86.1028,36.2051],[-86.0942,36.2057],[-86.0912,36.198],[-86.0993,36.196],[-86.1004,36.1935],[-86.0982,36.1926],[-86.0967,36.1889],[-86.0772,36.1351],[-86.074,36.1348],[-86.0746,36.1308],[-86.0702,36.1275],[-86.0702,36.1246],[-86.0661,36.1242],[-86.067,36.1142],[-86.0695,36.1144],[-86.0701,36.1098],[-86.0671,36.1114],[-86.0597,36.086],[-86.0619,36.0762],[-86.0595,36.0736],[-86.0628,36.0712],[-86.0625,36.0691],[-86.0593,36.0688],[-86.0574,36.0724],[-86.053,36.0714],[-86.0567,36.0661],[-86.0565,36.0593],[-86.0512,36.0591],[-86.0474,36.0575],[-86.0482,36.05],[-86.0527,36.0492],[-86.0534,36.0438],[-86.046,36.042],[-86.0457,36.0365],[-86.0427,36.0326],[-86.0358,36.0314],[-86.0366,36.0264],[-86.0345,36.0262],[-86.0351,36.0163],[-86.0374,36.0119],[-86.0407,36.0088],[-86.0388,36.0044],[-86.0338,36.0046],[-86.0265,35.9986],[-86.0265,35.9926],[-86.0148,35.9611],[-86.0227,35.9647],[-86.0834,35.965],[-86.0883,35.967],[-86.0875,35.9741],[-86.0905,35.9745],[-86.0919,35.9652],[-86.0951,35.9655],[-86.0957,35.9609],[-86.1195,35.9592],[-86.1545,35.9631],[-86.1548,35.96],[-86.1515,35.9586],[-86.1532,35.9544],[-86.1566,35.9545],[-86.1566,35.9565],[-86.1613,35.9568],[-86.1611,35.9632],[-86.1652,35.9632],[-86.1651,35.9601],[-86.1754,35.9603],[-86.1753,35.9589],[-86.1705,35.9573],[-86.1865,35.9579],[-86.1859,35.9622],[-86.2024,35.9634],[-86.2025,35.9623],[-86.2103,35.9629],[-86.2098,35.967],[-86.2169,35.9677],[-86.2169,35.9694],[-86.223,35.9693],[-86.2232,35.9651],[-86.2251,35.9629],[-86.2369,35.9633],[-86.2378,35.9594],[-86.2517,35.9611],[-86.2506,35.9677],[-86.2876,35.9727],[-86.2871,35.975],[-86.3104,35.9786],[-86.31,35.9861],[-86.3241,35.9872],[-86.3263,35.985],[-86.3463,36.0001],[-86.3649,36.0106],[-86.3644,36.0143],[-86.3675,36.0179],[-86.374,36.018],[-86.377,36.012],[-86.3884,36.0272],[-86.3838,36.0267],[-86.3825,36.0353],[-86.3941,36.0364],[-86.3951,36.031],[-86.4181,36.042],[-86.4325,36.051],[-86.4336,36.0497],[-86.4383,36.0518],[-86.4373,36.054],[-86.452,36.0627],[-86.4635,36.0687],[-86.4631,36.0702],[-86.472,36.0721],[-86.493,36.086],[-86.5156,36.1006],[-86.5234,36.1066],[-86.5359,36.1082],[-86.5353,36.1125],[-86.5312,36.112],[-86.5292,36.1243],[-86.5351,36.1263],[-86.5311,36.1287],[-86.5291,36.1364],[-86.5256,36.1385],[-86.5278,36.1408],[-86.5284,36.138],[-86.5358,36.1385],[-86.5386,36.1354],[-86.5427,36.1406],[-86.547,36.1371],[-86.5495,36.1378],[-86.5549,36.134],[-86.5569,36.135],[-86.5553,36.1435],[-86.5513,36.1433],[-86.5558,36.1454],[-86.5649,36.1636],[-86.5709,36.1737],[-86.5756,36.1946],[-86.5911,36.237],[-86.5937,36.2371],[-86.5944,36.2454],[-86.5877,36.2469]],[[-86.5217,36.1373],[-86.5211,36.1411],[-86.5235,36.1375],[-86.5217,36.1373]]]}},{"type":"Feature","properties":{"id":"47037","name":"Davidson Co."},"geometry":{"type":"MultiPolygon","coordinates":[[[[-86.5211,36.1411],[-86.5217,36.1373],[-86.5235,36.1375],[-86.5211,36.1411]]],[[[-86.9092,36.3903],[-86.9013,36.3891],[-86.8943,36.3891],[-86.8893,36.3867],[-86.8834,36.3803],[-86.8812,36.3809],[-86.8786,36.3786],[-86.8788,36.3747],[-86.8761,36.3719],[-86.8743,36.3737],[-86.8702,36.3742],[-86.8621,36.3696],[-86.8628,36.3812],[-86.8529,36.3801],[-86.8543,36.3698],[-86.8514,36.3671],[-86.8445,36.3651],[-86.8368,36.3584],[-86.8345,36.3598],[-86.8338,36.3567],[-86.8307,36.356],[-86.8302,36.3534],[-86.8248,36.3499],[-86.8231,36.3516],[-86.8157,36.3528],[-86.8026,36.3567],[-86.797,36.3596],[-86.7874,36.3596],[-86.7869,36.3658],[-86.7919,36.3693],[-86.791,36.3768],[-86.7873,36.3771],[-86.7847,36.3794],[-86.7839,36.3837],[-86.7807,36.3872],[-86.7812,36.3902],[-86.7643,36.3943],[-86.7642,36.3997],[-86.7581,36.3999],[-86.7552,36.4025],[-86.7548,36.4055],[-86.7539,36.4043],[-86.7485,36.4047],[-86.7457,36.4031],[-86.7461,36.3996],[-86.7417,36.3973],[-86.7402,36.3907],[-86.7334,36.3858],[-86.7304,36.3813],[-86.7275,36.3723],[-86.7254,36.3633],[-86.7262,36.361],[-86.7247,36.3534],[-86.7228,36.3516],[-86.7235,36.3477],[-86.7211,36.3421],[-86.7149,36.3362],[-86.708,36.334],[-86.7066,36.3294],[-86.703,36.3272],[-86.6969,36.3267],[-86.6969,36.3218],[-86.6884,36.3199],[-86.6874,36.3182],[-86.6803,36.3159],[-86.675,36.3164],[-86.6722,36.3091],[-86.6666,36.3035],[-86.6707,36.3011],[-86.6625,36.2994],[-86.6444,36.2911],[-86.6417,36.2877],[-86.6433,36.2742],[-86.6417,36.2612],[-86.6387,36.2544],[-86.6282,36.2511],[-86.6134,36.2441],[-86.5983,36.2447],[-86.5944,36.2454],[-86.5937,36.2371],[-86.5911,36.237],[-86.5756,36.1946],[-86.5709,36.1737],[-86.5649,36.1636],[-86.5558,36.1454],[-86.5513,36.1433],[-86.5553,36.1435],[-86.5569,36.135],[-86.5549,36.134],[-86.5495,36.1378],[-86.547,36.1371],[-86.5427,36.1406],[-86.5386,36.1354],[-86.5358,36.1385],[-86.5284,36.138],[-86.5278,36.1408],[-86.5256,36.1385],[-86.5291,36.1364],[-86.5311,36.1287],[-86.5351,36.1263],[-86.5292,36.1243],[-86.5312,36.112],[-86.5353,36.1125],[-86.5359,36.1082],[-86.5234,36.1066],[-86.5156,36.1006],[-86.5176,36.0841],[-86.5194,36.0842],[-86.5209,36.0725],[-86.525,36.0689],[-86.5244,36.059],[-86.5257,36.0573],[-86.5308,36.0576],[-86.5329,36.06],[-86.5275,36.074],[-86.5295,36.0775],[-86.539,36.0766],[-86.5407,36.0776],[-86.5451,36.0866],[-86.549,36.0859],[-86.5485,36.0802],[-86.5461,36.0775],[-86.5465,36.0665],[-86.5505,36.0653],[-86.5574,36.0657],[-86.5617,36.0674],[-86.5643,36.0636],[-86.5618,36.0583],[-86.5621,36.0542],[-86.5664,36.0488],[-86.5607,36.0398],[-86.5624,36.0353],[-86.5688,36.0344],[-86.5785,36.0268],[-86.5825,36.0267],[-86.5916,36.0241],[-86.6007,36.0119],[-86.6058,36.0102],[-86.6123,36.01],[-86.6156,35.9916],[-86.6096,35.9909],[-86.6101,35.9858],[-86.6072,35.9855],[-86.608,35.9798],[-86.6096,35.9798],[-86.6104,35.9755],[-86.6136,35.9756],[-86.6144,35.9678],[-86.6189,35.9682],[-86.6186,35.9713],[-86.6277,35.9721],[-86.6274,35.974],[-86.6483,35.9756],[-86.6483,35.9764],[-86.6819,35.9894],[-86.6877,35.9953],[-86.6932,35.996],[-86.7129,36.0081],[-86.7321,36.0099],[-86.7771,36.0332],[-86.7909,36.0367],[-86.8165,36.0392],[-86.8648,36.0449],[-86.9286,36.0529],[-86.9364,36.0482],[-86.9768,36.0226],[-87.0156,35.9982],[-87.0283,35.9899],[-87.0392,35.9893],[-87.0407,35.9938],[-87.0537,36.0456],[-87.0547,36.05],[-87.0491,36.0467],[-87.0445,36.0469],[-87.0437,36.0435],[-87.041,36.0423],[-87.039,36.0773],[-87.0383,36.082],[-87.0353,36.0829],[-87.0355,36.0864],[-87.0386,36.0867],[-87.0382,36.0943],[-86.9977,36.1285],[-86.9836,36.2096],[-86.9853,36.2101],[-86.9843,36.2138],[-86.9823,36.2137],[-86.9804,36.217],[-86.984,36.2254],[-86.9744,36.2499],[-86.9577,36.2758],[-86.9479,36.2824],[-86.9233,36.3254],[-86.9208,36.3307],[-86.91,36.3605],[-86.91,36.3633],[-86.9063,36.3662],[-86.9098,36.3721],[-86.9156,36.3709],[-86.9149,36.3781],[-86.9121,36.3771],[-86.9098,36.3792],[-86.9132,36.3826],[-86.9092,36.3903]]]]}},{"type":"Feature","properties":{"id":"47187","name":"Williamson Co."},"geometry":{"type":"Polygon","coordinates":[[[-87.2039,35.9623],[-87.209,35.9627],[-87.2085,35.9679],[-87.212,35.9701],[-87.2098,35.972],[-87.1998,35.9717],[-87.1994,35.9756],[-87.1908,35.9759],[-87.1905,35.9792],[-87.1974,35.98],[-87.1967,35.9856],[-87.1925,35.9853],[-87.192,35.9897],[-87.1943,35.9899],[-87.1896,36.0163],[-87.1826,36.0497],[-87.1423,36.048],[-87.124,36.0464],[-87.0849,36.0438],[-87.0668,36.0445],[-87.0537,36.0456],[-87.0407,35.9938],[-87.0392,35.9893],[-87.0283,35.9899],[-87.0156,35.9982],[-86.9768,36.0226],[-86.9364,36.0482],[-86.9286,36.0529],[-86.8648,36.0449],[-86.8165,36.0392],[-86.7909,36.0367],[-86.7771,36.0332],[-86.7321,36.0099],[-86.7129,36.0081],[-86.6932,35.996],[-86.6877,35.9953],[-86.6819,35.9894],[-86.6483,35.9764],[-86.6483,35.9756],[-86.6274,35.974],[-86.6277,35.9721],[-86.6186,35.9713],[-86.6189,35.9682],[-86.625,35.9667],[-86.622,35.9641],[-86.625,35.9539],[-86.615,35.9437],[-86.625,35.9203],[-86.628,35.9102],[-86.6263,35.9073],[-86.6176,35.8999],[-86.6138,35.8838],[-86.6196,35.8837],[-86.6214,35.8826],[-86.6186,35.8713],[-86.6174,35.8641],[-86.6121,35.8599],[-86.6062,35.859],[-86.6071,35.8558],[-86.6004,35.8532],[-86.6015,35.8489],[-86.6015,35.8415],[-86.6034,35.8387],[-86.6164,35.8388],[-86.6173,35.8313],[-86.6255,35.8322],[-86.626,35.8265],[-86.6118,35.8245],[-86.613,35.8135],[-86.6169,35.8135],[-86.617,35.8162],[-86.6233,35.8157],[-86.6252,35.8089],[-86.6224,35.8052],[-86.6195,35.8057],[-86.619,35.8085],[-86.6135,35.81],[-86.6109,35.8041],[-86.6133,35.7903],[-86.6237,35.7912],[-86.624,35.7948],[-86.632,35.7954],[-86.6321,35.7945],[-86.647,35.7956],[-86.6478,35.7905],[-86.6514,35.79],[-86.6629,35.7909],[-86.6615,35.7863],[-86.6642,35.7829],[-86.6597,35.7814],[-86.6613,35.7674],[-86.6638,35.771],[-86.6713,35.7717],[-86.672,35.7689],[-86.6751,35.769],[-86.6751,35.7657],[-86.6781,35.7658],[-86.6795,35.7563],[-86.6818,35.7501],[-86.6924,35.7511],[-86.6969,35.7523],[-86.6978,35.7463],[-86.6987,35.7318],[-86.7003,35.7226],[-86.6993,35.7178],[-86.6947,35.7188],[-86.6886,35.7184],[-86.6891,35.7133],[-86.6859,35.7136],[-86.6862,35.7101],[-86.6955,35.7109],[-86.6969,35.7054],[-86.7311,35.7068],[-86.7344,35.6988],[-86.7407,35.7006],[-86.7434,35.7043],[-86.7416,35.7076],[-86.7466,35.7079],[-86.7468,35.7032],[-86.75,35.7035],[-86.7517,35.6964],[-86.7522,35.7017],[-86.7607,35.7018],[-86.7601,35.7082],[-86.7679,35.7087],[-86.7674,35.7024],[-86.7695,35.7003],[-86.7732,35.7004],[-86.7726,35.7058],[-86.7747,35.7028],[-86.7823,35.7034],[-86.782,35.7066],[-86.7979,35.708],[-86.8,35.709],[-86.7974,35.7114],[-86.807,35.7125],[-86.8063,35.7157],[-86.8113,35.7159],[-86.8119,35.7205],[-86.8231,35.7217],[-86.8229,35.7232],[-86.8407,35.7253],[-86.8438,35.7276],[-86.8455,35.7252],[-86.8495,35.7315],[-86.8541,35.7343],[-86.8794,35.7408],[-86.9157,35.7536],[-86.929,35.7572],[-86.9383,35.762],[-86.9337,35.766],[-86.9288,35.7781],[-86.9417,35.7796],[-86.9423,35.7752],[-86.9443,35.7727],[-86.9522,35.7735],[-86.9507,35.7816],[-86.9625,35.7829],[-86.9622,35.7763],[-86.966,35.7757],[-86.964,35.7726],[-86.9695,35.7717],[-86.9969,35.7805],[-86.9975,35.7785],[-87.004,35.779],[-87.0037,35.7807],[-87.0112,35.7819],[-87.0161,35.7857],[-87.0155,35.787],[-87.033,35.7925],[-87.0357,35.7962],[-87.0397,35.7946],[-87.0541,35.7993],[-87.1574,35.8322],[-87.1854,35.8413],[-87.2151,35.8507],[-87.2122,35.8674],[-87.2051,35.9146],[-87.2014,35.9406],[-87.2057,35.941],[-87.2042,35.9528],[-87.2042,35.9592],[-87.2039,35.9623]]]}},{"type":"Feature","properties":{"id":"47043","name":"Dickson Co."},"geometry":{"type":"MultiPolygon","coordinates":[[[[-87.1524,36.2886],[-87.1469,36.2933],[-87.1442,36.2921],[-87.1418,36.2946],[-87.1393,36.2924],[-87.1424,36.2907],[-87.1524,36.2886]]],[[[-87.2665,36.3208],[-87.2511,36.323],[-87.2508,36.3218],[-87.2425,36.3234],[-87.2407,36.3251],[-87.2356,36.3256],[-87.2325,36.3313],[-87.2308,36.3278],[-87.2242,36.321],[-87.2167,36.3159],[-87.2111,36.3148],[-87.2021,36.316],[-87.1918,36.3142],[-87.1773,36.3141],[-87.1674,36.3101],[-87.1566,36.3077],[-87.153,36.3054],[-87.1508,36.2994],[-87.1517,36.2966],[-87.155,36.2955],[-87.1569,36.2913],[-87.1625,36.2906],[-87.1682,36.2917],[-87.1692,36.2853],[-87.1534,36.2838],[-87.1566,36.2831],[-87.1585,36.2799],[-87.155,36.2748],[-87.1564,36.2716],[-87.1605,36.2686],[-87.1634,36.2682],[-87.1818,36.2598],[-87.1826,36.2574],[-87.1879,36.254],[-87.1933,36.249],[-87.194,36.2453],[-87.1861,36.2421],[-87.1781,36.2469],[-87.174,36.2477],[-87.1694,36.2441],[-87.171,36.2433],[-87.1649,36.2355],[-87.1662,36.2301],[-87.1715,36.2265],[-87.1783,36.2283],[-87.1815,36.2257],[-87.1874,36.2152],[-87.1865,36.2098],[-87.1793,36.2103],[-87.1714,36.2035],[-87.17,36.2012],[-87.1719,36.1967],[-87.1711,36.193],[-87.1627,36.1922],[-87.1587,36.1911],[-87.1524,36.1826],[-87.1499,36.1769],[-87.1559,36.1732],[-87.1615,36.1722],[-87.1673,36.1692],[-87.1708,36.166],[-87.1721,36.1605],[-87.1679,36.1551],[-87.1659,36.1546],[-87.1728,36.1094],[-87.173,36.0818],[-87.1768,36.0822],[-87.1731,36.0709],[-87.1786,36.0675],[-87.1826,36.0497],[-87.1896,36.0163],[-87.1943,35.9899],[-87.192,35.9897],[-87.1925,35.9853],[-87.1967,35.9856],[-87.1974,35.98],[-87.1905,35.9792],[-87.1908,35.9759],[-87.1994,35.9756],[-87.1998,35.9717],[-87.2098,35.972],[-87.212,35.9701],[-87.2085,35.9679],[-87.209,35.9627],[-87.2039,35.9623],[-87.2042,35.9592],[-87.2248,35.961],[-87.2742,35.9646],[-87.2745,35.9626],[-87.2799,35.9614],[-87.2803,35.9633],[-87.2858,35.9649],[-87.3022,35.9664],[-87.3019,35.9684],[-87.3199,35.9704],[-87.3994,35.9789],[-87.4824,35.9876],[-87.4821,35.9854],[-87.4777,35.9848],[-87.4897,35.9839],[-87.4899,35.9883],[-87.5345,35.9931],[-87.5348,35.9952],[-87.54,35.9965],[-87.5405,36.003],[-87.5424,36.0069],[-87.5465,36.0115],[-87.5524,36.016],[-87.546,36.0228],[-87.5469,36.0289],[-87.5508,36.0324],[-87.5505,36.0358],[-87.548,36.0396],[-87.5478,36.0451],[-87.5453,36.0466],[-87.5462,36.0513],[-87.5454,36.0556],[-87.5486,36.0563],[-87.5492,36.0601],[-87.5445,36.0942],[-87.5515,36.134],[-87.5518,36.1375],[-87.5668,36.1779],[-87.5304,36.2324],[-87.5292,36.2403],[-87.5321,36.243],[-87.5315,36.2497],[-87.5236,36.2489],[-87.5239,36.2512],[-87.5212,36.2727],[-87.5195,36.2727],[-87.5188,36.2792],[-87.5204,36.2792],[-87.5135,36.3347],[-87.498,36.333],[-87.4342,36.3268],[-87.3722,36.3206],[-87.3661,36.3235],[-87.3654,36.3198],[-87.3272,36.3159],[-87.326,36.3236],[-87.3209,36.3232],[-87.3219,36.3164],[-87.3173,36.315],[-87.3147,36.3173],[-87.315,36.3217],[-87.3052,36.3193],[-87.3057,36.3139],[-87.3031,36.3124],[-87.2987,36.3171],[-87.2904,36.3175],[-87.2864,36.3201],[-87.2865,36.3219],[-87.2665,36.3208]]]]}},{"type":"Feature","properties":{"id":"47169","name":"Trousdale Co."},"geometry":{"type":"Polygon","coordinates":[[[-86.2287,36.4864],[-86.1901,36.4827],[-86.1833,36.467],[-86.1757,36.4542],[-86.1683,36.4443],[-86.123,36.4402],[-86.0782,36.4359],[-86.0029,36.429],[-85.9789,36.4261],[-85.9789,36.4221],[-85.9747,36.4225],[-85.9711,36.4194],[-85.9763,36.4154],[-85.9771,36.4051],[-85.9811,36.4002],[-85.9827,36.3959],[-85.9904,36.3953],[-86.0023,36.393],[-86.0185,36.3884],[-86.0212,36.3857],[-86.0361,36.382],[-86.054,36.3733],[-86.0668,36.3656],[-86.0812,36.3551],[-86.0927,36.3449],[-86.1012,36.3358],[-86.1108,36.3233],[-86.1178,36.3121],[-86.1227,36.3022],[-86.1262,36.2941],[-86.1368,36.2959],[-86.1447,36.3045],[-86.1522,36.3108],[-86.1555,36.3103],[-86.1558,36.3139],[-86.164,36.3209],[-86.1759,36.3288],[-86.1808,36.3216],[-86.1843,36.3193],[-86.1893,36.3201],[-86.1976,36.3262],[-86.2041,36.3323],[-86.2064,36.3365],[-86.2066,36.3427],[-86.2124,36.3447],[-86.2179,36.3416],[-86.227,36.3427],[-86.2263,36.349],[-86.2301,36.3492],[-86.2445,36.3364],[-86.2483,36.3274],[-86.2474,36.3115],[-86.25,36.305],[-86.258,36.3004],[-86.2634,36.2994],[-86.2661,36.3009],[-86.2727,36.3073],[-86.2735,36.3094],[-86.2726,36.3154],[-86.2646,36.3283],[-86.2658,36.3374],[-86.2691,36.3449],[-86.2728,36.3476],[-86.2791,36.3485],[-86.2833,36.3475],[-86.2852,36.3508],[-86.2818,36.3614],[-86.2775,36.3609],[-86.2763,36.359],[-86.2725,36.359],[-86.2715,36.3871],[-86.2688,36.4529],[-86.25,36.451],[-86.25,36.4524],[-86.2372,36.4519],[-86.2335,36.4813],[-86.2352,36.4828],[-86.2393,36.482],[-86.24,36.4864],[-86.2352,36.4856],[-86.2358,36.4876],[-86.2284,36.4875],[-86.2287,36.4864]]]}},{"type":"Feature","properties":{"id":"47015","name":"Cannon Co."},"geometry":{"type":"Polygon","coordinates":[[[-86.1515,35.9586],[-86.1548,35.96],[-86.1545,35.9631],[-86.1195,35.9592],[-86.0957,35.9609],[-86.0951,35.9655],[-86.0919,35.9652],[-86.0905,35.9745],[-86.0875,35.9741],[-86.0883,35.967],[-86.0834,35.965],[-86.0227,35.9647],[-86.0148,35.9611],[-85.9972,35.9529],[-85.9921,35.9489],[-85.944,35.9025],[-85.908,35.8725],[-85.8939,35.8556],[-85.8924,35.8591],[-85.8892,35.8575],[-85.8892,35.8542],[-85.8935,35.8499],[-85.8962,35.8511],[-85.8972,35.8468],[-85.8943,35.8441],[-85.8858,35.8428],[-85.8852,35.8397],[-85.8856,35.8305],[-85.8979,35.8302],[-85.9139,35.8225],[-85.9421,35.7868],[-85.9357,35.7855],[-85.9347,35.7815],[-85.9431,35.7811],[-85.9452,35.7778],[-85.9548,35.7671],[-85.9636,35.7613],[-85.9849,35.7346],[-85.9878,35.7349],[-85.9883,35.7315],[-85.9864,35.731],[-85.9896,35.7114],[-85.9974,35.712],[-85.9977,35.7099],[-85.9934,35.7091],[-85.9937,35.7058],[-85.9868,35.704],[-85.987,35.6971],[-85.9913,35.6974],[-85.9919,35.6941],[-85.9905,35.691],[-85.9905,35.6808],[-85.985,35.6666],[-85.9851,35.6601],[-85.9942,35.6605],[-85.9961,35.6569],[-85.9945,35.6537],[-86.0016,35.6526],[-86.0044,35.6545],[-86.0041,35.657],[-86.0082,35.6572],[-86.0088,35.6534],[-86.0129,35.6541],[-86.0153,35.6494],[-86.0322,35.6511],[-86.033,35.6459],[-86.037,35.6462],[-86.0379,35.643],[-86.0439,35.6473],[-86.0527,35.648],[-86.0532,35.644],[-86.07,35.6458],[-86.0718,35.6455],[-86.0889,35.6468],[-86.1203,35.6609],[-86.134,35.6618],[-86.1434,35.6617],[-86.1511,35.667],[-86.1507,35.671],[-86.1543,35.672],[-86.1542,35.6739],[-86.1599,35.6747],[-86.1596,35.6763],[-86.1659,35.6769],[-86.1658,35.6815],[-86.1707,35.6817],[-86.1702,35.6838],[-86.1755,35.6843],[-86.1771,35.687],[-86.1817,35.689],[-86.1814,35.6911],[-86.1871,35.6899],[-86.1904,35.6925],[-86.1911,35.6964],[-86.1893,35.6989],[-86.1919,35.7019],[-86.1979,35.7032],[-86.1999,35.7018],[-86.2046,35.704],[-86.2071,35.7038],[-86.2088,35.7124],[-86.2066,35.717],[-86.2064,35.7244],[-86.203,35.7277],[-86.2075,35.7299],[-86.2079,35.7323],[-86.2042,35.7372],[-86.1955,35.7414],[-86.1921,35.7518],[-86.1883,35.754],[-86.1899,35.7569],[-86.1871,35.7637],[-86.1835,35.7634],[-86.1828,35.7684],[-86.188,35.7695],[-86.1899,35.7718],[-86.1884,35.7772],[-86.1906,35.7824],[-86.1904,35.7871],[-86.1882,35.7875],[-86.1886,35.7959],[-86.1812,35.795],[-86.1828,35.7964],[-86.1821,35.8011],[-86.1795,35.8052],[-86.1774,35.8197],[-86.1797,35.8241],[-86.1762,35.8502],[-86.1778,35.8549],[-86.1756,35.8544],[-86.1728,35.873],[-86.1731,35.8742],[-86.1657,35.8778],[-86.1691,35.8777],[-86.1686,35.8844],[-86.1627,35.8837],[-86.1629,35.8811],[-86.1586,35.8808],[-86.1578,35.8877],[-86.1559,35.8881],[-86.1529,35.9091],[-86.1456,35.9085],[-86.1418,35.9144],[-86.1553,35.9326],[-86.1527,35.9487],[-86.1532,35.9544],[-86.1515,35.9586]]]}}]}