{"type":"FeatureCollection","features":[{"type":"Feature","properties":{"id":"36071","name":"Orange Co."},"geometry":{"type":"Polygon","coordinates":[[[-73.9541,41.5833],[-73.9595,41.5714],[-73.9648,41.5653],[-73.9702,41.5623],[-73.9779,41.5552],[-73.9859,41.5456],[-73.9888,41.5412],[-73.9929,41.5298],[-73.9965,41.5226],[-73.9975,41.5165],[-73.9978,41.5028],[-73.9948,41.4983],[-73.9986,41.4834],[-73.9976,41.4751],[-74.0001,41.4565],[-73.9978,41.4522],[-73.9866,41.4449],[-73.9815,41.4389],[-73.9728,41.4246],[-73.9675,41.4189],[-73.9631,41.4103],[-73.9624,41.4037],[-73.9591,41.4004],[-73.9514,41.399],[-73.9486,41.3976],[-73.9475,41.3933],[-73.951,41.3868],[-73.9524,41.3808],[-73.9561,41.3744],[-73.9594,41.361],[-73.9597,41.3537],[-73.9613,41.3485],[-73.9651,41.3435],[-73.9808,41.3254],[-74.024,41.2944],[-74.0994,41.2411],[-74.1514,41.2037],[-74.1856,41.179],[-74.2122,41.1593],[-74.2343,41.1431],[-74.2432,41.1469],[-74.302,41.1726],[-74.3449,41.1921],[-74.4043,41.2223],[-74.4576,41.2482],[-74.4996,41.2673],[-74.6073,41.3178],[-74.6415,41.3329],[-74.6949,41.3574],[-74.6898,41.3616],[-74.6911,41.3673],[-74.695,41.3704],[-74.7033,41.3751],[-74.7085,41.3789],[-74.7134,41.3898],[-74.716,41.3926],[-74.7209,41.3947],[-74.7304,41.3957],[-74.7361,41.3984],[-74.741,41.4051],[-74.7411,41.4114],[-74.7387,41.4135],[-74.7347,41.4227],[-74.7367,41.4292],[-74.7409,41.4312],[-74.7507,41.428],[-74.7547,41.425],[-74.7564,41.428],[-74.7519,41.4325],[-74.7561,41.4339],[-74.7595,41.4426],[-74.7623,41.4444],[-74.7625,41.4495],[-74.7586,41.4543],[-74.7599,41.4607],[-74.7508,41.4637],[-74.753,41.4681],[-74.7523,41.4726],[-74.7545,41.4788],[-74.7596,41.4819],[-74.7597,41.485],[-74.762,41.4881],[-74.7607,41.4908],[-74.755,41.4914],[-74.7524,41.4937],[-74.6205,41.4984],[-74.5609,41.5006],[-74.5574,41.5013],[-74.484,41.5043],[-74.4756,41.504],[-74.4741,41.5087],[-74.4761,41.5102],[-74.4689,41.514],[-74.4656,41.5169],[-74.4657,41.5229],[-74.4602,41.5247],[-74.4554,41.5301],[-74.4545,41.5334],[-74.4505,41.533],[-74.4446,41.5372],[-74.4438,41.5409],[-74.4452,41.5441],[-74.4379,41.5435],[-74.4386,41.5473],[-74.4355,41.5461],[-74.4362,41.5507],[-74.4339,41.5537],[-74.4304,41.5538],[-74.4304,41.5559],[-74.4263,41.5565],[-74.43,41.558],[-74.4233,41.5599],[-74.4234,41.5626],[-74.4197,41.5624],[-74.4169,41.5698],[-74.4076,41.5689],[-74.4102,41.5705],[-74.4083,41.5752],[-74.407,41.5723],[-74.4019,41.5753],[-74.3976,41.5751],[-74.3954,41.5807],[-74.3913,41.5821],[-74.3906,41.5862],[-74.3885,41.5836],[-74.3835,41.5839],[-74.38,41.5874],[-74.378,41.5864],[-74.3701,41.5886],[-74.369,41.5903],[-74.3635,41.592],[-74.3584,41.5911],[-74.3521,41.5927],[-74.3532,41.5954],[-74.3494,41.5986],[-74.3425,41.5968],[-74.3407,41.5944],[-74.3344,41.5975],[-74.3298,41.5986],[-74.3296,41.6015],[-74.3202,41.603],[-74.3163,41.6054],[-74.3143,41.6096],[-74.3093,41.6112],[-74.3067,41.6088],[-74.3044,41.6122],[-74.3047,41.6153],[-74.3003,41.6164],[-74.2952,41.6197],[-74.2928,41.6183],[-74.2891,41.6213],[-74.286,41.6215],[-74.2808,41.6252],[-74.2758,41.6256],[-74.271,41.6293],[-74.2686,41.6286],[-74.2641,41.6327],[-74.2502,41.6293],[-74.2516,41.6054],[-74.2366,41.6018],[-74.2022,41.5943],[-74.1875,41.5908],[-74.1854,41.5941],[-74.1607,41.5894],[-74.1264,41.5825],[-74.1345,41.6157],[-74.0987,41.6073],[-74.0944,41.6055],[-74.0899,41.5986],[-74.0681,41.606],[-74.0538,41.5861],[-74.0539,41.5807],[-74.0268,41.583],[-73.9996,41.5858],[-73.9827,41.5871],[-73.9533,41.59],[-73.9541,41.5833]]]}},{"type":"Feature","properties":{"id":"36027","name":"Dutchess Co."},"geometry":{"type":"Polygon","coordinates":[[[-73.9526,41.5953],[-73.9521,41.614],[-73.9526,41.6252],[-73.9515,41.6277],[-73.9488,41.6422],[-73.9482,41.6525],[-73.9469,41.6564],[-73.9474,41.6675],[-73.9425,41.6841],[-73.9435,41.6903],[-73.9467,41.6994],[-73.9444,41.7146],[-73.9411,41.7327],[-73.9417,41.739],[-73.9408,41.7543],[-73.9417,41.7574],[-73.9516,41.7706],[-73.9524,41.788],[-73.9496,41.8001],[-73.9494,41.8113],[-73.9483,41.8157],[-73.9497,41.8212],[-73.9487,41.8283],[-73.9498,41.837],[-73.9489,41.8486],[-73.9466,41.8542],[-73.9419,41.8592],[-73.9394,41.8659],[-73.9396,41.87],[-73.9419,41.8763],[-73.9456,41.8822],[-73.9543,41.8914],[-73.9622,41.901],[-73.9642,41.9102],[-73.9642,41.9139],[-73.9583,41.9203],[-73.9556,41.9362],[-73.9542,41.9508],[-73.9528,41.9571],[-73.9433,41.9855],[-73.9416,41.9925],[-73.9398,41.9956],[-73.94,41.999],[-73.9343,42.0128],[-73.9333,42.0185],[-73.9346,42.0233],[-73.937,42.0268],[-73.9371,42.0329],[-73.9342,42.0395],[-73.9344,42.0447],[-73.9323,42.0616],[-73.9282,42.0649],[-73.9262,42.0719],[-73.9298,42.0753],[-73.9296,42.0788],[-73.9171,42.0765],[-73.9156,42.0809],[-73.9086,42.0784],[-73.9078,42.0796],[-73.8677,42.0652],[-73.8185,42.0467],[-73.7909,42.0368],[-73.7557,42.0235],[-73.7109,42.0055],[-73.6761,42.0004],[-73.6723,42.0001],[-73.6422,41.995],[-73.556,41.9818],[-73.5271,41.978],[-73.5247,42.014],[-73.5214,42.05],[-73.4873,42.0496],[-73.4896,42.0001],[-73.493,41.9585],[-73.4965,41.9224],[-73.4983,41.8925],[-73.502,41.8587],[-73.505,41.8238],[-73.511,41.7587],[-73.5119,41.7409],[-73.5168,41.6876],[-73.52,41.6412],[-73.521,41.6198],[-73.5301,41.5272],[-73.5802,41.5264],[-73.6205,41.522],[-73.6531,41.5174],[-73.6838,41.5133],[-73.7153,41.51],[-73.7596,41.5059],[-73.7707,41.5044],[-73.8384,41.4984],[-73.865,41.4955],[-73.8746,41.4951],[-73.9019,41.4924],[-73.9075,41.491],[-73.9338,41.4883],[-73.9759,41.4449],[-73.9815,41.4389],[-73.9866,41.4449],[-73.9978,41.4522],[-74.0001,41.4565],[-73.9976,41.4751],[-73.9986,41.4834],[-73.9948,41.4983],[-73.9978,41.5028],[-73.9975,41.5165],[-73.9965,41.5226],[-73.9929,41.5298],[-73.9888,41.5412],[-73.9859,41.5456],[-73.9779,41.5552],[-73.9702,41.5623],[-73.9648,41.5653],[-73.9595,41.5714],[-73.9541,41.5833],[-73.9533,41.59],[-73.9526,41.5953]]]}}]}