{"type":"FeatureCollection","features":[{"type":"Feature","properties":{"id":"37053","name":"Currituck Co., NC"},"geometry":{"type":"Polygon","coordinates":[[[-76.1972,36.5505],[-76.1223,36.5505],[-76.0451,36.5505],[-75.9977,36.5505],[-75.9047,36.5507],[-75.8676,36.5504],[-75.8618,36.5177],[-75.8577,36.5008],[-75.8363,36.423],[-75.8187,36.3576],[-75.7964,36.2904],[-75.7733,36.2315],[-75.7954,36.2271],[-75.7985,36.2308],[-75.802,36.2425],[-75.8109,36.2491],[-75.8111,36.2545],[-75.8039,36.2677],[-75.8068,36.2849],[-75.8131,36.2917],[-75.8337,36.2936],[-75.8421,36.3009],[-75.8453,36.3056],[-75.8508,36.3197],[-75.8518,36.3242],[-75.8459,36.3326],[-75.8387,36.3315],[-75.8231,36.3226],[-75.822,36.328],[-75.8238,36.3472],[-75.8322,36.3561],[-75.8319,36.3603],[-75.8289,36.3657],[-75.8341,36.3718],[-75.8477,36.3784],[-75.8486,36.3802],[-75.8423,36.3844],[-75.8407,36.3974],[-75.8497,36.4002],[-75.8433,36.42],[-75.8558,36.4244],[-75.8628,36.4309],[-75.865,36.4377],[-75.8711,36.4387],[-75.8771,36.4363],[-75.8831,36.4377],[-75.8883,36.4416],[-75.8874,36.4488],[-75.8924,36.4614],[-75.8979,36.4651],[-75.8999,36.4821],[-75.9073,36.4858],[-75.9173,36.4858],[-75.9241,36.4821],[-75.9273,36.4828],[-75.9355,36.4906],[-75.9546,36.4915],[-75.9611,36.4948],[-75.9725,36.4947],[-75.9752,36.488],[-75.9769,36.4876],[-75.9891,36.4951],[-75.9824,36.5043],[-75.981,36.5113],[-75.9862,36.5257],[-75.9962,36.5281],[-75.9988,36.5344],[-76.0026,36.5371],[-76.0307,36.5388],[-76.0319,36.5325],[-76.0262,36.5237],[-76.0264,36.5165],[-76.0426,36.5106],[-76.0392,36.5001],[-76.0338,36.4901],[-76.0319,36.4825],[-76.0202,36.4586],[-76.0123,36.4475],[-76.0039,36.4419],[-75.9899,36.4368],[-75.9801,36.4355],[-75.9761,36.4386],[-75.972,36.4372],[-75.966,36.4276],[-75.9563,36.4008],[-75.9482,36.3959],[-75.9407,36.3987],[-75.941,36.4062],[-75.9443,36.4106],[-75.9377,36.4205],[-75.9335,36.4234],[-75.9341,36.4274],[-75.9324,36.4286],[-75.9245,36.4255],[-75.9231,36.4199],[-75.9239,36.4181],[-75.9208,36.4088],[-75.923,36.3999],[-75.9164,36.389],[-75.9169,36.3832],[-75.9235,36.3678],[-75.9233,36.3619],[-75.9178,36.3536],[-75.9153,36.3523],[-75.9099,36.3434],[-75.9057,36.334],[-75.8953,36.3196],[-75.8882,36.2934],[-75.8834,36.2847],[-75.8726,36.2823],[-75.8648,36.285],[-75.8597,36.2832],[-75.8568,36.2807],[-75.8568,36.278],[-75.8633,36.2737],[-75.8624,36.2629],[-75.8679,36.2602],[-75.8723,36.2548],[-75.8693,36.2463],[-75.8643,36.2451],[-75.8654,36.236],[-75.8623,36.2333],[-75.8639,36.2293],[-75.8583,36.2218],[-75.8488,36.2155],[-75.8444,36.2172],[-75.8412,36.2165],[-75.8368,36.2038],[-75.8301,36.1965],[-75.8285,36.1901],[-75.831,36.1897],[-75.8364,36.1988],[-75.8388,36.2004],[-75.8429,36.1993],[-75.8452,36.1952],[-75.8452,36.1918],[-75.841,36.1886],[-75.8403,36.1772],[-75.8349,36.1717],[-75.8343,36.1676],[-75.8313,36.166],[-75.8311,36.1637],[-75.8247,36.1628],[-75.825,36.1577],[-75.8228,36.155],[-75.8256,36.1462],[-75.8224,36.1428],[-75.8176,36.1406],[-75.8068,36.1237],[-75.8068,36.1197],[-75.7994,36.1177],[-75.799,36.1139],[-75.8015,36.1119],[-75.8032,36.1063],[-75.803,36.0987],[-75.7964,36.0926],[-75.7898,36.079],[-75.7932,36.0778],[-75.7982,36.0722],[-75.834,36.0936],[-75.844,36.1003],[-75.8454,36.103],[-75.8493,36.1048],[-75.8667,36.1275],[-75.8643,36.1308],[-75.8657,36.1362],[-75.864,36.1464],[-75.8615,36.1502],[-75.8629,36.1596],[-75.8717,36.173],[-75.8716,36.1757],[-75.875,36.1841],[-75.8927,36.1981],[-75.8957,36.1987],[-75.9001,36.203],[-75.8964,36.2083],[-75.8978,36.2095],[-75.9066,36.2088],[-75.9098,36.2126],[-75.9072,36.2184],[-75.9133,36.2233],[-75.9167,36.2379],[-75.9233,36.2459],[-75.947,36.2587],[-75.9586,36.2597],[-75.9595,36.2643],[-75.9625,36.2668],[-75.9599,36.2689],[-75.9517,36.2715],[-75.949,36.2758],[-75.9504,36.2808],[-75.9484,36.2853],[-75.9516,36.2879],[-75.9564,36.2894],[-75.9604,36.2876],[-75.9649,36.2884],[-75.9678,36.2911],[-75.9697,36.2954],[-75.9696,36.3063],[-75.9729,36.3097],[-75.9758,36.3103],[-75.9825,36.3088],[-75.9906,36.3083],[-75.9954,36.3091],[-75.9997,36.3112],[-76.0019,36.3151],[-76.0017,36.3235],[-76.0079,36.3286],[-76.0136,36.3268],[-76.0172,36.3279],[-76.0204,36.3342],[-76.0171,36.3378],[-76.017,36.3446],[-76.0192,36.3458],[-76.0233,36.345],[-76.0249,36.341],[-76.0317,36.3386],[-76.0328,36.3422],[-76.0287,36.3441],[-76.0288,36.3491],[-76.0327,36.3508],[-76.0364,36.3552],[-76.0418,36.3554],[-76.0454,36.3582],[-76.0493,36.3564],[-76.0515,36.3602],[-76.056,36.3582],[-76.0557,36.3552],[-76.059,36.3522],[-76.064,36.352],[-76.0642,36.3473],[-76.0687,36.3478],[-76.0684,36.3496],[-76.073,36.3495],[-76.073,36.3467],[-76.0783,36.3471],[-76.0834,36.3495],[-76.085,36.3522],[-76.0863,36.3497],[-76.0905,36.3521],[-76.0968,36.3519],[-76.1085,36.3551],[-76.1144,36.3576],[-76.1218,36.3711],[-76.1476,36.3945],[-76.1575,36.3982],[-76.1585,36.4253],[-76.2505,36.5003],[-76.3133,36.5506],[-76.1972,36.5505]]]}},{"type":"Feature","properties":{"id":"51095","name":"James City Co., VA"},"geometry":{"type":"Polygon","coordinates":[[[-76.6989,37.4191],[-76.6724,37.3959],[-76.6623,37.3834],[-76.6587,37.3801],[-76.6743,37.3677],[-76.6762,37.3693],[-76.68,37.3669],[-76.6833,37.3676],[-76.6834,37.3701],[-76.6888,37.3697],[-76.6904,37.3671],[-76.6934,37.3681],[-76.6977,37.366],[-76.6982,37.3683],[-76.7009,37.3665],[-76.7118,37.3651],[-76.7167,37.3664],[-76.7198,37.3692],[-76.7252,37.3691],[-76.7271,37.3712],[-76.7343,37.3718],[-76.7432,37.3701],[-76.743,37.3681],[-76.7459,37.3625],[-76.7502,37.3596],[-76.7555,37.3542],[-76.753,37.3458],[-76.7545,37.3402],[-76.7346,37.3314],[-76.7359,37.3234],[-76.7337,37.3179],[-76.731,37.3159],[-76.7279,37.3059],[-76.731,37.3101],[-76.7372,37.3083],[-76.7405,37.3058],[-76.7409,37.3016],[-76.7392,37.3022],[-76.7346,37.3001],[-76.7332,37.2976],[-76.7337,37.2929],[-76.7314,37.2912],[-76.7341,37.2864],[-76.7255,37.2844],[-76.7256,37.2797],[-76.7283,37.2805],[-76.7375,37.2802],[-76.7391,37.2716],[-76.741,37.266],[-76.7361,37.2572],[-76.7263,37.25],[-76.706,37.2478],[-76.698,37.249],[-76.6905,37.2476],[-76.6826,37.2472],[-76.6731,37.2477],[-76.665,37.2502],[-76.6672,37.251],[-76.6677,37.2544],[-76.6757,37.2605],[-76.6776,37.2592],[-76.6809,37.2606],[-76.6802,37.266],[-76.6693,37.266],[-76.6658,37.2641],[-76.6634,37.2574],[-76.6625,37.2516],[-76.6588,37.2453],[-76.6513,37.2392],[-76.646,37.2392],[-76.6327,37.2363],[-76.6269,37.2324],[-76.623,37.2351],[-76.6013,37.2376],[-76.6005,37.2343],[-76.5963,37.2321],[-76.5952,37.2267],[-76.5953,37.22],[-76.5913,37.2132],[-76.5919,37.2098],[-76.5895,37.2045],[-76.5855,37.2008],[-76.5832,37.193],[-76.58,37.1927],[-76.5779,37.1903],[-76.58,37.1886],[-76.5783,37.1865],[-76.5811,37.1853],[-76.5812,37.1825],[-76.5846,37.1826],[-76.587,37.1802],[-76.5903,37.1815],[-76.5954,37.1784],[-76.5979,37.1782],[-76.6048,37.1706],[-76.6074,37.1688],[-76.6128,37.1712],[-76.6163,37.179],[-76.6193,37.1921],[-76.6233,37.1987],[-76.6299,37.2067],[-76.6346,37.21],[-76.6411,37.216],[-76.6499,37.2209],[-76.6598,37.2232],[-76.6841,37.2231],[-76.693,37.2237],[-76.7026,37.2171],[-76.7315,37.2122],[-76.7429,37.2134],[-76.7481,37.2151],[-76.7582,37.2155],[-76.7598,37.2124],[-76.7516,37.2108],[-76.7513,37.2092],[-76.7435,37.2066],[-76.7382,37.2064],[-76.735,37.2032],[-76.7407,37.1983],[-76.74,37.1954],[-76.743,37.1926],[-76.7505,37.1901],[-76.7578,37.1917],[-76.7644,37.1989],[-76.7663,37.1993],[-76.7738,37.2061],[-76.7805,37.2093],[-76.7878,37.2209],[-76.7935,37.2312],[-76.7989,37.2347],[-76.8101,37.2386],[-76.8222,37.2436],[-76.8268,37.2436],[-76.8324,37.242],[-76.8505,37.2408],[-76.862,37.2424],[-76.8695,37.2422],[-76.8736,37.2501],[-76.8733,37.2515],[-76.8677,37.252],[-76.8661,37.2555],[-76.8676,37.2607],[-76.8722,37.2627],[-76.8752,37.2608],[-76.882,37.2717],[-76.8831,37.2759],[-76.8815,37.2813],[-76.8816,37.2855],[-76.8779,37.29],[-76.8717,37.2956],[-76.872,37.2984],[-76.8769,37.3027],[-76.88,37.3099],[-76.8753,37.3177],[-76.8747,37.3204],[-76.8761,37.3255],[-76.8766,37.3332],[-76.8736,37.3426],[-76.8747,37.346],[-76.8801,37.3487],[-76.8783,37.3553],[-76.8735,37.3634],[-76.8771,37.3692],[-76.8848,37.3686],[-76.8912,37.3621],[-76.8964,37.3608],[-76.902,37.3562],[-76.9054,37.3506],[-76.9096,37.3486],[-76.9159,37.3526],[-76.9104,37.3641],[-76.9085,37.3663],[-76.899,37.3718],[-76.8981,37.3751],[-76.9045,37.3777],[-76.9002,37.3858],[-76.8983,37.3825],[-76.8922,37.3834],[-76.8924,37.3879],[-76.8972,37.3922],[-76.9004,37.3921],[-76.9005,37.3959],[-76.8982,37.3957],[-76.898,37.3996],[-76.8942,37.4002],[-76.8949,37.4079],[-76.8932,37.4096],[-76.8947,37.4149],[-76.8904,37.42],[-76.8953,37.4282],[-76.8921,37.4324],[-76.8871,37.4329],[-76.8822,37.4371],[-76.876,37.4404],[-76.8675,37.4412],[-76.86,37.4468],[-76.8499,37.4488],[-76.8448,37.4475],[-76.8397,37.4489],[-76.8302,37.4496],[-76.8269,37.4489],[-76.8241,37.4507],[-76.8082,37.4455],[-76.7979,37.4381],[-76.7924,37.4354],[-76.7877,37.438],[-76.783,37.4377],[-76.7744,37.4347],[-76.7726,37.4383],[-76.7704,37.4386],[-76.7703,37.435],[-76.7673,37.4381],[-76.7644,37.437],[-76.7659,37.4403],[-76.758,37.4455],[-76.7657,37.4515],[-76.7635,37.4542],[-76.7605,37.4525],[-76.7603,37.4587],[-76.7564,37.4564],[-76.7568,37.4617],[-76.742,37.4671],[-76.733,37.4502],[-76.7276,37.4442],[-76.7123,37.4313],[-76.6989,37.4191]]]}},{"type":"Feature","properties":{"id":"51093","name":"Isle of Wight Co., VA"},"geometry":{"type":"Polygon","coordinates":[[[-76.8376,37.0022],[-76.7716,37.0309],[-76.7118,37.0554],[-76.7062,37.0558],[-76.6993,37.0584],[-76.698,37.0613],[-76.7012,37.0662],[-76.6962,37.0726],[-76.6934,37.0736],[-76.695,37.0767],[-76.6934,37.0805],[-76.6956,37.0833],[-76.6878,37.086],[-76.6845,37.0882],[-76.6838,37.0926],[-76.6817,37.0938],[-76.6841,37.097],[-76.6821,37.0987],[-76.6842,37.1039],[-76.6814,37.1067],[-76.678,37.1042],[-76.6752,37.1086],[-76.6794,37.1114],[-76.6771,37.1139],[-76.68,37.1177],[-76.6803,37.1263],[-76.6782,37.1304],[-76.6726,37.1339],[-76.6757,37.1365],[-76.6754,37.139],[-76.6716,37.1421],[-76.6671,37.1405],[-76.6644,37.1329],[-76.6651,37.1254],[-76.6629,37.1183],[-76.6595,37.1148],[-76.6569,37.1098],[-76.6584,37.1033],[-76.6571,37.0998],[-76.6581,37.0968],[-76.6676,37.0762],[-76.6698,37.0643],[-76.6699,37.0599],[-76.6663,37.0502],[-76.6591,37.0424],[-76.654,37.0392],[-76.646,37.0362],[-76.6385,37.0354],[-76.6121,37.0356],[-76.6001,37.033],[-76.5865,37.0287],[-76.578,37.0219],[-76.5761,37.0154],[-76.5848,37.0061],[-76.5802,36.997],[-76.5781,36.9963],[-76.5709,36.9982],[-76.5679,37.0032],[-76.5629,37.0038],[-76.5569,37.002],[-76.5512,36.9989],[-76.5406,36.9883],[-76.5341,36.9852],[-76.5249,36.9838],[-76.523,36.9811],[-76.5241,36.9783],[-76.521,36.9732],[-76.5176,36.9718],[-76.5134,36.9681],[-76.5004,36.9652],[-76.496,36.965],[-76.4892,36.9597],[-76.4865,36.9565],[-76.4876,36.9524],[-76.4855,36.9386],[-76.4894,36.9405],[-76.4952,36.9414],[-76.4992,36.9375],[-76.4998,36.9294],[-76.4952,36.9225],[-76.5004,36.9146],[-76.5084,36.912],[-76.5211,36.9063],[-76.5245,36.9074],[-76.5272,36.9109],[-76.5264,36.9146],[-76.5293,36.9167],[-76.5335,36.9156],[-76.5379,36.9124],[-76.6117,36.8569],[-76.6705,36.8121],[-76.7477,36.7526],[-76.7558,36.746],[-76.7932,36.7195],[-76.8146,36.7057],[-76.8273,36.6953],[-76.8694,36.6644],[-76.8976,36.6441],[-76.9004,36.6457],[-76.9077,36.6472],[-76.913,36.6521],[-76.9121,36.6558],[-76.9138,36.6593],[-76.9177,36.6613],[-76.9151,36.6665],[-76.9122,36.6693],[-76.912,36.6727],[-76.9149,36.6746],[-76.919,36.6747],[-76.9164,36.6787],[-76.9202,36.6815],[-76.925,36.6822],[-76.9209,36.6832],[-76.921,36.686],[-76.9177,36.6872],[-76.9196,36.6888],[-76.917,36.6908],[-76.9122,36.6984],[-76.9158,36.701],[-76.9203,36.699],[-76.9224,36.7],[-76.9257,36.6983],[-76.9274,36.7026],[-76.9303,36.705],[-76.9226,36.7096],[-76.9245,36.7108],[-76.9226,36.7159],[-76.9188,36.716],[-76.9198,36.7182],[-76.9142,36.7221],[-76.9166,36.7245],[-76.9135,36.7255],[-76.9137,36.7293],[-76.917,36.7337],[-76.9095,36.7414],[-76.9042,36.7389],[-76.9019,36.7425],[-76.8948,36.747],[-76.8997,36.7536],[-76.9014,36.7574],[-76.8976,36.7596],[-76.8983,36.762],[-76.8928,36.7625],[-76.8905,36.7606],[-76.8848,36.7663],[-76.8894,36.7715],[-76.8852,36.7756],[-76.8872,36.7769],[-76.8834,36.7812],[-76.8799,36.7812],[-76.8727,36.7849],[-76.8719,36.7883],[-76.867,36.788],[-76.8656,36.7896],[-76.8654,36.7955],[-76.8619,36.7977],[-76.8636,36.8049],[-76.8662,36.8039],[-76.8689,36.8084],[-76.8655,36.8134],[-76.8657,36.8169],[-76.8621,36.824],[-76.862,36.8268],[-76.8575,36.8249],[-76.8556,36.8272],[-76.8569,36.831],[-76.859,36.8321],[-76.8597,36.8357],[-76.856,36.8385],[-76.8556,36.8416],[-76.8493,36.8463],[-76.8487,36.85],[-76.8522,36.8518],[-76.8475,36.8542],[-76.8408,36.8558],[-76.8395,36.8594],[-76.8339,36.8629],[-76.8382,36.8649],[-76.8387,36.8668],[-76.8302,36.8702],[-76.8311,36.8723],[-76.8291,36.8758],[-76.8219,36.8769],[-76.818,36.8806],[-76.8205,36.8836],[-76.8261,36.8847],[-76.8273,36.8875],[-76.8256,36.8912],[-76.8194,36.8929],[-76.8194,36.8966],[-76.8149,36.9005],[-76.8156,36.9054],[-76.8191,36.9069],[-76.8161,36.9092],[-76.8156,36.9143],[-76.8243,36.9173],[-76.8288,36.921],[-76.8308,36.9179],[-76.8357,36.9194],[-76.836,36.9241],[-76.8337,36.9246],[-76.8314,36.9296],[-76.8331,36.9303],[-76.84,36.9291],[-76.8457,36.9345],[-76.8443,36.9382],[-76.8469,36.9426],[-76.8525,36.9471],[-76.8511,36.9486],[-76.8533,36.9532],[-76.859,36.956],[-76.8593,36.958],[-76.8551,36.9637],[-76.8552,36.9673],[-76.8512,36.9742],[-76.8542,36.9786],[-76.8501,36.9867],[-76.8512,36.9896],[-76.8493,36.9932],[-76.8497,36.9962],[-76.8376,37.0022]]]}},{"type":"Feature","properties":{"id":"51181","name":"Surry Co., VA"},"geometry":{"type":"Polygon","coordinates":[[[-76.9535,36.9445],[-76.966,37.0004],[-76.9685,37.0341],[-76.9674,37.0365],[-76.9696,37.0402],[-76.9635,37.0437],[-76.9659,37.05],[-76.9652,37.0545],[-76.9691,37.0548],[-76.9776,37.0507],[-76.9795,37.0535],[-76.9831,37.0538],[-76.9841,37.0498],[-76.9926,37.0499],[-77.005,37.052],[-77.0067,37.0583],[-77.0147,37.0579],[-77.0159,37.0606],[-77.0307,37.0667],[-77.034,37.0668],[-77.0353,37.07],[-77.0389,37.069],[-77.0446,37.0702],[-77.045,37.0668],[-77.0489,37.0628],[-77.0594,37.0644],[-77.0633,37.0667],[-77.067,37.0659],[-77.0686,37.0679],[-77.0756,37.0665],[-77.0785,37.0685],[-77.0755,37.0723],[-77.0765,37.0761],[-77.0791,37.0778],[-77.0777,37.0817],[-77.0817,37.0848],[-77.0843,37.0829],[-77.0905,37.0828],[-77.0937,37.0863],[-77.0996,37.0837],[-77.1023,37.0843],[-77.1031,37.0887],[-77.1079,37.0909],[-77.1084,37.0941],[-77.1114,37.1006],[-77.1175,37.1011],[-77.1217,37.0983],[-77.1265,37.0985],[-77.1273,37.0971],[-77.132,37.0982],[-77.1321,37.1013],[-77.1378,37.102],[-77.1392,37.1042],[-77.1436,37.1013],[-77.1484,37.1014],[-77.1531,37.1042],[-77.1557,37.1093],[-77.156,37.1139],[-77.1237,37.1381],[-77.0878,37.1691],[-77.079,37.1726],[-77.0742,37.1779],[-77.0731,37.1841],[-77.0633,37.1893],[-77.0584,37.1909],[-77.0524,37.1911],[-77.044,37.1924],[-77.0428,37.1948],[-77.0463,37.1991],[-77.0447,37.2015],[-77.0338,37.2027],[-77.0315,37.1987],[-77.0285,37.2019],[-77.0273,37.2001],[-77.0241,37.201],[-77.0243,37.2066],[-77.0179,37.207],[-77.0118,37.2124],[-77.0138,37.2156],[-77.0168,37.2167],[-77.0188,37.2196],[-77.0168,37.2232],[-77.0135,37.2248],[-77.0142,37.2276],[-77.0123,37.2329],[-77.0064,37.2317],[-77.0034,37.2327],[-77.0017,37.2387],[-76.9989,37.239],[-76.9961,37.2364],[-76.9935,37.2365],[-76.9724,37.2485],[-76.9644,37.2437],[-76.9486,37.2373],[-76.9439,37.2347],[-76.9484,37.2309],[-76.9471,37.228],[-76.9336,37.2193],[-76.9326,37.2177],[-76.9262,37.216],[-76.9178,37.2105],[-76.9133,37.206],[-76.9025,37.1998],[-76.8909,37.1995],[-76.8804,37.203],[-76.8657,37.209],[-76.8386,37.2071],[-76.8362,37.206],[-76.8205,37.206],[-76.8185,37.2053],[-76.8086,37.206],[-76.8064,37.2071],[-76.801,37.206],[-76.8032,37.2015],[-76.8025,37.1983],[-76.7969,37.1894],[-76.7897,37.1877],[-76.7854,37.1843],[-76.7827,37.1782],[-76.7758,37.1756],[-76.7731,37.1736],[-76.7619,37.1681],[-76.7605,37.1656],[-76.7517,37.1567],[-76.7476,37.1505],[-76.7373,37.1462],[-76.7303,37.1454],[-76.7214,37.1463],[-76.7153,37.148],[-76.7078,37.1587],[-76.7063,37.1653],[-76.7029,37.1707],[-76.6976,37.1744],[-76.6954,37.1785],[-76.6929,37.1861],[-76.692,37.195],[-76.6866,37.1973],[-76.6811,37.1928],[-76.6777,37.1886],[-76.6699,37.1836],[-76.6638,37.1739],[-76.6643,37.171],[-76.6687,37.1668],[-76.6715,37.1587],[-76.6703,37.1516],[-76.6716,37.1421],[-76.6754,37.139],[-76.6757,37.1365],[-76.6726,37.1339],[-76.6782,37.1304],[-76.6803,37.1263],[-76.68,37.1177],[-76.6771,37.1139],[-76.6794,37.1114],[-76.6752,37.1086],[-76.678,37.1042],[-76.6814,37.1067],[-76.6842,37.1039],[-76.6821,37.0987],[-76.6841,37.097],[-76.6817,37.0938],[-76.6838,37.0926],[-76.6845,37.0882],[-76.6878,37.086],[-76.6956,37.0833],[-76.6934,37.0805],[-76.695,37.0767],[-76.6934,37.0736],[-76.6962,37.0726],[-76.7012,37.0662],[-76.698,37.0613],[-76.6993,37.0584],[-76.7062,37.0558],[-76.7118,37.0554],[-76.7716,37.0309],[-76.8376,37.0022],[-76.8497,36.9962],[-76.9535,36.9445]]]}},{"type":"Feature","properties":{"id":"37029","name":"Camden Co., NC"},"geometry":{"type":"Polygon","coordinates":[[[-76.4653,36.551],[-76.3133,36.5506],[-76.2505,36.5003],[-76.1585,36.4253],[-76.1575,36.3982],[-76.1476,36.3945],[-76.1218,36.3711],[-76.1144,36.3576],[-76.1085,36.3551],[-76.0968,36.3519],[-76.0905,36.3521],[-76.0863,36.3497],[-76.085,36.3522],[-76.0834,36.3495],[-76.0783,36.3471],[-76.073,36.3467],[-76.073,36.3495],[-76.0684,36.3496],[-76.0687,36.3478],[-76.0642,36.3473],[-76.064,36.352],[-76.059,36.3522],[-76.0557,36.3552],[-76.056,36.3582],[-76.0515,36.3602],[-76.0493,36.3564],[-76.0454,36.3582],[-76.0418,36.3554],[-76.0364,36.3552],[-76.0327,36.3508],[-76.0288,36.3491],[-76.0287,36.3441],[-76.0328,36.3422],[-76.0317,36.3386],[-76.0249,36.341],[-76.0233,36.345],[-76.0192,36.3458],[-76.017,36.3446],[-76.0171,36.3378],[-76.0204,36.3342],[-76.0172,36.3279],[-76.0136,36.3268],[-76.0079,36.3286],[-76.0017,36.3235],[-76.0019,36.3151],[-75.9997,36.3112],[-75.9954,36.3091],[-75.9906,36.3083],[-75.9825,36.3088],[-75.9758,36.3103],[-75.9729,36.3097],[-75.9696,36.3063],[-75.9697,36.2954],[-75.9678,36.2911],[-75.9649,36.2884],[-75.9604,36.2876],[-75.9564,36.2894],[-75.9516,36.2879],[-75.9484,36.2853],[-75.9504,36.2808],[-75.949,36.2758],[-75.9517,36.2715],[-75.9599,36.2689],[-75.9625,36.2668],[-75.9653,36.2668],[-75.9689,36.2642],[-75.9671,36.255],[-75.9607,36.251],[-75.951,36.2355],[-75.9479,36.2244],[-75.9498,36.2154],[-75.9555,36.2049],[-75.9586,36.2024],[-75.96,36.1989],[-75.9441,36.1874],[-75.9419,36.1846],[-75.9426,36.1814],[-75.9364,36.1776],[-75.9172,36.1726],[-75.9126,36.1678],[-75.9134,36.1654],[-75.9246,36.1646],[-75.9346,36.1659],[-75.9617,36.172],[-76.0007,36.1801],[-76.017,36.1864],[-76.0244,36.1957],[-76.0262,36.202],[-76.0423,36.211],[-76.0442,36.2197],[-76.0466,36.2208],[-76.05,36.2311],[-76.054,36.2348],[-76.0593,36.2347],[-76.0648,36.2371],[-76.0796,36.2382],[-76.0842,36.2482],[-76.0977,36.2557],[-76.1016,36.2592],[-76.1057,36.2724],[-76.1124,36.2756],[-76.1265,36.2855],[-76.1282,36.2892],[-76.131,36.291],[-76.136,36.2888],[-76.1544,36.2894],[-76.1644,36.2923],[-76.1652,36.2971],[-76.1728,36.3024],[-76.1854,36.3011],[-76.1955,36.2965],[-76.2018,36.2996],[-76.2171,36.3012],[-76.2138,36.304],[-76.209,36.305],[-76.2021,36.3047],[-76.2007,36.3061],[-76.2009,36.3155],[-76.1974,36.3177],[-76.1927,36.3144],[-76.1876,36.3146],[-76.1823,36.3178],[-76.1817,36.3227],[-76.185,36.3251],[-76.1922,36.3281],[-76.2043,36.3284],[-76.2136,36.3269],[-76.2175,36.3298],[-76.2175,36.3361],[-76.2142,36.3416],[-76.2192,36.3454],[-76.2251,36.3464],[-76.2278,36.35],[-76.2258,36.3541],[-76.2315,36.3627],[-76.2309,36.3709],[-76.2354,36.3727],[-76.2382,36.3716],[-76.244,36.3657],[-76.2507,36.3637],[-76.2567,36.3633],[-76.2601,36.3665],[-76.2573,36.37],[-76.2565,36.3737],[-76.259,36.3765],[-76.2571,36.3822],[-76.2589,36.3843],[-76.268,36.3872],[-76.2741,36.3882],[-76.2788,36.3864],[-76.2853,36.3888],[-76.2866,36.3854],[-76.2915,36.3866],[-76.3005,36.3954],[-76.3022,36.4009],[-76.3105,36.4019],[-76.3098,36.4049],[-76.3136,36.4078],[-76.3148,36.411],[-76.3231,36.4173],[-76.3231,36.4202],[-76.32,36.4231],[-76.3226,36.4276],[-76.325,36.4257],[-76.3307,36.4239],[-76.3335,36.4254],[-76.3394,36.4243],[-76.3413,36.4218],[-76.3456,36.4214],[-76.3485,36.4239],[-76.3471,36.4275],[-76.3491,36.4286],[-76.3569,36.4266],[-76.3676,36.4314],[-76.3693,36.4354],[-76.3674,36.4394],[-76.3762,36.4426],[-76.3768,36.4459],[-76.3825,36.4475],[-76.3868,36.4469],[-76.392,36.4528],[-76.3947,36.4545],[-76.4046,36.455],[-76.4061,36.454],[-76.4107,36.4563],[-76.4148,36.4605],[-76.4211,36.4619],[-76.4227,36.4644],[-76.4309,36.4669],[-76.4373,36.4678],[-76.4913,36.5107],[-76.5415,36.5503],[-76.4915,36.5507],[-76.4653,36.551]]]}},{"type":"Feature","properties":{"id":"51199","name":"York Co., VA"},"geometry":{"type":"Polygon","coordinates":[[[-76.6495,37.3743],[-76.6373,37.3556],[-76.6294,37.347],[-76.6247,37.3403],[-76.6163,37.3331],[-76.6105,37.3248],[-76.5994,37.3128],[-76.5862,37.3027],[-76.5767,37.2969],[-76.57,37.2891],[-76.5613,37.2835],[-76.5533,37.281],[-76.5447,37.2765],[-76.5364,37.2711],[-76.5269,37.2605],[-76.5203,37.2546],[-76.5161,37.2488],[-76.5063,37.2434],[-76.509,37.2395],[-76.5036,37.2339],[-76.4974,37.23],[-76.494,37.2254],[-76.4837,37.2223],[-76.4718,37.216],[-76.456,37.2185],[-76.4473,37.2192],[-76.4373,37.219],[-76.4254,37.2217],[-76.4214,37.2232],[-76.4154,37.2237],[-76.4107,37.2225],[-76.3973,37.2242],[-76.3886,37.2277],[-76.3869,37.2261],[-76.3951,37.2171],[-76.3957,37.2121],[-76.4021,37.2065],[-76.3931,37.1986],[-76.3908,37.193],[-76.3923,37.1888],[-76.3917,37.1812],[-76.3925,37.1756],[-76.394,37.1745],[-76.4005,37.179],[-76.408,37.175],[-76.4084,37.1669],[-76.4123,37.1615],[-76.4057,37.16],[-76.4129,37.1558],[-76.4117,37.1479],[-76.4135,37.1383],[-76.4102,37.1347],[-76.4115,37.1304],[-76.4104,37.1266],[-76.4078,37.1291],[-76.4018,37.1192],[-76.3958,37.1072],[-76.4012,37.1056],[-76.4014,37.103],[-76.3978,37.1039],[-76.3994,37.1002],[-76.3984,37.0967],[-76.4096,37.0919],[-76.4129,37.0935],[-76.4187,37.0921],[-76.4255,37.0923],[-76.4305,37.0961],[-76.4377,37.094],[-76.4448,37.0947],[-76.4591,37.101],[-76.5061,37.1541],[-76.5045,37.1585],[-76.5151,37.1732],[-76.5148,37.1761],[-76.5172,37.1788],[-76.525,37.1764],[-76.5266,37.1771],[-76.5652,37.2205],[-76.5709,37.2153],[-76.5747,37.2157],[-76.5752,37.213],[-76.5913,37.2132],[-76.5953,37.22],[-76.5952,37.2267],[-76.5963,37.2321],[-76.6005,37.2343],[-76.6013,37.2376],[-76.623,37.2351],[-76.6269,37.2324],[-76.6327,37.2363],[-76.646,37.2392],[-76.6513,37.2392],[-76.6588,37.2453],[-76.6625,37.2516],[-76.6634,37.2574],[-76.6658,37.2641],[-76.6693,37.266],[-76.6802,37.266],[-76.6848,37.2707],[-76.6783,37.2768],[-76.6786,37.2794],[-76.6815,37.2816],[-76.6819,37.2926],[-76.6853,37.2938],[-76.6912,37.2906],[-76.6931,37.287],[-76.6993,37.2851],[-76.7011,37.2829],[-76.7099,37.2827],[-76.7101,37.2774],[-76.7164,37.2812],[-76.72,37.2862],[-76.7244,37.2958],[-76.7273,37.2989],[-76.7279,37.3059],[-76.731,37.3159],[-76.7337,37.3179],[-76.7359,37.3234],[-76.7346,37.3314],[-76.7545,37.3402],[-76.753,37.3458],[-76.7555,37.3542],[-76.7502,37.3596],[-76.7459,37.3625],[-76.743,37.3681],[-76.7432,37.3701],[-76.7343,37.3718],[-76.7271,37.3712],[-76.7252,37.3691],[-76.7198,37.3692],[-76.7167,37.3664],[-76.7118,37.3651],[-76.7009,37.3665],[-76.6982,37.3683],[-76.6977,37.366],[-76.6934,37.3681],[-76.6904,37.3671],[-76.6888,37.3697],[-76.6834,37.3701],[-76.6833,37.3676],[-76.68,37.3669],[-76.6762,37.3693],[-76.6743,37.3677],[-76.6587,37.3801],[-76.6495,37.3743]]]}},{"type":"Feature","properties":{"id":"37073","name":"Gates Co., NC"},"geometry":{"type":"Polygon","coordinates":[[[-76.8071,36.5506],[-76.7813,36.5507],[-76.7497,36.5504],[-76.7383,36.551],[-76.5755,36.5507],[-76.5415,36.5503],[-76.4913,36.5107],[-76.4914,36.4686],[-76.4537,36.3781],[-76.5392,36.3573],[-76.5569,36.3552],[-76.5708,36.3343],[-76.5802,36.335],[-76.5862,36.3335],[-76.5928,36.3303],[-76.5941,36.3248],[-76.5966,36.3233],[-76.6017,36.323],[-76.6055,36.3242],[-76.6131,36.324],[-76.6226,36.3288],[-76.6269,36.3285],[-76.6329,36.3303],[-76.64,36.3294],[-76.6425,36.3195],[-76.6469,36.3201],[-76.6499,36.3178],[-76.6507,36.3112],[-76.6547,36.3114],[-76.6543,36.3142],[-76.6594,36.3131],[-76.67,36.3152],[-76.6749,36.309],[-76.6723,36.3078],[-76.6759,36.3063],[-76.6756,36.3013],[-76.6842,36.3005],[-76.6966,36.2961],[-76.6996,36.2997],[-76.7102,36.3036],[-76.7172,36.3088],[-76.7259,36.3183],[-76.7353,36.3241],[-76.741,36.3312],[-76.7535,36.3437],[-76.7585,36.3502],[-76.7627,36.3527],[-76.77,36.3547],[-76.7757,36.3605],[-76.7828,36.363],[-76.7899,36.3601],[-76.7946,36.3597],[-76.8073,36.3626],[-76.8214,36.3641],[-76.8339,36.3725],[-76.8392,36.3744],[-76.8496,36.3752],[-76.8557,36.3768],[-76.8692,36.382],[-76.8741,36.3832],[-76.8807,36.3826],[-76.884,36.3836],[-76.8911,36.3889],[-76.8961,36.3904],[-76.9036,36.3899],[-76.9079,36.3907],[-76.9188,36.396],[-76.93,36.3999],[-76.9388,36.4056],[-76.9432,36.4095],[-76.9471,36.4154],[-76.9462,36.4264],[-76.9467,36.4332],[-76.9453,36.4402],[-76.9467,36.4508],[-76.9484,36.4538],[-76.9489,36.4587],[-76.9468,36.4647],[-76.9505,36.4697],[-76.9471,36.4724],[-76.936,36.4707],[-76.9334,36.4726],[-76.936,36.4784],[-76.9345,36.4847],[-76.9295,36.4855],[-76.9253,36.4883],[-76.9219,36.4973],[-76.921,36.5031],[-76.9194,36.5054],[-76.9133,36.5041],[-76.91,36.5056],[-76.9065,36.5107],[-76.9067,36.5152],[-76.9035,36.5181],[-76.9034,36.5204],[-76.9103,36.5269],[-76.9143,36.5282],[-76.9166,36.5309],[-76.9222,36.5288],[-76.9245,36.5295],[-76.9239,36.5323],[-76.9209,36.5319],[-76.9201,36.5341],[-76.9215,36.5384],[-76.9164,36.5387],[-76.914,36.5432],[-76.9173,36.546],[-76.9159,36.5521],[-76.8071,36.5506]]]}},{"type":"Feature","properties":{"id":"51710","name":"Norfolk city, VA"},"geometry":{"type":"Polygon","coordinates":[[[-76.1768,36.921],[-76.1875,36.9229],[-76.1891,36.919],[-76.1925,36.918],[-76.1892,36.912],[-76.182,36.9067],[-76.194,36.8938],[-76.1985,36.8866],[-76.1931,36.8774],[-76.1884,36.8741],[-76.1933,36.8652],[-76.1898,36.8624],[-76.1769,36.857],[-76.1795,36.8497],[-76.1865,36.8426],[-76.1915,36.8394],[-76.195,36.8331],[-76.1947,36.83],[-76.2002,36.8279],[-76.2069,36.8326],[-76.214,36.8323],[-76.2261,36.8399],[-76.2438,36.8369],[-76.2457,36.8329],[-76.2575,36.8208],[-76.2604,36.8224],[-76.2747,36.828],[-76.277,36.8249],[-76.2843,36.822],[-76.29,36.822],[-76.295,36.8333],[-76.2943,36.8416],[-76.3017,36.8509],[-76.3019,36.853],[-76.3069,36.8558],[-76.3078,36.8606],[-76.327,36.8736],[-76.3279,36.8761],[-76.3217,36.8852],[-76.3177,36.885],[-76.3157,36.8882],[-76.3141,36.9025],[-76.3114,36.9041],[-76.3092,36.9026],[-76.3022,36.9034],[-76.294,36.8992],[-76.2896,36.8995],[-76.2879,36.9034],[-76.3029,36.9097],[-76.305,36.9084],[-76.3179,36.9115],[-76.3208,36.9107],[-76.3229,36.9039],[-76.326,36.9037],[-76.3278,36.9147],[-76.3298,36.9319],[-76.3302,36.9421],[-76.3257,36.9632],[-76.3214,36.9623],[-76.3203,36.9578],[-76.3159,36.9554],[-76.3005,36.9564],[-76.2985,36.9655],[-76.2961,36.969],[-76.2799,36.9684],[-76.2679,36.9645],[-76.2489,36.9541],[-76.235,36.9451],[-76.2286,36.9419],[-76.2217,36.9395],[-76.2058,36.9351],[-76.19,36.9314],[-76.1807,36.9299],[-76.1771,36.9301],[-76.1768,36.921]]]}},{"type":"Feature","properties":{"id":"51740","name":"Portsmouth city, VA"},"geometry":{"type":"Polygon","coordinates":[[[-76.4038,36.8978],[-76.3907,36.8957],[-76.3876,36.8995],[-76.3859,36.9232],[-76.3841,36.9244],[-76.3564,36.9241],[-76.3545,36.9228],[-76.3503,36.8953],[-76.3486,36.8942],[-76.3402,36.8937],[-76.3386,36.889],[-76.3401,36.8844],[-76.3444,36.8837],[-76.3513,36.88],[-76.3476,36.8673],[-76.3431,36.8647],[-76.3418,36.8601],[-76.3572,36.8568],[-76.3584,36.8525],[-76.367,36.8421],[-76.3718,36.8397],[-76.374,36.8366],[-76.3705,36.8343],[-76.3642,36.8344],[-76.3582,36.8362],[-76.3589,36.8409],[-76.3463,36.8521],[-76.3418,36.8519],[-76.3398,36.8545],[-76.3185,36.8578],[-76.3122,36.8523],[-76.3126,36.8499],[-76.3073,36.8475],[-76.3028,36.8483],[-76.3017,36.8509],[-76.2943,36.8416],[-76.295,36.8333],[-76.29,36.822],[-76.2913,36.8184],[-76.2901,36.8087],[-76.2921,36.7987],[-76.2953,36.799],[-76.32,36.7951],[-76.3288,36.793],[-76.3757,36.7861],[-76.387,36.7985],[-76.3872,36.8006],[-76.395,36.8065],[-76.4003,36.8064],[-76.4037,36.814],[-76.3955,36.8281],[-76.3835,36.8375],[-76.3883,36.8449],[-76.387,36.8512],[-76.3913,36.8543],[-76.3919,36.8565],[-76.3994,36.8572],[-76.3985,36.8659],[-76.4015,36.8665],[-76.4204,36.8663],[-76.4134,36.8743],[-76.4071,36.878],[-76.4041,36.885],[-76.4073,36.8909],[-76.4046,36.8915],[-76.4044,36.8945],[-76.4069,36.8975],[-76.4038,36.8978]]]}},{"type":"Feature","properties":{"id":"51700","name":"Newport News city, VA"},"geometry":{"type":"Polygon","coordinates":[[[-76.6048,37.1706],[-76.5979,37.1782],[-76.5954,37.1784],[-76.5903,37.1815],[-76.587,37.1802],[-76.5846,37.1826],[-76.5812,37.1825],[-76.5811,37.1853],[-76.5783,37.1865],[-76.58,37.1886],[-76.5779,37.1903],[-76.58,37.1927],[-76.5832,37.193],[-76.5855,37.2008],[-76.5895,37.2045],[-76.5919,37.2098],[-76.5913,37.2132],[-76.5752,37.213],[-76.5747,37.2157],[-76.5709,37.2153],[-76.5652,37.2205],[-76.5266,37.1771],[-76.525,37.1764],[-76.5172,37.1788],[-76.5148,37.1761],[-76.5151,37.1732],[-76.5045,37.1585],[-76.5061,37.1541],[-76.4591,37.101],[-76.4448,37.0947],[-76.4377,37.094],[-76.4369,37.0904],[-76.4392,37.0909],[-76.4404,37.0849],[-76.4426,37.0852],[-76.4513,37.077],[-76.4468,37.0711],[-76.4466,37.0686],[-76.4504,37.0599],[-76.4482,37.0552],[-76.4502,37.051],[-76.4502,37.045],[-76.4491,37.0374],[-76.4427,37.029],[-76.4407,37.0213],[-76.4424,37.0188],[-76.4247,37.0254],[-76.405,36.9936],[-76.4003,36.9923],[-76.4013,36.9972],[-76.3966,36.9944],[-76.3953,36.9955],[-76.3877,36.9897],[-76.3964,36.9823],[-76.4005,36.9779],[-76.4015,36.9749],[-76.4086,36.9691],[-76.411,36.963],[-76.4125,36.9623],[-76.4203,36.9639],[-76.4253,36.9664],[-76.435,36.9764],[-76.4521,36.9982],[-76.4528,37.0],[-76.4478,37.002],[-76.4482,37.0077],[-76.4552,37.0142],[-76.456,37.0171],[-76.4613,37.0245],[-76.4645,37.0275],[-76.4794,37.0354],[-76.4956,37.0445],[-76.5123,37.0549],[-76.5186,37.0557],[-76.5263,37.0629],[-76.528,37.0682],[-76.5266,37.07],[-76.5266,37.0785],[-76.5431,37.0891],[-76.5437,37.0937],[-76.5467,37.0963],[-76.5524,37.0987],[-76.5567,37.108],[-76.5603,37.1113],[-76.5669,37.1134],[-76.57,37.1084],[-76.563,37.105],[-76.562,37.0972],[-76.557,37.0938],[-76.5505,37.0815],[-76.5515,37.0807],[-76.5589,37.082],[-76.5556,37.0766],[-76.5635,37.0782],[-76.5677,37.0815],[-76.5671,37.0838],[-76.5708,37.0875],[-76.574,37.089],[-76.5795,37.0966],[-76.5963,37.1065],[-76.5983,37.1114],[-76.6043,37.1141],[-76.6093,37.114],[-76.6181,37.1204],[-76.6173,37.1226],[-76.6206,37.1266],[-76.6255,37.1273],[-76.6213,37.1358],[-76.6236,37.1382],[-76.6223,37.1421],[-76.6167,37.1438],[-76.6044,37.1601],[-76.6074,37.1688],[-76.6048,37.1706]]]}},{"type":"Feature","properties":{"id":"51735","name":"Poquoson city, VA"},"geometry":{"type":"Polygon","coordinates":[[[-76.402,37.1591],[-76.3998,37.1605],[-76.3948,37.1576],[-76.3814,37.1557],[-76.3785,37.1508],[-76.3707,37.1503],[-76.3674,37.154],[-76.3729,37.1567],[-76.374,37.1604],[-76.367,37.1656],[-76.3621,37.1659],[-76.3597,37.1684],[-76.3554,37.1692],[-76.3487,37.1687],[-76.3416,37.1588],[-76.3424,37.1564],[-76.3407,37.1508],[-76.3325,37.1445],[-76.3213,37.1413],[-76.3163,37.1377],[-76.3114,37.1375],[-76.3018,37.1301],[-76.2993,37.1301],[-76.2958,37.1233],[-76.3006,37.1187],[-76.3018,37.1141],[-76.296,37.1098],[-76.3016,37.1032],[-76.3117,37.102],[-76.3174,37.103],[-76.3447,37.0968],[-76.351,37.1067],[-76.3675,37.113],[-76.3762,37.1083],[-76.3818,37.1121],[-76.3877,37.1092],[-76.3843,37.1074],[-76.3844,37.1054],[-76.3934,37.1083],[-76.3958,37.1072],[-76.4018,37.1192],[-76.4078,37.1291],[-76.4104,37.1266],[-76.4115,37.1304],[-76.4102,37.1347],[-76.4135,37.1383],[-76.4117,37.1479],[-76.4129,37.1558],[-76.4057,37.16],[-76.402,37.1591]]]}},{"type":"Feature","properties":{"id":"51800","name":"Suffolk city, VA"},"geometry":{"type":"Polygon","coordinates":[[[-76.8694,36.6644],[-76.8273,36.6953],[-76.8146,36.7057],[-76.7932,36.7195],[-76.7558,36.746],[-76.7477,36.7526],[-76.6705,36.8121],[-76.6117,36.8569],[-76.5379,36.9124],[-76.5335,36.9156],[-76.5293,36.9167],[-76.5264,36.9146],[-76.5272,36.9109],[-76.5245,36.9074],[-76.5211,36.9063],[-76.5084,36.912],[-76.5004,36.9146],[-76.4952,36.9225],[-76.4937,36.9211],[-76.4893,36.9218],[-76.4824,36.9174],[-76.4802,36.9143],[-76.4834,36.8962],[-76.4855,36.8944],[-76.4894,36.8942],[-76.4931,36.8918],[-76.4916,36.8811],[-76.4872,36.8806],[-76.4834,36.8782],[-76.4783,36.8815],[-76.4736,36.8826],[-76.4547,36.8841],[-76.4533,36.887],[-76.4539,36.8927],[-76.4474,36.9032],[-76.4416,36.9061],[-76.4312,36.9045],[-76.4069,36.8975],[-76.4044,36.8945],[-76.4046,36.8915],[-76.4073,36.8909],[-76.4041,36.885],[-76.4071,36.878],[-76.4134,36.8743],[-76.4204,36.8663],[-76.422,36.8648],[-76.4411,36.8425],[-76.4407,36.8416],[-76.4507,36.8267],[-76.4575,36.8148],[-76.4668,36.7462],[-76.4915,36.5507],[-76.5415,36.5503],[-76.5755,36.5507],[-76.7383,36.551],[-76.7497,36.5504],[-76.7813,36.5507],[-76.8071,36.5506],[-76.9159,36.5521],[-76.917,36.5545],[-76.9235,36.5558],[-76.9309,36.5596],[-76.9277,36.5624],[-76.9277,36.5688],[-76.9242,36.5729],[-76.918,36.5726],[-76.9203,36.5776],[-76.9125,36.5771],[-76.9095,36.5792],[-76.9102,36.5894],[-76.9095,36.5919],[-76.9125,36.6027],[-76.9083,36.6084],[-76.9073,36.6121],[-76.9119,36.6171],[-76.911,36.6192],[-76.9021,36.6226],[-76.9,36.6205],[-76.8981,36.6239],[-76.8939,36.6257],[-76.8913,36.6304],[-76.8951,36.6357],[-76.8957,36.6421],[-76.8976,36.6441],[-76.8694,36.6644]]]}},{"type":"Feature","properties":{"id":"51115","name":"Mathews Co., VA"},"geometry":{"type":"Polygon","coordinates":[[[-76.432,37.5149],[-76.4262,37.5108],[-76.4199,37.5103],[-76.4136,37.5129],[-76.4109,37.5163],[-76.4112,37.5198],[-76.4088,37.5285],[-76.4041,37.5355],[-76.3951,37.5313],[-76.3875,37.5301],[-76.3785,37.5318],[-76.3608,37.5284],[-76.3594,37.5134],[-76.3564,37.5081],[-76.3527,37.5049],[-76.3457,37.504],[-76.3406,37.5052],[-76.3362,37.5044],[-76.3317,37.4999],[-76.3276,37.4898],[-76.3278,37.4882],[-76.3233,37.4853],[-76.3173,37.4851],[-76.3109,37.4871],[-76.3155,37.4888],[-76.3134,37.4923],[-76.3104,37.4941],[-76.2977,37.5069],[-76.2964,37.5112],[-76.2977,37.5154],[-76.2936,37.5165],[-76.2882,37.5141],[-76.281,37.5078],[-76.2734,37.4935],[-76.2719,37.4864],[-76.273,37.4848],[-76.2812,37.4855],[-76.2938,37.4913],[-76.2926,37.495],[-76.303,37.4942],[-76.307,37.4949],[-76.3103,37.4911],[-76.309,37.4886],[-76.302,37.4876],[-76.3023,37.4852],[-76.2998,37.4836],[-76.2942,37.4826],[-76.2915,37.4798],[-76.2864,37.4784],[-76.2857,37.4767],[-76.2795,37.4747],[-76.2807,37.4658],[-76.2715,37.4622],[-76.271,37.4595],[-76.2673,37.4568],[-76.2603,37.457],[-76.2561,37.4526],[-76.2555,37.4494],[-76.257,37.4436],[-76.2524,37.4366],[-76.2526,37.4302],[-76.2517,37.4217],[-76.2492,37.4158],[-76.2504,37.413],[-76.249,37.4061],[-76.2479,37.3944],[-76.2478,37.3788],[-76.2491,37.3758],[-76.2535,37.3715],[-76.2593,37.3622],[-76.2624,37.3608],[-76.2648,37.3574],[-76.2721,37.3556],[-76.2747,37.3496],[-76.2725,37.3397],[-76.2729,37.3352],[-76.276,37.3354],[-76.2748,37.331],[-76.2715,37.3295],[-76.2722,37.3215],[-76.2746,37.3134],[-76.278,37.3105],[-76.2804,37.317],[-76.2826,37.3191],[-76.2913,37.3241],[-76.2948,37.3234],[-76.2972,37.3271],[-76.3067,37.3282],[-76.3086,37.3294],[-76.312,37.3381],[-76.3141,37.3395],[-76.3138,37.3455],[-76.3206,37.3441],[-76.3209,37.3486],[-76.3251,37.3493],[-76.3263,37.3525],[-76.3296,37.354],[-76.3363,37.3612],[-76.3378,37.3658],[-76.3486,37.3715],[-76.3551,37.3695],[-76.3599,37.3709],[-76.3626,37.374],[-76.3668,37.3745],[-76.3673,37.3775],[-76.3707,37.3805],[-76.3738,37.3803],[-76.3853,37.3843],[-76.3914,37.3903],[-76.3968,37.402],[-76.3972,37.4073],[-76.3957,37.4091],[-76.398,37.4121],[-76.399,37.4168],[-76.4039,37.4186],[-76.4129,37.4181],[-76.4145,37.4136],[-76.4194,37.4141],[-76.4447,37.4185],[-76.4479,37.4201],[-76.448,37.4239],[-76.4499,37.428],[-76.4494,37.4318],[-76.4464,37.4334],[-76.448,37.4366],[-76.4443,37.4391],[-76.4468,37.4426],[-76.4453,37.4453],[-76.4487,37.4481],[-76.4484,37.4498],[-76.4423,37.452],[-76.4441,37.4597],[-76.4462,37.4604],[-76.4478,37.467],[-76.4472,37.473],[-76.4496,37.4781],[-76.4491,37.4812],[-76.4518,37.4846],[-76.4496,37.4888],[-76.4454,37.4918],[-76.4446,37.4942],[-76.4394,37.5017],[-76.4358,37.5094],[-76.4384,37.5119],[-76.4376,37.5144],[-76.432,37.5149]]]}},{"type":"Feature","properties":{"id":"51650","name":"Hampton city, VA"},"geometry":{"type":"MultiPolygon","coordinates":[[[[-76.2999,36.9869],[-76.3003,36.9831],[-76.3027,36.9818],[-76.3053,36.9851],[-76.2999,36.9869]]],[[[-76.3166,37.0001],[-76.3186,36.9992],[-76.3206,37.0017],[-76.3192,37.0033],[-76.3166,37.0001]]],[[[-76.4305,37.0961],[-76.4255,37.0923],[-76.4187,37.0921],[-76.4129,37.0935],[-76.4096,37.0919],[-76.3984,37.0967],[-76.3994,37.1002],[-76.3978,37.1039],[-76.4014,37.103],[-76.4012,37.1056],[-76.3958,37.1072],[-76.3934,37.1083],[-76.3844,37.1054],[-76.3843,37.1074],[-76.3877,37.1092],[-76.3818,37.1121],[-76.3762,37.1083],[-76.3675,37.113],[-76.351,37.1067],[-76.3447,37.0968],[-76.3174,37.103],[-76.3117,37.102],[-76.3016,37.1032],[-76.296,37.1098],[-76.2919,37.1085],[-76.2854,37.1023],[-76.2799,37.1012],[-76.2745,37.0945],[-76.2714,37.0876],[-76.2743,37.0826],[-76.2735,37.0807],[-76.2779,37.0741],[-76.2807,37.0668],[-76.2822,37.0587],[-76.2878,37.0463],[-76.2898,37.0404],[-76.2929,37.0351],[-76.3004,37.0089],[-76.3043,37.0014],[-76.312,37.0004],[-76.3146,37.0015],[-76.3133,37.0038],[-76.3147,37.0108],[-76.3194,37.0131],[-76.3229,37.0115],[-76.3407,37.0152],[-76.3481,37.0067],[-76.3564,37.0029],[-76.3621,37.0024],[-76.3775,36.997],[-76.3877,36.9897],[-76.3953,36.9955],[-76.3966,36.9944],[-76.4013,36.9972],[-76.4003,36.9923],[-76.405,36.9936],[-76.4247,37.0254],[-76.4424,37.0188],[-76.4407,37.0213],[-76.4427,37.029],[-76.4491,37.0374],[-76.4502,37.045],[-76.4502,37.051],[-76.4482,37.0552],[-76.4504,37.0599],[-76.4466,37.0686],[-76.4468,37.0711],[-76.4513,37.077],[-76.4426,37.0852],[-76.4404,37.0849],[-76.4392,37.0909],[-76.4369,37.0904],[-76.4377,37.094],[-76.4305,37.0961]]]]}},{"type":"Feature","properties":{"id":"51810","name":"Virginia Beach city, VA"},"geometry":{"type":"Polygon","coordinates":[[[-76.214,36.8323],[-76.2069,36.8326],[-76.2002,36.8279],[-76.1947,36.83],[-76.195,36.8331],[-76.1915,36.8394],[-76.1865,36.8426],[-76.1795,36.8497],[-76.1769,36.857],[-76.1898,36.8624],[-76.1933,36.8652],[-76.1884,36.8741],[-76.1931,36.8774],[-76.1985,36.8866],[-76.194,36.8938],[-76.182,36.9067],[-76.1892,36.912],[-76.1925,36.918],[-76.1891,36.919],[-76.1875,36.9229],[-76.1768,36.921],[-76.1771,36.9301],[-76.1396,36.923],[-76.1237,36.9174],[-76.0955,36.9088],[-76.0905,36.9078],[-76.0826,36.9122],[-76.0582,36.9169],[-76.0506,36.9223],[-76.0416,36.9299],[-76.0383,36.9312],[-76.0267,36.9321],[-76.0138,36.9307],[-76.0076,36.929],[-75.9963,36.922],[-75.9923,36.916],[-75.99,36.9054],[-75.9722,36.8423],[-75.9655,36.8124],[-75.9495,36.7612],[-75.9217,36.6921],[-75.9131,36.6732],[-75.9057,36.66],[-75.8909,36.6308],[-75.8741,36.5839],[-75.8676,36.5504],[-75.9047,36.5507],[-75.9977,36.5505],[-76.0451,36.5505],[-76.1223,36.5505],[-76.1227,36.5795],[-76.1216,36.5884],[-76.1219,36.5951],[-76.122,36.6658],[-76.1007,36.6705],[-76.0998,36.6734],[-76.0862,36.6758],[-76.0797,36.6787],[-76.0769,36.6773],[-76.074,36.6785],[-76.0692,36.6775],[-76.0656,36.6856],[-76.068,36.6926],[-76.0728,36.6966],[-76.0803,36.7057],[-76.0822,36.7124],[-76.0976,36.7161],[-76.1433,36.757],[-76.1865,36.7637],[-76.2037,36.7697],[-76.2206,36.8142],[-76.2216,36.8157],[-76.2281,36.8329],[-76.2252,36.837],[-76.2261,36.8399],[-76.214,36.8323]]]}},{"type":"Feature","properties":{"id":"51073","name":"Gloucester Co., VA"},"geometry":{"type":"Polygon","coordinates":[[[-76.4384,37.5119],[-76.4358,37.5094],[-76.4394,37.5017],[-76.4446,37.4942],[-76.4454,37.4918],[-76.4496,37.4888],[-76.4518,37.4846],[-76.4491,37.4812],[-76.4496,37.4781],[-76.4472,37.473],[-76.4478,37.467],[-76.4462,37.4604],[-76.4441,37.4597],[-76.4423,37.452],[-76.4484,37.4498],[-76.4487,37.4481],[-76.4453,37.4453],[-76.4468,37.4426],[-76.4443,37.4391],[-76.448,37.4366],[-76.4464,37.4334],[-76.4494,37.4318],[-76.4499,37.428],[-76.448,37.4239],[-76.4479,37.4201],[-76.4447,37.4185],[-76.4194,37.4141],[-76.4145,37.4136],[-76.4161,37.4093],[-76.4152,37.4021],[-76.4187,37.3978],[-76.4163,37.394],[-76.416,37.3863],[-76.4149,37.3798],[-76.4165,37.3777],[-76.4123,37.3749],[-76.4097,37.3748],[-76.4099,37.3687],[-76.4145,37.3684],[-76.4235,37.3757],[-76.4239,37.3781],[-76.4287,37.3815],[-76.4375,37.3798],[-76.451,37.3813],[-76.4509,37.3868],[-76.4548,37.3882],[-76.461,37.3874],[-76.4672,37.3798],[-76.4673,37.3732],[-76.4696,37.3706],[-76.4673,37.3667],[-76.4597,37.3625],[-76.4565,37.3593],[-76.4469,37.362],[-76.4441,37.3665],[-76.435,37.3545],[-76.4254,37.3506],[-76.4265,37.3486],[-76.4238,37.3454],[-76.4147,37.3397],[-76.4123,37.345],[-76.4101,37.3442],[-76.4115,37.341],[-76.4089,37.3393],[-76.4037,37.3387],[-76.4027,37.3361],[-76.4064,37.3329],[-76.4059,37.3299],[-76.4124,37.3336],[-76.4163,37.3293],[-76.4113,37.3245],[-76.4169,37.3205],[-76.4214,37.3206],[-76.4255,37.3233],[-76.4331,37.3224],[-76.4371,37.3241],[-76.4382,37.3219],[-76.4386,37.3138],[-76.4274,37.3107],[-76.4229,37.3081],[-76.4116,37.3076],[-76.4102,37.3094],[-76.4031,37.3109],[-76.3993,37.3133],[-76.3947,37.3129],[-76.3886,37.3085],[-76.3915,37.3047],[-76.3955,37.3049],[-76.3968,37.303],[-76.3926,37.2961],[-76.389,37.2962],[-76.3863,37.2983],[-76.3856,37.2941],[-76.3821,37.2928],[-76.3829,37.2863],[-76.3787,37.2857],[-76.3763,37.2806],[-76.3689,37.2784],[-76.3669,37.2796],[-76.3526,37.2783],[-76.3546,37.2723],[-76.36,37.2709],[-76.3624,37.2686],[-76.379,37.2682],[-76.3901,37.2635],[-76.3959,37.2653],[-76.403,37.2645],[-76.4172,37.2651],[-76.4235,37.2623],[-76.4245,37.2587],[-76.4229,37.2549],[-76.4291,37.2533],[-76.4339,37.257],[-76.4396,37.2547],[-76.4451,37.2546],[-76.4584,37.2522],[-76.4646,37.2499],[-76.4689,37.2511],[-76.4772,37.2502],[-76.4828,37.2548],[-76.4933,37.2495],[-76.4988,37.2487],[-76.5063,37.2434],[-76.5161,37.2488],[-76.5203,37.2546],[-76.5269,37.2605],[-76.5364,37.2711],[-76.5447,37.2765],[-76.5533,37.281],[-76.5613,37.2835],[-76.57,37.2891],[-76.5767,37.2969],[-76.5862,37.3027],[-76.5994,37.3128],[-76.6105,37.3248],[-76.6163,37.3331],[-76.6247,37.3403],[-76.6294,37.347],[-76.6373,37.3556],[-76.6495,37.3743],[-76.6587,37.3801],[-76.6623,37.3834],[-76.6724,37.3959],[-76.6989,37.4191],[-76.7123,37.4313],[-76.7063,37.4372],[-76.7033,37.4446],[-76.7047,37.448],[-76.6991,37.451],[-76.6912,37.4476],[-76.687,37.4479],[-76.6853,37.4534],[-76.674,37.4613],[-76.6705,37.4598],[-76.6674,37.4555],[-76.6616,37.4587],[-76.6627,37.4613],[-76.6551,37.4687],[-76.654,37.4715],[-76.6555,37.4738],[-76.6513,37.4731],[-76.6519,37.4766],[-76.6491,37.4768],[-76.6515,37.4807],[-76.648,37.48],[-76.6456,37.4863],[-76.6486,37.487],[-76.648,37.4959],[-76.6507,37.497],[-76.6572,37.5072],[-76.6675,37.5201],[-76.6691,37.5296],[-76.6665,37.5333],[-76.6676,37.5351],[-76.6657,37.5399],[-76.6615,37.558],[-76.662,37.5668],[-76.6609,37.5736],[-76.6541,37.6032],[-76.6521,37.6013],[-76.64,37.5948],[-76.637,37.5908],[-76.6283,37.5915],[-76.6243,37.5897],[-76.6232,37.586],[-76.6174,37.5903],[-76.6117,37.5903],[-76.615,37.584],[-76.6125,37.5819],[-76.606,37.5833],[-76.6015,37.5881],[-76.5958,37.5881],[-76.5896,37.5834],[-76.5889,37.5798],[-76.5826,37.5785],[-76.5809,37.5757],[-76.5749,37.5738],[-76.576,37.5698],[-76.5735,37.5629],[-76.5617,37.562],[-76.5566,37.5597],[-76.5578,37.5565],[-76.5534,37.5554],[-76.5531,37.5598],[-76.5507,37.5612],[-76.5521,37.5664],[-76.5479,37.5679],[-76.543,37.5643],[-76.5428,37.5595],[-76.5343,37.5586],[-76.5273,37.5543],[-76.5261,37.5505],[-76.522,37.5483],[-76.512,37.5487],[-76.5073,37.5475],[-76.5031,37.5435],[-76.4998,37.5372],[-76.4812,37.5362],[-76.4727,37.5307],[-76.4622,37.5274],[-76.4563,37.5209],[-76.444,37.5159],[-76.4376,37.5144],[-76.4384,37.5119]]]}},{"type":"Feature","properties":{"id":"51550","name":"Chesapeake city, VA"},"geometry":{"type":"Polygon","coordinates":[[[-76.4015,36.8665],[-76.3985,36.8659],[-76.3994,36.8572],[-76.3919,36.8565],[-76.3913,36.8543],[-76.387,36.8512],[-76.3883,36.8449],[-76.3835,36.8375],[-76.3955,36.8281],[-76.4037,36.814],[-76.4003,36.8064],[-76.395,36.8065],[-76.3872,36.8006],[-76.387,36.7985],[-76.3757,36.7861],[-76.3288,36.793],[-76.32,36.7951],[-76.2953,36.799],[-76.2921,36.7987],[-76.2901,36.8087],[-76.2913,36.8184],[-76.29,36.822],[-76.2843,36.822],[-76.277,36.8249],[-76.2747,36.828],[-76.2604,36.8224],[-76.2575,36.8208],[-76.2457,36.8329],[-76.2438,36.8369],[-76.2261,36.8399],[-76.2252,36.837],[-76.2281,36.8329],[-76.2216,36.8157],[-76.2206,36.8142],[-76.2037,36.7697],[-76.1865,36.7637],[-76.1433,36.757],[-76.0976,36.7161],[-76.0822,36.7124],[-76.0803,36.7057],[-76.0728,36.6966],[-76.068,36.6926],[-76.0656,36.6856],[-76.0692,36.6775],[-76.074,36.6785],[-76.0769,36.6773],[-76.0797,36.6787],[-76.0862,36.6758],[-76.0998,36.6734],[-76.1007,36.6705],[-76.122,36.6658],[-76.1219,36.5951],[-76.1216,36.5884],[-76.1227,36.5795],[-76.1223,36.5505],[-76.1972,36.5505],[-76.3133,36.5506],[-76.4653,36.551],[-76.4915,36.5507],[-76.4668,36.7462],[-76.4575,36.8148],[-76.4507,36.8267],[-76.4407,36.8416],[-76.4411,36.8425],[-76.422,36.8648],[-76.4204,36.8663],[-76.4015,36.8665]]]}},{"type":"Feature","properties":{"id":"51830","name":"Williamsburg city, VA"},"geometry":{"type":"Polygon","coordinates":[[[-76.6809,37.2606],[-76.6776,37.2592],[-76.6757,37.2605],[-76.6677,37.2544],[-76.6672,37.251],[-76.665,37.2502],[-76.6731,37.2477],[-76.6826,37.2472],[-76.6905,37.2476],[-76.698,37.249],[-76.706,37.2478],[-76.7263,37.25],[-76.7361,37.2572],[-76.741,37.266],[-76.7391,37.2716],[-76.7375,37.2802],[-76.7283,37.2805],[-76.7256,37.2797],[-76.7255,37.2844],[-76.7341,37.2864],[-76.7314,37.2912],[-76.7337,37.2929],[-76.7332,37.2976],[-76.7346,37.3001],[-76.7392,37.3022],[-76.7409,37.3016],[-76.7405,37.3058],[-76.7372,37.3083],[-76.731,37.3101],[-76.7279,37.3059],[-76.7273,37.2989],[-76.7244,37.2958],[-76.72,37.2862],[-76.7164,37.2812],[-76.7101,37.2774],[-76.7099,37.2827],[-76.7011,37.2829],[-76.6993,37.2851],[-76.6931,37.287],[-76.6912,37.2906],[-76.6853,37.2938],[-76.6819,37.2926],[-76.6815,37.2816],[-76.6786,37.2794],[-76.6783,37.2768],[-76.6848,37.2707],[-76.6802,37.266],[-76.6809,37.2606]]]}}]}