{"type":"FeatureCollection","features":[{"type":"Feature","properties":{"id":"18013","name":"Brown Co."},"geometry":{"type":"Polygon","coordinates":[[[-86.3091,39.3411],[-86.2567,39.3418],[-86.2517,39.3417],[-86.1627,39.3426],[-86.0856,39.3442],[-86.0844,39.328],[-86.0834,39.256],[-86.0826,39.256],[-86.0818,39.2263],[-86.0794,39.1048],[-86.079,39.0796],[-86.0809,39.0796],[-86.0803,39.0503],[-86.1724,39.0486],[-86.2444,39.0484],[-86.2445,39.0492],[-86.3181,39.0488],[-86.337,39.0489],[-86.3701,39.0484],[-86.3692,39.0617],[-86.3691,39.0896],[-86.3697,39.1438],[-86.3702,39.1527],[-86.3704,39.1786],[-86.372,39.2236],[-86.3724,39.2509],[-86.3799,39.2511],[-86.3814,39.3398],[-86.3091,39.3411]]]}},{"type":"Feature","properties":{"id":"18145","name":"Shelby Co."},"geometry":{"type":"Polygon","coordinates":[[[-85.9521,39.6696],[-85.9517,39.6971],[-85.8959,39.6984],[-85.8571,39.6983],[-85.8188,39.6988],[-85.7681,39.6991],[-85.745,39.6988],[-85.7057,39.6989],[-85.6332,39.6985],[-85.6325,39.6985],[-85.6328,39.6562],[-85.6328,39.6257],[-85.6322,39.6112],[-85.6311,39.54],[-85.6306,39.5179],[-85.6294,39.4531],[-85.6292,39.4388],[-85.6298,39.4386],[-85.6303,39.4262],[-85.6301,39.4164],[-85.6303,39.3794],[-85.6306,39.3502],[-85.6845,39.35],[-85.7418,39.3502],[-85.7988,39.3502],[-85.8709,39.3493],[-85.952,39.3474],[-85.9528,39.3655],[-85.9528,39.4197],[-85.9525,39.4359],[-85.9509,39.4361],[-85.9515,39.4546],[-85.9508,39.4952],[-85.9514,39.5231],[-85.9517,39.5231],[-85.9518,39.5527],[-85.9525,39.6092],[-85.9521,39.6383],[-85.9521,39.6696]]]}},{"type":"Feature","properties":{"id":"18159","name":"Tipton Co."},"geometry":{"type":"Polygon","coordinates":[[[-85.8613,40.3057],[-85.8602,40.3057],[-85.8609,40.2624],[-85.8612,40.2253],[-85.8619,40.2189],[-85.9961,40.2182],[-86.1282,40.2172],[-86.2427,40.2158],[-86.2427,40.2316],[-86.2423,40.2499],[-86.2426,40.2737],[-86.243,40.3737],[-86.2428,40.4029],[-86.1841,40.4036],[-86.1271,40.4043],[-85.9755,40.4062],[-85.8621,40.4069],[-85.8623,40.3784],[-85.8613,40.3057]]]}},{"type":"Feature","properties":{"id":"18095","name":"Madison Co."},"geometry":{"type":"Polygon","coordinates":[[[-85.8612,40.2253],[-85.8609,40.2624],[-85.8602,40.3057],[-85.8613,40.3057],[-85.8623,40.3784],[-85.7659,40.379],[-85.6902,40.3785],[-85.6716,40.3794],[-85.5786,40.3795],[-85.5789,40.3725],[-85.5776,40.3283],[-85.5767,40.2917],[-85.5764,40.2558],[-85.5759,40.2482],[-85.5756,40.2189],[-85.5757,40.179],[-85.576,40.1496],[-85.5759,40.1349],[-85.5764,40.0478],[-85.5761,40.0477],[-85.5761,40.0046],[-85.5764,39.9901],[-85.5764,39.9467],[-85.5762,39.9458],[-85.6924,39.9454],[-85.8057,39.9446],[-85.8625,39.9436],[-85.8619,39.9585],[-85.8622,39.9847],[-85.8624,40.0316],[-85.8629,40.0453],[-85.8636,40.133],[-85.8629,40.1361],[-85.8627,40.1923],[-85.8625,40.2122],[-85.8619,40.2189],[-85.8612,40.2253]]]}},{"type":"Feature","properties":{"id":"18059","name":"Hancock Co."},"geometry":{"type":"Polygon","coordinates":[[[-85.9028,39.9286],[-85.8624,39.9289],[-85.8625,39.9436],[-85.8057,39.9446],[-85.6924,39.9454],[-85.5762,39.9458],[-85.5763,39.9165],[-85.5768,39.8728],[-85.5967,39.8729],[-85.5969,39.7865],[-85.6335,39.7862],[-85.6328,39.7639],[-85.6327,39.742],[-85.6332,39.6985],[-85.7057,39.6989],[-85.745,39.6988],[-85.7681,39.6991],[-85.8188,39.6988],[-85.8571,39.6983],[-85.8959,39.6984],[-85.9517,39.6971],[-85.9518,39.7409],[-85.9522,39.7556],[-85.9524,39.7827],[-85.9531,39.8238],[-85.954,39.8696],[-85.9381,39.8698],[-85.9381,39.9232],[-85.9376,39.9271],[-85.9028,39.9286]]]}},{"type":"Feature","properties":{"id":"18011","name":"Boone Co."},"geometry":{"type":"Polygon","coordinates":[[[-86.242,40.1461],[-86.2415,40.0708],[-86.2414,40.0415],[-86.2411,39.9988],[-86.2412,39.9771],[-86.2407,39.9261],[-86.2599,39.9251],[-86.3263,39.924],[-86.3296,39.9242],[-86.4291,39.9237],[-86.4687,39.9228],[-86.506,39.9229],[-86.5762,39.9227],[-86.616,39.9227],[-86.6572,39.9231],[-86.6951,39.9228],[-86.6954,40.0],[-86.6958,40.0106],[-86.6958,40.0399],[-86.6956,40.0806],[-86.6958,40.1787],[-86.6762,40.179],[-86.6188,40.1785],[-86.5812,40.1777],[-86.4678,40.177],[-86.4318,40.177],[-86.366,40.1778],[-86.3375,40.1789],[-86.2851,40.1799],[-86.2826,40.1797],[-86.2424,40.1808],[-86.242,40.1461]]]}},{"type":"Feature","properties":{"id":"18063","name":"Hendricks Co."},"geometry":{"type":"Polygon","coordinates":[[[-86.6572,39.9231],[-86.616,39.9227],[-86.5762,39.9227],[-86.506,39.9229],[-86.4687,39.9228],[-86.4291,39.9237],[-86.3296,39.9242],[-86.3263,39.924],[-86.3259,39.8823],[-86.3254,39.8662],[-86.3281,39.8661],[-86.3264,39.7793],[-86.3269,39.7778],[-86.3263,39.6944],[-86.3266,39.6859],[-86.3263,39.6322],[-86.3597,39.6315],[-86.3623,39.6311],[-86.394,39.6307],[-86.4659,39.63],[-86.4656,39.6008],[-86.5174,39.6008],[-86.651,39.6011],[-86.6566,39.6014],[-86.6539,39.6079],[-86.65,39.6111],[-86.6473,39.6105],[-86.6478,39.6145],[-86.6428,39.6186],[-86.645,39.6275],[-86.6417,39.63],[-86.6874,39.6304],[-86.6871,39.7172],[-86.6868,39.7608],[-86.6868,39.8197],[-86.6867,39.8273],[-86.6868,39.8648],[-86.6951,39.8648],[-86.6951,39.9228],[-86.6572,39.9231]]]}},{"type":"Feature","properties":{"id":"18057","name":"Hamilton Co."},"geometry":{"type":"Polygon","coordinates":[[[-86.1282,40.2172],[-85.9961,40.2182],[-85.8619,40.2189],[-85.8625,40.2122],[-85.8627,40.1923],[-85.8629,40.1361],[-85.8636,40.133],[-85.8629,40.0453],[-85.8624,40.0316],[-85.8622,39.9847],[-85.8619,39.9585],[-85.8625,39.9436],[-85.8624,39.9289],[-85.9028,39.9286],[-85.9376,39.9271],[-85.9701,39.9269],[-85.995,39.927],[-86.0134,39.9274],[-86.0295,39.9271],[-86.0887,39.9269],[-86.1329,39.9269],[-86.1459,39.9272],[-86.2031,39.9266],[-86.2407,39.9261],[-86.2412,39.9771],[-86.2411,39.9988],[-86.2414,40.0415],[-86.2415,40.0708],[-86.242,40.1461],[-86.2424,40.1808],[-86.2427,40.2158],[-86.1282,40.2172]]]}},{"type":"Feature","properties":{"id":"18109","name":"Morgan Co."},"geometry":{"type":"Polygon","coordinates":[[[-86.651,39.6011],[-86.5174,39.6008],[-86.4656,39.6008],[-86.4659,39.63],[-86.394,39.6307],[-86.3623,39.6311],[-86.3597,39.6315],[-86.3263,39.6322],[-86.2882,39.6328],[-86.2499,39.6336],[-86.2501,39.604],[-86.2506,39.591],[-86.2506,39.5662],[-86.2503,39.5167],[-86.2516,39.5167],[-86.2513,39.4739],[-86.2513,39.4456],[-86.2515,39.3712],[-86.2517,39.3417],[-86.2567,39.3418],[-86.3091,39.3411],[-86.3814,39.3398],[-86.4651,39.3383],[-86.4737,39.3387],[-86.4929,39.3386],[-86.6072,39.3401],[-86.6308,39.3408],[-86.6307,39.3708],[-86.631,39.4063],[-86.6314,39.4174],[-86.6308,39.4265],[-86.6318,39.4307],[-86.6322,39.4702],[-86.6857,39.4701],[-86.6869,39.4707],[-86.6875,39.4963],[-86.6876,39.5219],[-86.6854,39.5213],[-86.6825,39.524],[-86.6828,39.5265],[-86.6781,39.5272],[-86.6772,39.53],[-86.6748,39.5289],[-86.6704,39.5337],[-86.6727,39.5354],[-86.6676,39.5366],[-86.6623,39.5404],[-86.6632,39.5424],[-86.6598,39.5451],[-86.6539,39.552],[-86.6514,39.55],[-86.6532,39.5596],[-86.6501,39.5618],[-86.6512,39.5637],[-86.6483,39.5654],[-86.6535,39.5646],[-86.6567,39.5707],[-86.6555,39.5747],[-86.6586,39.5763],[-86.6596,39.5792],[-86.6554,39.5859],[-86.6519,39.5957],[-86.6553,39.5968],[-86.6566,39.6014],[-86.651,39.6011]]]}},{"type":"Feature","properties":{"id":"18081","name":"Johnson Co."},"geometry":{"type":"Polygon","coordinates":[[[-86.1964,39.6344],[-86.1584,39.6351],[-86.1015,39.6359],[-86.0827,39.6364],[-86.0446,39.6372],[-86.0188,39.6373],[-85.9902,39.638],[-85.9521,39.6383],[-85.9525,39.6092],[-85.9518,39.5527],[-85.9517,39.5231],[-85.9514,39.5231],[-85.9508,39.4952],[-85.9515,39.4546],[-85.9509,39.4361],[-85.9525,39.4359],[-85.9528,39.4197],[-85.9528,39.3655],[-85.952,39.3474],[-85.9777,39.3466],[-85.9881,39.3467],[-86.0188,39.3458],[-86.0856,39.3442],[-86.1627,39.3426],[-86.2517,39.3417],[-86.2515,39.3712],[-86.2513,39.4456],[-86.2513,39.4739],[-86.2516,39.5167],[-86.2503,39.5167],[-86.2506,39.5662],[-86.2506,39.591],[-86.2501,39.604],[-86.2499,39.6336],[-86.1964,39.6344]]]}},{"type":"Feature","properties":{"id":"18097","name":"Marion Co."},"geometry":{"type":"Polygon","coordinates":[[[-86.2599,39.9251],[-86.2407,39.9261],[-86.2031,39.9266],[-86.1459,39.9272],[-86.1329,39.9269],[-86.0887,39.9269],[-86.0295,39.9271],[-86.0134,39.9274],[-85.995,39.927],[-85.9701,39.9269],[-85.9376,39.9271],[-85.9381,39.9232],[-85.9381,39.8698],[-85.954,39.8696],[-85.9531,39.8238],[-85.9524,39.7827],[-85.9522,39.7556],[-85.9518,39.7409],[-85.9517,39.6971],[-85.9521,39.6696],[-85.9521,39.6383],[-85.9902,39.638],[-86.0188,39.6373],[-86.0446,39.6372],[-86.0827,39.6364],[-86.1015,39.6359],[-86.1584,39.6351],[-86.1964,39.6344],[-86.2499,39.6336],[-86.2882,39.6328],[-86.3263,39.6322],[-86.3266,39.6859],[-86.3263,39.6944],[-86.3269,39.7778],[-86.3264,39.7793],[-86.3281,39.8661],[-86.3254,39.8662],[-86.3259,39.8823],[-86.3263,39.924],[-86.2599,39.9251]]]}}]}