{"type":"FeatureCollection","features":[{"type":"Feature","properties":{"id":"36059","name":"Nassau Co., NY"},"geometry":{"type":"Polygon","coordinates":[[[-73.7498,40.7848],[-73.7524,40.7869],[-73.7541,40.7963],[-73.7534,40.7995],[-73.7589,40.8022],[-73.764,40.8069],[-73.7655,40.8109],[-73.754,40.8209],[-73.7544,40.8268],[-73.7572,40.8339],[-73.753,40.8384],[-73.747,40.8333],[-73.7427,40.833],[-73.7389,40.8279],[-73.7319,40.8269],[-73.73,40.8235],[-73.7267,40.8237],[-73.7219,40.8219],[-73.7172,40.8153],[-73.7153,40.8088],[-73.7163,40.8051],[-73.7134,40.8035],[-73.7109,40.8058],[-73.7076,40.8136],[-73.704,40.8174],[-73.7056,40.8226],[-73.7028,40.8322],[-73.7001,40.8335],[-73.7046,40.8365],[-73.7083,40.8336],[-73.7127,40.8388],[-73.7219,40.8371],[-73.7254,40.8393],[-73.7277,40.8385],[-73.7268,40.8335],[-73.7299,40.8359],[-73.7304,40.8423],[-73.7376,40.8484],[-73.7371,40.8497],[-73.728,40.8529],[-73.7267,40.8568],[-73.7307,40.8654],[-73.7296,40.8665],[-73.7217,40.8655],[-73.7141,40.87],[-73.6767,40.8572],[-73.6761,40.8545],[-73.6605,40.8346],[-73.6544,40.8289],[-73.6486,40.8288],[-73.6534,40.8364],[-73.6539,40.8444],[-73.6523,40.8502],[-73.6481,40.8539],[-73.6482,40.8561],[-73.6526,40.8583],[-73.653,40.8619],[-73.6558,40.8649],[-73.6544,40.8782],[-73.6474,40.8841],[-73.6411,40.8926],[-73.6398,40.8966],[-73.6338,40.8982],[-73.6331,40.9027],[-73.627,40.8994],[-73.6176,40.8979],[-73.6131,40.9022],[-73.6087,40.9033],[-73.6058,40.9021],[-73.6019,40.9028],[-73.5945,40.9087],[-73.5823,40.9096],[-73.5761,40.9112],[-73.57,40.9154],[-73.5662,40.9158],[-73.5574,40.9116],[-73.5481,40.9087],[-73.5388,40.9121],[-73.5311,40.9136],[-73.5275,40.9166],[-73.5214,40.9183],[-73.5212,40.9148],[-73.5121,40.9119],[-73.5115,40.909],[-73.5074,40.9087],[-73.5084,40.9015],[-73.5129,40.9025],[-73.5172,40.9011],[-73.5212,40.8905],[-73.5203,40.8867],[-73.5331,40.8853],[-73.5338,40.8902],[-73.5283,40.8923],[-73.5236,40.8979],[-73.5226,40.9047],[-73.5236,40.9096],[-73.5276,40.9108],[-73.5314,40.9099],[-73.5374,40.9045],[-73.5478,40.9036],[-73.549,40.8948],[-73.5471,40.89],[-73.5481,40.8864],[-73.5419,40.8769],[-73.5281,40.8781],[-73.5219,40.874],[-73.515,40.8742],[-73.5107,40.8756],[-73.5062,40.8724],[-73.5055,40.8756],[-73.5115,40.888],[-73.5086,40.8907],[-73.5088,40.8937],[-73.4989,40.8952],[-73.4948,40.8948],[-73.4915,40.8906],[-73.4896,40.8846],[-73.491,40.8822],[-73.4879,40.877],[-73.4834,40.8742],[-73.4765,40.8715],[-73.4694,40.8664],[-73.4652,40.868],[-73.4623,40.8667],[-73.4641,40.8596],[-73.4577,40.8491],[-73.4555,40.8402],[-73.4448,40.7839],[-73.4441,40.7816],[-73.4356,40.7346],[-73.4235,40.6714],[-73.4247,40.6662],[-73.4239,40.656],[-73.4256,40.6563],[-73.4243,40.6275],[-73.424,40.6096],[-73.4504,40.6035],[-73.4849,40.5974],[-73.4972,40.5949],[-73.5153,40.5922],[-73.5491,40.5848],[-73.5718,40.5783],[-73.5733,40.579],[-73.5706,40.5837],[-73.5783,40.5858],[-73.5926,40.5856],[-73.599,40.5868],[-73.6109,40.5877],[-73.6409,40.5828],[-73.7051,40.5837],[-73.7427,40.5868],[-73.7543,40.5845],[-73.7551,40.5857],[-73.751,40.589],[-73.7445,40.5929],[-73.7372,40.593],[-73.7385,40.5959],[-73.7384,40.6027],[-73.7436,40.6075],[-73.7455,40.6118],[-73.7547,40.6104],[-73.76,40.6113],[-73.7667,40.615],[-73.7687,40.6244],[-73.7674,40.6266],[-73.748,40.6346],[-73.7433,40.638],[-73.7395,40.6357],[-73.7414,40.6405],[-73.7414,40.6469],[-73.7351,40.6497],[-73.7285,40.651],[-73.7248,40.654],[-73.7276,40.6611],[-73.7283,40.6681],[-73.7275,40.6742],[-73.7256,40.6796],[-73.727,40.7107],[-73.7303,40.7222],[-73.7165,40.7265],[-73.7079,40.7278],[-73.7005,40.7391],[-73.7016,40.7525],[-73.7503,40.7825],[-73.7498,40.7848]]]}},{"type":"Feature","properties":{"id":"34027","name":"Morris Co., NJ"},"geometry":{"type":"Polygon","coordinates":[[[-74.7634,40.9133],[-74.7555,40.9136],[-74.7513,40.9158],[-74.748,40.9198],[-74.7408,40.9202],[-74.7375,40.9189],[-74.7319,40.9208],[-74.7287,40.9164],[-74.7184,40.9124],[-74.7129,40.9077],[-74.7122,40.9045],[-74.7142,40.9011],[-74.7113,40.8992],[-74.7082,40.9011],[-74.7033,40.9018],[-74.6998,40.906],[-74.6969,40.9074],[-74.6895,40.9073],[-74.6861,40.91],[-74.6795,40.9092],[-74.6699,40.9139],[-74.6653,40.9175],[-74.658,40.9184],[-74.6532,40.9213],[-74.6516,40.9237],[-74.6539,40.9263],[-74.6516,40.9309],[-74.6416,40.9336],[-74.6364,40.9426],[-74.6351,40.9507],[-74.6364,40.954],[-74.6414,40.9594],[-74.6395,40.965],[-74.6325,40.9721],[-74.6324,40.9737],[-74.6067,40.9981],[-74.5478,41.048],[-74.5294,41.0644],[-74.5032,41.0859],[-74.5008,41.0861],[-74.4979,41.0827],[-74.4917,41.0781],[-74.4869,41.0767],[-74.4891,41.0719],[-74.4874,41.0675],[-74.4885,41.0649],[-74.4935,41.0629],[-74.4957,41.06],[-74.4986,41.0484],[-74.5017,41.0421],[-74.5019,41.0389],[-74.4994,41.0356],[-74.4971,41.0352],[-74.4874,41.0393],[-74.485,41.0428],[-74.482,41.0431],[-74.4813,41.0455],[-74.4759,41.0479],[-74.4701,41.0478],[-74.4613,41.052],[-74.4564,41.052],[-74.447,41.0544],[-74.442,41.0505],[-74.4411,41.045],[-74.4328,41.0381],[-74.4276,41.0369],[-74.4277,41.0319],[-74.4325,41.0264],[-74.435,41.02],[-74.4282,41.0207],[-74.4236,41.0277],[-74.4191,41.0287],[-74.4152,41.028],[-74.4062,41.0242],[-74.4026,41.0192],[-74.4,41.0175],[-74.3915,41.016],[-74.3891,41.0122],[-74.3861,41.0118],[-74.3827,41.0139],[-74.3767,41.0139],[-74.3723,41.0114],[-74.3669,41.0119],[-74.3643,41.0109],[-74.3621,41.0138],[-74.3554,41.0139],[-74.3512,41.0106],[-74.3524,41.0057],[-74.3502,41.004],[-74.342,41.0069],[-74.3406,41.0058],[-74.3368,41.0076],[-74.3349,41.0038],[-74.3268,41.0009],[-74.3156,41.0024],[-74.3095,40.9984],[-74.3014,40.9992],[-74.3,41.0031],[-74.2977,41.0013],[-74.2978,40.9966],[-74.2956,40.9947],[-74.2958,40.991],[-74.2928,40.988],[-74.2974,40.9836],[-74.2974,40.9796],[-74.2852,40.9788],[-74.2817,40.98],[-74.2815,40.9761],[-74.2789,40.9755],[-74.2779,40.9721],[-74.2819,40.9713],[-74.2811,40.9662],[-74.2794,40.9652],[-74.2806,40.9578],[-74.2775,40.9551],[-74.2777,40.9512],[-74.2806,40.9397],[-74.2851,40.9314],[-74.2892,40.9288],[-74.2885,40.925],[-74.2853,40.9231],[-74.2844,40.9174],[-74.2795,40.9183],[-74.279,40.9161],[-74.2717,40.9154],[-74.2669,40.9102],[-74.2687,40.9075],[-74.2716,40.91],[-74.2735,40.9065],[-74.2709,40.9032],[-74.2728,40.8997],[-74.272,40.8973],[-74.2804,40.8979],[-74.2832,40.8951],[-74.2839,40.898],[-74.2873,40.8985],[-74.2823,40.8997],[-74.2829,40.9013],[-74.2887,40.8995],[-74.2923,40.9006],[-74.2924,40.9058],[-74.2976,40.9057],[-74.303,40.9043],[-74.3024,40.9064],[-74.3093,40.9045],[-74.3124,40.9054],[-74.3187,40.9032],[-74.3186,40.9076],[-74.3225,40.9067],[-74.3228,40.9089],[-74.3278,40.9077],[-74.3248,40.9062],[-74.328,40.9053],[-74.3295,40.9087],[-74.3343,40.9055],[-74.3376,40.8988],[-74.334,40.8967],[-74.3381,40.896],[-74.3362,40.8936],[-74.3391,40.8919],[-74.3383,40.8877],[-74.3401,40.8796],[-74.3352,40.8774],[-74.3378,40.875],[-74.3348,40.8737],[-74.3376,40.8723],[-74.3375,40.8678],[-74.3333,40.8691],[-74.331,40.867],[-74.3221,40.864],[-74.3192,40.8661],[-74.3176,40.8635],[-74.3209,40.8618],[-74.3191,40.8584],[-74.3243,40.8582],[-74.3252,40.8545],[-74.328,40.8499],[-74.3303,40.8489],[-74.3284,40.8443],[-74.3255,40.8437],[-74.3293,40.8417],[-74.3299,40.8302],[-74.3349,40.8278],[-74.3322,40.8217],[-74.3384,40.813],[-74.3437,40.8136],[-74.3485,40.8128],[-74.3507,40.8074],[-74.3565,40.8035],[-74.3599,40.7998],[-74.364,40.7993],[-74.3671,40.7933],[-74.3668,40.7805],[-74.373,40.7753],[-74.3709,40.7749],[-74.3695,40.7714],[-74.3719,40.7675],[-74.3711,40.764],[-74.3758,40.763],[-74.3773,40.7612],[-74.374,40.758],[-74.3675,40.761],[-74.3679,40.7581],[-74.3617,40.7559],[-74.3582,40.7561],[-74.3595,40.7512],[-74.3678,40.7484],[-74.3651,40.7468],[-74.3663,40.7439],[-74.3722,40.7434],[-74.3717,40.7396],[-74.3711,40.7346],[-74.3777,40.7343],[-74.38,40.7328],[-74.3775,40.73],[-74.3843,40.7245],[-74.3882,40.7262],[-74.3908,40.7254],[-74.3907,40.7184],[-74.396,40.7172],[-74.4018,40.7181],[-74.4073,40.7134],[-74.4084,40.7102],[-74.4132,40.7098],[-74.4157,40.7056],[-74.4235,40.703],[-74.4301,40.6978],[-74.4305,40.6937],[-74.4341,40.6936],[-74.4396,40.6897],[-74.4453,40.688],[-74.4478,40.6856],[-74.4519,40.6854],[-74.453,40.6829],[-74.4516,40.6797],[-74.4542,40.6741],[-74.461,40.6735],[-74.4621,40.6716],[-74.4697,40.6679],[-74.4738,40.6693],[-74.4764,40.6665],[-74.4848,40.6655],[-74.4854,40.6624],[-74.4907,40.6634],[-74.4919,40.6614],[-74.4989,40.6614],[-74.4987,40.6595],[-74.5037,40.6596],[-74.5077,40.6526],[-74.5131,40.6496],[-74.5153,40.6511],[-74.5232,40.6492],[-74.5228,40.6518],[-74.5261,40.6523],[-74.5273,40.6591],[-74.5256,40.6606],[-74.5296,40.6647],[-74.5339,40.6654],[-74.5344,40.6673],[-74.5299,40.6676],[-74.5257,40.6706],[-74.5259,40.6733],[-74.5287,40.6801],[-74.5279,40.6843],[-74.5245,40.6891],[-74.5173,40.6887],[-74.5166,40.693],[-74.5137,40.6978],[-74.5139,40.7011],[-74.5187,40.7063],[-74.5268,40.7109],[-74.5241,40.7156],[-74.5288,40.7176],[-74.5315,40.7213],[-74.5298,40.7265],[-74.5309,40.7299],[-74.5345,40.7303],[-74.54,40.7338],[-74.5488,40.7337],[-74.5477,40.737],[-74.549,40.7409],[-74.5491,40.747],[-74.5529,40.7497],[-74.5509,40.751],[-74.5526,40.7559],[-74.5556,40.758],[-74.5708,40.7549],[-74.6573,40.7352],[-74.7257,40.7195],[-74.7327,40.7201],[-74.7373,40.7216],[-74.7442,40.7264],[-74.7529,40.7311],[-74.771,40.736],[-74.7937,40.7403],[-74.798,40.7422],[-74.8082,40.7411],[-74.8171,40.7429],[-74.8239,40.7424],[-74.8275,40.7441],[-74.843,40.756],[-74.8441,40.7586],[-74.8898,40.7877],[-74.8841,40.7914],[-74.8806,40.7907],[-74.8735,40.7947],[-74.867,40.7968],[-74.8644,40.8032],[-74.8604,40.8012],[-74.8549,40.8042],[-74.8503,40.8042],[-74.8469,40.8108],[-74.8428,40.8114],[-74.839,40.8167],[-74.8357,40.8186],[-74.8346,40.8222],[-74.83,40.8255],[-74.832,40.8269],[-74.8272,40.8323],[-74.8184,40.8369],[-74.8198,40.841],[-74.8238,40.8441],[-74.8208,40.8497],[-74.8141,40.8512],[-74.81,40.8545],[-74.8092,40.8602],[-74.8037,40.8611],[-74.802,40.8637],[-74.8083,40.8695],[-74.8063,40.8726],[-74.807,40.8782],[-74.8061,40.8838],[-74.7991,40.888],[-74.7942,40.8888],[-74.7917,40.8907],[-74.7903,40.8964],[-74.7869,40.8998],[-74.7798,40.9033],[-74.7791,40.9063],[-74.7761,40.9053],[-74.7694,40.9109],[-74.7634,40.9133]]]}},{"type":"Feature","properties":{"id":"34023","name":"Middlesex Co., NJ"},"geometry":{"type":"Polygon","coordinates":[[[-74.613,40.3758],[-74.6026,40.3807],[-74.5958,40.3857],[-74.5918,40.392],[-74.5879,40.3941],[-74.5877,40.3982],[-74.5858,40.4034],[-74.5853,40.4101],[-74.586,40.4156],[-74.5842,40.4187],[-74.5762,40.4223],[-74.5541,40.4303],[-74.5362,40.4383],[-74.5266,40.4449],[-74.5203,40.4513],[-74.5124,40.4566],[-74.5078,40.461],[-74.4953,40.4689],[-74.4849,40.4796],[-74.4785,40.4839],[-74.4682,40.4868],[-74.4599,40.491],[-74.459,40.4961],[-74.4624,40.5002],[-74.467,40.5029],[-74.4669,40.5089],[-74.4817,40.5119],[-74.4855,40.5159],[-74.4952,40.5291],[-74.4978,40.5311],[-74.5117,40.5398],[-74.5159,40.545],[-74.5176,40.5525],[-74.5235,40.5586],[-74.5267,40.5595],[-74.5245,40.562],[-74.5259,40.5682],[-74.5154,40.5794],[-74.5163,40.5807],[-74.5122,40.5821],[-74.5051,40.5863],[-74.502,40.5853],[-74.4944,40.5865],[-74.4832,40.5894],[-74.4765,40.5951],[-74.4701,40.5983],[-74.4633,40.5992],[-74.4585,40.5948],[-74.4569,40.5958],[-74.3562,40.6043],[-74.3029,40.6087],[-74.3053,40.6006],[-74.2999,40.5981],[-74.2908,40.592],[-74.2596,40.5973],[-74.2577,40.6023],[-74.253,40.6008],[-74.2424,40.5995],[-74.2356,40.6025],[-74.2334,40.5996],[-74.2297,40.5988],[-74.218,40.6011],[-74.2156,40.604],[-74.2125,40.6028],[-74.2115,40.5983],[-74.2052,40.5939],[-74.2069,40.5928],[-74.2116,40.578],[-74.2145,40.565],[-74.2204,40.5589],[-74.2318,40.5623],[-74.2387,40.5578],[-74.2494,40.5544],[-74.2523,40.5527],[-74.2546,40.5486],[-74.253,40.5423],[-74.2527,40.5356],[-74.2492,40.5233],[-74.2501,40.5208],[-74.2542,40.5181],[-74.2593,40.5112],[-74.2622,40.5036],[-74.2668,40.4989],[-74.2727,40.4884],[-74.267,40.4791],[-74.2661,40.4711],[-74.2619,40.4647],[-74.2501,40.4615],[-74.2449,40.458],[-74.2374,40.4577],[-74.2314,40.4524],[-74.2225,40.4519],[-74.2264,40.4447],[-74.2307,40.4457],[-74.2334,40.4432],[-74.2363,40.4434],[-74.2475,40.4315],[-74.248,40.4122],[-74.2495,40.4102],[-74.2479,40.4066],[-74.2604,40.3967],[-74.3129,40.3559],[-74.3775,40.3054],[-74.3942,40.2884],[-74.3949,40.2861],[-74.3934,40.2796],[-74.4608,40.2514],[-74.4633,40.2521],[-74.485,40.2533],[-74.482,40.2739],[-74.4869,40.275],[-74.489,40.2771],[-74.4959,40.2788],[-74.4976,40.2805],[-74.5027,40.2795],[-74.5067,40.2804],[-74.5149,40.2871],[-74.5224,40.2859],[-74.5219,40.2902],[-74.5286,40.2943],[-74.5319,40.2933],[-74.5366,40.2895],[-74.5399,40.2883],[-74.5423,40.2918],[-74.5517,40.2906],[-74.5576,40.2921],[-74.5595,40.296],[-74.5648,40.297],[-74.5678,40.3],[-74.573,40.3012],[-74.5757,40.3041],[-74.5795,40.3038],[-74.5829,40.3061],[-74.5849,40.3103],[-74.5841,40.3119],[-74.5935,40.3159],[-74.5978,40.3146],[-74.602,40.318],[-74.6033,40.3214],[-74.6065,40.3211],[-74.6137,40.3242],[-74.6227,40.3253],[-74.6245,40.3288],[-74.6233,40.3344],[-74.631,40.3401],[-74.6283,40.346],[-74.6259,40.3562],[-74.6252,40.3631],[-74.6202,40.3737],[-74.613,40.3758]]]}},{"type":"Feature","properties":{"id":"36103","name":"Suffolk Co., NY"},"geometry":{"type":"MultiPolygon","coordinates":[[[[-72.0347,41.2564],[-72.0316,41.2578],[-72.0294,41.2631],[-72.0259,41.2612],[-72.0213,41.2624],[-72.0229,41.2644],[-72.0211,41.2696],[-72.0242,41.2731],[-72.0203,41.2752],[-72.0079,41.2709],[-72.0098,41.2662],[-72.013,41.2643],[-72.01,41.262],[-72.0069,41.2623],[-71.9943,41.2705],[-71.993,41.2796],[-71.9911,41.2813],[-71.9845,41.2815],[-71.9774,41.2793],[-71.9742,41.2811],[-71.9697,41.2812],[-71.9686,41.2848],[-71.9618,41.2829],[-71.9541,41.285],[-71.9484,41.2825],[-71.9468,41.2844],[-71.9423,41.2827],[-71.94,41.2848],[-71.943,41.2873],[-71.9394,41.2913],[-71.9348,41.2902],[-71.9248,41.2923],[-71.9224,41.2916],[-71.9282,41.2889],[-71.9288,41.2851],[-71.9353,41.2806],[-71.946,41.2799],[-71.947,41.2779],[-71.95,41.2793],[-71.9551,41.2769],[-71.9554,41.2755],[-71.9616,41.2768],[-71.9671,41.2747],[-71.9681,41.273],[-71.9728,41.2719],[-71.9762,41.2692],[-71.9831,41.2668],[-71.9901,41.2626],[-71.9954,41.2562],[-72.0025,41.2529],[-72.0102,41.2553],[-72.0171,41.2554],[-72.0259,41.251],[-72.0368,41.2498],[-72.0377,41.2513],[-72.0347,41.2564]]],[[[-72.14,41.1016],[-72.1333,41.1037],[-72.1284,41.1081],[-72.1267,41.1151],[-72.1279,41.1204],[-72.126,41.1212],[-72.1211,41.1151],[-72.1145,41.1105],[-72.0929,41.104],[-72.0873,41.1009],[-72.0821,41.1014],[-72.0779,41.0999],[-72.0771,41.0967],[-72.0859,41.0904],[-72.0869,41.0857],[-72.0855,41.0784],[-72.0826,41.0732],[-72.0829,41.071],[-72.0864,41.0688],[-72.087,41.059],[-72.0951,41.0542],[-72.0972,41.0549],[-72.0971,41.0758],[-72.1032,41.0865],[-72.1064,41.0889],[-72.1206,41.0932],[-72.1377,41.093],[-72.1419,41.0944],[-72.1429,41.0978],[-72.14,41.1016]]],[[[-72.1891,41.1883],[-72.173,41.1873],[-72.1642,41.1904],[-72.1615,41.1888],[-72.1673,41.186],[-72.1787,41.1841],[-72.1841,41.185],[-72.1868,41.1831],[-72.1973,41.1655],[-72.2001,41.1656],[-72.2044,41.1718],[-72.212,41.1735],[-72.2087,41.1794],[-72.1891,41.1883]]],[[[-73.4651,40.8709],[-73.4708,40.8751],[-73.473,40.8813],[-73.4732,40.8928],[-73.4753,40.8975],[-73.4794,40.8999],[-73.4851,40.9087],[-73.4868,40.9154],[-73.4899,40.9197],[-73.4965,40.9231],[-73.4969,40.9257],[-73.4928,40.9414],[-73.4854,40.9464],[-73.4784,40.9423],[-73.4637,40.9377],[-73.438,40.9347],[-73.4302,40.9287],[-73.4294,40.9207],[-73.4365,40.9114],[-73.434,40.909],[-73.4266,40.9061],[-73.4135,40.904],[-73.4026,40.9058],[-73.3967,40.9089],[-73.3865,40.9047],[-73.3836,40.9002],[-73.3801,40.9002],[-73.3773,40.9069],[-73.3763,40.9124],[-73.3739,40.9129],[-73.37,40.9084],[-73.3624,40.904],[-73.3582,40.8982],[-73.3596,40.895],[-73.3576,40.893],[-73.3536,40.8948],[-73.3525,40.8979],[-73.3534,40.9023],[-73.3568,40.9061],[-73.3582,40.9114],[-73.3541,40.9129],[-73.3519,40.9184],[-73.3517,40.9227],[-73.3532,40.9243],[-73.3603,40.9252],[-73.3643,40.9287],[-73.3703,40.9303],[-73.3767,40.9291],[-73.3774,40.9256],[-73.3819,40.9287],[-73.3882,40.9256],[-73.3895,40.9236],[-73.3974,40.928],[-73.3989,40.93],[-73.4035,40.9313],[-73.4035,40.9422],[-73.402,40.947],[-73.4031,40.9491],[-73.4021,40.9544],[-73.3992,40.9557],[-73.3929,40.9553],[-73.3745,40.9376],[-73.366,40.9317],[-73.3528,40.9267],[-73.3449,40.9244],[-73.3442,40.9267],[-73.3314,40.9296],[-73.2951,40.9245],[-73.2674,40.9147],[-73.2374,40.9092],[-73.2284,40.906],[-73.173,40.9211],[-73.1545,40.9279],[-73.1471,40.9287],[-73.1447,40.9445],[-73.1447,40.9558],[-73.148,40.9597],[-73.1544,40.9617],[-73.1588,40.9664],[-73.1581,40.9675],[-73.1483,40.966],[-73.1388,40.9664],[-73.1303,40.9689],[-73.1184,40.9773],[-73.1104,40.9719],[-73.1024,40.9692],[-73.0939,40.969],[-73.0905,40.972],[-73.0776,40.9728],[-73.055,40.9648],[-73.0438,40.9621],[-73.0409,40.9645],[-72.9959,40.9665],[-72.9552,40.9661],[-72.9138,40.9625],[-72.8882,40.963],[-72.8656,40.9645],[-72.8331,40.9701],[-72.8005,40.9667],[-72.7741,40.9653],[-72.7457,40.9684],[-72.7209,40.9739],[-72.7081,40.9779],[-72.6858,40.9803],[-72.6732,40.9787],[-72.6485,40.9813],[-72.6356,40.982],[-72.6198,40.9864],[-72.5853,40.9976],[-72.5448,41.0221],[-72.518,41.0401],[-72.5096,41.0409],[-72.4936,41.0465],[-72.4897,41.0491],[-72.4773,41.0522],[-72.4593,41.0664],[-72.4452,41.0861],[-72.4179,41.088],[-72.397,41.0963],[-72.3861,41.1062],[-72.3826,41.1145],[-72.3755,41.1188],[-72.3701,41.1197],[-72.3623,41.126],[-72.3561,41.1336],[-72.3541,41.14],[-72.3464,41.141],[-72.3392,41.1409],[-72.3334,41.138],[-72.3265,41.1376],[-72.3216,41.1387],[-72.3128,41.148],[-72.3075,41.147],[-72.2989,41.1528],[-72.2911,41.1559],[-72.2788,41.1587],[-72.273,41.155],[-72.2669,41.1541],[-72.2527,41.1596],[-72.247,41.1609],[-72.2397,41.1595],[-72.2355,41.1604],[-72.2339,41.1589],[-72.2426,41.1533],[-72.2518,41.142],[-72.2547,41.134],[-72.2608,41.1298],[-72.2693,41.1282],[-72.2787,41.1222],[-72.2893,41.1178],[-72.2941,41.1141],[-72.2964,41.1156],[-72.2932,41.1179],[-72.2845,41.1263],[-72.2852,41.1273],[-72.3,41.1321],[-72.3088,41.1398],[-72.3171,41.1394],[-72.3181,41.1371],[-72.3266,41.1322],[-72.3297,41.126],[-72.3353,41.1203],[-72.3392,41.115],[-72.339,41.1102],[-72.3352,41.1069],[-72.33,41.106],[-72.3243,41.1017],[-72.321,41.1006],[-72.3204,41.0943],[-72.3172,41.0887],[-72.3081,41.0868],[-72.3018,41.0824],[-72.2977,41.081],[-72.2922,41.0816],[-72.2804,41.0804],[-72.2762,41.0769],[-72.2787,41.0721],[-72.2831,41.0679],[-72.274,41.0524],[-72.2809,41.0477],[-72.2797,41.0416],[-72.2759,41.0366],[-72.2667,41.0356],[-72.2605,41.0421],[-72.2413,41.0448],[-72.2294,41.0444],[-72.2175,41.0406],[-72.2092,41.0345],[-72.2019,41.0323],[-72.1906,41.0326],[-72.1833,41.0356],[-72.1795,41.0384],[-72.1749,41.0461],[-72.1629,41.0532],[-72.1604,41.0538],[-72.1539,41.0519],[-72.1458,41.0452],[-72.1373,41.0397],[-72.1351,41.0313],[-72.1374,41.0239],[-72.1267,41.0156],[-72.1164,40.9998],[-72.109,40.9941],[-72.1022,40.9915],[-72.0955,40.9913],[-72.083,40.9965],[-72.08,41.0034],[-72.0801,41.0061],[-72.0775,41.0082],[-72.0629,41.0113],[-72.0613,41.0169],[-72.0567,41.0182],[-72.0546,41.0218],[-72.0488,41.0226],[-72.0421,41.0207],[-72.0345,41.0196],[-72.0255,41.0205],[-72.0169,41.0235],[-72.0123,41.0294],[-71.9972,41.0409],[-71.9926,41.0471],[-71.9821,41.0478],[-71.9787,41.043],[-71.9722,41.0408],[-71.9635,41.0425],[-71.9573,41.0483],[-71.958,41.0547],[-71.9616,41.064],[-71.9596,41.0712],[-71.9552,41.0731],[-71.9459,41.0737],[-71.9382,41.0774],[-71.9194,41.0805],[-71.9043,41.086],[-71.9011,41.0848],[-71.8993,41.0808],[-71.8955,41.0774],[-71.8895,41.0757],[-71.8798,41.0768],[-71.8696,41.075],[-71.8645,41.0769],[-71.8575,41.0736],[-71.8565,41.071],[-71.8608,41.0657],[-71.8659,41.0625],[-71.8674,41.0594],[-71.8727,41.0563],[-71.8747,41.052],[-71.8888,41.0474],[-71.9015,41.0426],[-71.9026,41.0411],[-71.9088,41.0396],[-71.9167,41.0396],[-71.9357,41.0342],[-71.9588,41.0267],[-72.0294,40.9999],[-72.1144,40.9721],[-72.236,40.9275],[-72.2587,40.9181],[-72.34,40.8871],[-72.3958,40.8667],[-72.47,40.8427],[-72.4741,40.8408],[-72.4843,40.8387],[-72.5734,40.8133],[-72.6631,40.7886],[-72.7452,40.7671],[-72.7531,40.7636],[-72.7572,40.7644],[-72.7682,40.7616],[-72.8632,40.733],[-72.9232,40.7133],[-73.0125,40.6797],[-73.055,40.6664],[-73.0855,40.6587],[-73.1544,40.6434],[-73.1676,40.641],[-73.2084,40.6309],[-73.2391,40.6251],[-73.2623,40.622],[-73.3064,40.6208],[-73.3114,40.6221],[-73.3263,40.6331],[-73.3418,40.6327],[-73.3515,40.6305],[-73.3921,40.6182],[-73.4173,40.6111],[-73.424,40.6096],[-73.4243,40.6275],[-73.4256,40.6563],[-73.4239,40.656],[-73.4247,40.6662],[-73.4235,40.6714],[-73.4356,40.7346],[-73.4441,40.7816],[-73.4448,40.7839],[-73.4555,40.8402],[-73.4577,40.8491],[-73.4641,40.8596],[-73.4623,40.8667],[-73.4652,40.868],[-73.4651,40.8709]]]]}},{"type":"Feature","properties":{"id":"36047","name":"Kings Co., NY"},"geometry":{"type":"Polygon","coordinates":[[[-74.0056,40.6868],[-73.9975,40.6997],[-73.9985,40.7003],[-73.9977,40.7013],[-73.9927,40.7055],[-73.981,40.7054],[-73.9728,40.7094],[-73.9703,40.7073],[-73.9676,40.7165],[-73.9615,40.7239],[-73.9612,40.7295],[-73.9625,40.7368],[-73.9571,40.7392],[-73.9525,40.7392],[-73.9422,40.7357],[-73.9375,40.7298],[-73.9291,40.7277],[-73.9278,40.7265],[-73.9227,40.7165],[-73.924,40.714],[-73.9207,40.7105],[-73.9219,40.7094],[-73.9118,40.7034],[-73.9118,40.6999],[-73.9043,40.6957],[-73.9058,40.6941],[-73.9012,40.6914],[-73.9012,40.6879],[-73.8965,40.6824],[-73.8942,40.6853],[-73.8925,40.6834],[-73.8845,40.6867],[-73.8795,40.6912],[-73.874,40.6942],[-73.8689,40.6952],[-73.866,40.6819],[-73.8641,40.6824],[-73.8604,40.6713],[-73.8573,40.6703],[-73.8557,40.6639],[-73.8584,40.6635],[-73.8576,40.6601],[-73.8632,40.6583],[-73.8561,40.6492],[-73.8549,40.6427],[-73.8483,40.6435],[-73.833,40.6283],[-73.8345,40.6072],[-73.8467,40.5932],[-73.8499,40.5887],[-73.8549,40.586],[-73.8792,40.5747],[-73.8835,40.5789],[-73.8955,40.578],[-73.8965,40.5833],[-73.8987,40.5875],[-73.9063,40.5874],[-73.9114,40.5859],[-73.9158,40.582],[-73.9227,40.5835],[-73.9302,40.5836],[-73.9331,40.5823],[-73.932,40.5758],[-73.9463,40.5756],[-73.9909,40.5706],[-74.002,40.5706],[-74.0029,40.5723],[-74.0115,40.5745],[-74.0129,40.5779],[-74.0109,40.5806],[-74.006,40.582],[-73.9983,40.5819],[-73.9993,40.5846],[-73.9959,40.5883],[-73.9971,40.5914],[-74.0045,40.5971],[-74.0109,40.6008],[-74.0201,40.6034],[-74.0314,40.6052],[-74.0402,40.6148],[-74.0417,40.6264],[-74.0387,40.6355],[-74.0334,40.6439],[-74.0276,40.6447],[-74.0245,40.6474],[-74.0244,40.6504],[-74.0076,40.6625],[-74.0043,40.6615],[-74.0,40.6638],[-74.0023,40.6675],[-74.0099,40.6686],[-74.0117,40.6651],[-74.0178,40.6657],[-74.0189,40.6713],[-74.0188,40.6796],[-74.0082,40.686],[-74.0074,40.6873],[-74.0056,40.6868]]]}},{"type":"Feature","properties":{"id":"34035","name":"Somerset Co., NJ"},"geometry":{"type":"Polygon","coordinates":[[[-74.6573,40.7352],[-74.5708,40.7549],[-74.5556,40.758],[-74.5526,40.7559],[-74.5509,40.751],[-74.5529,40.7497],[-74.5491,40.747],[-74.549,40.7409],[-74.5477,40.737],[-74.5488,40.7337],[-74.54,40.7338],[-74.5345,40.7303],[-74.5309,40.7299],[-74.5298,40.7265],[-74.5315,40.7213],[-74.5288,40.7176],[-74.5241,40.7156],[-74.5268,40.7109],[-74.5187,40.7063],[-74.5139,40.7011],[-74.5137,40.6978],[-74.5166,40.693],[-74.5173,40.6887],[-74.5245,40.6891],[-74.5279,40.6843],[-74.5287,40.6801],[-74.5259,40.6733],[-74.5257,40.6706],[-74.5299,40.6676],[-74.5344,40.6673],[-74.5339,40.6654],[-74.5296,40.6647],[-74.5256,40.6606],[-74.5273,40.6591],[-74.5261,40.6523],[-74.5228,40.6518],[-74.5232,40.6492],[-74.5153,40.6511],[-74.5131,40.6496],[-74.5077,40.6526],[-74.5037,40.6596],[-74.4987,40.6595],[-74.4989,40.6614],[-74.4919,40.6614],[-74.4907,40.6634],[-74.4854,40.6624],[-74.4848,40.6655],[-74.4764,40.6665],[-74.4738,40.6693],[-74.4697,40.6679],[-74.4621,40.6716],[-74.461,40.6735],[-74.4508,40.6541],[-74.4431,40.6577],[-74.4359,40.6635],[-74.4298,40.665],[-74.4198,40.6577],[-74.4167,40.6613],[-74.413,40.6621],[-74.4095,40.6656],[-74.405,40.6677],[-74.4018,40.6643],[-74.4027,40.6564],[-74.4067,40.6493],[-74.4082,40.6431],[-74.4144,40.6407],[-74.4153,40.6317],[-74.4176,40.6275],[-74.4227,40.6252],[-74.4235,40.6209],[-74.4281,40.6165],[-74.4314,40.6157],[-74.4382,40.6097],[-74.4455,40.6091],[-74.4482,40.6077],[-74.4507,40.604],[-74.454,40.604],[-74.4599,40.6],[-74.4633,40.5992],[-74.4701,40.5983],[-74.4765,40.5951],[-74.4832,40.5894],[-74.4944,40.5865],[-74.502,40.5853],[-74.5051,40.5863],[-74.5122,40.5821],[-74.5163,40.5807],[-74.5154,40.5794],[-74.5259,40.5682],[-74.5245,40.562],[-74.5267,40.5595],[-74.5235,40.5586],[-74.5176,40.5525],[-74.5159,40.545],[-74.5117,40.5398],[-74.4978,40.5311],[-74.4952,40.5291],[-74.4855,40.5159],[-74.4817,40.5119],[-74.4669,40.5089],[-74.467,40.5029],[-74.4624,40.5002],[-74.459,40.4961],[-74.4599,40.491],[-74.4682,40.4868],[-74.4785,40.4839],[-74.4849,40.4796],[-74.4953,40.4689],[-74.5078,40.461],[-74.5124,40.4566],[-74.5203,40.4513],[-74.5266,40.4449],[-74.5362,40.4383],[-74.5541,40.4303],[-74.5762,40.4223],[-74.5842,40.4187],[-74.586,40.4156],[-74.5853,40.4101],[-74.5858,40.4034],[-74.5877,40.3982],[-74.5879,40.3941],[-74.5918,40.392],[-74.5958,40.3857],[-74.6026,40.3807],[-74.613,40.3758],[-74.6202,40.3737],[-74.6175,40.3776],[-74.6184,40.3802],[-74.6227,40.3843],[-74.6541,40.391],[-74.6714,40.3858],[-74.6737,40.3845],[-74.688,40.3826],[-74.7079,40.3794],[-74.7221,40.3752],[-74.735,40.399],[-74.7481,40.4242],[-74.7825,40.4878],[-74.7979,40.5157],[-74.7875,40.5122],[-74.7814,40.505],[-74.7766,40.5033],[-74.7753,40.5046],[-74.7548,40.5354],[-74.7431,40.5533],[-74.7355,40.5589],[-74.7307,40.5636],[-74.7246,40.5662],[-74.713,40.5842],[-74.7249,40.5888],[-74.7186,40.5997],[-74.7218,40.6007],[-74.7133,40.6121],[-74.7115,40.6115],[-74.7027,40.6211],[-74.7115,40.625],[-74.7133,40.6306],[-74.7194,40.6309],[-74.7265,40.6324],[-74.7277,40.6362],[-74.723,40.6389],[-74.722,40.6414],[-74.7239,40.6469],[-74.7196,40.6518],[-74.7214,40.6556],[-74.7276,40.6586],[-74.7308,40.6656],[-74.7249,40.6679],[-74.7227,40.6701],[-74.7216,40.6768],[-74.7185,40.6806],[-74.7177,40.684],[-74.7239,40.6878],[-74.7212,40.6916],[-74.7207,40.6968],[-74.7166,40.6987],[-74.717,40.7049],[-74.72,40.7064],[-74.7211,40.7128],[-74.7203,40.7152],[-74.7257,40.7195],[-74.6573,40.7352]]]}},{"type":"Feature","properties":{"id":"34025","name":"Monmouth Co., NJ"},"geometry":{"type":"Polygon","coordinates":[[[-74.4633,40.2521],[-74.4608,40.2514],[-74.3934,40.2796],[-74.3949,40.2861],[-74.3942,40.2884],[-74.3775,40.3054],[-74.3129,40.3559],[-74.2604,40.3967],[-74.2479,40.4066],[-74.2495,40.4102],[-74.248,40.4122],[-74.2475,40.4315],[-74.2363,40.4434],[-74.2334,40.4432],[-74.2307,40.4457],[-74.2264,40.4447],[-74.2225,40.4519],[-74.2098,40.4474],[-74.2059,40.4393],[-74.1939,40.441],[-74.1878,40.4474],[-74.1856,40.4529],[-74.181,40.4575],[-74.1774,40.4572],[-74.1713,40.452],[-74.1652,40.4483],[-74.1582,40.4466],[-74.1427,40.4504],[-74.1385,40.4552],[-74.1353,40.4554],[-74.1112,40.4435],[-74.1025,40.4419],[-74.0881,40.4384],[-74.059,40.4227],[-74.0479,40.4189],[-74.0064,40.4111],[-74.0008,40.4116],[-73.9955,40.4195],[-73.9917,40.4429],[-73.9947,40.4472],[-74.0024,40.4493],[-74.0022,40.4517],[-74.0061,40.4646],[-74.0117,40.469],[-74.0176,40.4705],[-74.0195,40.4747],[-74.0171,40.4773],[-74.011,40.4781],[-74.0025,40.4763],[-73.9861,40.4544],[-73.9836,40.4424],[-73.982,40.42],[-73.9763,40.406],[-73.9741,40.3847],[-73.9718,40.3543],[-73.9774,40.2994],[-73.9817,40.2794],[-73.9933,40.2377],[-74.0079,40.1961],[-74.0093,40.1867],[-74.0305,40.1227],[-74.0341,40.1036],[-74.0337,40.102],[-74.038,40.1043],[-74.0457,40.1053],[-74.0561,40.1008],[-74.0576,40.0973],[-74.0703,40.0894],[-74.0835,40.0956],[-74.0942,40.1075],[-74.0941,40.1154],[-74.097,40.1218],[-74.0959,40.1287],[-74.099,40.1278],[-74.1033,40.1313],[-74.1033,40.1344],[-74.1077,40.137],[-74.128,40.1187],[-74.1503,40.0989],[-74.1544,40.0997],[-74.1562,40.1032],[-74.162,40.1076],[-74.1641,40.1069],[-74.1719,40.1077],[-74.1795,40.1109],[-74.1831,40.1102],[-74.1941,40.1122],[-74.202,40.1125],[-74.2122,40.1101],[-74.219,40.11],[-74.2244,40.109],[-74.2319,40.1098],[-74.2396,40.1124],[-74.2446,40.1181],[-74.2419,40.1237],[-74.2418,40.131],[-74.2464,40.1357],[-74.249,40.1438],[-74.2536,40.1477],[-74.2598,40.1491],[-74.2585,40.1522],[-74.2601,40.1561],[-74.2585,40.1604],[-74.2615,40.167],[-74.4067,40.1724],[-74.458,40.1365],[-74.4695,40.1286],[-74.5273,40.0903],[-74.529,40.0893],[-74.5531,40.0791],[-74.5878,40.1383],[-74.6041,40.1655],[-74.6093,40.172],[-74.6146,40.1824],[-74.5995,40.1867],[-74.5971,40.1861],[-74.5955,40.1798],[-74.5937,40.1794],[-74.5836,40.1848],[-74.5743,40.187],[-74.5704,40.1857],[-74.5621,40.1905],[-74.5574,40.1994],[-74.5486,40.2077],[-74.5468,40.2127],[-74.5433,40.2167],[-74.4815,40.2429],[-74.4818,40.2459],[-74.4857,40.2488],[-74.4874,40.2531],[-74.485,40.2533],[-74.4633,40.2521]]]}},{"type":"Feature","properties":{"id":"36061","name":"New York Co., NY"},"geometry":{"type":"MultiPolygon","coordinates":[[[[-73.9985,40.7003],[-73.9975,40.6997],[-74.0056,40.6868],[-74.0074,40.6873],[-73.9985,40.7003]]],[[[-73.9681,40.8207],[-73.9632,40.8269],[-73.9528,40.8511],[-73.9338,40.8822],[-73.9216,40.8783],[-73.9152,40.8756],[-73.9114,40.8793],[-73.9072,40.8764],[-73.9071,40.873],[-73.9143,40.8625],[-73.92,40.8567],[-73.9239,40.8505],[-73.9282,40.8455],[-73.933,40.8357],[-73.9335,40.8332],[-73.9323,40.8195],[-73.9325,40.8089],[-73.9272,40.8026],[-73.923,40.8024],[-73.9199,40.7994],[-73.9125,40.7961],[-73.9103,40.7907],[-73.9172,40.7842],[-73.9248,40.7788],[-73.9299,40.7762],[-73.9344,40.7781],[-73.9377,40.7751],[-73.9353,40.7705],[-73.9413,40.7669],[-73.9514,40.7545],[-73.9562,40.7497],[-73.9614,40.7428],[-73.9625,40.7368],[-73.9612,40.7295],[-73.9615,40.7239],[-73.9676,40.7165],[-73.9703,40.7073],[-73.9728,40.7094],[-73.981,40.7054],[-73.9927,40.7055],[-73.9977,40.7013],[-73.9971,40.7056],[-74.0001,40.7064],[-74.0127,40.7005],[-74.0163,40.7017],[-74.0192,40.7066],[-74.0171,40.7166],[-74.0232,40.7199],[-74.014,40.7576],[-73.9848,40.7977],[-73.9681,40.8207]]],[[[-74.0195,40.6934],[-74.0155,40.6934],[-74.0121,40.6907],[-74.0134,40.688],[-74.0246,40.6839],[-74.0263,40.6863],[-74.0195,40.6934]]],[[[-74.0422,40.7],[-74.0376,40.6992],[-74.039,40.6976],[-74.0422,40.7]]],[[[-74.0432,40.6893],[-74.0457,40.6886],[-74.0458,40.6913],[-74.0432,40.6893]]]]}},{"type":"Feature","properties":{"id":"36081","name":"Queens Co., NY"},"geometry":{"type":"Polygon","coordinates":[[[-73.8906,40.7901],[-73.8883,40.787],[-73.8783,40.7854],[-73.8731,40.7859],[-73.8702,40.7909],[-73.863,40.7977],[-73.8531,40.8001],[-73.8354,40.8022],[-73.8174,40.8058],[-73.8113,40.8054],[-73.7941,40.8005],[-73.7952,40.7917],[-73.7939,40.789],[-73.7841,40.7901],[-73.7808,40.7919],[-73.7807,40.7956],[-73.7756,40.7956],[-73.7706,40.7884],[-73.7743,40.7862],[-73.7678,40.7788],[-73.7655,40.7745],[-73.7579,40.7669],[-73.7549,40.7672],[-73.7553,40.7717],[-73.7534,40.7731],[-73.7551,40.7766],[-73.753,40.7813],[-73.7503,40.7825],[-73.7016,40.7525],[-73.7005,40.7391],[-73.7079,40.7278],[-73.7165,40.7265],[-73.7303,40.7222],[-73.727,40.7107],[-73.7256,40.6796],[-73.7275,40.6742],[-73.7283,40.6681],[-73.7276,40.6611],[-73.7248,40.654],[-73.7285,40.651],[-73.7351,40.6497],[-73.7414,40.6469],[-73.7414,40.6405],[-73.7395,40.6357],[-73.7433,40.638],[-73.748,40.6346],[-73.7674,40.6266],[-73.7687,40.6244],[-73.7667,40.615],[-73.76,40.6113],[-73.7547,40.6104],[-73.7455,40.6118],[-73.7436,40.6075],[-73.7384,40.6027],[-73.7385,40.5959],[-73.7372,40.593],[-73.7445,40.5929],[-73.751,40.589],[-73.7523,40.5918],[-73.7579,40.5921],[-73.7749,40.5908],[-73.8068,40.5846],[-73.8345,40.5774],[-73.8788,40.5621],[-73.8962,40.5574],[-73.9051,40.5564],[-73.938,40.5437],[-73.9405,40.544],[-73.9399,40.554],[-73.9354,40.5574],[-73.9316,40.5575],[-73.9255,40.5613],[-73.9112,40.5649],[-73.9058,40.5625],[-73.8998,40.5634],[-73.8921,40.5683],[-73.8824,40.5682],[-73.8792,40.5747],[-73.8549,40.586],[-73.8499,40.5887],[-73.8467,40.5932],[-73.8345,40.6072],[-73.833,40.6283],[-73.8483,40.6435],[-73.8549,40.6427],[-73.8561,40.6492],[-73.8632,40.6583],[-73.8576,40.6601],[-73.8584,40.6635],[-73.8557,40.6639],[-73.8573,40.6703],[-73.8604,40.6713],[-73.8641,40.6824],[-73.866,40.6819],[-73.8689,40.6952],[-73.874,40.6942],[-73.8795,40.6912],[-73.8845,40.6867],[-73.8925,40.6834],[-73.8942,40.6853],[-73.8965,40.6824],[-73.9012,40.6879],[-73.9012,40.6914],[-73.9058,40.6941],[-73.9043,40.6957],[-73.9118,40.6999],[-73.9118,40.7034],[-73.9219,40.7094],[-73.9207,40.7105],[-73.924,40.714],[-73.9227,40.7165],[-73.9278,40.7265],[-73.9291,40.7277],[-73.9375,40.7298],[-73.9422,40.7357],[-73.9525,40.7392],[-73.9571,40.7392],[-73.9625,40.7368],[-73.9614,40.7428],[-73.9562,40.7497],[-73.9514,40.7545],[-73.9413,40.7669],[-73.9353,40.7705],[-73.9377,40.7751],[-73.9344,40.7781],[-73.9299,40.7762],[-73.9248,40.7788],[-73.9172,40.7842],[-73.9103,40.7907],[-73.9125,40.7961],[-73.8906,40.7901]]]}},{"type":"Feature","properties":{"id":"34003","name":"Bergen Co., NJ"},"geometry":{"type":"Polygon","coordinates":[[[-74.1824,41.1214],[-74.1317,41.0993],[-74.0931,41.0822],[-73.9765,41.0305],[-73.9027,40.9973],[-73.894,40.9972],[-73.8961,40.9819],[-73.9073,40.9515],[-73.9143,40.928],[-73.9183,40.9177],[-73.9298,40.8887],[-73.9338,40.8822],[-73.9528,40.8511],[-73.9632,40.8269],[-73.9681,40.8207],[-73.9848,40.7977],[-73.9933,40.8013],[-73.9932,40.8058],[-74.0096,40.8145],[-74.0125,40.8167],[-74.0114,40.8208],[-74.0138,40.8231],[-74.0178,40.8233],[-74.0204,40.8186],[-74.0282,40.8156],[-74.0286,40.8132],[-74.0317,40.8133],[-74.0334,40.81],[-74.0378,40.8076],[-74.0449,40.8076],[-74.0592,40.8062],[-74.0638,40.8042],[-74.0689,40.7984],[-74.0753,40.7966],[-74.0779,40.7943],[-74.0798,40.7897],[-74.0876,40.7816],[-74.09,40.778],[-74.0879,40.7672],[-74.0903,40.7616],[-74.0925,40.7634],[-74.0958,40.7629],[-74.0987,40.7677],[-74.0984,40.7725],[-74.1009,40.7758],[-74.1092,40.7778],[-74.114,40.7763],[-74.1182,40.7718],[-74.1272,40.7713],[-74.1297,40.7738],[-74.1304,40.7776],[-74.1475,40.7865],[-74.1383,40.7982],[-74.1396,40.8053],[-74.1385,40.8133],[-74.136,40.8183],[-74.13,40.8199],[-74.1237,40.8228],[-74.1211,40.8299],[-74.1211,40.8331],[-74.124,40.8387],[-74.1194,40.851],[-74.1212,40.8576],[-74.117,40.8599],[-74.1139,40.8597],[-74.1123,40.856],[-74.1095,40.8553],[-74.1068,40.8593],[-74.1075,40.8632],[-74.1111,40.8654],[-74.1159,40.8752],[-74.1215,40.881],[-74.1301,40.8851],[-74.1286,40.8946],[-74.1328,40.8971],[-74.1334,40.9024],[-74.1316,40.9057],[-74.1335,40.9129],[-74.1294,40.9202],[-74.1323,40.9224],[-74.1389,40.9232],[-74.1419,40.9263],[-74.1424,40.9296],[-74.1401,40.9322],[-74.1405,40.936],[-74.1438,40.9406],[-74.1482,40.9423],[-74.1444,40.9561],[-74.141,40.9663],[-74.1703,40.9839],[-74.1711,40.9771],[-74.1918,40.9786],[-74.2245,40.9813],[-74.2485,40.9921],[-74.2643,41.012],[-74.2722,41.0179],[-74.2505,41.0608],[-74.2113,41.1335],[-74.1824,41.1214]]]}},{"type":"Feature","properties":{"id":"34031","name":"Passaic Co., NJ"},"geometry":{"type":"Polygon","coordinates":[[[-74.3449,41.1921],[-74.302,41.1726],[-74.2432,41.1469],[-74.2343,41.1431],[-74.2113,41.1335],[-74.2505,41.0608],[-74.2722,41.0179],[-74.2643,41.012],[-74.2485,40.9921],[-74.2245,40.9813],[-74.1918,40.9786],[-74.1711,40.9771],[-74.1703,40.9839],[-74.141,40.9663],[-74.1444,40.9561],[-74.1482,40.9423],[-74.1438,40.9406],[-74.1405,40.936],[-74.1401,40.9322],[-74.1424,40.9296],[-74.1419,40.9263],[-74.1389,40.9232],[-74.1323,40.9224],[-74.1294,40.9202],[-74.1335,40.9129],[-74.1316,40.9057],[-74.1334,40.9024],[-74.1328,40.8971],[-74.1286,40.8946],[-74.1301,40.8851],[-74.1215,40.881],[-74.1159,40.8752],[-74.1111,40.8654],[-74.1075,40.8632],[-74.1068,40.8593],[-74.1095,40.8553],[-74.1123,40.856],[-74.1139,40.8597],[-74.117,40.8599],[-74.1212,40.8576],[-74.1194,40.851],[-74.124,40.8387],[-74.1211,40.8331],[-74.1211,40.8299],[-74.1237,40.8228],[-74.13,40.8199],[-74.1396,40.8253],[-74.1979,40.8571],[-74.197,40.8595],[-74.2022,40.8594],[-74.2128,40.8651],[-74.2403,40.8804],[-74.2531,40.8816],[-74.259,40.8834],[-74.2646,40.8874],[-74.2666,40.8945],[-74.272,40.8973],[-74.2728,40.8997],[-74.2709,40.9032],[-74.2735,40.9065],[-74.2716,40.91],[-74.2687,40.9075],[-74.2669,40.9102],[-74.2717,40.9154],[-74.279,40.9161],[-74.2795,40.9183],[-74.2844,40.9174],[-74.2853,40.9231],[-74.2885,40.925],[-74.2892,40.9288],[-74.2851,40.9314],[-74.2806,40.9397],[-74.2777,40.9512],[-74.2775,40.9551],[-74.2806,40.9578],[-74.2794,40.9652],[-74.2811,40.9662],[-74.2819,40.9713],[-74.2779,40.9721],[-74.2789,40.9755],[-74.2815,40.9761],[-74.2817,40.98],[-74.2852,40.9788],[-74.2974,40.9796],[-74.2974,40.9836],[-74.2928,40.988],[-74.2958,40.991],[-74.2956,40.9947],[-74.2978,40.9966],[-74.2977,41.0013],[-74.3,41.0031],[-74.3014,40.9992],[-74.3095,40.9984],[-74.3156,41.0024],[-74.3268,41.0009],[-74.3349,41.0038],[-74.3368,41.0076],[-74.3406,41.0058],[-74.342,41.0069],[-74.3502,41.004],[-74.3524,41.0057],[-74.3512,41.0106],[-74.3554,41.0139],[-74.3621,41.0138],[-74.3643,41.0109],[-74.3669,41.0119],[-74.3723,41.0114],[-74.3767,41.0139],[-74.3827,41.0139],[-74.3861,41.0118],[-74.3891,41.0122],[-74.3915,41.016],[-74.4,41.0175],[-74.4026,41.0192],[-74.4062,41.0242],[-74.4152,41.028],[-74.4191,41.0287],[-74.4236,41.0277],[-74.4282,41.0207],[-74.435,41.02],[-74.4325,41.0264],[-74.4277,41.0319],[-74.4276,41.0369],[-74.4328,41.0381],[-74.4411,41.045],[-74.442,41.0505],[-74.447,41.0544],[-74.4564,41.052],[-74.4613,41.052],[-74.4701,41.0478],[-74.4759,41.0479],[-74.4813,41.0455],[-74.482,41.0431],[-74.485,41.0428],[-74.4874,41.0393],[-74.4971,41.0352],[-74.4994,41.0356],[-74.5019,41.0389],[-74.5017,41.0421],[-74.4986,41.0484],[-74.4957,41.06],[-74.4935,41.0629],[-74.4885,41.0649],[-74.4874,41.0675],[-74.4891,41.0719],[-74.4869,41.0767],[-74.4917,41.0781],[-74.4979,41.0827],[-74.5008,41.0861],[-74.5032,41.0859],[-74.4831,41.1044],[-74.4768,41.1097],[-74.4213,41.1605],[-74.39,41.1858],[-74.3766,41.1959],[-74.3674,41.2035],[-74.3449,41.1921]]]}},{"type":"Feature","properties":{"id":"36119","name":"Westchester Co., NY"},"geometry":{"type":"MultiPolygon","coordinates":[[[[-73.7671,40.886],[-73.7677,40.881],[-73.7699,40.88],[-73.774,40.8826],[-73.7715,40.8875],[-73.7671,40.886]]],[[[-73.8834,41.3322],[-73.8427,41.3364],[-73.753,41.3454],[-73.6412,41.357],[-73.5999,41.3608],[-73.5447,41.3665],[-73.549,41.3263],[-73.5496,41.3159],[-73.5489,41.3076],[-73.551,41.2954],[-73.5184,41.2567],[-73.4827,41.2128],[-73.5095,41.2008],[-73.5649,41.1752],[-73.6397,41.1415],[-73.7278,41.1007],[-73.7226,41.0936],[-73.7169,41.0876],[-73.6943,41.0593],[-73.6627,41.0205],[-73.6552,41.0119],[-73.6603,41.0005],[-73.6596,40.9943],[-73.6572,40.9909],[-73.6619,40.9886],[-73.6649,40.9837],[-73.6621,40.9817],[-73.6581,40.9824],[-73.6563,40.9797],[-73.659,40.9752],[-73.6601,40.9691],[-73.6628,40.9668],[-73.6657,40.9676],[-73.6776,40.9642],[-73.6831,40.9496],[-73.6854,40.9488],[-73.6865,40.9452],[-73.6927,40.9442],[-73.6954,40.94],[-73.6983,40.9405],[-73.6926,40.9535],[-73.6954,40.9547],[-73.7049,40.9403],[-73.7087,40.9406],[-73.7088,40.9447],[-73.716,40.9445],[-73.7206,40.941],[-73.7217,40.932],[-73.7344,40.9215],[-73.7375,40.9281],[-73.7422,40.9277],[-73.7439,40.9234],[-73.7438,40.9178],[-73.7568,40.9126],[-73.7646,40.9027],[-73.7666,40.8973],[-73.7813,40.8854],[-73.7831,40.882],[-73.7876,40.8844],[-73.793,40.8834],[-73.8232,40.8912],[-73.824,40.8899],[-73.8384,40.8941],[-73.8391,40.8991],[-73.8414,40.9042],[-73.8501,40.9075],[-73.8527,40.9071],[-73.8511,40.91],[-73.8549,40.9082],[-73.8594,40.9004],[-73.9183,40.9177],[-73.9143,40.928],[-73.9073,40.9515],[-73.8961,40.9819],[-73.894,40.9972],[-73.8936,41.0053],[-73.8901,41.0226],[-73.8894,41.0376],[-73.8904,41.0458],[-73.8939,41.0579],[-73.8948,41.0708],[-73.8949,41.0824],[-73.8938,41.0932],[-73.8876,41.1288],[-73.8875,41.1383],[-73.8895,41.1451],[-73.8954,41.154],[-73.9066,41.1619],[-73.9117,41.1678],[-73.9144,41.1742],[-73.9217,41.1863],[-73.9257,41.1952],[-73.9315,41.205],[-73.9533,41.229],[-73.9614,41.2342],[-73.9613,41.242],[-73.9708,41.2479],[-73.9723,41.2562],[-73.9715,41.2596],[-73.9669,41.2672],[-73.9572,41.2764],[-73.9475,41.2846],[-73.9458,41.2876],[-73.9466,41.291],[-73.9645,41.2997],[-73.9718,41.3073],[-73.981,41.3142],[-73.9833,41.3174],[-73.9825,41.3218],[-73.8834,41.3322]]]]}},{"type":"Feature","properties":{"id":"34019","name":"Hunterdon Co., NJ"},"geometry":{"type":"Polygon","coordinates":[[[-74.8441,40.7586],[-74.843,40.756],[-74.8275,40.7441],[-74.8239,40.7424],[-74.8171,40.7429],[-74.8082,40.7411],[-74.798,40.7422],[-74.7937,40.7403],[-74.771,40.736],[-74.7529,40.7311],[-74.7442,40.7264],[-74.7373,40.7216],[-74.7327,40.7201],[-74.7257,40.7195],[-74.7203,40.7152],[-74.7211,40.7128],[-74.72,40.7064],[-74.717,40.7049],[-74.7166,40.6987],[-74.7207,40.6968],[-74.7212,40.6916],[-74.7239,40.6878],[-74.7177,40.684],[-74.7185,40.6806],[-74.7216,40.6768],[-74.7227,40.6701],[-74.7249,40.6679],[-74.7308,40.6656],[-74.7276,40.6586],[-74.7214,40.6556],[-74.7196,40.6518],[-74.7239,40.6469],[-74.722,40.6414],[-74.723,40.6389],[-74.7277,40.6362],[-74.7265,40.6324],[-74.7194,40.6309],[-74.7133,40.6306],[-74.7115,40.625],[-74.7027,40.6211],[-74.7115,40.6115],[-74.7133,40.6121],[-74.7218,40.6007],[-74.7186,40.5997],[-74.7249,40.5888],[-74.713,40.5842],[-74.7246,40.5662],[-74.7307,40.5636],[-74.7355,40.5589],[-74.7431,40.5533],[-74.7548,40.5354],[-74.7753,40.5046],[-74.7766,40.5033],[-74.7814,40.505],[-74.7875,40.5122],[-74.7979,40.5157],[-74.7825,40.4878],[-74.7481,40.4242],[-74.8085,40.4167],[-74.802,40.385],[-74.8304,40.3821],[-74.8697,40.3778],[-74.8563,40.3467],[-74.9323,40.3394],[-74.943,40.3416],[-74.9451,40.3473],[-74.946,40.3559],[-74.9487,40.3648],[-74.9539,40.3759],[-74.964,40.3952],[-74.9681,40.3991],[-74.9769,40.4019],[-74.9855,40.4059],[-74.9889,40.4088],[-74.9964,40.4105],[-75.0038,40.4076],[-75.0067,40.4076],[-75.0248,40.4035],[-75.0344,40.4061],[-75.0355,40.4074],[-75.0462,40.414],[-75.0557,40.4164],[-75.0588,40.4181],[-75.0615,40.4228],[-75.0629,40.4334],[-75.0665,40.4472],[-75.0706,40.4552],[-75.0704,40.4584],[-75.067,40.4653],[-75.0677,40.4737],[-75.0643,40.4768],[-75.0629,40.4816],[-75.0626,40.4896],[-75.0633,40.4994],[-75.0648,40.5035],[-75.0659,40.5195],[-75.0651,40.5261],[-75.0664,40.5365],[-75.0686,40.5422],[-75.0785,40.5483],[-75.0957,40.5644],[-75.1003,40.5678],[-75.1109,40.5707],[-75.1173,40.5732],[-75.1367,40.5757],[-75.1419,40.5753],[-75.1474,40.5732],[-75.1584,40.5653],[-75.1629,40.5641],[-75.1753,40.565],[-75.1832,40.5674],[-75.1867,40.5694],[-75.194,40.5763],[-75.1947,40.5819],[-75.1908,40.5868],[-75.1904,40.5916],[-75.1855,40.5923],[-75.181,40.5942],[-75.1809,40.5972],[-75.1749,40.5989],[-75.1721,40.6053],[-75.169,40.6063],[-75.1657,40.6103],[-75.1631,40.611],[-75.1615,40.6148],[-75.1623,40.6171],[-75.1544,40.6217],[-75.1497,40.6205],[-75.1478,40.6225],[-75.1482,40.6257],[-75.1453,40.629],[-75.1363,40.6302],[-75.1275,40.6344],[-75.1142,40.6372],[-75.1084,40.6398],[-75.1094,40.6418],[-75.1055,40.6449],[-75.0958,40.6482],[-75.0894,40.6552],[-75.0796,40.6593],[-75.077,40.6635],[-75.0682,40.6686],[-75.0621,40.6697],[-75.0602,40.673],[-75.0492,40.6795],[-75.044,40.6787],[-75.0377,40.6836],[-75.034,40.6836],[-75.0232,40.691],[-75.0192,40.6921],[-75.0169,40.6946],[-75.0126,40.693],[-75.01,40.6952],[-75.0073,40.6931],[-75.0024,40.6938],[-74.9959,40.7002],[-74.9915,40.7029],[-74.9813,40.706],[-74.9793,40.7109],[-74.9706,40.7098],[-74.968,40.7116],[-74.9635,40.7205],[-74.9583,40.7254],[-74.9517,40.7277],[-74.9465,40.7348],[-74.9413,40.7386],[-74.9404,40.7409],[-74.9308,40.749],[-74.9273,40.7546],[-74.9226,40.7566],[-74.9152,40.7624],[-74.9133,40.7665],[-74.9027,40.7718],[-74.9024,40.7773],[-74.9046,40.7806],[-74.8955,40.784],[-74.8898,40.7877],[-74.8441,40.7586]]]}},{"type":"Feature","properties":{"id":"34013","name":"Essex Co., NJ"},"geometry":{"type":"Polygon","coordinates":[[[-74.2666,40.8945],[-74.2646,40.8874],[-74.259,40.8834],[-74.2531,40.8816],[-74.2403,40.8804],[-74.2128,40.8651],[-74.2022,40.8594],[-74.197,40.8595],[-74.1979,40.8571],[-74.1396,40.8253],[-74.13,40.8199],[-74.136,40.8183],[-74.1385,40.8133],[-74.1396,40.8053],[-74.1383,40.7982],[-74.1475,40.7865],[-74.149,40.778],[-74.1558,40.7708],[-74.1577,40.7661],[-74.1621,40.7614],[-74.1645,40.7563],[-74.1661,40.7472],[-74.1638,40.7392],[-74.16,40.7345],[-74.1553,40.7335],[-74.1472,40.7344],[-74.1427,40.7393],[-74.1368,40.7415],[-74.1228,40.7421],[-74.1176,40.7396],[-74.117,40.7371],[-74.1214,40.721],[-74.1206,40.7171],[-74.1232,40.7122],[-74.1207,40.7045],[-74.1303,40.6902],[-74.1361,40.689],[-74.1442,40.6801],[-74.1437,40.6795],[-74.1539,40.6859],[-74.1579,40.686],[-74.161,40.6889],[-74.165,40.6902],[-74.1693,40.6886],[-74.2018,40.6868],[-74.2092,40.6907],[-74.213,40.7009],[-74.2219,40.7073],[-74.256,40.7134],[-74.2852,40.7222],[-74.2937,40.72],[-74.2972,40.7152],[-74.304,40.7133],[-74.3095,40.7148],[-74.3166,40.7193],[-74.3214,40.7191],[-74.3256,40.7171],[-74.3414,40.7244],[-74.3487,40.7302],[-74.3589,40.736],[-74.3717,40.7396],[-74.3722,40.7434],[-74.3663,40.7439],[-74.3651,40.7468],[-74.3678,40.7484],[-74.3595,40.7512],[-74.3582,40.7561],[-74.3617,40.7559],[-74.3679,40.7581],[-74.3675,40.761],[-74.374,40.758],[-74.3773,40.7612],[-74.3758,40.763],[-74.3711,40.764],[-74.3719,40.7675],[-74.3695,40.7714],[-74.3709,40.7749],[-74.373,40.7753],[-74.3668,40.7805],[-74.3671,40.7933],[-74.364,40.7993],[-74.3599,40.7998],[-74.3565,40.8035],[-74.3507,40.8074],[-74.3485,40.8128],[-74.3437,40.8136],[-74.3384,40.813],[-74.3322,40.8217],[-74.3349,40.8278],[-74.3299,40.8302],[-74.3293,40.8417],[-74.3255,40.8437],[-74.3284,40.8443],[-74.3303,40.8489],[-74.328,40.8499],[-74.3252,40.8545],[-74.3243,40.8582],[-74.3191,40.8584],[-74.3209,40.8618],[-74.3176,40.8635],[-74.3192,40.8661],[-74.3221,40.864],[-74.331,40.867],[-74.3333,40.8691],[-74.3375,40.8678],[-74.3376,40.8723],[-74.3348,40.8737],[-74.3378,40.875],[-74.3352,40.8774],[-74.3401,40.8796],[-74.3383,40.8877],[-74.3391,40.8919],[-74.3362,40.8936],[-74.3381,40.896],[-74.334,40.8967],[-74.3376,40.8988],[-74.3343,40.9055],[-74.3295,40.9087],[-74.328,40.9053],[-74.3248,40.9062],[-74.3278,40.9077],[-74.3228,40.9089],[-74.3225,40.9067],[-74.3186,40.9076],[-74.3187,40.9032],[-74.3124,40.9054],[-74.3093,40.9045],[-74.3024,40.9064],[-74.303,40.9043],[-74.2976,40.9057],[-74.2924,40.9058],[-74.2923,40.9006],[-74.2887,40.8995],[-74.2829,40.9013],[-74.2823,40.8997],[-74.2873,40.8985],[-74.2839,40.898],[-74.2832,40.8951],[-74.2804,40.8979],[-74.272,40.8973],[-74.2666,40.8945]]]}},{"type":"Feature","properties":{"id":"36079","name":"Putnam Co., NY"},"geometry":{"type":"Polygon","coordinates":[[[-73.9651,41.3435],[-73.9613,41.3485],[-73.9597,41.3537],[-73.9594,41.361],[-73.9561,41.3744],[-73.9524,41.3808],[-73.951,41.3868],[-73.9475,41.3933],[-73.9486,41.3976],[-73.9514,41.399],[-73.9591,41.4004],[-73.9624,41.4037],[-73.9631,41.4103],[-73.9675,41.4189],[-73.9728,41.4246],[-73.9815,41.4389],[-73.9759,41.4449],[-73.9338,41.4883],[-73.9075,41.491],[-73.9019,41.4924],[-73.8746,41.4951],[-73.865,41.4955],[-73.8384,41.4984],[-73.7707,41.5044],[-73.7596,41.5059],[-73.7153,41.51],[-73.6838,41.5133],[-73.6531,41.5174],[-73.6205,41.522],[-73.5802,41.5264],[-73.5301,41.5272],[-73.5377,41.4339],[-73.5412,41.406],[-73.5434,41.3766],[-73.5447,41.3665],[-73.5999,41.3608],[-73.6412,41.357],[-73.753,41.3454],[-73.8427,41.3364],[-73.8834,41.3322],[-73.9825,41.3218],[-73.9808,41.3254],[-73.9651,41.3435]]]}},{"type":"Feature","properties":{"id":"34029","name":"Ocean Co., NJ"},"geometry":{"type":"Polygon","coordinates":[[[-74.0336,40.1006],[-74.0398,40.0815],[-74.0642,39.9789],[-74.07,39.9427],[-74.0774,39.9103],[-74.0849,39.8628],[-74.0918,39.8005],[-74.0977,39.7687],[-74.1003,39.762],[-74.0991,39.7568],[-74.1029,39.7513],[-74.1101,39.7458],[-74.1173,39.7353],[-74.142,39.6898],[-74.1914,39.6253],[-74.2406,39.5558],[-74.2494,39.5482],[-74.2629,39.5315],[-74.2661,39.5304],[-74.2855,39.5121],[-74.2895,39.5093],[-74.3077,39.5096],[-74.3232,39.5084],[-74.3264,39.5063],[-74.3386,39.5069],[-74.3542,39.5056],[-74.361,39.502],[-74.3808,39.4985],[-74.4017,39.5379],[-74.4082,39.5446],[-74.4095,39.5471],[-74.4162,39.5498],[-74.4161,39.556],[-74.4174,39.5573],[-74.4144,39.561],[-74.4191,39.5678],[-74.416,39.5705],[-74.4104,39.571],[-74.4052,39.5696],[-74.4008,39.5722],[-74.3977,39.5778],[-74.3976,39.5815],[-74.3923,39.5946],[-74.3904,39.5962],[-74.3903,39.627],[-74.3897,39.7733],[-74.4294,39.8454],[-74.4342,39.8552],[-74.4702,39.9225],[-74.5064,39.9913],[-74.5283,40.0367],[-74.533,40.0453],[-74.5531,40.0791],[-74.529,40.0893],[-74.5273,40.0903],[-74.4695,40.1286],[-74.458,40.1365],[-74.4067,40.1724],[-74.2615,40.167],[-74.2585,40.1604],[-74.2601,40.1561],[-74.2585,40.1522],[-74.2598,40.1491],[-74.2536,40.1477],[-74.249,40.1438],[-74.2464,40.1357],[-74.2418,40.131],[-74.2419,40.1237],[-74.2446,40.1181],[-74.2396,40.1124],[-74.2319,40.1098],[-74.2244,40.109],[-74.219,40.11],[-74.2122,40.1101],[-74.202,40.1125],[-74.1941,40.1122],[-74.1831,40.1102],[-74.1795,40.1109],[-74.1719,40.1077],[-74.1641,40.1069],[-74.162,40.1076],[-74.1562,40.1032],[-74.1544,40.0997],[-74.1503,40.0989],[-74.128,40.1187],[-74.1077,40.137],[-74.1033,40.1344],[-74.1033,40.1313],[-74.099,40.1278],[-74.0959,40.1287],[-74.097,40.1218],[-74.0941,40.1154],[-74.0942,40.1075],[-74.0835,40.0956],[-74.0703,40.0894],[-74.0576,40.0973],[-74.0561,40.1008],[-74.0457,40.1053],[-74.038,40.1043],[-74.0337,40.102],[-74.0336,40.1006]]]}},{"type":"Feature","properties":{"id":"34017","name":"Hudson Co., NJ"},"geometry":{"type":"MultiPolygon","coordinates":[[[[-74.0417,40.6964],[-74.0441,40.6983],[-74.0422,40.7],[-74.039,40.6976],[-74.0417,40.6964]]],[[[-74.1304,40.7776],[-74.1297,40.7738],[-74.1272,40.7713],[-74.1182,40.7718],[-74.114,40.7763],[-74.1092,40.7778],[-74.1009,40.7758],[-74.0984,40.7725],[-74.0987,40.7677],[-74.0958,40.7629],[-74.0925,40.7634],[-74.0903,40.7616],[-74.0879,40.7672],[-74.09,40.778],[-74.0876,40.7816],[-74.0798,40.7897],[-74.0779,40.7943],[-74.0753,40.7966],[-74.0689,40.7984],[-74.0638,40.8042],[-74.0592,40.8062],[-74.0449,40.8076],[-74.0378,40.8076],[-74.0334,40.81],[-74.0317,40.8133],[-74.0286,40.8132],[-74.0282,40.8156],[-74.0204,40.8186],[-74.0178,40.8233],[-74.0138,40.8231],[-74.0114,40.8208],[-74.0125,40.8167],[-74.0096,40.8145],[-73.9932,40.8058],[-73.9933,40.8013],[-73.9848,40.7977],[-74.014,40.7576],[-74.0232,40.7199],[-74.0294,40.719],[-74.0337,40.7117],[-74.0355,40.7057],[-74.0394,40.7062],[-74.0487,40.699],[-74.0553,40.6908],[-74.065,40.696],[-74.0701,40.6907],[-74.07,40.6839],[-74.0778,40.6746],[-74.0642,40.6689],[-74.0702,40.6608],[-74.0869,40.6668],[-74.0908,40.6636],[-74.0875,40.6537],[-74.095,40.6492],[-74.1076,40.6501],[-74.1204,40.646],[-74.127,40.645],[-74.1371,40.6451],[-74.1439,40.6436],[-74.1463,40.6466],[-74.1442,40.6506],[-74.137,40.6577],[-74.1025,40.7019],[-74.1064,40.7048],[-74.1082,40.716],[-74.1132,40.7175],[-74.1206,40.7171],[-74.1214,40.721],[-74.117,40.7371],[-74.1176,40.7396],[-74.1228,40.7421],[-74.1368,40.7415],[-74.1427,40.7393],[-74.1472,40.7344],[-74.1553,40.7335],[-74.16,40.7345],[-74.1638,40.7392],[-74.1661,40.7472],[-74.1645,40.7563],[-74.1621,40.7614],[-74.1577,40.7661],[-74.1558,40.7708],[-74.149,40.778],[-74.1475,40.7865],[-74.1304,40.7776]]]]}},{"type":"Feature","properties":{"id":"34039","name":"Union Co., NJ"},"geometry":{"type":"Polygon","coordinates":[[[-74.4542,40.6741],[-74.4516,40.6797],[-74.453,40.6829],[-74.4519,40.6854],[-74.4478,40.6856],[-74.4453,40.688],[-74.4396,40.6897],[-74.4341,40.6936],[-74.4305,40.6937],[-74.4301,40.6978],[-74.4235,40.703],[-74.4157,40.7056],[-74.4132,40.7098],[-74.4084,40.7102],[-74.4073,40.7134],[-74.4018,40.7181],[-74.396,40.7172],[-74.3907,40.7184],[-74.3908,40.7254],[-74.3882,40.7262],[-74.3843,40.7245],[-74.3775,40.73],[-74.38,40.7328],[-74.3777,40.7343],[-74.3711,40.7346],[-74.3717,40.7396],[-74.3589,40.736],[-74.3487,40.7302],[-74.3414,40.7244],[-74.3256,40.7171],[-74.3214,40.7191],[-74.3166,40.7193],[-74.3095,40.7148],[-74.304,40.7133],[-74.2972,40.7152],[-74.2937,40.72],[-74.2852,40.7222],[-74.256,40.7134],[-74.2219,40.7073],[-74.213,40.7009],[-74.2092,40.6907],[-74.2018,40.6868],[-74.1693,40.6886],[-74.165,40.6902],[-74.161,40.6889],[-74.1579,40.686],[-74.1539,40.6859],[-74.1437,40.6795],[-74.1388,40.6739],[-74.1493,40.66],[-74.1568,40.6628],[-74.1698,40.6526],[-74.1802,40.6478],[-74.1849,40.6471],[-74.1968,40.6386],[-74.2002,40.6342],[-74.2027,40.6338],[-74.2045,40.6279],[-74.2062,40.6265],[-74.2046,40.6189],[-74.2059,40.606],[-74.2009,40.6018],[-74.2016,40.5973],[-74.2052,40.5939],[-74.2115,40.5983],[-74.2125,40.6028],[-74.2156,40.604],[-74.218,40.6011],[-74.2297,40.5988],[-74.2334,40.5996],[-74.2356,40.6025],[-74.2424,40.5995],[-74.253,40.6008],[-74.2577,40.6023],[-74.2596,40.5973],[-74.2908,40.592],[-74.2999,40.5981],[-74.3053,40.6006],[-74.3029,40.6087],[-74.3562,40.6043],[-74.4569,40.5958],[-74.4585,40.5948],[-74.4633,40.5992],[-74.4599,40.6],[-74.454,40.604],[-74.4507,40.604],[-74.4482,40.6077],[-74.4455,40.6091],[-74.4382,40.6097],[-74.4314,40.6157],[-74.4281,40.6165],[-74.4235,40.6209],[-74.4227,40.6252],[-74.4176,40.6275],[-74.4153,40.6317],[-74.4144,40.6407],[-74.4082,40.6431],[-74.4067,40.6493],[-74.4027,40.6564],[-74.4018,40.6643],[-74.405,40.6677],[-74.4095,40.6656],[-74.413,40.6621],[-74.4167,40.6613],[-74.4198,40.6577],[-74.4298,40.665],[-74.4359,40.6635],[-74.4431,40.6577],[-74.4508,40.6541],[-74.461,40.6735],[-74.4542,40.6741]]]}},{"type":"Feature","properties":{"id":"36085","name":"Richmond Co., NY"},"geometry":{"type":"MultiPolygon","coordinates":[[[[-74.1572,40.643],[-74.1613,40.6418],[-74.1609,40.645],[-74.1572,40.643]]],[[[-74.2519,40.5139],[-74.2443,40.5185],[-74.2407,40.5193],[-74.2429,40.5212],[-74.2417,40.5313],[-74.2478,40.5434],[-74.2283,40.5554],[-74.2189,40.5546],[-74.2122,40.5572],[-74.2037,40.585],[-74.2041,40.5893],[-74.1968,40.597],[-74.1954,40.6018],[-74.1961,40.6162],[-74.201,40.6169],[-74.2018,40.6195],[-74.2006,40.6314],[-74.1877,40.6426],[-74.1815,40.6446],[-74.178,40.6426],[-74.1743,40.6446],[-74.1702,40.6422],[-74.1654,40.641],[-74.1614,40.6387],[-74.1544,40.6372],[-74.1494,40.6376],[-74.1488,40.6389],[-74.1424,40.6395],[-74.1344,40.6421],[-74.1275,40.6399],[-74.1216,40.6409],[-74.1204,40.6424],[-74.1068,40.6459],[-74.1,40.6454],[-74.0938,40.6461],[-74.0865,40.6486],[-74.079,40.6482],[-74.0715,40.6428],[-74.0736,40.6378],[-74.0733,40.6308],[-74.0719,40.624],[-74.0641,40.6169],[-74.0531,40.6037],[-74.0536,40.5995],[-74.0609,40.5931],[-74.076,40.5783],[-74.0927,40.5656],[-74.105,40.5545],[-74.1082,40.5543],[-74.113,40.548],[-74.1164,40.548],[-74.1228,40.5436],[-74.1354,40.5304],[-74.1372,40.5301],[-74.1403,40.5333],[-74.1397,40.5351],[-74.1348,40.5352],[-74.1281,40.5412],[-74.1295,40.5454],[-74.1357,40.5464],[-74.1419,40.5418],[-74.1422,40.5373],[-74.1487,40.5345],[-74.157,40.529],[-74.1626,40.5273],[-74.1702,40.5235],[-74.1725,40.5232],[-74.178,40.5196],[-74.1811,40.5207],[-74.1845,40.5195],[-74.1948,40.5101],[-74.1965,40.5098],[-74.2008,40.5132],[-74.2089,40.5115],[-74.2198,40.5026],[-74.2332,40.5013],[-74.2467,40.4961],[-74.2502,40.4967],[-74.2546,40.5023],[-74.2556,40.5079],[-74.2519,40.5139]]]]}},{"type":"Feature","properties":{"id":"36087","name":"Rockland Co., NY"},"geometry":{"type":"Polygon","coordinates":[[[-73.9825,41.3218],[-73.9833,41.3174],[-73.981,41.3142],[-73.9718,41.3073],[-73.9645,41.2997],[-73.9466,41.291],[-73.9458,41.2876],[-73.9475,41.2846],[-73.9572,41.2764],[-73.9669,41.2672],[-73.9715,41.2596],[-73.9723,41.2562],[-73.9708,41.2479],[-73.9613,41.242],[-73.9614,41.2342],[-73.9533,41.229],[-73.9315,41.205],[-73.9257,41.1952],[-73.9217,41.1863],[-73.9144,41.1742],[-73.9117,41.1678],[-73.9066,41.1619],[-73.8954,41.154],[-73.8895,41.1451],[-73.8875,41.1383],[-73.8876,41.1288],[-73.8938,41.0932],[-73.8949,41.0824],[-73.8948,41.0708],[-73.8939,41.0579],[-73.8904,41.0458],[-73.8894,41.0376],[-73.8901,41.0226],[-73.8936,41.0053],[-73.894,40.9972],[-73.9027,40.9973],[-73.9765,41.0305],[-74.0931,41.0822],[-74.1317,41.0993],[-74.1824,41.1214],[-74.2113,41.1335],[-74.2343,41.1431],[-74.2122,41.1593],[-74.1856,41.179],[-74.1514,41.2037],[-74.0994,41.2411],[-74.024,41.2944],[-73.9808,41.3254],[-73.9825,41.3218]]]}},{"type":"Feature","properties":{"id":"34037","name":"Sussex Co., NJ"},"geometry":{"type":"Polygon","coordinates":[[[-74.3766,41.1959],[-74.39,41.1858],[-74.4213,41.1605],[-74.4768,41.1097],[-74.4831,41.1044],[-74.5032,41.0859],[-74.5294,41.0644],[-74.5478,41.048],[-74.6067,40.9981],[-74.6324,40.9737],[-74.6325,40.9721],[-74.6395,40.965],[-74.6414,40.9594],[-74.6364,40.954],[-74.6351,40.9507],[-74.6364,40.9426],[-74.6416,40.9336],[-74.6516,40.9309],[-74.6539,40.9263],[-74.6516,40.9237],[-74.6532,40.9213],[-74.658,40.9184],[-74.6653,40.9175],[-74.6699,40.9139],[-74.6795,40.9092],[-74.6861,40.91],[-74.6895,40.9073],[-74.6969,40.9074],[-74.6998,40.906],[-74.7033,40.9018],[-74.7082,40.9011],[-74.7113,40.8992],[-74.7142,40.9011],[-74.7122,40.9045],[-74.7129,40.9077],[-74.7184,40.9124],[-74.7287,40.9164],[-74.7319,40.9208],[-74.7375,40.9189],[-74.7408,40.9202],[-74.748,40.9198],[-74.7513,40.9158],[-74.7555,40.9136],[-74.7634,40.9133],[-74.7694,40.9109],[-74.8061,40.9451],[-74.8227,40.9601],[-74.8603,40.9956],[-74.8866,41.0199],[-74.9393,41.0692],[-74.9669,41.0944],[-74.9694,41.0961],[-74.9753,41.0941],[-74.9813,41.0899],[-74.9883,41.0882],[-74.9918,41.0891],[-74.9917,41.0923],[-74.9822,41.1082],[-74.9799,41.1104],[-74.9729,41.1133],[-74.9643,41.1142],[-74.9479,41.1236],[-74.9477,41.1263],[-74.9451,41.1291],[-74.9311,41.1334],[-74.9232,41.1381],[-74.9053,41.1557],[-74.8997,41.1662],[-74.8894,41.1736],[-74.8821,41.1808],[-74.8785,41.1875],[-74.8783,41.1905],[-74.874,41.1985],[-74.8673,41.2088],[-74.8604,41.2175],[-74.8593,41.2205],[-74.8674,41.2278],[-74.8662,41.2321],[-74.862,41.2376],[-74.8617,41.2416],[-74.8572,41.249],[-74.8547,41.2505],[-74.849,41.2512],[-74.845,41.2581],[-74.8463,41.2631],[-74.8411,41.271],[-74.8384,41.2773],[-74.8341,41.2811],[-74.8301,41.2872],[-74.8219,41.2938],[-74.812,41.2982],[-74.8069,41.3032],[-74.7926,41.3106],[-74.7924,41.3141],[-74.7958,41.3185],[-74.7921,41.3225],[-74.7816,41.3242],[-74.7716,41.3251],[-74.7635,41.3316],[-74.7603,41.3403],[-74.756,41.345],[-74.7532,41.3461],[-74.7356,41.3465],[-74.7304,41.346],[-74.7209,41.3474],[-74.7085,41.3527],[-74.7006,41.3546],[-74.6949,41.3574],[-74.6415,41.3329],[-74.6073,41.3178],[-74.4996,41.2673],[-74.4576,41.2482],[-74.4043,41.2223],[-74.3674,41.2035],[-74.3766,41.1959]]]}},{"type":"Feature","properties":{"id":"36005","name":"Bronx Co., NY"},"geometry":{"type":"MultiPolygon","coordinates":[[[[-73.7656,40.8557],[-73.7689,40.8517],[-73.7679,40.8457],[-73.7716,40.8472],[-73.7726,40.8595],[-73.7705,40.8601],[-73.7656,40.8557]]],[[[-73.7888,40.8584],[-73.7879,40.8541],[-73.7848,40.8512],[-73.7822,40.8467],[-73.7831,40.8445],[-73.7815,40.8389],[-73.7856,40.838],[-73.7911,40.8472],[-73.7899,40.8504],[-73.7926,40.8548],[-73.7906,40.8585],[-73.7888,40.8584]]],[[[-73.8594,40.9004],[-73.8549,40.9082],[-73.8511,40.91],[-73.8527,40.9071],[-73.8501,40.9075],[-73.8414,40.9042],[-73.8391,40.8991],[-73.8384,40.8941],[-73.824,40.8899],[-73.8232,40.8912],[-73.793,40.8834],[-73.7949,40.8806],[-73.7937,40.8787],[-73.7908,40.8802],[-73.7858,40.8788],[-73.7868,40.8745],[-73.7835,40.8724],[-73.7847,40.87],[-73.7912,40.8689],[-73.7952,40.8575],[-73.7988,40.8542],[-73.7981,40.8513],[-73.8014,40.8488],[-73.8046,40.8546],[-73.8044,40.8616],[-73.809,40.8605],[-73.8109,40.8628],[-73.8154,40.8646],[-73.818,40.8636],[-73.8126,40.8587],[-73.8126,40.8544],[-73.8166,40.8535],[-73.815,40.8452],[-73.8167,40.8439],[-73.8152,40.8311],[-73.8129,40.8277],[-73.8128,40.8244],[-73.807,40.8252],[-73.8045,40.8185],[-73.7983,40.8168],[-73.8027,40.8126],[-73.8018,40.8103],[-73.7909,40.8066],[-73.7937,40.8035],[-73.7941,40.8005],[-73.8113,40.8054],[-73.8174,40.8058],[-73.8354,40.8022],[-73.8531,40.8001],[-73.863,40.7977],[-73.8702,40.7909],[-73.8731,40.7859],[-73.8783,40.7854],[-73.8883,40.787],[-73.8906,40.7901],[-73.9125,40.7961],[-73.9199,40.7994],[-73.923,40.8024],[-73.9272,40.8026],[-73.9325,40.8089],[-73.9323,40.8195],[-73.9335,40.8332],[-73.933,40.8357],[-73.9282,40.8455],[-73.9239,40.8505],[-73.92,40.8567],[-73.9143,40.8625],[-73.9071,40.873],[-73.9072,40.8764],[-73.9114,40.8793],[-73.9152,40.8756],[-73.9216,40.8783],[-73.9338,40.8822],[-73.9298,40.8887],[-73.9183,40.9177],[-73.8594,40.9004]]]]}}]}