{"type":"FeatureCollection","features":[{"type":"Feature","properties":{"id":"06029","name":"Kern Co."},"geometry":{"type":"Polygon","coordinates":[[[-119.8688,35.789],[-119.7548,35.7894],[-119.7338,35.7889],[-119.6529,35.7895],[-119.5381,35.7899],[-119.4278,35.7901],[-119.3552,35.7903],[-119.2055,35.7905],[-119.115,35.7907],[-119.0534,35.7908],[-118.9807,35.7907],[-118.8024,35.7902],[-118.7453,35.7902],[-118.6811,35.7899],[-118.5708,35.7897],[-118.4489,35.7924],[-118.4077,35.7918],[-118.361,35.7903],[-118.1952,35.7904],[-118.0589,35.7915],[-118.0081,35.7889],[-117.923,35.7867],[-117.9244,35.7984],[-117.8304,35.7983],[-117.8212,35.7978],[-117.6343,35.7977],[-117.6343,35.7098],[-117.6521,35.7099],[-117.6522,35.6808],[-117.6165,35.6807],[-117.6165,35.6516],[-117.6344,35.6508],[-117.6342,35.6081],[-117.6348,35.5933],[-117.6345,35.5807],[-117.6346,35.5643],[-117.6301,35.5643],[-117.6301,35.5401],[-117.6297,35.4662],[-117.6302,35.4514],[-117.6337,35.4514],[-117.6337,35.4345],[-117.6313,35.4196],[-117.6325,35.4056],[-117.6321,35.395],[-117.6312,35.3524],[-117.6313,35.2742],[-117.631,35.2474],[-117.6312,35.1828],[-117.6312,35.1287],[-117.6309,35.0976],[-117.6333,35.0976],[-117.6331,35.0869],[-117.6328,35.0427],[-117.6322,34.9909],[-117.6326,34.9832],[-117.6322,34.8223],[-117.7744,34.8233],[-117.9167,34.8226],[-118.0234,34.8222],[-118.1702,34.8205],[-118.22,34.8201],[-118.2905,34.8201],[-118.3263,34.8197],[-118.547,34.8184],[-118.5876,34.8183],[-118.6909,34.8181],[-118.8366,34.8175],[-118.854,34.8177],[-118.8541,34.8033],[-118.8767,34.8032],[-118.8819,34.8077],[-118.8842,34.8134],[-118.8804,34.8178],[-118.8946,34.818],[-118.8804,34.7887],[-118.9428,34.7897],[-118.978,34.7898],[-118.9779,34.8117],[-119.0238,34.8124],[-119.0993,34.8129],[-119.2425,34.8143],[-119.2426,34.8576],[-119.2772,34.8573],[-119.2764,34.8725],[-119.3555,34.8725],[-119.3555,34.8737],[-119.3819,34.874],[-119.383,34.8797],[-119.3837,34.9008],[-119.4725,34.9014],[-119.4736,34.9379],[-119.4726,35.0767],[-119.4905,35.0767],[-119.4904,35.0916],[-119.5618,35.0878],[-119.5543,35.1735],[-119.5538,35.1801],[-119.5712,35.1802],[-119.6673,35.175],[-119.6666,35.2626],[-119.8094,35.2637],[-119.8092,35.3509],[-119.862,35.3512],[-119.8804,35.3511],[-119.8797,35.4249],[-119.88,35.4391],[-119.9931,35.4395],[-119.9931,35.4543],[-119.9974,35.4687],[-120.0151,35.4688],[-120.0143,35.4834],[-120.0329,35.4835],[-120.033,35.4983],[-120.0509,35.4982],[-120.051,35.5131],[-120.069,35.5129],[-120.0688,35.5266],[-120.0868,35.5264],[-120.0862,35.6144],[-120.194,35.6144],[-120.1938,35.7265],[-120.1944,35.7894],[-119.8688,35.789]]]}}]}