{"type":"FeatureCollection","features":[{"type":"Feature","properties":{"id":"37169","name":"Stokes Co."},"geometry":{"type":"Polygon","coordinates":[[[-80.2083,36.2593],[-80.3105,36.2603],[-80.3736,36.2609],[-80.4056,36.2613],[-80.4519,36.2615],[-80.4499,36.339],[-80.4483,36.4059],[-80.4476,36.4237],[-80.446,36.4546],[-80.4419,36.5222],[-80.4403,36.5506],[-80.2952,36.544],[-80.2283,36.5439],[-80.2254,36.5437],[-80.1222,36.5426],[-80.0273,36.5425],[-80.0351,36.2572],[-80.2083,36.2593]]]}},{"type":"Feature","properties":{"id":"37057","name":"Davidson Co."},"geometry":{"type":"Polygon","coordinates":[[[-80.3303,35.9966],[-80.2173,35.9967],[-80.2138,35.9971],[-80.2137,36.0268],[-80.1498,36.0268],[-80.0604,36.0135],[-80.0432,36.0108],[-80.046,35.9455],[-80.0471,35.9145],[-80.0495,35.8675],[-80.0546,35.7813],[-80.0564,35.7501],[-80.0604,35.6694],[-80.0629,35.6126],[-80.0668,35.5057],[-80.09,35.5054],[-80.1833,35.5041],[-80.1847,35.5088],[-80.1839,35.5162],[-80.1901,35.5252],[-80.195,35.5276],[-80.1975,35.5309],[-80.1955,35.5359],[-80.1992,35.5456],[-80.2063,35.5489],[-80.2098,35.5523],[-80.2104,35.5555],[-80.2077,35.566],[-80.207,35.5731],[-80.2089,35.5813],[-80.2126,35.5847],[-80.2192,35.5875],[-80.2274,35.5932],[-80.2336,35.5984],[-80.2357,35.6045],[-80.2391,35.6098],[-80.2434,35.6144],[-80.2497,35.6192],[-80.2555,35.6217],[-80.265,35.6296],[-80.2687,35.631],[-80.2837,35.6333],[-80.2883,35.6353],[-80.2932,35.6424],[-80.2993,35.6491],[-80.3031,35.6518],[-80.3063,35.657],[-80.3073,35.6657],[-80.3148,35.6717],[-80.324,35.6741],[-80.3306,35.6788],[-80.3333,35.6836],[-80.3345,35.6897],[-80.332,35.6973],[-80.3248,35.7037],[-80.3243,35.7081],[-80.3259,35.7119],[-80.3324,35.7189],[-80.3363,35.7211],[-80.3401,35.7213],[-80.3579,35.7177],[-80.3687,35.7161],[-80.3728,35.7165],[-80.3825,35.7198],[-80.3896,35.7198],[-80.3932,35.7242],[-80.3983,35.7249],[-80.4072,35.722],[-80.4141,35.7226],[-80.4229,35.7259],[-80.43,35.7296],[-80.442,35.7346],[-80.4469,35.7353],[-80.4534,35.7345],[-80.4555,35.7359],[-80.4589,35.7428],[-80.4595,35.746],[-80.4574,35.754],[-80.4528,35.758],[-80.4506,35.766],[-80.4516,35.769],[-80.4558,35.7736],[-80.4597,35.7751],[-80.4716,35.7831],[-80.4767,35.7891],[-80.476,35.7944],[-80.4739,35.798],[-80.4671,35.8005],[-80.4646,35.8028],[-80.466,35.8113],[-80.4723,35.8255],[-80.4789,35.8312],[-80.4858,35.8306],[-80.4874,35.8336],[-80.4825,35.8403],[-80.4768,35.8438],[-80.4738,35.8426],[-80.4655,35.831],[-80.4646,35.8282],[-80.4584,35.8264],[-80.4552,35.8273],[-80.4507,35.8309],[-80.4483,35.8353],[-80.4453,35.8365],[-80.4384,35.8321],[-80.4358,35.8283],[-80.4326,35.8281],[-80.4287,35.8308],[-80.4272,35.8354],[-80.4258,35.8475],[-80.4233,35.852],[-80.4166,35.8524],[-80.4132,35.851],[-80.4076,35.8455],[-80.4014,35.8423],[-80.3945,35.8414],[-80.3884,35.8455],[-80.3858,35.8536],[-80.3897,35.8676],[-80.3934,35.8708],[-80.4072,35.8748],[-80.4165,35.8805],[-80.416,35.8833],[-80.4107,35.8901],[-80.4079,35.8915],[-80.3963,35.8928],[-80.3899,35.8919],[-80.378,35.8852],[-80.3726,35.8845],[-80.37,35.8857],[-80.3652,35.8934],[-80.3663,35.8967],[-80.3712,35.9034],[-80.3749,35.9113],[-80.374,35.9169],[-80.3689,35.9247],[-80.3691,35.9304],[-80.3739,35.9366],[-80.3756,35.9414],[-80.3742,35.9531],[-80.378,35.9622],[-80.3816,35.9648],[-80.3901,35.967],[-80.3943,35.9728],[-80.3303,35.9966]]]}},{"type":"Feature","properties":{"id":"37059","name":"Davie Co."},"geometry":{"type":"Polygon","coordinates":[[[-80.6637,36.05],[-80.5984,36.0477],[-80.4963,36.0465],[-80.4931,36.044],[-80.4872,36.0432],[-80.4835,36.0463],[-80.4747,36.0504],[-80.4746,36.0583],[-80.4716,36.0613],[-80.4638,36.0626],[-80.4592,36.0586],[-80.4579,36.0516],[-80.4523,36.043],[-80.4469,36.0386],[-80.4419,36.0306],[-80.4364,36.0277],[-80.4311,36.0235],[-80.4224,36.0195],[-80.4185,36.0164],[-80.4139,36.005],[-80.4135,36.001],[-80.4218,35.9942],[-80.4225,35.9896],[-80.4196,35.9857],[-80.4105,35.9796],[-80.4002,35.9747],[-80.3943,35.9728],[-80.3901,35.967],[-80.3816,35.9648],[-80.378,35.9622],[-80.3742,35.9531],[-80.3756,35.9414],[-80.3739,35.9366],[-80.3691,35.9304],[-80.3689,35.9247],[-80.374,35.9169],[-80.3749,35.9113],[-80.3712,35.9034],[-80.3663,35.8967],[-80.3652,35.8934],[-80.37,35.8857],[-80.3726,35.8845],[-80.378,35.8852],[-80.3899,35.8919],[-80.3963,35.8928],[-80.4079,35.8915],[-80.4107,35.8901],[-80.416,35.8833],[-80.4165,35.8805],[-80.4072,35.8748],[-80.3934,35.8708],[-80.3897,35.8676],[-80.3858,35.8536],[-80.3884,35.8455],[-80.3945,35.8414],[-80.4014,35.8423],[-80.4076,35.8455],[-80.4132,35.851],[-80.4166,35.8524],[-80.4233,35.852],[-80.4258,35.8475],[-80.4272,35.8354],[-80.4287,35.8308],[-80.4326,35.8281],[-80.4358,35.8283],[-80.4384,35.8321],[-80.4453,35.8365],[-80.4483,35.8353],[-80.4507,35.8309],[-80.4552,35.8273],[-80.4584,35.8264],[-80.4646,35.8282],[-80.4655,35.831],[-80.4738,35.8426],[-80.4768,35.8438],[-80.4825,35.8403],[-80.4874,35.8336],[-80.4858,35.8306],[-80.4789,35.8312],[-80.4723,35.8255],[-80.466,35.8113],[-80.4646,35.8028],[-80.4671,35.8005],[-80.4739,35.798],[-80.476,35.7944],[-80.4767,35.7891],[-80.4716,35.7831],[-80.4597,35.7751],[-80.4558,35.7736],[-80.4516,35.769],[-80.4506,35.766],[-80.4528,35.758],[-80.4574,35.754],[-80.4595,35.746],[-80.4589,35.7428],[-80.4624,35.7514],[-80.4685,35.757],[-80.4689,35.7613],[-80.4718,35.7684],[-80.4783,35.7748],[-80.4834,35.7763],[-80.487,35.7717],[-80.4864,35.7671],[-80.4878,35.7666],[-80.492,35.776],[-80.4917,35.7782],[-80.4958,35.7823],[-80.5003,35.7835],[-80.5038,35.7813],[-80.5075,35.7748],[-80.5149,35.7781],[-80.5193,35.7833],[-80.5225,35.7848],[-80.5284,35.7835],[-80.5341,35.7862],[-80.5334,35.7908],[-80.5374,35.7899],[-80.543,35.7923],[-80.5467,35.7982],[-80.5546,35.8003],[-80.5627,35.8102],[-80.5679,35.812],[-80.5695,35.8155],[-80.5743,35.818],[-80.5774,35.8181],[-80.5835,35.822],[-80.5871,35.823],[-80.5897,35.8206],[-80.5873,35.8193],[-80.591,35.8172],[-80.5944,35.8244],[-80.5936,35.8269],[-80.5993,35.8273],[-80.6017,35.8233],[-80.6026,35.8257],[-80.6092,35.8231],[-80.6123,35.8251],[-80.6099,35.829],[-80.6209,35.8369],[-80.6222,35.8388],[-80.6307,35.8383],[-80.6309,35.8444],[-80.632,35.8457],[-80.6455,35.8445],[-80.6493,35.8462],[-80.6594,35.8447],[-80.6644,35.8448],[-80.6713,35.8465],[-80.673,35.8496],[-80.6701,35.8515],[-80.6688,35.8563],[-80.6722,35.8558],[-80.6744,35.8577],[-80.6768,35.8558],[-80.6874,35.8598],[-80.6918,35.8635],[-80.6929,35.8543],[-80.6961,35.8547],[-80.7002,35.8505],[-80.7078,35.853],[-80.6932,36.0513],[-80.6637,36.05]]]}},{"type":"Feature","properties":{"id":"37067","name":"Forsyth Co."},"geometry":{"type":"Polygon","coordinates":[[[-80.4519,36.2615],[-80.4056,36.2613],[-80.3736,36.2609],[-80.3105,36.2603],[-80.2083,36.2593],[-80.0351,36.2572],[-80.0369,36.2045],[-80.037,36.1952],[-80.0378,36.1764],[-80.037,36.174],[-80.0375,36.1609],[-80.0382,36.1596],[-80.0401,36.109],[-80.0432,36.0108],[-80.0604,36.0135],[-80.1498,36.0268],[-80.2137,36.0268],[-80.2138,35.9971],[-80.2173,35.9967],[-80.3303,35.9966],[-80.3943,35.9728],[-80.4002,35.9747],[-80.4105,35.9796],[-80.4196,35.9857],[-80.4225,35.9896],[-80.4218,35.9942],[-80.4135,36.001],[-80.4139,36.005],[-80.4185,36.0164],[-80.4224,36.0195],[-80.4311,36.0235],[-80.4364,36.0277],[-80.4419,36.0306],[-80.4469,36.0386],[-80.4523,36.043],[-80.4579,36.0516],[-80.4592,36.0586],[-80.4638,36.0626],[-80.4716,36.0613],[-80.4746,36.0583],[-80.4747,36.0504],[-80.4835,36.0463],[-80.4872,36.0432],[-80.4931,36.044],[-80.4963,36.0465],[-80.5066,36.0539],[-80.5085,36.058],[-80.5088,36.0664],[-80.5106,36.0749],[-80.5155,36.0805],[-80.5167,36.084],[-80.5157,36.0931],[-80.5107,36.0971],[-80.5065,36.1086],[-80.488,36.1161],[-80.4824,36.1165],[-80.4733,36.1188],[-80.463,36.1179],[-80.454,36.1225],[-80.4492,36.1297],[-80.4394,36.1369],[-80.4389,36.1389],[-80.4428,36.1503],[-80.4425,36.1572],[-80.4391,36.1609],[-80.4369,36.1685],[-80.439,36.176],[-80.443,36.179],[-80.4435,36.1833],[-80.4401,36.187],[-80.4396,36.1905],[-80.4464,36.2065],[-80.4455,36.2104],[-80.4415,36.2138],[-80.4323,36.2162],[-80.4322,36.218],[-80.4374,36.2298],[-80.4527,36.2417],[-80.4519,36.2615]]]}},{"type":"Feature","properties":{"id":"37197","name":"Yadkin Co."},"geometry":{"type":"Polygon","coordinates":[[[-80.4374,36.2298],[-80.4322,36.218],[-80.4323,36.2162],[-80.4415,36.2138],[-80.4455,36.2104],[-80.4464,36.2065],[-80.4396,36.1905],[-80.4401,36.187],[-80.4435,36.1833],[-80.443,36.179],[-80.439,36.176],[-80.4369,36.1685],[-80.4391,36.1609],[-80.4425,36.1572],[-80.4428,36.1503],[-80.4389,36.1389],[-80.4394,36.1369],[-80.4492,36.1297],[-80.454,36.1225],[-80.463,36.1179],[-80.4733,36.1188],[-80.4824,36.1165],[-80.488,36.1161],[-80.5065,36.1086],[-80.5107,36.0971],[-80.5157,36.0931],[-80.5167,36.084],[-80.5155,36.0805],[-80.5106,36.0749],[-80.5088,36.0664],[-80.5085,36.058],[-80.5066,36.0539],[-80.4963,36.0465],[-80.5984,36.0477],[-80.6637,36.05],[-80.6932,36.0513],[-80.8313,36.0546],[-80.8816,36.0557],[-80.8805,36.0909],[-80.8766,36.1609],[-80.8732,36.2363],[-80.8691,36.2385],[-80.8563,36.2408],[-80.8501,36.2408],[-80.836,36.2449],[-80.825,36.25],[-80.8183,36.2505],[-80.8084,36.2543],[-80.8023,36.2526],[-80.7972,36.248],[-80.784,36.2528],[-80.7784,36.2569],[-80.7802,36.2677],[-80.7787,36.2718],[-80.7738,36.2747],[-80.7687,36.275],[-80.7599,36.2693],[-80.7572,36.2656],[-80.7523,36.2633],[-80.7445,36.2705],[-80.7418,36.2778],[-80.7373,36.2804],[-80.7323,36.2771],[-80.7344,36.2694],[-80.734,36.2675],[-80.7299,36.267],[-80.7195,36.27],[-80.713,36.2667],[-80.7015,36.266],[-80.6953,36.2663],[-80.6846,36.2688],[-80.6784,36.2637],[-80.6768,36.2569],[-80.674,36.2529],[-80.6698,36.251],[-80.6533,36.2526],[-80.6477,36.2573],[-80.6479,36.263],[-80.643,36.2726],[-80.6371,36.2733],[-80.6323,36.2723],[-80.6285,36.273],[-80.6262,36.2764],[-80.6314,36.2842],[-80.6282,36.2879],[-80.6242,36.2868],[-80.6162,36.2804],[-80.6045,36.2757],[-80.5988,36.2715],[-80.5928,36.2699],[-80.5797,36.2777],[-80.57,36.281],[-80.5596,36.283],[-80.5535,36.2826],[-80.548,36.2854],[-80.5401,36.2826],[-80.537,36.28],[-80.5355,36.2735],[-80.5371,36.2666],[-80.537,36.2612],[-80.5318,36.258],[-80.5229,36.2585],[-80.5086,36.2586],[-80.5052,36.2599],[-80.5014,36.2589],[-80.483,36.256],[-80.4771,36.2607],[-80.471,36.261],[-80.4667,36.2598],[-80.4622,36.2561],[-80.4613,36.2485],[-80.4527,36.2417],[-80.4374,36.2298]]]}}]}