{"type":"FeatureCollection","features":[{"type":"Feature","properties":{"id":"47065","name":"Hamilton Co., TN"},"geometry":{"type":"Polygon","coordinates":[[[-85.3564,35.1844],[-85.3495,35.1931],[-85.2761,35.283],[-85.246,35.3191],[-85.2259,35.3543],[-85.1959,35.4036],[-85.1929,35.4108],[-85.1841,35.4282],[-85.1683,35.4556],[-85.1643,35.4518],[-85.1631,35.4489],[-85.1591,35.4473],[-85.1541,35.4472],[-85.1488,35.4456],[-85.1453,35.4498],[-85.138,35.4562],[-85.1361,35.4556],[-85.136,35.4513],[-85.1318,35.451],[-85.1311,35.458],[-85.1254,35.4592],[-85.1257,35.4551],[-85.12,35.4581],[-85.1171,35.4564],[-85.1114,35.4569],[-85.1073,35.4524],[-85.1096,35.4503],[-85.1033,35.4455],[-85.1107,35.4372],[-85.1043,35.4325],[-85.1064,35.4321],[-85.1022,35.4284],[-85.0911,35.4321],[-85.0873,35.4345],[-85.0806,35.4287],[-85.0787,35.4319],[-85.0734,35.4293],[-85.0669,35.4365],[-85.0167,35.4091],[-85.023,35.4082],[-85.0259,35.4029],[-85.0268,35.3852],[-85.0304,35.3791],[-85.0226,35.3762],[-85.0235,35.3747],[-85.0151,35.3719],[-85.0084,35.3833],[-85.0005,35.3804],[-84.9964,35.3733],[-84.9905,35.3665],[-84.9798,35.3628],[-84.9752,35.3579],[-84.9763,35.3473],[-84.9712,35.3396],[-84.9715,35.3297],[-84.9668,35.3216],[-84.9641,35.3103],[-84.9574,35.2998],[-84.9482,35.2913],[-84.946,35.2866],[-84.9423,35.2822],[-84.9512,35.2791],[-84.9537,35.2713],[-84.9604,35.2664],[-84.9606,35.2626],[-84.9645,35.2632],[-84.9663,35.26],[-84.9614,35.2546],[-84.965,35.2496],[-84.9697,35.2451],[-84.9761,35.234],[-84.9808,35.2198],[-84.9877,35.2121],[-84.9903,35.2066],[-84.9946,35.2018],[-84.9988,35.2031],[-85.0032,35.1961],[-85.004,35.1924],[-85.0087,35.1837],[-85.0094,35.1755],[-85.0054,35.1741],[-85.0058,35.1702],[-85.0096,35.1579],[-85.0134,35.155],[-85.0124,35.1523],[-85.0156,35.1522],[-85.0175,35.1481],[-85.024,35.1488],[-85.0266,35.1362],[-85.0264,35.1281],[-85.0236,35.1251],[-85.0103,35.1008],[-85.0075,35.0878],[-85.0099,35.0838],[-85.0076,35.0798],[-84.9951,35.0752],[-85.0023,35.0619],[-84.9944,35.0589],[-85.0015,35.0457],[-84.994,35.035],[-84.9782,35.0258],[-84.9611,35.0152],[-84.9702,35.0],[-84.977,34.9877],[-84.9799,34.9876],[-85.0452,34.9869],[-85.1806,34.9861],[-85.2651,34.9851],[-85.2776,34.985],[-85.3639,34.9834],[-85.385,34.983],[-85.4667,34.983],[-85.4741,34.9831],[-85.4749,34.987],[-85.4685,34.9869],[-85.4578,34.9931],[-85.4527,34.9966],[-85.4501,34.9957],[-85.4435,34.9971],[-85.4427,35.0006],[-85.438,35.0029],[-85.4354,35.0023],[-85.4276,35.0069],[-85.4241,35.0117],[-85.421,35.0137],[-85.4182,35.0202],[-85.419,35.0279],[-85.4158,35.0281],[-85.4113,35.0353],[-85.4096,35.0402],[-85.4052,35.0421],[-85.3976,35.0418],[-85.3926,35.0391],[-85.387,35.041],[-85.3823,35.0447],[-85.3795,35.0498],[-85.3773,35.0573],[-85.3704,35.0638],[-85.3664,35.0695],[-85.3641,35.0762],[-85.362,35.0878],[-85.3672,35.0909],[-85.3675,35.095],[-85.373,35.1001],[-85.3761,35.1008],[-85.3833,35.1057],[-85.3958,35.1056],[-85.3918,35.1204],[-85.3858,35.1371],[-85.3863,35.1417],[-85.3884,35.1455],[-85.3871,35.1472],[-85.3564,35.1844]]]}},{"type":"Feature","properties":{"id":"13047","name":"Catoosa Co., GA"},"geometry":{"type":"Polygon","coordinates":[[[-85.1806,34.9861],[-85.0452,34.9869],[-84.9799,34.9876],[-84.9797,34.9728],[-84.9974,34.9724],[-84.9975,34.9449],[-84.9979,34.9402],[-85.0029,34.9323],[-85.0034,34.9282],[-85.0057,34.9272],[-85.0071,34.9181],[-85.0116,34.9116],[-85.0138,34.9115],[-85.0139,34.9008],[-85.0234,34.9008],[-85.0233,34.8711],[-85.0327,34.8711],[-85.0327,34.8637],[-85.0616,34.8636],[-85.0616,34.8195],[-85.1053,34.8192],[-85.1054,34.8123],[-85.1227,34.8121],[-85.1226,34.8192],[-85.1317,34.8197],[-85.1318,34.8145],[-85.1369,34.8021],[-85.1394,34.7915],[-85.1406,34.7838],[-85.1448,34.7676],[-85.1599,34.7679],[-85.1598,34.7752],[-85.2019,34.7751],[-85.2016,34.8067],[-85.2022,34.8545],[-85.2288,34.8542],[-85.2648,34.8543],[-85.2648,34.8747],[-85.2642,34.8753],[-85.2651,34.9851],[-85.1806,34.9861]]]}},{"type":"Feature","properties":{"id":"13083","name":"Dade Co., GA"},"geometry":{"type":"Polygon","coordinates":[[[-85.4741,34.9831],[-85.4667,34.983],[-85.385,34.983],[-85.3639,34.9834],[-85.3646,34.9783],[-85.3697,34.9731],[-85.372,34.9647],[-85.3747,34.9597],[-85.3856,34.9455],[-85.4172,34.9011],[-85.4184,34.8998],[-85.4337,34.8751],[-85.4506,34.8317],[-85.4504,34.7592],[-85.4594,34.7516],[-85.4595,34.7418],[-85.462,34.7318],[-85.4685,34.7233],[-85.4905,34.6991],[-85.4908,34.6694],[-85.5341,34.6239],[-85.5525,34.7081],[-85.5614,34.7501],[-85.5831,34.8604],[-85.5952,34.9242],[-85.5988,34.9449],[-85.5994,34.9518],[-85.6052,34.9847],[-85.4741,34.9831]]]}},{"type":"Feature","properties":{"id":"47153","name":"Sequatchie Co., TN"},"geometry":{"type":"Polygon","coordinates":[[[-85.246,35.3191],[-85.2761,35.283],[-85.3495,35.1931],[-85.3564,35.1844],[-85.3871,35.1472],[-85.3869,35.1551],[-85.3883,35.1588],[-85.394,35.1655],[-85.3935,35.1737],[-85.3909,35.1786],[-85.3882,35.1808],[-85.3902,35.1853],[-85.3931,35.1877],[-85.396,35.1935],[-85.3959,35.1957],[-85.3914,35.2014],[-85.3936,35.2062],[-85.3969,35.2084],[-85.4014,35.2164],[-85.401,35.2196],[-85.4029,35.2231],[-85.4078,35.2257],[-85.4256,35.2431],[-85.426,35.2465],[-85.4306,35.2481],[-85.4335,35.2524],[-85.4392,35.2534],[-85.4409,35.2552],[-85.4409,35.2592],[-85.4447,35.2629],[-85.4519,35.2652],[-85.4553,35.2678],[-85.4591,35.2668],[-85.4691,35.2694],[-85.4756,35.2684],[-85.4799,35.2707],[-85.4891,35.2722],[-85.4923,35.274],[-85.4947,35.28],[-85.5568,35.3083],[-85.5586,35.3193],[-85.5512,35.3286],[-85.5423,35.3415],[-85.5351,35.3437],[-85.529,35.3428],[-85.527,35.3443],[-85.5263,35.3484],[-85.5197,35.3508],[-85.5151,35.3549],[-85.5142,35.3536],[-85.5065,35.3575],[-85.5065,35.3618],[-85.5029,35.3654],[-85.5055,35.3667],[-85.5027,35.371],[-85.4995,35.3732],[-85.4985,35.3769],[-85.4943,35.3808],[-85.4892,35.3835],[-85.4946,35.3864],[-85.4941,35.3917],[-85.4959,35.3933],[-85.4922,35.3951],[-85.491,35.3991],[-85.4856,35.4063],[-85.5129,35.4076],[-85.5118,35.4211],[-85.5123,35.423],[-85.5182,35.4239],[-85.5205,35.4216],[-85.5235,35.424],[-85.532,35.4286],[-85.5358,35.4315],[-85.5401,35.459],[-85.5413,35.4614],[-85.5368,35.4811],[-85.5367,35.4871],[-85.5402,35.4907],[-85.5543,35.4979],[-85.558,35.5003],[-85.5696,35.5058],[-85.5769,35.5125],[-85.5849,35.5163],[-85.5898,35.5215],[-85.6073,35.5317],[-85.5575,35.533],[-85.5567,35.5365],[-85.5533,35.5352],[-85.5461,35.5363],[-85.5447,35.5425],[-85.533,35.5417],[-85.5299,35.5403],[-85.517,35.5439],[-85.5048,35.5458],[-85.5035,35.545],[-85.4958,35.5476],[-85.4864,35.5471],[-85.4745,35.5476],[-85.4599,35.5469],[-85.4602,35.5504],[-85.455,35.5527],[-85.4535,35.5581],[-85.4238,35.5674],[-85.4272,35.5624],[-85.4246,35.5601],[-85.4313,35.5525],[-85.432,35.5458],[-85.4362,35.5422],[-85.4338,35.5351],[-85.4308,35.5291],[-85.4268,35.528],[-85.4249,35.5299],[-85.4226,35.5268],[-85.4197,35.5268],[-85.4112,35.5191],[-85.407,35.5176],[-85.4088,35.5149],[-85.4074,35.5124],[-85.4109,35.5119],[-85.4116,35.5064],[-85.4089,35.5049],[-85.4057,35.4987],[-85.4065,35.497],[-85.4033,35.4923],[-85.3597,35.4554],[-85.3143,35.4172],[-85.2538,35.3739],[-85.2259,35.3543],[-85.246,35.3191]]]}},{"type":"Feature","properties":{"id":"47115","name":"Marion Co., TN"},"geometry":{"type":"Polygon","coordinates":[[[-85.5568,35.3083],[-85.4947,35.28],[-85.4923,35.274],[-85.4891,35.2722],[-85.4799,35.2707],[-85.4756,35.2684],[-85.4691,35.2694],[-85.4591,35.2668],[-85.4553,35.2678],[-85.4519,35.2652],[-85.4447,35.2629],[-85.4409,35.2592],[-85.4409,35.2552],[-85.4392,35.2534],[-85.4335,35.2524],[-85.4306,35.2481],[-85.426,35.2465],[-85.4256,35.2431],[-85.4078,35.2257],[-85.4029,35.2231],[-85.401,35.2196],[-85.4014,35.2164],[-85.3969,35.2084],[-85.3936,35.2062],[-85.3914,35.2014],[-85.3959,35.1957],[-85.396,35.1935],[-85.3931,35.1877],[-85.3902,35.1853],[-85.3882,35.1808],[-85.3909,35.1786],[-85.3935,35.1737],[-85.394,35.1655],[-85.3883,35.1588],[-85.3869,35.1551],[-85.3871,35.1472],[-85.3884,35.1455],[-85.3863,35.1417],[-85.3858,35.1371],[-85.3918,35.1204],[-85.3958,35.1056],[-85.3833,35.1057],[-85.3761,35.1008],[-85.373,35.1001],[-85.3675,35.095],[-85.3672,35.0909],[-85.362,35.0878],[-85.3641,35.0762],[-85.3664,35.0695],[-85.3704,35.0638],[-85.3773,35.0573],[-85.3795,35.0498],[-85.3823,35.0447],[-85.387,35.041],[-85.3926,35.0391],[-85.3976,35.0418],[-85.4052,35.0421],[-85.4096,35.0402],[-85.4113,35.0353],[-85.4158,35.0281],[-85.419,35.0279],[-85.4182,35.0202],[-85.421,35.0137],[-85.4241,35.0117],[-85.4276,35.0069],[-85.4354,35.0023],[-85.438,35.0029],[-85.4427,35.0006],[-85.4435,34.9971],[-85.4501,34.9957],[-85.4527,34.9966],[-85.4578,34.9931],[-85.4685,34.9869],[-85.4749,34.987],[-85.4741,34.9831],[-85.6052,34.9847],[-85.8244,34.9881],[-85.8639,34.9884],[-85.8638,35.1207],[-85.8633,35.1837],[-85.8633,35.2203],[-85.873,35.2204],[-85.873,35.2234],[-85.8654,35.2267],[-85.8583,35.2311],[-85.8517,35.2378],[-85.8451,35.2411],[-85.8285,35.2398],[-85.8224,35.2422],[-85.7851,35.2226],[-85.7735,35.2187],[-85.75,35.2159],[-85.7401,35.2153],[-85.6936,35.2393],[-85.7094,35.2893],[-85.7053,35.2915],[-85.7006,35.2917],[-85.7004,35.2898],[-85.6931,35.2884],[-85.6904,35.2861],[-85.6844,35.2898],[-85.6779,35.2909],[-85.6715,35.2949],[-85.6738,35.2979],[-85.6697,35.2986],[-85.6693,35.3016],[-85.6667,35.2998],[-85.6644,35.3024],[-85.6533,35.305],[-85.6513,35.3022],[-85.6454,35.302],[-85.633,35.3037],[-85.5601,35.3187],[-85.5586,35.3193],[-85.5568,35.3083]]]}},{"type":"Feature","properties":{"id":"13295","name":"Walker Co., GA"},"geometry":{"type":"Polygon","coordinates":[[[-85.4908,34.6694],[-85.4905,34.6991],[-85.4685,34.7233],[-85.462,34.7318],[-85.4595,34.7418],[-85.4594,34.7516],[-85.4504,34.7592],[-85.4506,34.8317],[-85.4337,34.8751],[-85.4184,34.8998],[-85.4172,34.9011],[-85.3856,34.9455],[-85.3747,34.9597],[-85.372,34.9647],[-85.3697,34.9731],[-85.3646,34.9783],[-85.3639,34.9834],[-85.2776,34.985],[-85.2651,34.9851],[-85.2642,34.8753],[-85.2648,34.8747],[-85.2648,34.8543],[-85.2288,34.8542],[-85.2022,34.8545],[-85.2016,34.8067],[-85.2019,34.7751],[-85.1598,34.7752],[-85.1599,34.7679],[-85.1448,34.7676],[-85.1506,34.759],[-85.1532,34.7532],[-85.1611,34.7392],[-85.1641,34.7318],[-85.1672,34.7278],[-85.1684,34.7202],[-85.1064,34.7202],[-85.0508,34.72],[-85.0504,34.6225],[-85.0604,34.6225],[-85.0605,34.5872],[-85.1249,34.5876],[-85.1249,34.5881],[-85.1422,34.5881],[-85.2414,34.5889],[-85.3535,34.5893],[-85.3541,34.5853],[-85.3521,34.5825],[-85.3615,34.5823],[-85.3669,34.5859],[-85.3713,34.5859],[-85.3714,34.5893],[-85.4387,34.5891],[-85.5273,34.5887],[-85.5341,34.6239],[-85.4908,34.6694]]]}}]}