{"type":"FeatureCollection","features":[{"type":"Feature","properties":{"id":"08035","name":"Douglas Co."},"geometry":{"type":"Polygon","coordinates":[[[-105.0403,39.5662],[-104.8971,39.566],[-104.8574,39.566],[-104.7358,39.5659],[-104.7078,39.566],[-104.6602,39.5659],[-104.6622,39.4085],[-104.6626,39.362],[-104.6628,39.2894],[-104.6629,39.2167],[-104.6625,39.1295],[-104.8685,39.1298],[-104.895,39.13],[-105.0275,39.1298],[-105.0336,39.1297],[-105.1627,39.1296],[-105.3294,39.1295],[-105.3228,39.1356],[-105.3218,39.139],[-105.3233,39.145],[-105.3216,39.1462],[-105.3156,39.1458],[-105.3153,39.1549],[-105.3136,39.1591],[-105.3071,39.1654],[-105.3052,39.164],[-105.3002,39.168],[-105.302,39.1692],[-105.2994,39.1725],[-105.2942,39.173],[-105.2947,39.1748],[-105.2874,39.1794],[-105.2892,39.1842],[-105.2864,39.1863],[-105.2851,39.1946],[-105.2829,39.2],[-105.2777,39.2028],[-105.2763,39.2072],[-105.2695,39.2094],[-105.2632,39.208],[-105.2597,39.2109],[-105.2615,39.2148],[-105.2606,39.2167],[-105.2635,39.2212],[-105.2613,39.2233],[-105.2636,39.2288],[-105.2618,39.2315],[-105.2572,39.2335],[-105.2543,39.2379],[-105.255,39.2403],[-105.2524,39.2437],[-105.2473,39.2404],[-105.2406,39.2441],[-105.2356,39.2443],[-105.2339,39.2469],[-105.2377,39.2505],[-105.2342,39.2524],[-105.2346,39.2551],[-105.2281,39.2538],[-105.227,39.2564],[-105.2236,39.256],[-105.2251,39.2605],[-105.2196,39.2596],[-105.2172,39.2612],[-105.2187,39.267],[-105.2208,39.2681],[-105.2156,39.2722],[-105.2175,39.2746],[-105.2164,39.2776],[-105.2113,39.281],[-105.2125,39.2845],[-105.208,39.2896],[-105.207,39.2932],[-105.2026,39.2933],[-105.2072,39.2962],[-105.205,39.2998],[-105.2014,39.2993],[-105.2002,39.302],[-105.196,39.3021],[-105.1978,39.305],[-105.1967,39.3085],[-105.1982,39.3104],[-105.1935,39.3126],[-105.1886,39.3174],[-105.1878,39.3229],[-105.1855,39.3244],[-105.1882,39.328],[-105.1823,39.3298],[-105.1823,39.3314],[-105.1878,39.3342],[-105.184,39.3355],[-105.1821,39.3386],[-105.1787,39.3408],[-105.1772,39.3447],[-105.1772,39.3496],[-105.1719,39.3535],[-105.1724,39.3558],[-105.1679,39.359],[-105.1664,39.363],[-105.1691,39.3691],[-105.1671,39.3722],[-105.173,39.3777],[-105.1698,39.3803],[-105.1733,39.3823],[-105.173,39.3857],[-105.17,39.3891],[-105.1643,39.3911],[-105.1673,39.3943],[-105.1672,39.3998],[-105.1694,39.4016],[-105.1713,39.4069],[-105.1667,39.4085],[-105.1599,39.4143],[-105.156,39.4138],[-105.1494,39.4176],[-105.1453,39.4188],[-105.1382,39.4231],[-105.1354,39.4268],[-105.1331,39.4274],[-105.1284,39.4318],[-105.1235,39.4343],[-105.1261,39.4402],[-105.1232,39.4478],[-105.1242,39.455],[-105.1275,39.4585],[-105.1329,39.462],[-105.1326,39.4679],[-105.135,39.4708],[-105.1304,39.4737],[-105.1284,39.4774],[-105.121,39.4815],[-105.1185,39.4802],[-105.1159,39.4825],[-105.1176,39.4854],[-105.1147,39.4858],[-105.1107,39.4836],[-105.1069,39.4847],[-105.0987,39.4854],[-105.0914,39.4893],[-105.0861,39.4949],[-105.0872,39.4961],[-105.0848,39.5012],[-105.0847,39.5066],[-105.0784,39.5115],[-105.0779,39.5175],[-105.0801,39.5232],[-105.0764,39.5316],[-105.0777,39.5367],[-105.0741,39.5443],[-105.0667,39.5505],[-105.0657,39.5533],[-105.0611,39.5569],[-105.0607,39.5599],[-105.0573,39.5623],[-105.0514,39.5633],[-105.0487,39.5661],[-105.0403,39.5662]]]}},{"type":"Feature","properties":{"id":"08019","name":"Clear Creek Co."},"geometry":{"type":"Polygon","coordinates":[[[-105.6811,39.8473],[-105.6762,39.8492],[-105.6678,39.8475],[-105.6598,39.8504],[-105.6519,39.8483],[-105.6497,39.8465],[-105.6439,39.8461],[-105.6333,39.8437],[-105.6309,39.8393],[-105.6313,39.8373],[-105.6289,39.8327],[-105.6255,39.8314],[-105.6162,39.8254],[-105.6136,39.823],[-105.6119,39.8246],[-105.6058,39.8226],[-105.6026,39.8181],[-105.5979,39.8184],[-105.5956,39.8161],[-105.5834,39.8221],[-105.5779,39.8225],[-105.5744,39.8189],[-105.5746,39.8166],[-105.5798,39.8128],[-105.5784,39.8124],[-105.5785,39.8054],[-105.5726,39.8031],[-105.5703,39.8005],[-105.5642,39.7997],[-105.5605,39.7951],[-105.5557,39.7944],[-105.5541,39.7919],[-105.5455,39.7869],[-105.5476,39.7859],[-105.5482,39.7818],[-105.5444,39.7778],[-105.5434,39.7745],[-105.5395,39.7723],[-105.53,39.7691],[-105.5262,39.7688],[-105.5177,39.7649],[-105.5115,39.766],[-105.5065,39.7635],[-105.5001,39.7631],[-105.4949,39.7641],[-105.4971,39.7579],[-105.493,39.757],[-105.4842,39.7594],[-105.4788,39.7591],[-105.4668,39.7564],[-105.4547,39.7559],[-105.4503,39.753],[-105.4413,39.7557],[-105.4297,39.7547],[-105.4279,39.7558],[-105.4226,39.7552],[-105.4233,39.7504],[-105.4214,39.7459],[-105.4154,39.7495],[-105.4102,39.7499],[-105.4066,39.7515],[-105.3979,39.746],[-105.3985,39.6863],[-105.3983,39.6762],[-105.3982,39.6366],[-105.3989,39.6064],[-105.3989,39.5661],[-105.4449,39.566],[-105.588,39.5682],[-105.6239,39.567],[-105.7216,39.5653],[-105.7235,39.5654],[-105.8297,39.5649],[-105.8306,39.5665],[-105.8366,39.5688],[-105.8384,39.573],[-105.8315,39.5781],[-105.8265,39.5802],[-105.8227,39.5801],[-105.8199,39.5822],[-105.8181,39.5808],[-105.8081,39.5834],[-105.8004,39.5932],[-105.7944,39.5948],[-105.7917,39.5979],[-105.7827,39.6001],[-105.7757,39.6065],[-105.7761,39.6111],[-105.7827,39.618],[-105.7827,39.629],[-105.7846,39.6311],[-105.7912,39.6342],[-105.7927,39.6361],[-105.7983,39.6364],[-105.8062,39.6349],[-105.8109,39.6353],[-105.8172,39.6336],[-105.821,39.6426],[-105.8263,39.6409],[-105.8367,39.643],[-105.8415,39.6462],[-105.8487,39.6442],[-105.8543,39.6491],[-105.8568,39.6578],[-105.8595,39.6587],[-105.8648,39.6672],[-105.8736,39.6659],[-105.8796,39.6636],[-105.8849,39.6571],[-105.8939,39.6594],[-105.8968,39.6647],[-105.9037,39.6644],[-105.9108,39.6623],[-105.92,39.6694],[-105.9263,39.673],[-105.927,39.6767],[-105.9213,39.6843],[-105.9196,39.6903],[-105.92,39.6939],[-105.9246,39.699],[-105.9245,39.7034],[-105.9214,39.7099],[-105.9168,39.7136],[-105.9118,39.7153],[-105.9105,39.7207],[-105.9075,39.724],[-105.9083,39.7262],[-105.9047,39.7288],[-105.9,39.7288],[-105.8894,39.7315],[-105.8837,39.737],[-105.8824,39.7403],[-105.8823,39.7456],[-105.885,39.75],[-105.8846,39.7529],[-105.8805,39.7593],[-105.8828,39.7634],[-105.8867,39.766],[-105.8875,39.7705],[-105.8896,39.7737],[-105.89,39.7786],[-105.8923,39.7841],[-105.8877,39.789],[-105.8876,39.7966],[-105.8756,39.7993],[-105.8723,39.7967],[-105.8601,39.7969],[-105.8549,39.7962],[-105.8514,39.788],[-105.8441,39.7895],[-105.8386,39.7881],[-105.83,39.7882],[-105.823,39.7856],[-105.8184,39.79],[-105.8105,39.7915],[-105.8075,39.7981],[-105.8019,39.7993],[-105.7996,39.8033],[-105.7937,39.8019],[-105.7909,39.8031],[-105.7847,39.8024],[-105.7797,39.7991],[-105.766,39.7949],[-105.7568,39.7982],[-105.7506,39.8013],[-105.7471,39.8013],[-105.7445,39.8034],[-105.7364,39.8048],[-105.735,39.8102],[-105.7314,39.8143],[-105.7252,39.8173],[-105.7233,39.8254],[-105.7192,39.8275],[-105.7193,39.8311],[-105.717,39.8355],[-105.7134,39.8382],[-105.7081,39.8367],[-105.7033,39.8367],[-105.6963,39.8389],[-105.6935,39.8479],[-105.6903,39.852],[-105.6811,39.8473]]]}},{"type":"Feature","properties":{"id":"08005","name":"Arapahoe Co."},"geometry":{"type":"MultiPolygon","coordinates":[[[[-104.8988,39.6857],[-104.8988,39.6834],[-104.9027,39.6857],[-104.8988,39.6857]]],[[[-104.9028,39.6243],[-104.904,39.6241],[-104.9038,39.6268],[-104.9028,39.6243]]],[[[-104.9082,39.6803],[-104.911,39.6799],[-104.911,39.6821],[-104.9082,39.6803]]],[[[-104.9223,39.6756],[-104.9176,39.673],[-104.9175,39.6676],[-104.9159,39.6635],[-104.913,39.6631],[-104.913,39.6562],[-104.9189,39.6603],[-104.921,39.6603],[-104.9222,39.6669],[-104.9264,39.6694],[-104.9302,39.6748],[-104.9223,39.6756]]],[[[-104.9297,39.6724],[-104.9272,39.669],[-104.9316,39.6675],[-104.9317,39.6706],[-104.9339,39.6733],[-104.9297,39.6724]]],[[[-104.9316,39.7111],[-104.9296,39.7064],[-104.927,39.7067],[-104.927,39.7039],[-104.934,39.7038],[-104.9341,39.7013],[-104.9288,39.7002],[-104.9282,39.6966],[-104.9359,39.6966],[-104.9395,39.6948],[-104.9407,39.6977],[-104.9407,39.7111],[-104.9316,39.7111]],[[-104.9317,39.6984],[-104.9317,39.7002],[-104.9341,39.6984],[-104.9317,39.6984]]],[[[-105.0535,39.6243],[-105.0533,39.6273],[-105.0534,39.6279],[-105.0535,39.6295],[-105.0534,39.6315],[-105.0441,39.6315],[-105.0442,39.628],[-105.038,39.6268],[-105.0368,39.6281],[-105.0293,39.6278],[-105.0254,39.6286],[-105.0254,39.6314],[-105.0301,39.6332],[-105.0348,39.6332],[-105.0347,39.6386],[-105.03,39.6386],[-105.03,39.6422],[-105.0347,39.6437],[-105.0346,39.6533],[-105.0322,39.6533],[-105.0331,39.657],[-105.023,39.6568],[-105.023,39.6605],[-105.0158,39.6605],[-105.0157,39.6787],[-105.0087,39.6786],[-105.0064,39.6768],[-105.0064,39.6677],[-105.0109,39.6605],[-105.0044,39.6605],[-105.0036,39.6666],[-105.0004,39.6677],[-104.9735,39.6677],[-104.9735,39.6659],[-104.9688,39.6658],[-104.9688,39.6604],[-104.9631,39.6604],[-104.9594,39.6615],[-104.9595,39.6567],[-104.9538,39.6567],[-104.955,39.653],[-104.9317,39.653],[-104.9319,39.6458],[-104.9225,39.6458],[-104.9132,39.6387],[-104.9134,39.6241],[-104.904,39.6241],[-104.8853,39.6241],[-104.8851,39.6389],[-104.8803,39.6413],[-104.8801,39.6531],[-104.8755,39.6515],[-104.8756,39.645],[-104.8682,39.6471],[-104.8559,39.6541],[-104.8486,39.6571],[-104.8487,39.6592],[-104.8564,39.6603],[-104.8663,39.6603],[-104.8661,39.6708],[-104.8709,39.6748],[-104.8753,39.6748],[-104.8775,39.6721],[-104.8754,39.669],[-104.876,39.6641],[-104.8793,39.6639],[-104.885,39.6675],[-104.89,39.6676],[-104.8902,39.6645],[-104.8943,39.6676],[-104.9035,39.6676],[-104.9036,39.6767],[-104.9081,39.6797],[-104.9046,39.6803],[-104.9052,39.6861],[-104.9034,39.6849],[-104.9034,39.6786],[-104.8945,39.6785],[-104.894,39.6821],[-104.8893,39.6821],[-104.8893,39.6857],[-104.8941,39.6857],[-104.8941,39.6927],[-104.8988,39.693],[-104.8988,39.6893],[-104.9035,39.6894],[-104.9035,39.693],[-104.9001,39.693],[-104.9035,39.6985],[-104.8991,39.6954],[-104.8948,39.6966],[-104.866,39.6966],[-104.866,39.6993],[-104.8707,39.6984],[-104.8686,39.7031],[-104.866,39.7038],[-104.866,39.7111],[-104.8706,39.7102],[-104.8706,39.7182],[-104.8753,39.7197],[-104.8753,39.7256],[-104.8819,39.725],[-104.8866,39.7292],[-104.8851,39.7302],[-104.8846,39.7402],[-104.8433,39.7403],[-104.7256,39.7403],[-104.6783,39.74],[-104.66,39.7405],[-104.6528,39.7398],[-104.6324,39.7395],[-104.6246,39.7401],[-104.5825,39.7396],[-104.5074,39.7383],[-104.3946,39.738],[-104.3402,39.7382],[-104.298,39.7387],[-104.2095,39.739],[-104.0962,39.7398],[-103.9776,39.7403],[-103.9723,39.7404],[-103.7065,39.7399],[-103.7071,39.5663],[-103.7144,39.5663],[-103.9786,39.5664],[-104.0144,39.566],[-104.1743,39.5653],[-104.1938,39.5652],[-104.3619,39.5643],[-104.4275,39.5636],[-104.4574,39.564],[-104.5317,39.5647],[-104.6048,39.5659],[-104.6602,39.5659],[-104.7078,39.566],[-104.7358,39.5659],[-104.8574,39.566],[-104.8971,39.566],[-105.0403,39.5662],[-105.0487,39.5661],[-105.0541,39.5661],[-105.0535,39.6209],[-105.0535,39.6243]]]]}},{"type":"Feature","properties":{"id":"08059","name":"Jefferson Co."},"geometry":{"type":"MultiPolygon","coordinates":[[[[-105.0558,39.6242],[-105.0534,39.6279],[-105.0533,39.6273],[-105.0535,39.6243],[-105.0558,39.6242]]],[[[-105.057,39.6317],[-105.0595,39.6354],[-105.059,39.6388],[-105.0533,39.6388],[-105.0534,39.6315],[-105.0535,39.6295],[-105.057,39.6317]]],[[[-105.0626,39.653],[-105.0626,39.6519],[-105.0635,39.653],[-105.0626,39.653]]],[[[-105.0809,39.635],[-105.0816,39.635],[-105.0816,39.6357],[-105.0809,39.635]]],[[[-105.3979,39.8409],[-105.3974,39.8537],[-105.3979,39.8604],[-105.3976,39.8832],[-105.3978,39.9129],[-105.3395,39.9138],[-105.3068,39.914],[-105.2827,39.9137],[-105.2649,39.9142],[-105.2008,39.914],[-105.1661,39.914],[-105.1471,39.9139],[-105.1086,39.9141],[-105.107,39.9117],[-105.1006,39.9086],[-105.1001,39.9022],[-105.0967,39.8998],[-105.0906,39.8989],[-105.0842,39.8998],[-105.0717,39.8998],[-105.0718,39.907],[-105.0624,39.907],[-105.0624,39.914],[-105.06,39.9125],[-105.0553,39.9124],[-105.0529,39.9142],[-105.0533,39.856],[-105.0532,39.8496],[-105.0532,39.7911],[-105.0644,39.7911],[-105.0627,39.7883],[-105.0627,39.7838],[-105.0532,39.7838],[-105.0532,39.6823],[-105.0578,39.6823],[-105.0578,39.6787],[-105.0626,39.6793],[-105.0626,39.675],[-105.0533,39.675],[-105.0533,39.6678],[-105.072,39.6678],[-105.0745,39.6703],[-105.0767,39.6691],[-105.0813,39.6701],[-105.0815,39.6621],[-105.0767,39.6593],[-105.072,39.66],[-105.0701,39.6569],[-105.0673,39.6569],[-105.0673,39.6533],[-105.0708,39.6496],[-105.0639,39.6496],[-105.062,39.6512],[-105.0571,39.6497],[-105.0632,39.6496],[-105.0632,39.646],[-105.072,39.6458],[-105.0745,39.6441],[-105.0768,39.6387],[-105.0733,39.6387],[-105.0733,39.6366],[-105.0816,39.6362],[-105.0817,39.6388],[-105.0911,39.6387],[-105.0911,39.6351],[-105.1099,39.6351],[-105.1099,39.6271],[-105.1075,39.6271],[-105.1075,39.6242],[-105.0913,39.6242],[-105.0912,39.6271],[-105.0856,39.6261],[-105.0856,39.6285],[-105.0817,39.6273],[-105.0802,39.6295],[-105.0761,39.6242],[-105.0661,39.6208],[-105.0651,39.6186],[-105.097,39.6184],[-105.097,39.6145],[-105.0582,39.6144],[-105.0572,39.6209],[-105.0535,39.6209],[-105.0541,39.5661],[-105.0487,39.5661],[-105.0514,39.5633],[-105.0573,39.5623],[-105.0607,39.5599],[-105.0611,39.5569],[-105.0657,39.5533],[-105.0667,39.5505],[-105.0741,39.5443],[-105.0777,39.5367],[-105.0764,39.5316],[-105.0801,39.5232],[-105.0779,39.5175],[-105.0784,39.5115],[-105.0847,39.5066],[-105.0848,39.5012],[-105.0872,39.4961],[-105.0861,39.4949],[-105.0914,39.4893],[-105.0987,39.4854],[-105.1069,39.4847],[-105.1107,39.4836],[-105.1147,39.4858],[-105.1176,39.4854],[-105.1159,39.4825],[-105.1185,39.4802],[-105.121,39.4815],[-105.1284,39.4774],[-105.1304,39.4737],[-105.135,39.4708],[-105.1326,39.4679],[-105.1329,39.462],[-105.1275,39.4585],[-105.1242,39.455],[-105.1232,39.4478],[-105.1261,39.4402],[-105.1235,39.4343],[-105.1284,39.4318],[-105.1331,39.4274],[-105.1354,39.4268],[-105.1382,39.4231],[-105.1453,39.4188],[-105.1494,39.4176],[-105.156,39.4138],[-105.1599,39.4143],[-105.1667,39.4085],[-105.1713,39.4069],[-105.1694,39.4016],[-105.1672,39.3998],[-105.1673,39.3943],[-105.1643,39.3911],[-105.17,39.3891],[-105.173,39.3857],[-105.1733,39.3823],[-105.1698,39.3803],[-105.173,39.3777],[-105.1671,39.3722],[-105.1691,39.3691],[-105.1664,39.363],[-105.1679,39.359],[-105.1724,39.3558],[-105.1719,39.3535],[-105.1772,39.3496],[-105.1772,39.3447],[-105.1787,39.3408],[-105.1821,39.3386],[-105.184,39.3355],[-105.1878,39.3342],[-105.1823,39.3314],[-105.1823,39.3298],[-105.1882,39.328],[-105.1855,39.3244],[-105.1878,39.3229],[-105.1886,39.3174],[-105.1935,39.3126],[-105.1982,39.3104],[-105.1967,39.3085],[-105.1978,39.305],[-105.196,39.3021],[-105.2002,39.302],[-105.2014,39.2993],[-105.205,39.2998],[-105.2072,39.2962],[-105.2026,39.2933],[-105.207,39.2932],[-105.208,39.2896],[-105.2125,39.2845],[-105.2113,39.281],[-105.2164,39.2776],[-105.2175,39.2746],[-105.2156,39.2722],[-105.2208,39.2681],[-105.2187,39.267],[-105.2172,39.2612],[-105.2196,39.2596],[-105.2251,39.2605],[-105.2236,39.256],[-105.227,39.2564],[-105.2281,39.2538],[-105.2346,39.2551],[-105.2342,39.2524],[-105.2377,39.2505],[-105.2339,39.2469],[-105.2356,39.2443],[-105.2406,39.2441],[-105.2473,39.2404],[-105.2524,39.2437],[-105.255,39.2403],[-105.2543,39.2379],[-105.2572,39.2335],[-105.2618,39.2315],[-105.2636,39.2288],[-105.2613,39.2233],[-105.2635,39.2212],[-105.2606,39.2167],[-105.2615,39.2148],[-105.2597,39.2109],[-105.2632,39.208],[-105.2695,39.2094],[-105.2763,39.2072],[-105.2777,39.2028],[-105.2829,39.2],[-105.2851,39.1946],[-105.2864,39.1863],[-105.2892,39.1842],[-105.2874,39.1794],[-105.2947,39.1748],[-105.2942,39.173],[-105.2994,39.1725],[-105.302,39.1692],[-105.3002,39.168],[-105.3052,39.164],[-105.3071,39.1654],[-105.3136,39.1591],[-105.3153,39.1549],[-105.3156,39.1458],[-105.3216,39.1462],[-105.3233,39.145],[-105.3218,39.139],[-105.3228,39.1356],[-105.3294,39.1295],[-105.3304,39.1295],[-105.3304,39.1297],[-105.3979,39.1296],[-105.3978,39.1586],[-105.3979,39.25],[-105.3967,39.2649],[-105.3981,39.3158],[-105.3987,39.3262],[-105.3981,39.3507],[-105.3986,39.3781],[-105.3979,39.3888],[-105.3981,39.3994],[-105.3981,39.4523],[-105.3986,39.4635],[-105.3981,39.4687],[-105.3985,39.5248],[-105.3989,39.5356],[-105.3989,39.5661],[-105.3989,39.6064],[-105.3982,39.6366],[-105.3983,39.6762],[-105.3985,39.6863],[-105.3979,39.746],[-105.3979,39.8409]],[[-105.1657,39.9105],[-105.1656,39.891],[-105.1644,39.8914],[-105.1474,39.8893],[-105.1349,39.8893],[-105.1363,39.892],[-105.1309,39.8927],[-105.1289,39.8904],[-105.1287,39.9],[-105.1474,39.9001],[-105.1471,39.9139],[-105.1657,39.9105]]]]}},{"type":"Feature","properties":{"id":"08093","name":"Park Co."},"geometry":{"type":"Polygon","coordinates":[[[-105.7235,39.5654],[-105.7216,39.5653],[-105.6239,39.567],[-105.588,39.5682],[-105.4449,39.566],[-105.3989,39.5661],[-105.3989,39.5356],[-105.3985,39.5248],[-105.3981,39.4687],[-105.3986,39.4635],[-105.3981,39.4523],[-105.3981,39.3994],[-105.3979,39.3888],[-105.3986,39.3781],[-105.3981,39.3507],[-105.3987,39.3262],[-105.3981,39.3158],[-105.3967,39.2649],[-105.3979,39.25],[-105.3978,39.1586],[-105.3979,39.1296],[-105.3304,39.1297],[-105.3304,39.1295],[-105.3295,38.9929],[-105.3299,38.9608],[-105.3293,38.8928],[-105.3291,38.8575],[-105.329,38.6976],[-105.3296,38.6972],[-105.4982,38.6971],[-105.5005,38.6966],[-105.5145,38.6966],[-105.5315,38.6959],[-105.6136,38.6953],[-105.6162,38.6954],[-105.7021,38.6947],[-105.7506,38.6947],[-105.8756,38.6943],[-105.8816,38.6941],[-105.8889,38.6952],[-105.8984,38.6938],[-105.9445,38.6931],[-105.9697,38.6936],[-105.9636,38.7013],[-105.9618,38.7061],[-105.9573,38.709],[-105.953,38.7137],[-105.9462,38.7167],[-105.9476,38.7202],[-105.9435,38.7231],[-105.9461,38.7274],[-105.9435,38.7308],[-105.943,38.7345],[-105.9479,38.7417],[-105.9479,38.7438],[-105.9421,38.7448],[-105.9414,38.7487],[-105.9383,38.7537],[-105.9388,38.763],[-105.9445,38.7681],[-105.9393,38.772],[-105.9314,38.7727],[-105.9293,38.7745],[-105.9305,38.7785],[-105.9296,38.7814],[-105.9252,38.7827],[-105.9267,38.7855],[-105.9237,38.7862],[-105.9211,38.7894],[-105.9151,38.7904],[-105.9137,38.7925],[-105.9106,38.802],[-105.9105,38.8049],[-105.9066,38.807],[-105.9107,38.8105],[-105.914,38.8161],[-105.9172,38.8175],[-105.9364,38.8366],[-105.9418,38.8404],[-105.9391,38.846],[-105.9428,38.8528],[-105.9395,38.8566],[-105.933,38.8611],[-105.9314,38.8665],[-105.9284,38.8663],[-105.9284,38.8698],[-105.9251,38.8722],[-105.9268,38.8742],[-105.9312,38.8747],[-105.933,38.8782],[-105.9412,38.8856],[-105.9491,38.8831],[-105.9556,38.8837],[-105.965,38.886],[-105.9743,38.8825],[-105.9792,38.8889],[-105.9794,38.8945],[-105.9741,38.8967],[-105.9724,38.8993],[-105.9687,38.9007],[-105.9658,38.9059],[-105.9695,38.9086],[-105.9766,38.9106],[-105.9769,38.9145],[-105.9861,38.9181],[-105.9944,38.9149],[-105.9982,38.9152],[-105.9992,38.9184],[-106.0126,38.9297],[-106.015,38.9327],[-106.0205,38.9346],[-106.0281,38.9428],[-106.0368,38.9406],[-106.0458,38.9415],[-106.0517,38.9435],[-106.0582,38.9418],[-106.0601,38.9372],[-106.0635,38.9357],[-106.0659,38.9319],[-106.0705,38.9321],[-106.074,38.9348],[-106.0786,38.9353],[-106.0853,38.9395],[-106.0907,38.9365],[-106.0935,38.938],[-106.101,38.9387],[-106.1058,38.9404],[-106.111,38.9401],[-106.1131,38.945],[-106.112,38.9509],[-106.1138,38.9553],[-106.1111,38.9577],[-106.1122,38.9602],[-106.1083,38.9635],[-106.105,38.97],[-106.1044,38.9741],[-106.1095,38.9816],[-106.109,38.9874],[-106.1168,38.9881],[-106.1275,38.994],[-106.1326,38.9955],[-106.1378,38.9946],[-106.1427,38.9954],[-106.1454,38.9979],[-106.1541,38.9962],[-106.1578,38.9943],[-106.1605,38.9948],[-106.1685,38.9912],[-106.1701,38.9946],[-106.177,39.0019],[-106.1788,39.0108],[-106.1849,39.0126],[-106.1861,39.0156],[-106.1914,39.0165],[-106.1931,39.0197],[-106.1895,39.0213],[-106.1921,39.0293],[-106.1887,39.0332],[-106.1869,39.0332],[-106.1825,39.0386],[-106.1854,39.044],[-106.1848,39.0508],[-106.1901,39.0545],[-106.1917,39.0592],[-106.1905,39.064],[-106.1916,39.068],[-106.1865,39.0716],[-106.1861,39.075],[-106.1803,39.0772],[-106.1757,39.0829],[-106.1694,39.0868],[-106.172,39.096],[-106.1786,39.1033],[-106.1879,39.1037],[-106.1904,39.1028],[-106.1958,39.1045],[-106.2034,39.1027],[-106.2102,39.1039],[-106.2035,39.1141],[-106.1995,39.1155],[-106.1915,39.1209],[-106.1883,39.1214],[-106.1858,39.1292],[-106.1823,39.1303],[-106.1784,39.1348],[-106.1738,39.1371],[-106.1748,39.1414],[-106.1735,39.1448],[-106.1755,39.1529],[-106.1753,39.1563],[-106.1794,39.165],[-106.1781,39.1689],[-106.1784,39.1746],[-106.1828,39.1804],[-106.1855,39.1866],[-106.1793,39.1935],[-106.1795,39.2],[-106.1813,39.2048],[-106.1847,39.2093],[-106.1784,39.213],[-106.1772,39.2181],[-106.1782,39.2191],[-106.1702,39.223],[-106.1699,39.2281],[-106.1683,39.2307],[-106.1695,39.2338],[-106.1729,39.2368],[-106.1828,39.2396],[-106.1851,39.2427],[-106.1811,39.2482],[-106.1816,39.257],[-106.1805,39.2611],[-106.1815,39.2654],[-106.1841,39.2689],[-106.1868,39.2799],[-106.1855,39.2858],[-106.1819,39.29],[-106.1826,39.2931],[-106.1809,39.2988],[-106.1831,39.3011],[-106.184,39.3094],[-106.1818,39.3112],[-106.1764,39.3121],[-106.1742,39.3183],[-106.1695,39.3222],[-106.1536,39.3204],[-106.1512,39.3207],[-106.1505,39.3244],[-106.1399,39.3396],[-106.1434,39.3431],[-106.1472,39.3499],[-106.1484,39.3586],[-106.1529,39.3625],[-106.1488,39.3684],[-106.1444,39.3681],[-106.1385,39.3722],[-106.1384,39.375],[-106.1355,39.3795],[-106.1314,39.3795],[-106.1203,39.3766],[-106.1148,39.3765],[-106.106,39.3779],[-106.0972,39.378],[-106.0943,39.3765],[-106.0856,39.3697],[-106.0802,39.3704],[-106.0742,39.3686],[-106.0685,39.3644],[-106.0583,39.3601],[-106.0561,39.3584],[-106.0439,39.3574],[-106.0347,39.3584],[-106.0267,39.3613],[-106.022,39.3617],[-106.0176,39.3655],[-106.0168,39.375],[-106.0184,39.3814],[-106.0139,39.3869],[-106.0084,39.3874],[-106.0033,39.3918],[-105.9959,39.395],[-105.993,39.4016],[-105.9836,39.4024],[-105.9819,39.406],[-105.9769,39.4086],[-105.9592,39.4125],[-105.9517,39.4146],[-105.9554,39.4229],[-105.9548,39.4262],[-105.9607,39.429],[-105.965,39.4334],[-105.9668,39.438],[-105.9618,39.4401],[-105.9564,39.4384],[-105.9442,39.4409],[-105.9437,39.4462],[-105.9419,39.4482],[-105.9422,39.4528],[-105.9387,39.4585],[-105.9347,39.4579],[-105.9298,39.4593],[-105.9143,39.4582],[-105.9116,39.4567],[-105.906,39.4597],[-105.9018,39.4642],[-105.9016,39.4696],[-105.8922,39.481],[-105.892,39.4842],[-105.8791,39.4838],[-105.8783,39.4896],[-105.8724,39.4948],[-105.8666,39.4944],[-105.8666,39.4967],[-105.8636,39.5023],[-105.8604,39.5047],[-105.8541,39.5045],[-105.8548,39.5064],[-105.8595,39.5092],[-105.8599,39.5121],[-105.8669,39.5167],[-105.8681,39.5195],[-105.8647,39.5221],[-105.863,39.5269],[-105.8577,39.5321],[-105.8546,39.5279],[-105.8454,39.5238],[-105.8443,39.526],[-105.8386,39.5278],[-105.83,39.532],[-105.8232,39.53],[-105.8193,39.5376],[-105.8176,39.5383],[-105.8189,39.5458],[-105.8163,39.5482],[-105.8158,39.552],[-105.8223,39.553],[-105.8258,39.5557],[-105.8297,39.5649],[-105.7235,39.5654]]]}},{"type":"Feature","properties":{"id":"08031","name":"Denver Co."},"geometry":{"type":"MultiPolygon","coordinates":[[[[-104.9317,39.7002],[-104.9317,39.6984],[-104.9341,39.6984],[-104.9317,39.7002]]],[[[-105.0346,39.7911],[-105.0346,39.7921],[-105.0253,39.7911],[-105.0251,39.794],[-105.0218,39.7945],[-105.0205,39.7911],[-104.9759,39.791],[-104.9731,39.7924],[-104.9747,39.7956],[-104.9712,39.7956],[-104.9716,39.7983],[-104.9687,39.7984],[-104.9689,39.791],[-104.9602,39.791],[-104.9554,39.7946],[-104.9405,39.7946],[-104.9399,39.791],[-104.927,39.7911],[-104.927,39.7838],[-104.9034,39.7839],[-104.9036,39.7984],[-104.8991,39.8002],[-104.8991,39.7984],[-104.8845,39.7983],[-104.8844,39.8128],[-104.8661,39.8128],[-104.866,39.7984],[-104.8291,39.7981],[-104.7909,39.7983],[-104.7909,39.8418],[-104.7623,39.8418],[-104.7623,39.8454],[-104.731,39.8452],[-104.7304,39.8961],[-104.7033,39.8959],[-104.7032,39.9069],[-104.6921,39.9069],[-104.6921,39.9142],[-104.6796,39.914],[-104.6797,39.907],[-104.6309,39.9066],[-104.6309,39.8993],[-104.5996,39.899],[-104.5998,39.8813],[-104.6052,39.8813],[-104.6053,39.8731],[-104.6192,39.8732],[-104.6198,39.8224],[-104.6554,39.8226],[-104.6554,39.813],[-104.6662,39.8131],[-104.6661,39.8228],[-104.7161,39.8232],[-104.7625,39.8234],[-104.7626,39.7984],[-104.7344,39.7984],[-104.7347,39.7692],[-104.7646,39.7692],[-104.7646,39.7716],[-104.7722,39.7715],[-104.7722,39.7764],[-104.7816,39.7765],[-104.7816,39.7728],[-104.8099,39.7728],[-104.8282,39.7724],[-104.8283,39.7692],[-104.833,39.7692],[-104.833,39.7664],[-104.8376,39.7672],[-104.8564,39.7686],[-104.8563,39.7581],[-104.8482,39.7564],[-104.8469,39.7547],[-104.8799,39.7547],[-104.8801,39.7474],[-104.8847,39.7475],[-104.8846,39.7402],[-104.8851,39.7302],[-104.8866,39.7292],[-104.8819,39.725],[-104.8753,39.7256],[-104.8753,39.7197],[-104.8706,39.7182],[-104.8706,39.7102],[-104.866,39.7111],[-104.866,39.7038],[-104.8686,39.7031],[-104.8707,39.6984],[-104.866,39.6993],[-104.866,39.6966],[-104.8948,39.6966],[-104.8991,39.6954],[-104.9035,39.6985],[-104.9001,39.693],[-104.9035,39.693],[-104.9035,39.6894],[-104.8988,39.6893],[-104.8988,39.693],[-104.8941,39.6927],[-104.8941,39.6857],[-104.8893,39.6857],[-104.8893,39.6821],[-104.894,39.6821],[-104.8945,39.6785],[-104.9034,39.6786],[-104.9034,39.6849],[-104.9052,39.6861],[-104.9046,39.6803],[-104.9081,39.6797],[-104.9036,39.6767],[-104.9035,39.6676],[-104.8943,39.6676],[-104.8902,39.6645],[-104.89,39.6676],[-104.885,39.6675],[-104.8793,39.6639],[-104.876,39.6641],[-104.8754,39.669],[-104.8775,39.6721],[-104.8753,39.6748],[-104.8709,39.6748],[-104.8661,39.6708],[-104.8663,39.6603],[-104.8564,39.6603],[-104.8487,39.6592],[-104.8486,39.6571],[-104.8559,39.6541],[-104.8682,39.6471],[-104.8756,39.645],[-104.8755,39.6515],[-104.8801,39.6531],[-104.8803,39.6413],[-104.8851,39.6389],[-104.8853,39.6241],[-104.904,39.6241],[-104.9134,39.6241],[-104.9132,39.6387],[-104.9225,39.6458],[-104.9319,39.6458],[-104.9317,39.653],[-104.955,39.653],[-104.9538,39.6567],[-104.9595,39.6567],[-104.9594,39.6615],[-104.9631,39.6604],[-104.9688,39.6604],[-104.9688,39.6658],[-104.9735,39.6659],[-104.9735,39.6677],[-105.0004,39.6677],[-105.0036,39.6666],[-105.0044,39.6605],[-105.0109,39.6605],[-105.0064,39.6677],[-105.0064,39.6768],[-105.0087,39.6786],[-105.0157,39.6787],[-105.0158,39.6605],[-105.023,39.6605],[-105.023,39.6568],[-105.0331,39.657],[-105.0322,39.6533],[-105.0346,39.6533],[-105.0347,39.6437],[-105.03,39.6422],[-105.03,39.6386],[-105.0347,39.6386],[-105.0348,39.6332],[-105.0301,39.6332],[-105.0254,39.6314],[-105.0254,39.6286],[-105.0293,39.6278],[-105.0368,39.6281],[-105.038,39.6268],[-105.0442,39.628],[-105.0441,39.6315],[-105.0534,39.6315],[-105.0533,39.6388],[-105.059,39.6388],[-105.0595,39.6354],[-105.057,39.6317],[-105.0535,39.6295],[-105.0534,39.6279],[-105.0558,39.6242],[-105.0535,39.6243],[-105.0535,39.6209],[-105.0572,39.6209],[-105.0582,39.6144],[-105.097,39.6145],[-105.097,39.6184],[-105.0651,39.6186],[-105.0661,39.6208],[-105.0761,39.6242],[-105.0802,39.6295],[-105.0817,39.6273],[-105.0856,39.6285],[-105.0856,39.6261],[-105.0912,39.6271],[-105.0913,39.6242],[-105.1075,39.6242],[-105.1075,39.6271],[-105.1099,39.6271],[-105.1099,39.6351],[-105.0911,39.6351],[-105.0911,39.6387],[-105.0817,39.6388],[-105.0816,39.6362],[-105.0733,39.6366],[-105.0733,39.6387],[-105.0768,39.6387],[-105.0745,39.6441],[-105.072,39.6458],[-105.0632,39.646],[-105.0632,39.6496],[-105.0571,39.6497],[-105.062,39.6512],[-105.0639,39.6496],[-105.0708,39.6496],[-105.0673,39.6533],[-105.0673,39.6569],[-105.0701,39.6569],[-105.072,39.66],[-105.0767,39.6593],[-105.0815,39.6621],[-105.0813,39.6701],[-105.0767,39.6691],[-105.0745,39.6703],[-105.072,39.6678],[-105.0533,39.6678],[-105.0533,39.675],[-105.0626,39.675],[-105.0626,39.6793],[-105.0578,39.6787],[-105.0578,39.6823],[-105.0532,39.6823],[-105.0532,39.7838],[-105.0627,39.7838],[-105.0627,39.7883],[-105.0644,39.7911],[-105.0532,39.7911],[-105.0346,39.7911]],[[-104.9028,39.6243],[-104.9038,39.6268],[-104.904,39.6241],[-104.9028,39.6243]],[[-105.0816,39.635],[-105.0809,39.635],[-105.0816,39.6357],[-105.0816,39.635]],[[-105.0626,39.6519],[-105.0626,39.653],[-105.0635,39.653],[-105.0626,39.6519]],[[-104.9407,39.6977],[-104.9395,39.6948],[-104.9359,39.6966],[-104.9282,39.6966],[-104.9288,39.7002],[-104.9341,39.7013],[-104.934,39.7038],[-104.927,39.7039],[-104.927,39.7067],[-104.9296,39.7064],[-104.9316,39.7111],[-104.9407,39.7111],[-104.9407,39.6977]],[[-104.9317,39.6706],[-104.9316,39.6675],[-104.9272,39.669],[-104.9297,39.6724],[-104.9339,39.6733],[-104.9317,39.6706]],[[-104.9264,39.6694],[-104.9222,39.6669],[-104.921,39.6603],[-104.9189,39.6603],[-104.913,39.6562],[-104.913,39.6631],[-104.9159,39.6635],[-104.9175,39.6676],[-104.9176,39.673],[-104.9223,39.6756],[-104.9302,39.6748],[-104.9264,39.6694]],[[-104.911,39.6799],[-104.9082,39.6803],[-104.911,39.6821],[-104.911,39.6799]],[[-104.8988,39.6834],[-104.8988,39.6857],[-104.9027,39.6857],[-104.8988,39.6834]]]]}},{"type":"Feature","properties":{"id":"08001","name":"Adams Co."},"geometry":{"type":"Polygon","coordinates":[[[-105.0343,39.9142],[-105.0344,39.9214],[-105.0249,39.9213],[-105.0215,39.9192],[-105.0215,39.9214],[-105.0155,39.9213],[-105.0157,39.9431],[-104.997,39.9432],[-104.9971,39.9468],[-105.0063,39.9468],[-105.0063,39.9504],[-105.0125,39.9503],[-105.0168,39.9531],[-105.0156,39.9552],[-105.0158,39.9812],[-104.9974,39.9812],[-104.9971,39.9685],[-104.9882,39.9685],[-104.9881,39.9722],[-104.9971,39.9721],[-104.9944,39.9758],[-104.9878,39.9757],[-104.9876,39.9871],[-104.9809,40.0003],[-104.9614,40.0003],[-104.9222,40.0003],[-104.6046,40.0006],[-104.6019,40.0005],[-104.4898,40.0006],[-104.4146,40.0007],[-104.3211,40.0007],[-104.1503,40.0009],[-104.0669,40.001],[-103.9809,40.0011],[-103.7057,40.0014],[-103.7058,40.0],[-103.7065,39.769],[-103.7065,39.7399],[-103.9723,39.7404],[-103.9776,39.7403],[-104.0962,39.7398],[-104.2095,39.739],[-104.298,39.7387],[-104.3402,39.7382],[-104.3946,39.738],[-104.5074,39.7383],[-104.5825,39.7396],[-104.6246,39.7401],[-104.6324,39.7395],[-104.6528,39.7398],[-104.66,39.7405],[-104.6783,39.74],[-104.7256,39.7403],[-104.8433,39.7403],[-104.8846,39.7402],[-104.8847,39.7475],[-104.8801,39.7474],[-104.8799,39.7547],[-104.8469,39.7547],[-104.8482,39.7564],[-104.8563,39.7581],[-104.8564,39.7686],[-104.8376,39.7672],[-104.833,39.7664],[-104.833,39.7692],[-104.8283,39.7692],[-104.8282,39.7724],[-104.8099,39.7728],[-104.7816,39.7728],[-104.7816,39.7765],[-104.7722,39.7764],[-104.7722,39.7715],[-104.7646,39.7716],[-104.7646,39.7692],[-104.7347,39.7692],[-104.7344,39.7984],[-104.7626,39.7984],[-104.7625,39.8234],[-104.7161,39.8232],[-104.6661,39.8228],[-104.6662,39.8131],[-104.6554,39.813],[-104.6554,39.8226],[-104.6198,39.8224],[-104.6192,39.8732],[-104.6053,39.8731],[-104.6052,39.8813],[-104.5998,39.8813],[-104.5996,39.899],[-104.6309,39.8993],[-104.6309,39.9066],[-104.6797,39.907],[-104.6796,39.914],[-104.6921,39.9142],[-104.6921,39.9069],[-104.7032,39.9069],[-104.7033,39.8959],[-104.7304,39.8961],[-104.731,39.8452],[-104.7623,39.8454],[-104.7623,39.8418],[-104.7909,39.8418],[-104.7909,39.7983],[-104.8291,39.7981],[-104.866,39.7984],[-104.8661,39.8128],[-104.8844,39.8128],[-104.8845,39.7983],[-104.8991,39.7984],[-104.8991,39.8002],[-104.9036,39.7984],[-104.9034,39.7839],[-104.927,39.7838],[-104.927,39.7911],[-104.9399,39.791],[-104.9405,39.7946],[-104.9554,39.7946],[-104.9602,39.791],[-104.9689,39.791],[-104.9687,39.7984],[-104.9716,39.7983],[-104.9712,39.7956],[-104.9747,39.7956],[-104.9731,39.7924],[-104.9759,39.791],[-105.0205,39.7911],[-105.0218,39.7945],[-105.0251,39.794],[-105.0253,39.7911],[-105.0346,39.7921],[-105.0346,39.7911],[-105.0532,39.7911],[-105.0532,39.8496],[-105.0533,39.856],[-105.0529,39.9142],[-105.0343,39.9142]]]}},{"type":"Feature","properties":{"id":"08014","name":"Broomfield Co."},"geometry":{"type":"MultiPolygon","coordinates":[[[[-105.1,39.959],[-105.1,39.9579],[-105.1092,39.9566],[-105.1074,39.958],[-105.1,39.959]]],[[[-105.147,39.9289],[-105.1376,39.9289],[-105.1376,39.9397],[-105.1282,39.9396],[-105.128,39.9542],[-105.1219,39.9542],[-105.1213,39.9524],[-105.1144,39.9555],[-105.1095,39.9565],[-105.1208,39.9513],[-105.1205,39.9505],[-105.1093,39.9506],[-105.1094,39.9433],[-105.1186,39.9432],[-105.1187,39.933],[-105.1119,39.9281],[-105.1134,39.9319],[-105.1092,39.9361],[-105.0909,39.9361],[-105.0911,39.9433],[-105.0766,39.9433],[-105.0766,39.9505],[-105.0719,39.9502],[-105.072,39.9577],[-105.0886,39.958],[-105.088,39.9598],[-105.08,39.9615],[-105.0766,39.9636],[-105.0681,39.9709],[-105.0528,39.9777],[-105.0528,40.0003],[-105.0462,40.0005],[-105.0079,40.0005],[-105.008,40.0076],[-104.9896,40.0077],[-104.9896,40.0149],[-104.9991,40.0149],[-104.9962,40.0194],[-104.9967,40.0235],[-104.999,40.0258],[-104.9865,40.0258],[-104.9865,40.0293],[-104.98,40.0294],[-104.98,40.0403],[-104.9792,40.0438],[-104.9612,40.0441],[-104.9614,40.0003],[-104.9809,40.0003],[-104.9876,39.9871],[-104.9878,39.9757],[-104.9944,39.9758],[-104.9971,39.9721],[-104.9881,39.9722],[-104.9882,39.9685],[-104.9971,39.9685],[-104.9974,39.9812],[-105.0158,39.9812],[-105.0156,39.9552],[-105.0168,39.9531],[-105.0125,39.9503],[-105.0063,39.9504],[-105.0063,39.9468],[-104.9971,39.9468],[-104.997,39.9432],[-105.0157,39.9431],[-105.0155,39.9213],[-105.0215,39.9214],[-105.0215,39.9192],[-105.0249,39.9213],[-105.0344,39.9214],[-105.0343,39.9142],[-105.0529,39.9142],[-105.0553,39.9124],[-105.06,39.9125],[-105.0624,39.914],[-105.0624,39.907],[-105.0718,39.907],[-105.0717,39.8998],[-105.0842,39.8998],[-105.0906,39.8989],[-105.0967,39.8998],[-105.1001,39.9022],[-105.1006,39.9086],[-105.107,39.9117],[-105.1086,39.9141],[-105.1471,39.9139],[-105.147,39.9289]],[[-105.0529,39.9578],[-105.0528,39.9659],[-105.0577,39.9686],[-105.0577,39.9747],[-105.0651,39.9716],[-105.0698,39.9685],[-105.0768,39.9623],[-105.0826,39.9593],[-105.08,39.9579],[-105.0529,39.9578]],[[-104.9731,40.0295],[-104.973,40.033],[-104.9799,40.0331],[-104.9799,40.0295],[-104.9731,40.0295]]],[[[-105.1474,39.9001],[-105.1287,39.9],[-105.1289,39.8904],[-105.1309,39.8927],[-105.1363,39.892],[-105.1349,39.8893],[-105.1474,39.8893],[-105.1644,39.8914],[-105.1656,39.891],[-105.1657,39.9105],[-105.1471,39.9139],[-105.1474,39.9001]]]]}},{"type":"Feature","properties":{"id":"08039","name":"Elbert Co."},"geometry":{"type":"Polygon","coordinates":[[[-104.6048,39.5659],[-104.5317,39.5647],[-104.4574,39.564],[-104.4275,39.5636],[-104.3619,39.5643],[-104.1938,39.5652],[-104.1743,39.5653],[-104.0144,39.566],[-103.9786,39.5664],[-103.7144,39.5663],[-103.715,39.4337],[-103.7153,39.375],[-103.7148,39.3739],[-103.7151,39.3099],[-103.7155,39.3023],[-103.7149,39.2804],[-103.7149,39.179],[-103.7151,39.1781],[-103.7153,39.1282],[-103.7212,39.1283],[-103.7208,39.0987],[-103.7219,39.0846],[-103.7209,39.0401],[-103.721,39.009],[-103.7215,38.9973],[-103.7201,38.9032],[-103.7194,38.875],[-103.7197,38.8668],[-103.8329,38.8669],[-103.8628,38.8671],[-103.9814,38.8688],[-104.0555,38.8689],[-104.0531,38.954],[-104.0533,38.9844],[-104.0516,39.1281],[-104.125,39.1289],[-104.1255,39.1287],[-104.167,39.1285],[-104.3482,39.1289],[-104.4612,39.1295],[-104.4668,39.1297],[-104.5518,39.1294],[-104.6625,39.1295],[-104.6629,39.2167],[-104.6628,39.2894],[-104.6626,39.362],[-104.6622,39.4085],[-104.6602,39.5659],[-104.6048,39.5659]]]}},{"type":"Feature","properties":{"id":"08047","name":"Gilpin Co."},"geometry":{"type":"Polygon","coordinates":[[[-105.3976,39.8832],[-105.3979,39.8604],[-105.3974,39.8537],[-105.3979,39.8409],[-105.3979,39.746],[-105.4066,39.7515],[-105.4102,39.7499],[-105.4154,39.7495],[-105.4214,39.7459],[-105.4233,39.7504],[-105.4226,39.7552],[-105.4279,39.7558],[-105.4297,39.7547],[-105.4413,39.7557],[-105.4503,39.753],[-105.4547,39.7559],[-105.4668,39.7564],[-105.4788,39.7591],[-105.4842,39.7594],[-105.493,39.757],[-105.4971,39.7579],[-105.4949,39.7641],[-105.5001,39.7631],[-105.5065,39.7635],[-105.5115,39.766],[-105.5177,39.7649],[-105.5262,39.7688],[-105.53,39.7691],[-105.5395,39.7723],[-105.5434,39.7745],[-105.5444,39.7778],[-105.5482,39.7818],[-105.5476,39.7859],[-105.5455,39.7869],[-105.5541,39.7919],[-105.5557,39.7944],[-105.5605,39.7951],[-105.5642,39.7997],[-105.5703,39.8005],[-105.5726,39.8031],[-105.5785,39.8054],[-105.5784,39.8124],[-105.5798,39.8128],[-105.5746,39.8166],[-105.5744,39.8189],[-105.5779,39.8225],[-105.5834,39.8221],[-105.5956,39.8161],[-105.5979,39.8184],[-105.6026,39.8181],[-105.6058,39.8226],[-105.6119,39.8246],[-105.6136,39.823],[-105.6162,39.8254],[-105.6255,39.8314],[-105.6289,39.8327],[-105.6313,39.8373],[-105.6309,39.8393],[-105.6333,39.8437],[-105.6439,39.8461],[-105.6497,39.8465],[-105.6519,39.8483],[-105.6598,39.8504],[-105.6678,39.8475],[-105.6762,39.8492],[-105.6811,39.8473],[-105.6903,39.852],[-105.6961,39.8615],[-105.6978,39.868],[-105.6969,39.8717],[-105.6992,39.8741],[-105.7008,39.8789],[-105.6984,39.881],[-105.6978,39.8845],[-105.6994,39.8859],[-105.6997,39.8915],[-105.6979,39.894],[-105.6912,39.8972],[-105.6903,39.9019],[-105.6872,39.9042],[-105.6885,39.9071],[-105.6879,39.9117],[-105.6857,39.9158],[-105.683,39.9173],[-105.6823,39.9219],[-105.6779,39.9307],[-105.6758,39.9324],[-105.6288,39.9321],[-105.6257,39.9324],[-105.5012,39.9324],[-105.4557,39.9323],[-105.448,39.9365],[-105.44,39.9384],[-105.4293,39.9312],[-105.4221,39.9316],[-105.4191,39.9288],[-105.414,39.9344],[-105.4115,39.9327],[-105.406,39.9317],[-105.4008,39.935],[-105.398,39.9349],[-105.3978,39.9129],[-105.3976,39.8832]]]}}]}