{"type":"FeatureCollection","features":[{"type":"Feature","properties":{"id":"13073","name":"Columbia Co., GA"},"geometry":{"type":"Polygon","coordinates":[[[-82.4231,33.6561],[-82.421,33.6574],[-82.4166,33.6545],[-82.4135,33.6546],[-82.4115,33.6607],[-82.4129,33.665],[-82.4111,33.6669],[-82.4075,33.665],[-82.4054,33.6661],[-82.4046,33.6702],[-82.4003,33.6712],[-82.3987,33.6672],[-82.395,33.6642],[-82.3921,33.6661],[-82.3946,33.6715],[-82.3923,33.6727],[-82.3879,33.6713],[-82.3812,33.6722],[-82.3793,33.6765],[-82.3727,33.6754],[-82.3728,33.6821],[-82.368,33.6821],[-82.3655,33.6761],[-82.3607,33.6755],[-82.3594,33.6774],[-82.3618,33.6823],[-82.3583,33.6846],[-82.3539,33.6815],[-82.3515,33.6829],[-82.3527,33.6904],[-82.3549,33.6941],[-82.3526,33.6956],[-82.3465,33.6918],[-82.3435,33.6881],[-82.3404,33.6889],[-82.3386,33.693],[-82.3318,33.6931],[-82.329,33.6977],[-82.3201,33.6985],[-82.3118,33.6981],[-82.3082,33.7004],[-82.3023,33.6992],[-82.2984,33.6941],[-82.2898,33.6918],[-82.2866,33.6922],[-82.2827,33.6889],[-82.2783,33.6874],[-82.2761,33.6845],[-82.2712,33.6824],[-82.2688,33.6827],[-82.2672,33.6863],[-82.2633,33.6876],[-82.2614,33.6865],[-82.2515,33.6889],[-82.2459,33.6894],[-82.2429,33.6933],[-82.2407,33.6933],[-82.2313,33.6886],[-82.2283,33.686],[-82.2186,33.6863],[-82.2132,33.6772],[-82.2098,33.6693],[-82.1998,33.6618],[-82.1997,33.6576],[-82.2012,33.6469],[-82.1966,33.6306],[-82.1799,33.6159],[-82.1762,33.6138],[-82.1583,33.6097],[-82.1534,33.6063],[-82.1488,33.5981],[-82.1429,33.5943],[-82.1335,33.5905],[-82.1259,33.5907],[-82.1204,33.5949],[-82.1153,33.5966],[-82.1062,33.5956],[-82.0988,33.5864],[-82.0941,33.5827],[-82.0875,33.5806],[-82.0731,33.5775],[-82.069,33.5754],[-82.0577,33.5668],[-82.0549,33.5654],[-82.0463,33.5638],[-82.0374,33.5547],[-82.033,33.5465],[-82.0282,33.5449],[-82.0488,33.5306],[-82.0537,33.5277],[-82.063,33.5207],[-82.0707,33.5161],[-82.098,33.496],[-82.1285,33.4741],[-82.1793,33.4384],[-82.2212,33.4077],[-82.2499,33.3864],[-82.2656,33.3749],[-82.2942,33.3546],[-82.3018,33.3613],[-82.3096,33.3656],[-82.3124,33.375],[-82.3176,33.3772],[-82.323,33.3812],[-82.3238,33.3869],[-82.3291,33.3922],[-82.3312,33.3984],[-82.3392,33.4022],[-82.3405,33.4057],[-82.3349,33.4165],[-82.3386,33.4224],[-82.3462,33.4265],[-82.3512,33.4339],[-82.3582,33.4421],[-82.3642,33.4507],[-82.3711,33.453],[-82.3753,33.456],[-82.3782,33.4603],[-82.3848,33.4673],[-82.3824,33.4704],[-82.3832,33.4777],[-82.3991,33.4925],[-82.3982,33.5001],[-82.4013,33.5087],[-82.4005,33.511],[-82.4024,33.5165],[-82.398,33.5184],[-82.3936,33.5239],[-82.3849,33.53],[-82.4368,33.5497],[-82.4372,33.5521],[-82.4345,33.5604],[-82.4347,33.5654],[-82.4328,33.5689],[-82.4228,33.5761],[-82.4132,33.5921],[-82.4127,33.5976],[-82.4182,33.5974],[-82.4214,33.5988],[-82.4291,33.6065],[-82.4335,33.6089],[-82.4301,33.6145],[-82.4374,33.6282],[-82.4427,33.6307],[-82.4404,33.6356],[-82.4417,33.6383],[-82.438,33.6415],[-82.435,33.6415],[-82.425,33.6473],[-82.4253,33.6506],[-82.4231,33.6561]]]}},{"type":"Feature","properties":{"id":"45003","name":"Aiken Co., SC"},"geometry":{"type":"Polygon","coordinates":[[[-81.9405,33.5882],[-81.8916,33.6265],[-81.6518,33.8145],[-81.5715,33.8773],[-81.5691,33.8718],[-81.5615,33.863],[-81.5469,33.8587],[-81.5409,33.8519],[-81.5423,33.8484],[-81.5387,33.8445],[-81.5383,33.8415],[-81.5344,33.8375],[-81.5335,33.8321],[-81.5271,33.8298],[-81.5203,33.824],[-81.5182,33.8178],[-81.5139,33.8161],[-81.512,33.8128],[-81.5055,33.8115],[-81.5027,33.808],[-81.4929,33.8095],[-81.4901,33.8047],[-81.4867,33.8046],[-81.4834,33.8019],[-81.4789,33.8023],[-81.4747,33.7984],[-81.4712,33.7995],[-81.4641,33.7972],[-81.4606,33.7972],[-81.4531,33.791],[-81.4423,33.779],[-81.4357,33.7752],[-81.4317,33.769],[-81.4323,33.7621],[-81.4316,33.7576],[-81.4285,33.7535],[-81.4256,33.7467],[-81.427,33.7448],[-81.418,33.7345],[-81.4153,33.7322],[-81.4108,33.731],[-81.4036,33.7323],[-81.3932,33.7269],[-81.3855,33.7269],[-81.3791,33.7251],[-81.3741,33.7253],[-81.3667,33.7285],[-81.3574,33.7229],[-81.3544,33.7229],[-81.3496,33.7205],[-81.3443,33.7211],[-81.3328,33.7158],[-81.328,33.7152],[-81.3229,33.7113],[-81.3115,33.7087],[-81.3065,33.7042],[-81.3027,33.7038],[-81.2986,33.6989],[-81.2926,33.6967],[-81.2904,33.6941],[-81.2859,33.6931],[-81.2793,33.6941],[-81.2749,33.6962],[-81.2697,33.6931],[-81.2692,33.6902],[-81.2655,33.6871],[-81.2569,33.6848],[-81.2517,33.6816],[-81.244,33.6795],[-81.2379,33.6751],[-81.2334,33.6736],[-81.2309,33.6701],[-81.2216,33.6681],[-81.2176,33.6641],[-81.2127,33.6618],[-81.2121,33.6631],[-81.2074,33.6589],[-81.1996,33.6592],[-81.1897,33.6554],[-81.1873,33.6529],[-81.2859,33.5656],[-81.3234,33.5326],[-81.3413,33.517],[-81.3735,33.4905],[-81.3748,33.4897],[-81.463,33.4221],[-81.5163,33.3823],[-81.7519,33.2016],[-81.7571,33.1981],[-81.7582,33.2002],[-81.7635,33.2036],[-81.7679,33.2163],[-81.774,33.2211],[-81.7777,33.2218],[-81.781,33.2198],[-81.7776,33.2153],[-81.7789,33.2098],[-81.7845,33.2081],[-81.7902,33.2084],[-81.7982,33.2116],[-81.8039,33.2113],[-81.8079,33.2137],[-81.8081,33.2194],[-81.8117,33.2238],[-81.8196,33.2266],[-81.8279,33.2287],[-81.8317,33.2335],[-81.8379,33.2383],[-81.8465,33.2417],[-81.8517,33.2477],[-81.8526,33.2514],[-81.8498,33.2529],[-81.8451,33.2525],[-81.84,33.2546],[-81.8415,33.2572],[-81.8463,33.2584],[-81.8481,33.2645],[-81.8439,33.2666],[-81.8427,33.2645],[-81.8385,33.2629],[-81.8344,33.2584],[-81.8288,33.262],[-81.8305,33.2644],[-81.8334,33.2623],[-81.836,33.2635],[-81.8355,33.2714],[-81.8327,33.2743],[-81.8335,33.2761],[-81.8391,33.2739],[-81.8441,33.2788],[-81.8462,33.2843],[-81.8516,33.2835],[-81.8607,33.2858],[-81.8633,33.2892],[-81.8616,33.2937],[-81.862,33.2969],[-81.86,33.2991],[-81.8525,33.2993],[-81.8503,33.2964],[-81.8496,33.2995],[-81.846,33.3043],[-81.8476,33.3071],[-81.8537,33.3103],[-81.8561,33.3099],[-81.8621,33.3025],[-81.8646,33.3033],[-81.864,33.3078],[-81.8665,33.3137],[-81.8692,33.3138],[-81.8758,33.3074],[-81.8794,33.3023],[-81.8846,33.3092],[-81.8815,33.314],[-81.8825,33.317],[-81.8852,33.3174],[-81.8905,33.3148],[-81.8927,33.3167],[-81.8892,33.3211],[-81.891,33.3225],[-81.8955,33.3216],[-81.8986,33.3229],[-81.8993,33.3254],[-81.8969,33.3276],[-81.8969,33.3305],[-81.902,33.3359],[-81.9036,33.3348],[-81.9026,33.3303],[-81.906,33.326],[-81.9061,33.3216],[-81.9121,33.3191],[-81.9129,33.3217],[-81.9091,33.3239],[-81.9081,33.3271],[-81.9188,33.3334],[-81.9189,33.335],[-81.9142,33.3418],[-81.9101,33.3423],[-81.9089,33.3463],[-81.913,33.3469],[-81.9149,33.3437],[-81.9193,33.3403],[-81.9235,33.3449],[-81.9268,33.3453],[-81.9327,33.3435],[-81.9397,33.3449],[-81.9398,33.3477],[-81.9348,33.3538],[-81.9353,33.3568],[-81.9447,33.364],[-81.9467,33.3673],[-81.9463,33.3706],[-81.9396,33.3725],[-81.9346,33.3689],[-81.9306,33.3682],[-81.9257,33.3711],[-81.9248,33.3741],[-81.9309,33.3801],[-81.9351,33.3972],[-81.9445,33.4037],[-81.9456,33.4058],[-81.9431,33.409],[-81.9348,33.4068],[-81.9295,33.4078],[-81.9248,33.4124],[-81.9239,33.4105],[-81.9177,33.4072],[-81.9124,33.4081],[-81.9096,33.4126],[-81.9108,33.415],[-81.9211,33.4174],[-81.9249,33.4193],[-81.9317,33.4245],[-81.9308,33.429],[-81.9207,33.431],[-81.917,33.4326],[-81.9131,33.4383],[-81.9148,33.4435],[-81.9194,33.4491],[-81.9263,33.4629],[-81.9341,33.4683],[-81.9464,33.4717],[-81.967,33.4806],[-81.9806,33.484],[-81.9859,33.4865],[-81.9893,33.49],[-81.9909,33.4942],[-81.9904,33.5008],[-81.9919,33.5044],[-82.0013,33.5201],[-82.0076,33.5233],[-82.01,33.5304],[-82.0125,33.5321],[-81.9405,33.5882]]]}},{"type":"Feature","properties":{"id":"13189","name":"McDuffie Co., GA"},"geometry":{"type":"Polygon","coordinates":[[[-82.4773,33.6442],[-82.4744,33.6432],[-82.4699,33.6386],[-82.4665,33.6383],[-82.4627,33.6399],[-82.4593,33.637],[-82.4568,33.6429],[-82.4512,33.6451],[-82.4517,33.6496],[-82.4481,33.6514],[-82.4432,33.65],[-82.4401,33.653],[-82.436,33.652],[-82.4339,33.6552],[-82.4309,33.6551],[-82.4283,33.6507],[-82.4253,33.6506],[-82.425,33.6473],[-82.435,33.6415],[-82.438,33.6415],[-82.4417,33.6383],[-82.4404,33.6356],[-82.4427,33.6307],[-82.4374,33.6282],[-82.4301,33.6145],[-82.4335,33.6089],[-82.4291,33.6065],[-82.4214,33.5988],[-82.4182,33.5974],[-82.4127,33.5976],[-82.4132,33.5921],[-82.4228,33.5761],[-82.4328,33.5689],[-82.4347,33.5654],[-82.4345,33.5604],[-82.4372,33.5521],[-82.4368,33.5497],[-82.3849,33.53],[-82.3936,33.5239],[-82.398,33.5184],[-82.4024,33.5165],[-82.4005,33.511],[-82.4013,33.5087],[-82.3982,33.5001],[-82.3991,33.4925],[-82.3832,33.4777],[-82.3824,33.4704],[-82.3848,33.4673],[-82.3782,33.4603],[-82.3753,33.456],[-82.3711,33.453],[-82.3642,33.4507],[-82.3582,33.4421],[-82.3512,33.4339],[-82.3462,33.4265],[-82.3386,33.4224],[-82.3349,33.4165],[-82.3405,33.4057],[-82.3392,33.4022],[-82.3312,33.3984],[-82.3291,33.3922],[-82.3238,33.3869],[-82.323,33.3812],[-82.3176,33.3772],[-82.3124,33.375],[-82.3096,33.3656],[-82.3018,33.3613],[-82.2942,33.3546],[-82.3503,33.3148],[-82.3535,33.3123],[-82.3576,33.3127],[-82.372,33.3109],[-82.3882,33.3121],[-82.3981,33.3138],[-82.403,33.3181],[-82.408,33.3182],[-82.4109,33.3198],[-82.4121,33.3243],[-82.4173,33.3274],[-82.4174,33.3323],[-82.4248,33.3301],[-82.4321,33.3338],[-82.4349,33.3328],[-82.4369,33.3364],[-82.4479,33.3372],[-82.45,33.3405],[-82.4585,33.3401],[-82.4608,33.3412],[-82.4656,33.3402],[-82.4682,33.3417],[-82.4739,33.3395],[-82.4789,33.3402],[-82.4873,33.3399],[-82.4922,33.338],[-82.4985,33.3377],[-82.5008,33.3426],[-82.5071,33.343],[-82.5107,33.342],[-82.5139,33.3439],[-82.5187,33.349],[-82.5253,33.3508],[-82.5264,33.3536],[-82.5358,33.3575],[-82.5453,33.3517],[-82.5481,33.3528],[-82.5494,33.3577],[-82.5443,33.3747],[-82.5536,33.4158],[-82.5846,33.4497],[-82.6039,33.4966],[-82.6074,33.5059],[-82.6244,33.5479],[-82.6389,33.5823],[-82.6409,33.5902],[-82.6447,33.5969],[-82.6497,33.6088],[-82.6437,33.6068],[-82.6422,33.6099],[-82.6453,33.6163],[-82.6435,33.6181],[-82.6381,33.6151],[-82.6335,33.6111],[-82.6267,33.6113],[-82.6232,33.6133],[-82.6171,33.6121],[-82.6183,33.6149],[-82.6237,33.6194],[-82.6239,33.6217],[-82.6205,33.6248],[-82.6175,33.6245],[-82.6149,33.6275],[-82.6183,33.631],[-82.6136,33.634],[-82.6116,33.6336],[-82.6101,33.6272],[-82.606,33.6267],[-82.6083,33.6335],[-82.6054,33.6352],[-82.6008,33.6343],[-82.5955,33.6377],[-82.5927,33.6364],[-82.5898,33.6379],[-82.5895,33.6415],[-82.5867,33.6405],[-82.5859,33.6352],[-82.5811,33.6326],[-82.577,33.6364],[-82.5778,33.6382],[-82.5825,33.6381],[-82.5846,33.6418],[-82.5836,33.6505],[-82.5814,33.6519],[-82.58,33.6477],[-82.5765,33.6421],[-82.5735,33.6395],[-82.5705,33.6394],[-82.5684,33.6442],[-82.5699,33.6456],[-82.5656,33.6459],[-82.5608,33.6429],[-82.5585,33.6354],[-82.5557,33.6396],[-82.5557,33.6427],[-82.5443,33.6386],[-82.5383,33.6414],[-82.5372,33.6492],[-82.5252,33.6447],[-82.5191,33.647],[-82.519,33.6521],[-82.5117,33.6592],[-82.505,33.6591],[-82.5051,33.6553],[-82.507,33.6538],[-82.5047,33.6511],[-82.5002,33.6546],[-82.4964,33.6518],[-82.4898,33.6496],[-82.4868,33.6475],[-82.4866,33.6425],[-82.4807,33.639],[-82.4795,33.6395],[-82.4773,33.6442]]]}},{"type":"Feature","properties":{"id":"13181","name":"Lincoln Co., GA"},"geometry":{"type":"Polygon","coordinates":[[[-82.2283,33.686],[-82.2313,33.6886],[-82.2407,33.6933],[-82.2429,33.6933],[-82.2459,33.6894],[-82.2515,33.6889],[-82.2614,33.6865],[-82.2633,33.6876],[-82.2672,33.6863],[-82.2688,33.6827],[-82.2712,33.6824],[-82.2761,33.6845],[-82.2783,33.6874],[-82.2827,33.6889],[-82.2866,33.6922],[-82.2898,33.6918],[-82.2984,33.6941],[-82.3023,33.6992],[-82.3082,33.7004],[-82.3118,33.6981],[-82.3201,33.6985],[-82.329,33.6977],[-82.3318,33.6931],[-82.3386,33.693],[-82.3404,33.6889],[-82.3435,33.6881],[-82.3465,33.6918],[-82.3526,33.6956],[-82.3549,33.6941],[-82.3527,33.6904],[-82.3515,33.6829],[-82.3539,33.6815],[-82.3583,33.6846],[-82.3618,33.6823],[-82.3594,33.6774],[-82.3607,33.6755],[-82.3655,33.6761],[-82.368,33.6821],[-82.3728,33.6821],[-82.3727,33.6754],[-82.3793,33.6765],[-82.3812,33.6722],[-82.3879,33.6713],[-82.3923,33.6727],[-82.3946,33.6715],[-82.3921,33.6661],[-82.395,33.6642],[-82.3987,33.6672],[-82.4003,33.6712],[-82.4046,33.6702],[-82.4054,33.6661],[-82.4075,33.665],[-82.4111,33.6669],[-82.4129,33.665],[-82.4115,33.6607],[-82.4135,33.6546],[-82.4166,33.6545],[-82.421,33.6574],[-82.4231,33.6561],[-82.4253,33.6506],[-82.4283,33.6507],[-82.4309,33.6551],[-82.4339,33.6552],[-82.436,33.652],[-82.4401,33.653],[-82.4432,33.65],[-82.4481,33.6514],[-82.4517,33.6496],[-82.4512,33.6451],[-82.4568,33.6429],[-82.4593,33.637],[-82.4627,33.6399],[-82.4665,33.6383],[-82.4699,33.6386],[-82.4744,33.6432],[-82.4773,33.6442],[-82.4795,33.6395],[-82.4902,33.6561],[-82.4999,33.6718],[-82.5081,33.6841],[-82.5443,33.7407],[-82.5737,33.7861],[-82.5935,33.8273],[-82.5951,33.8311],[-82.5937,33.8336],[-82.5836,33.8391],[-82.5833,33.8433],[-82.5848,33.8462],[-82.5783,33.849],[-82.578,33.853],[-82.5731,33.8557],[-82.5742,33.8598],[-82.5719,33.8655],[-82.5763,33.8684],[-82.5756,33.87],[-82.5777,33.8747],[-82.5862,33.8718],[-82.587,33.8695],[-82.594,33.8674],[-82.5996,33.8623],[-82.6057,33.8599],[-82.6119,33.8767],[-82.6296,33.9323],[-82.6393,33.9639],[-82.6428,33.973],[-82.6455,33.9842],[-82.6414,33.9828],[-82.6399,33.9799],[-82.6407,33.9745],[-82.6389,33.9728],[-82.6334,33.9746],[-82.6306,33.9803],[-82.625,33.9823],[-82.6143,33.9805],[-82.6105,33.9816],[-82.6017,33.9791],[-82.6004,33.9765],[-82.5907,33.9712],[-82.5881,33.9686],[-82.5781,33.9659],[-82.5738,33.9593],[-82.5645,33.9557],[-82.5568,33.9454],[-82.5545,33.9438],[-82.5431,33.9409],[-82.5341,33.9437],[-82.5245,33.9434],[-82.5129,33.937],[-82.5036,33.926],[-82.4961,33.9135],[-82.4929,33.9098],[-82.4801,33.9019],[-82.4699,33.8928],[-82.4594,33.8864],[-82.4551,33.8817],[-82.4481,33.8775],[-82.4405,33.8751],[-82.4292,33.8658],[-82.4206,33.8638],[-82.4084,33.8663],[-82.4022,33.8647],[-82.3957,33.8591],[-82.385,33.8544],[-82.3798,33.8511],[-82.3733,33.8448],[-82.3688,33.8423],[-82.3512,33.8361],[-82.3462,33.8338],[-82.3378,33.8272],[-82.3245,33.82],[-82.3219,33.8168],[-82.3143,33.8111],[-82.3124,33.8072],[-82.3035,33.8033],[-82.2993,33.7989],[-82.299,33.7845],[-82.295,33.7819],[-82.2887,33.7816],[-82.2841,33.7788],[-82.2777,33.772],[-82.2704,33.7679],[-82.265,33.7657],[-82.264,33.7628],[-82.26,33.7604],[-82.2556,33.7599],[-82.2475,33.7526],[-82.2454,33.7429],[-82.2432,33.7401],[-82.2391,33.7309],[-82.2388,33.7252],[-82.2358,33.7144],[-82.2372,33.7079],[-82.2346,33.7002],[-82.2257,33.6914],[-82.2186,33.6863],[-82.2283,33.686]]]}},{"type":"Feature","properties":{"id":"13245","name":"Richmond Co., GA"},"geometry":{"type":"Polygon","coordinates":[[[-82.2656,33.3749],[-82.2499,33.3864],[-82.2212,33.4077],[-82.1793,33.4384],[-82.1285,33.4741],[-82.098,33.496],[-82.0707,33.5161],[-82.063,33.5207],[-82.0537,33.5277],[-82.0488,33.5306],[-82.0282,33.5449],[-82.0234,33.5407],[-82.0234,33.5379],[-82.0198,33.535],[-82.0125,33.5321],[-82.01,33.5304],[-82.0076,33.5233],[-82.0013,33.5201],[-81.9919,33.5044],[-81.9904,33.5008],[-81.9909,33.4942],[-81.9893,33.49],[-81.9859,33.4865],[-81.9806,33.484],[-81.967,33.4806],[-81.9464,33.4717],[-81.9341,33.4683],[-81.9263,33.4629],[-81.9194,33.4491],[-81.9148,33.4435],[-81.9131,33.4383],[-81.917,33.4326],[-81.9207,33.431],[-81.9308,33.429],[-81.9317,33.4245],[-81.9249,33.4193],[-81.9211,33.4174],[-81.9108,33.415],[-81.9096,33.4126],[-81.9124,33.4081],[-81.9177,33.4072],[-81.9239,33.4105],[-81.9248,33.4124],[-81.9295,33.4078],[-81.9348,33.4068],[-81.9431,33.409],[-81.9456,33.4058],[-81.9445,33.4037],[-81.9351,33.3972],[-81.9309,33.3801],[-81.9248,33.3741],[-81.9257,33.3711],[-81.9306,33.3682],[-81.9346,33.3689],[-81.9396,33.3725],[-81.9463,33.3706],[-81.9467,33.3673],[-81.9447,33.364],[-81.9353,33.3568],[-81.9348,33.3538],[-81.9398,33.3477],[-81.9397,33.3449],[-81.9327,33.3435],[-81.9268,33.3453],[-81.9235,33.3449],[-81.9193,33.3403],[-81.9149,33.3437],[-81.913,33.3469],[-81.9089,33.3463],[-81.9101,33.3423],[-81.9142,33.3418],[-81.9189,33.335],[-81.9188,33.3334],[-81.9081,33.3271],[-81.9091,33.3239],[-81.9129,33.3217],[-81.9121,33.3191],[-81.9061,33.3216],[-81.906,33.326],[-81.9026,33.3303],[-81.9036,33.3348],[-81.902,33.3359],[-81.8969,33.3305],[-81.8969,33.3276],[-81.8993,33.3254],[-81.8986,33.3229],[-81.8955,33.3216],[-81.891,33.3225],[-81.8892,33.3211],[-81.8927,33.3167],[-81.8905,33.3148],[-81.8852,33.3174],[-81.8825,33.317],[-81.8815,33.314],[-81.8846,33.3092],[-81.8794,33.3023],[-81.8758,33.3074],[-81.8692,33.3138],[-81.8665,33.3137],[-81.864,33.3078],[-81.8646,33.3033],[-81.8621,33.3025],[-81.8561,33.3099],[-81.8537,33.3103],[-81.8476,33.3071],[-81.846,33.3043],[-81.8496,33.2995],[-81.8503,33.2964],[-81.8525,33.2993],[-81.86,33.2991],[-81.862,33.2969],[-81.8616,33.2937],[-81.8633,33.2892],[-81.8607,33.2858],[-81.8516,33.2835],[-81.8462,33.2843],[-81.8441,33.2788],[-81.8391,33.2739],[-81.8335,33.2761],[-81.8327,33.2743],[-81.8355,33.2714],[-81.836,33.2635],[-81.8334,33.2623],[-81.8305,33.2644],[-81.8288,33.262],[-81.8344,33.2584],[-81.8385,33.2629],[-81.8427,33.2645],[-81.8439,33.2666],[-81.8481,33.2645],[-81.8463,33.2584],[-81.8415,33.2572],[-81.84,33.2546],[-81.8451,33.2525],[-81.8498,33.2529],[-81.8526,33.2514],[-81.8517,33.2477],[-81.8583,33.2457],[-81.8632,33.2473],[-81.871,33.2525],[-81.8775,33.2587],[-81.887,33.2618],[-81.8882,33.2604],[-81.9015,33.2613],[-81.9061,33.2591],[-81.9146,33.2591],[-81.9244,33.2569],[-81.927,33.2547],[-81.9346,33.253],[-81.9387,33.2505],[-81.9405,33.2469],[-81.9524,33.2386],[-81.9602,33.236],[-81.9619,33.2338],[-81.9686,33.2308],[-81.9747,33.2298],[-81.9789,33.2272],[-81.9871,33.2288],[-81.9899,33.2279],[-81.9968,33.2311],[-82.0115,33.2339],[-82.0177,33.2327],[-82.0218,33.2337],[-82.0266,33.2319],[-82.036,33.2336],[-82.0451,33.2364],[-82.06,33.2426],[-82.0641,33.2408],[-82.0719,33.2391],[-82.0761,33.2359],[-82.0885,33.2303],[-82.0971,33.2306],[-82.1034,33.233],[-82.1076,33.2378],[-82.1091,33.2413],[-82.1136,33.2431],[-82.1196,33.2478],[-82.1253,33.2497],[-82.1258,33.2527],[-82.1302,33.2607],[-82.1299,33.2667],[-82.132,33.2682],[-82.1337,33.2759],[-82.142,33.2812],[-82.152,33.2824],[-82.1611,33.2894],[-82.1625,33.2933],[-82.1651,33.296],[-82.1742,33.2968],[-82.2106,33.2855],[-82.2676,33.2674],[-82.2735,33.2676],[-82.2785,33.2692],[-82.2865,33.2741],[-82.2898,33.2742],[-82.2925,33.2766],[-82.296,33.2766],[-82.298,33.2793],[-82.2978,33.2827],[-82.3013,33.2883],[-82.3115,33.2971],[-82.3186,33.3001],[-82.3222,33.3002],[-82.3242,33.3032],[-82.3316,33.308],[-82.3421,33.3119],[-82.3492,33.3132],[-82.3535,33.3123],[-82.3503,33.3148],[-82.2942,33.3546],[-82.2656,33.3749]]]}},{"type":"Feature","properties":{"id":"13033","name":"Burke Co., GA"},"geometry":{"type":"Polygon","coordinates":[[[-82.2106,33.2855],[-82.1742,33.2968],[-82.1651,33.296],[-82.1625,33.2933],[-82.1611,33.2894],[-82.152,33.2824],[-82.142,33.2812],[-82.1337,33.2759],[-82.132,33.2682],[-82.1299,33.2667],[-82.1302,33.2607],[-82.1258,33.2527],[-82.1253,33.2497],[-82.1196,33.2478],[-82.1136,33.2431],[-82.1091,33.2413],[-82.1076,33.2378],[-82.1034,33.233],[-82.0971,33.2306],[-82.0885,33.2303],[-82.0761,33.2359],[-82.0719,33.2391],[-82.0641,33.2408],[-82.06,33.2426],[-82.0451,33.2364],[-82.036,33.2336],[-82.0266,33.2319],[-82.0218,33.2337],[-82.0177,33.2327],[-82.0115,33.2339],[-81.9968,33.2311],[-81.9899,33.2279],[-81.9871,33.2288],[-81.9789,33.2272],[-81.9747,33.2298],[-81.9686,33.2308],[-81.9619,33.2338],[-81.9602,33.236],[-81.9524,33.2386],[-81.9405,33.2469],[-81.9387,33.2505],[-81.9346,33.253],[-81.927,33.2547],[-81.9244,33.2569],[-81.9146,33.2591],[-81.9061,33.2591],[-81.9015,33.2613],[-81.8882,33.2604],[-81.887,33.2618],[-81.8775,33.2587],[-81.871,33.2525],[-81.8632,33.2473],[-81.8583,33.2457],[-81.8517,33.2477],[-81.8465,33.2417],[-81.8379,33.2383],[-81.8317,33.2335],[-81.8279,33.2287],[-81.8196,33.2266],[-81.8117,33.2238],[-81.8081,33.2194],[-81.8079,33.2137],[-81.8039,33.2113],[-81.7982,33.2116],[-81.7902,33.2084],[-81.7845,33.2081],[-81.7789,33.2098],[-81.7776,33.2153],[-81.781,33.2198],[-81.7777,33.2218],[-81.774,33.2211],[-81.7679,33.2163],[-81.7635,33.2036],[-81.7582,33.2002],[-81.7571,33.1981],[-81.7595,33.1947],[-81.7606,33.1892],[-81.7659,33.1878],[-81.7677,33.1846],[-81.7649,33.1795],[-81.7661,33.1778],[-81.7724,33.1809],[-81.7667,33.1714],[-81.7681,33.1682],[-81.7644,33.1655],[-81.7631,33.1594],[-81.7541,33.1506],[-81.75,33.1474],[-81.7463,33.1461],[-81.7445,33.1422],[-81.7295,33.1338],[-81.7217,33.1265],[-81.7111,33.1217],[-81.7046,33.1165],[-81.6969,33.1166],[-81.677,33.1107],[-81.6718,33.1078],[-81.6584,33.1032],[-81.6464,33.0946],[-81.6423,33.0932],[-81.615,33.0956],[-81.61,33.093],[-81.6083,33.089],[-81.6129,33.084],[-81.6129,33.081],[-81.6107,33.0799],[-81.6068,33.0817],[-81.6013,33.087],[-81.5965,33.0799],[-81.599,33.0767],[-81.6033,33.0751],[-81.6009,33.0728],[-81.596,33.0727],[-81.5936,33.0695],[-81.5925,33.0731],[-81.5874,33.0699],[-81.583,33.0686],[-81.5831,33.065],[-81.5787,33.0662],[-81.5772,33.0643],[-81.5803,33.0618],[-81.5749,33.0618],[-81.5745,33.06],[-81.5783,33.0589],[-81.577,33.0573],[-81.5728,33.0586],[-81.5732,33.0549],[-81.5663,33.0534],[-81.563,33.0558],[-81.5669,33.0596],[-81.564,33.0608],[-81.5594,33.0549],[-81.5603,33.05],[-81.5661,33.0488],[-81.5619,33.0458],[-81.5518,33.0434],[-81.5465,33.0488],[-81.5438,33.0486],[-81.5417,33.0457],[-81.6717,32.9679],[-81.723,32.9364],[-81.7676,32.9094],[-81.7722,32.9119],[-81.7728,32.918],[-81.7773,32.9234],[-81.7879,32.9301],[-81.7911,32.9294],[-81.7958,32.9333],[-81.8054,32.9356],[-81.8065,32.9341],[-81.8153,32.9375],[-81.8153,32.9425],[-81.8203,32.9463],[-81.8289,32.9423],[-81.8346,32.9449],[-81.8394,32.9448],[-81.8449,32.9485],[-81.8535,32.9503],[-81.8579,32.9539],[-81.9564,32.9237],[-81.9647,32.923],[-82.0078,32.9206],[-82.0796,32.917],[-82.0813,32.9168],[-82.1237,32.8837],[-82.1479,32.8198],[-82.145,32.8127],[-82.1469,32.8149],[-82.1513,32.8143],[-82.1576,32.816],[-82.1603,32.8129],[-82.1658,32.8125],[-82.168,32.8109],[-82.1746,32.8133],[-82.1785,32.811],[-82.1815,32.8111],[-82.1874,32.8069],[-82.191,32.8061],[-82.1957,32.8092],[-82.2015,32.8046],[-82.2083,32.8056],[-82.2142,32.8037],[-82.2161,32.8083],[-82.2222,32.8099],[-82.223,32.8127],[-82.2273,32.8124],[-82.2351,32.8147],[-82.2394,32.8124],[-82.243,32.8133],[-82.245,32.8155],[-82.2506,32.8186],[-82.2525,32.8173],[-82.2553,32.8203],[-82.2563,32.824],[-82.2615,32.8232],[-82.2684,32.8252],[-82.2714,32.8211],[-82.2781,32.8257],[-82.2856,32.8263],[-82.2919,32.8259],[-82.3008,32.8268],[-82.3121,32.83],[-82.3165,32.8358],[-82.2915,32.8885],[-82.2724,32.9378],[-82.276,32.9604],[-82.2807,33.0002],[-82.2819,33.0082],[-82.288,33.0374],[-82.2912,33.0628],[-82.2858,33.0848],[-82.2811,33.1104],[-82.2669,33.1528],[-82.2586,33.1724],[-82.2552,33.1793],[-82.2446,33.2057],[-82.233,33.2277],[-82.2326,33.2312],[-82.2362,33.2313],[-82.241,33.2332],[-82.2403,33.2371],[-82.2496,33.2533],[-82.2544,33.2566],[-82.255,33.2594],[-82.2624,33.2657],[-82.2676,33.2674],[-82.2106,33.2855]]]}},{"type":"Feature","properties":{"id":"45037","name":"Edgefield Co., SC"},"geometry":{"type":"Polygon","coordinates":[[[-81.8916,33.6265],[-81.9405,33.5882],[-82.0125,33.5321],[-82.0198,33.535],[-82.0234,33.5379],[-82.0234,33.5407],[-82.0282,33.5449],[-82.033,33.5465],[-82.0374,33.5547],[-82.0463,33.5638],[-82.0549,33.5654],[-82.0577,33.5668],[-82.069,33.5754],[-82.0731,33.5775],[-82.0875,33.5806],[-82.0941,33.5827],[-82.0988,33.5864],[-82.1062,33.5956],[-82.1153,33.5966],[-82.0955,33.6339],[-82.0987,33.6369],[-82.1002,33.6416],[-82.1084,33.6479],[-82.1105,33.6553],[-82.1225,33.6552],[-82.1258,33.6579],[-82.1317,33.6595],[-82.1291,33.6634],[-82.1321,33.6656],[-82.1341,33.6697],[-82.1345,33.6739],[-82.1424,33.6739],[-82.1482,33.6765],[-82.1462,33.6818],[-82.1436,33.683],[-82.1453,33.6861],[-82.1535,33.6907],[-82.1641,33.6891],[-82.1658,33.6901],[-82.173,33.7035],[-82.1804,33.7198],[-82.1829,33.7237],[-82.182,33.7305],[-82.1707,33.7348],[-82.168,33.7408],[-82.1643,33.7413],[-82.1642,33.7434],[-82.168,33.7492],[-82.1658,33.7533],[-82.1675,33.7569],[-82.1724,33.7615],[-82.1727,33.7655],[-82.1664,33.772],[-82.1634,33.7726],[-82.1603,33.7777],[-82.16,33.7815],[-82.1533,33.7826],[-82.1596,33.7914],[-82.1585,33.7929],[-82.1512,33.7898],[-82.1479,33.7898],[-82.1502,33.7938],[-82.1439,33.7949],[-82.1388,33.8016],[-82.1414,33.8056],[-82.1341,33.8102],[-82.1397,33.8173],[-82.1383,33.8192],[-82.1331,33.818],[-82.1301,33.8188],[-82.1235,33.8278],[-82.1163,33.8279],[-82.1137,33.8299],[-82.1246,33.842],[-82.152,33.878],[-82.1546,33.8817],[-82.1591,33.898],[-82.1483,33.9028],[-82.1556,33.9289],[-82.047,33.9532],[-82.0078,33.9613],[-81.9987,33.9642],[-81.932,33.9769],[-81.8946,33.9754],[-81.8731,33.9018],[-81.8704,33.892],[-81.8669,33.8899],[-81.8621,33.8836],[-81.8566,33.8797],[-81.8468,33.8747],[-81.8368,33.8665],[-81.8301,33.8649],[-81.8246,33.8673],[-81.8141,33.8634],[-81.808,33.8587],[-81.7766,33.846],[-81.6518,33.8145],[-81.8916,33.6265]]]}}]}