{"type":"FeatureCollection","features":[{"type":"Feature","properties":{"id":"25009","name":"Essex Co., MA"},"geometry":{"type":"MultiPolygon","coordinates":[[[[-70.5751,42.6398],[-70.5735,42.6364],[-70.5756,42.6345],[-70.5803,42.636],[-70.5751,42.6398]]],[[[-70.5882,42.6306],[-70.588,42.6264],[-70.5922,42.6295],[-70.5882,42.6306]]],[[[-70.5876,42.6619],[-70.59,42.659],[-70.593,42.6612],[-70.5876,42.6619]]],[[[-70.7217,42.5661],[-70.7237,42.567],[-70.7212,42.5699],[-70.7217,42.5661]]],[[[-70.7807,42.5536],[-70.7823,42.5518],[-70.7831,42.5535],[-70.7807,42.5536]]],[[[-70.7856,42.537],[-70.7823,42.5337],[-70.7877,42.5306],[-70.7894,42.5319],[-70.7882,42.5368],[-70.7856,42.537]]],[[[-70.7976,42.5497],[-70.795,42.5507],[-70.7944,42.548],[-70.7967,42.5465],[-70.8033,42.5483],[-70.8022,42.551],[-70.7976,42.5497]]],[[[-70.8121,42.512],[-70.8141,42.5104],[-70.8174,42.514],[-70.8121,42.512]]],[[[-70.8337,42.4853],[-70.8335,42.482],[-70.8356,42.4838],[-70.8337,42.4853]]],[[[-71.2455,42.7426],[-71.2334,42.7455],[-71.2239,42.7467],[-71.1818,42.7376],[-71.1861,42.7907],[-71.1744,42.8016],[-71.1656,42.8087],[-71.1497,42.8155],[-71.1325,42.8214],[-71.0642,42.8063],[-71.0536,42.8331],[-71.0444,42.8488],[-71.0312,42.8591],[-70.9665,42.869],[-70.9492,42.8761],[-70.9308,42.8846],[-70.9149,42.8866],[-70.9028,42.8865],[-70.8861,42.8826],[-70.8486,42.8609],[-70.8374,42.865],[-70.8308,42.8689],[-70.8218,42.8719],[-70.8173,42.8723],[-70.8177,42.8506],[-70.8127,42.8229],[-70.8085,42.8149],[-70.8052,42.7818],[-70.7929,42.7471],[-70.7723,42.7111],[-70.7705,42.7048],[-70.7758,42.7007],[-70.7761,42.6913],[-70.7644,42.6857],[-70.7527,42.6843],[-70.7446,42.6813],[-70.7325,42.6702],[-70.7305,42.6666],[-70.7192,42.6638],[-70.7058,42.6582],[-70.6959,42.6558],[-70.6912,42.6558],[-70.6888,42.6526],[-70.6846,42.6518],[-70.6823,42.6544],[-70.6799,42.6603],[-70.6814,42.6623],[-70.6761,42.6662],[-70.6731,42.6665],[-70.6668,42.6717],[-70.6635,42.6776],[-70.6574,42.6815],[-70.6544,42.6817],[-70.6451,42.6885],[-70.6414,42.6851],[-70.6363,42.6903],[-70.6301,42.6927],[-70.6273,42.6914],[-70.6272,42.6884],[-70.6209,42.6868],[-70.6205,42.6846],[-70.6237,42.6816],[-70.6241,42.6769],[-70.6215,42.6727],[-70.6239,42.6672],[-70.6239,42.6616],[-70.6207,42.6587],[-70.6161,42.6603],[-70.6135,42.6588],[-70.6105,42.6598],[-70.6072,42.6586],[-70.5986,42.6599],[-70.5951,42.6561],[-70.5971,42.6515],[-70.5917,42.6485],[-70.5959,42.6425],[-70.5954,42.6403],[-70.5915,42.6398],[-70.594,42.635],[-70.6056,42.6349],[-70.6184,42.6286],[-70.6179,42.6255],[-70.6205,42.623],[-70.6272,42.6213],[-70.6322,42.6168],[-70.6323,42.6079],[-70.6356,42.6002],[-70.6417,42.5945],[-70.6461,42.5922],[-70.648,42.5875],[-70.6547,42.5822],[-70.6649,42.5804],[-70.666,42.5841],[-70.6639,42.5883],[-70.6596,42.5921],[-70.657,42.5983],[-70.6589,42.6035],[-70.6656,42.6091],[-70.6767,42.6075],[-70.6765,42.6033],[-70.6815,42.6007],[-70.6843,42.5962],[-70.6808,42.5935],[-70.6881,42.5859],[-70.6929,42.5842],[-70.6986,42.5774],[-70.7082,42.5756],[-70.7103,42.5726],[-70.7297,42.5715],[-70.7309,42.5745],[-70.737,42.5769],[-70.7401,42.5748],[-70.7573,42.5705],[-70.7637,42.5617],[-70.7721,42.5596],[-70.7775,42.5594],[-70.7884,42.5633],[-70.7944,42.5645],[-70.8041,42.5616],[-70.8154,42.5542],[-70.8238,42.5519],[-70.8366,42.5513],[-70.8455,42.5482],[-70.8501,42.5511],[-70.8549,42.5494],[-70.8552,42.5475],[-70.8611,42.5451],[-70.8686,42.5485],[-70.8752,42.5443],[-70.8826,42.5349],[-70.8789,42.5321],[-70.8716,42.5356],[-70.8676,42.5363],[-70.8642,42.5334],[-70.8663,42.5267],[-70.8776,42.5235],[-70.8852,42.5153],[-70.8864,42.5086],[-70.8818,42.5056],[-70.8747,42.5049],[-70.864,42.5186],[-70.8571,42.5215],[-70.8487,42.5192],[-70.8456,42.5175],[-70.8421,42.5195],[-70.8424,42.5088],[-70.8517,42.5002],[-70.8533,42.493],[-70.8474,42.4939],[-70.8338,42.5059],[-70.8311,42.5036],[-70.8338,42.4994],[-70.836,42.4905],[-70.8416,42.4876],[-70.8474,42.4915],[-70.8578,42.4903],[-70.8797,42.4788],[-70.8865,42.4702],[-70.8873,42.4649],[-70.8943,42.4609],[-70.9015,42.4642],[-70.9073,42.4629],[-70.9081,42.4669],[-70.922,42.4667],[-70.9277,42.4609],[-70.9315,42.4606],[-70.935,42.4579],[-70.9375,42.4401],[-70.9362,42.4374],[-70.9285,42.4383],[-70.928,42.4372],[-70.9334,42.4334],[-70.9286,42.4288],[-70.9251,42.4303],[-70.9132,42.4277],[-70.9084,42.4252],[-70.9076,42.4218],[-70.9029,42.4201],[-70.9057,42.4162],[-70.9109,42.4165],[-70.9199,42.4236],[-70.928,42.4207],[-70.928,42.4171],[-70.9364,42.4181],[-70.9374,42.4258],[-70.9355,42.4315],[-70.9398,42.4385],[-70.9405,42.4438],[-70.9385,42.4541],[-70.939,42.457],[-70.9437,42.4583],[-70.9626,42.4451],[-70.9661,42.4435],[-70.9686,42.4444],[-70.9716,42.4427],[-70.9752,42.4369],[-70.9823,42.4313],[-70.9901,42.4349],[-70.9972,42.4311],[-71.0108,42.4346],[-71.0101,42.4382],[-71.0119,42.4422],[-71.0188,42.4501],[-71.0258,42.4447],[-71.0542,42.4769],[-71.0526,42.4861],[-71.0452,42.4887],[-71.0399,42.4959],[-71.0438,42.5012],[-71.0387,42.5027],[-71.0349,42.5068],[-71.0366,42.5124],[-71.0395,42.5145],[-71.0409,42.5217],[-71.0386,42.524],[-71.041,42.5263],[-71.0575,42.5242],[-71.0673,42.525],[-71.0751,42.531],[-71.071,42.5559],[-71.0649,42.5621],[-71.0572,42.574],[-71.0498,42.5711],[-71.0415,42.5735],[-71.0401,42.5716],[-71.0355,42.5703],[-71.0283,42.5741],[-71.034,42.5855],[-71.0594,42.6063],[-71.0588,42.6091],[-71.0762,42.6041],[-71.1355,42.5991],[-71.1432,42.604],[-71.1487,42.6132],[-71.1544,42.6153],[-71.1586,42.6129],[-71.1595,42.6077],[-71.1639,42.6019],[-71.1649,42.598],[-71.1813,42.6084],[-71.1775,42.609],[-71.1784,42.6108],[-71.1761,42.6146],[-71.1718,42.6165],[-71.2562,42.6571],[-71.2501,42.661],[-71.2425,42.6623],[-71.2384,42.6708],[-71.2552,42.7366],[-71.2455,42.7426]]]]}},{"type":"Feature","properties":{"id":"25021","name":"Norfolk Co., MA"},"geometry":{"type":"MultiPolygon","coordinates":[[[[-70.8117,42.2629],[-70.7887,42.2539],[-70.7844,42.2486],[-70.7815,42.2487],[-70.7848,42.2463],[-70.789,42.2402],[-70.7834,42.2405],[-70.782,42.2364],[-70.7887,42.2326],[-70.7879,42.2291],[-70.7855,42.2295],[-70.7856,42.2263],[-70.7889,42.2255],[-70.7891,42.2228],[-70.827,42.2008],[-70.8408,42.2131],[-70.8534,42.2396],[-70.8412,42.2433],[-70.8412,42.2445],[-70.8493,42.2473],[-70.8489,42.2521],[-70.8446,42.2604],[-70.8406,42.261],[-70.8362,42.2647],[-70.827,42.2644],[-70.8247,42.2659],[-70.8117,42.2629]]],[[[-71.1462,42.3374],[-71.1352,42.346],[-71.1286,42.3497],[-71.1229,42.3519],[-71.1066,42.3499],[-71.1072,42.347],[-71.1055,42.3438],[-71.1106,42.3404],[-71.1108,42.3362],[-71.1131,42.3326],[-71.1165,42.3239],[-71.1237,42.3227],[-71.1319,42.3132],[-71.1365,42.3062],[-71.1401,42.3021],[-71.1469,42.2973],[-71.1521,42.2946],[-71.1647,42.3038],[-71.1789,42.3143],[-71.157,42.3304],[-71.1462,42.3374]]],[[[-71.464,42.1582],[-71.4441,42.1749],[-71.4302,42.1794],[-71.4237,42.1793],[-71.4236,42.1781],[-71.4023,42.1788],[-71.4044,42.1884],[-71.3784,42.1935],[-71.362,42.1958],[-71.3442,42.2007],[-71.3465,42.2046],[-71.3522,42.2074],[-71.35,42.214],[-71.3468,42.2156],[-71.34,42.2139],[-71.3386,42.2169],[-71.3432,42.2206],[-71.341,42.2245],[-71.3297,42.2333],[-71.3312,42.2376],[-71.3294,42.2453],[-71.3325,42.2491],[-71.3029,42.2483],[-71.3085,42.2707],[-71.3237,42.2974],[-71.3297,42.313],[-71.3273,42.3137],[-71.27,42.3281],[-71.2631,42.3261],[-71.259,42.3263],[-71.2574,42.3245],[-71.2529,42.3268],[-71.2468,42.3211],[-71.2384,42.3218],[-71.2309,42.3207],[-71.2283,42.3188],[-71.2267,42.3083],[-71.2205,42.3064],[-71.2133,42.3062],[-71.2113,42.3031],[-71.2116,42.2997],[-71.2079,42.2972],[-71.2052,42.2896],[-71.1967,42.2861],[-71.1932,42.288],[-71.1909,42.2858],[-71.1912,42.283],[-71.1853,42.2795],[-71.1832,42.2759],[-71.1775,42.2769],[-71.175,42.276],[-71.173,42.2703],[-71.1742,42.267],[-71.1586,42.2552],[-71.1521,42.2582],[-71.1466,42.2558],[-71.1427,42.236],[-71.1307,42.2279],[-71.1246,42.234],[-71.1226,42.2345],[-71.1264,42.2392],[-71.1093,42.248],[-71.1095,42.2554],[-71.1133,42.2589],[-71.1115,42.2608],[-71.105,42.2608],[-71.1037,42.2597],[-71.0975,42.2631],[-71.0939,42.2671],[-71.0903,42.2666],[-71.0894,42.2697],[-71.0828,42.2686],[-71.0765,42.2705],[-71.0651,42.2707],[-71.0622,42.2672],[-71.0538,42.2717],[-71.0556,42.2751],[-71.0533,42.2775],[-71.0498,42.2781],[-71.0449,42.2763],[-71.0416,42.2781],[-71.0381,42.2847],[-71.0328,42.2863],[-71.0334,42.29],[-71.039,42.3001],[-71.0368,42.3014],[-71.0258,42.2997],[-71.0215,42.2943],[-71.0143,42.3006],[-71.0139,42.3034],[-71.0108,42.3045],[-71.0091,42.3023],[-71.0013,42.3035],[-70.9949,42.3054],[-70.9905,42.308],[-70.9874,42.3061],[-70.9902,42.3041],[-71.0052,42.3006],[-71.0061,42.2971],[-71.0046,42.2945],[-71.0128,42.2902],[-71.0202,42.2905],[-71.0223,42.2882],[-71.0161,42.2798],[-70.9983,42.2724],[-70.996,42.2668],[-70.9853,42.2643],[-70.9807,42.2653],[-70.9734,42.263],[-70.9649,42.269],[-70.9562,42.2708],[-70.9541,42.2748],[-70.9557,42.2794],[-70.9532,42.2799],[-70.9493,42.2742],[-70.9504,42.2673],[-70.9522,42.2641],[-70.9518,42.2606],[-70.9594,42.2626],[-70.9654,42.2597],[-70.9658,42.2578],[-70.9573,42.255],[-70.9624,42.2484],[-70.9595,42.2453],[-70.9432,42.2521],[-70.9362,42.2568],[-70.9272,42.2574],[-70.9248,42.2633],[-70.9259,42.2692],[-70.9182,42.2719],[-70.9094,42.2683],[-70.9083,42.2647],[-70.9174,42.2639],[-70.9182,42.2601],[-70.9171,42.2556],[-70.9193,42.2547],[-70.9324,42.2526],[-70.9335,42.25],[-70.9312,42.2486],[-70.9313,42.2443],[-70.9258,42.2368],[-70.9224,42.2293],[-70.9235,42.2259],[-70.9147,42.2251],[-70.9249,42.1576],[-71.0022,42.1273],[-71.002,42.1265],[-71.0805,42.0955],[-71.1386,42.0728],[-71.1785,42.0574],[-71.2883,42.0145],[-71.3643,41.9853],[-71.3815,41.9851],[-71.3814,42.0188],[-71.4983,42.0172],[-71.4983,42.0582],[-71.4981,42.0934],[-71.4955,42.1],[-71.4997,42.1035],[-71.5006,42.1075],[-71.5031,42.1103],[-71.5004,42.1127],[-71.5014,42.1167],[-71.4899,42.1247],[-71.4785,42.1314],[-71.4781,42.1568],[-71.464,42.1582]]]]}},{"type":"Feature","properties":{"id":"25017","name":"Middlesex Co., MA"},"geometry":{"type":"Polygon","coordinates":[[[-71.2384,42.6708],[-71.2425,42.6623],[-71.2501,42.661],[-71.2562,42.6571],[-71.1718,42.6165],[-71.1761,42.6146],[-71.1784,42.6108],[-71.1775,42.609],[-71.1813,42.6084],[-71.1649,42.598],[-71.1639,42.6019],[-71.1595,42.6077],[-71.1586,42.6129],[-71.1544,42.6153],[-71.1487,42.6132],[-71.1432,42.604],[-71.1355,42.5991],[-71.0762,42.6041],[-71.0588,42.6091],[-71.0594,42.6063],[-71.034,42.5855],[-71.0283,42.5741],[-71.0355,42.5703],[-71.0401,42.5716],[-71.0415,42.5735],[-71.0498,42.5711],[-71.0572,42.574],[-71.0649,42.5621],[-71.071,42.5559],[-71.0751,42.531],[-71.0673,42.525],[-71.0575,42.5242],[-71.041,42.5263],[-71.0386,42.524],[-71.0409,42.5217],[-71.0395,42.5145],[-71.0366,42.5124],[-71.0349,42.5068],[-71.0387,42.5027],[-71.0438,42.5012],[-71.0399,42.4959],[-71.0452,42.4887],[-71.0526,42.4861],[-71.0542,42.4769],[-71.0258,42.4447],[-71.0204,42.4382],[-71.0311,42.4188],[-71.0334,42.4134],[-71.0406,42.402],[-71.0481,42.3966],[-71.0519,42.3976],[-71.0533,42.3962],[-71.05,42.3935],[-71.0553,42.3871],[-71.0657,42.3866],[-71.0709,42.389],[-71.067,42.394],[-71.0735,42.3918],[-71.0807,42.381],[-71.0757,42.3802],[-71.0725,42.3727],[-71.0671,42.3718],[-71.0641,42.369],[-71.0695,42.369],[-71.0748,42.3638],[-71.078,42.3587],[-71.0912,42.3543],[-71.1043,42.3524],[-71.1132,42.3531],[-71.1169,42.3554],[-71.1172,42.3674],[-71.1232,42.3689],[-71.1282,42.3736],[-71.1332,42.3723],[-71.1318,42.3699],[-71.1399,42.3644],[-71.1445,42.3648],[-71.1483,42.3611],[-71.1597,42.3598],[-71.1639,42.3585],[-71.1676,42.3601],[-71.1739,42.3534],[-71.1748,42.3503],[-71.1667,42.34],[-71.1689,42.3384],[-71.1676,42.3334],[-71.1609,42.3336],[-71.157,42.3304],[-71.1789,42.3143],[-71.1647,42.3038],[-71.1786,42.2946],[-71.1912,42.283],[-71.1909,42.2858],[-71.1932,42.288],[-71.1967,42.2861],[-71.2052,42.2896],[-71.2079,42.2972],[-71.2116,42.2997],[-71.2113,42.3031],[-71.2133,42.3062],[-71.2205,42.3064],[-71.2267,42.3083],[-71.2283,42.3188],[-71.2309,42.3207],[-71.2384,42.3218],[-71.2468,42.3211],[-71.2529,42.3268],[-71.2574,42.3245],[-71.259,42.3263],[-71.2631,42.3261],[-71.27,42.3281],[-71.3273,42.3137],[-71.3297,42.313],[-71.3237,42.2974],[-71.3085,42.2707],[-71.3029,42.2483],[-71.3325,42.2491],[-71.3294,42.2453],[-71.3312,42.2376],[-71.3297,42.2333],[-71.341,42.2245],[-71.3432,42.2206],[-71.3386,42.2169],[-71.34,42.2139],[-71.3468,42.2156],[-71.35,42.214],[-71.3522,42.2074],[-71.3465,42.2046],[-71.3442,42.2007],[-71.362,42.1958],[-71.3784,42.1935],[-71.4044,42.1884],[-71.4023,42.1788],[-71.4236,42.1781],[-71.4237,42.1793],[-71.4302,42.1794],[-71.4441,42.1749],[-71.464,42.1582],[-71.4781,42.1568],[-71.478,42.1659],[-71.4974,42.1666],[-71.5026,42.1914],[-71.5069,42.1889],[-71.5393,42.1897],[-71.5557,42.1825],[-71.5568,42.1925],[-71.5723,42.1927],[-71.5715,42.1947],[-71.5829,42.1956],[-71.6022,42.2181],[-71.5868,42.2595],[-71.5646,42.2669],[-71.5566,42.2681],[-71.5524,42.2674],[-71.5396,42.2628],[-71.538,42.2646],[-71.5323,42.2661],[-71.5249,42.2659],[-71.5182,42.2677],[-71.5139,42.2676],[-71.509,42.2645],[-71.5065,42.2643],[-71.5059,42.2729],[-71.4863,42.3104],[-71.4851,42.3232],[-71.4868,42.3302],[-71.5082,42.3279],[-71.5165,42.3303],[-71.5511,42.3264],[-71.5691,42.3204],[-71.5852,42.311],[-71.5925,42.3179],[-71.5974,42.321],[-71.6053,42.3302],[-71.6036,42.3317],[-71.6041,42.3368],[-71.6115,42.339],[-71.6183,42.3426],[-71.6258,42.3497],[-71.61,42.3574],[-71.6031,42.3673],[-71.6078,42.37],[-71.5802,42.387],[-71.6043,42.3977],[-71.5853,42.4071],[-71.5591,42.4119],[-71.5434,42.4665],[-71.5604,42.4744],[-71.5349,42.5133],[-71.5327,42.5147],[-71.5298,42.5198],[-71.5314,42.5204],[-71.5388,42.543],[-71.5803,42.5505],[-71.5946,42.5434],[-71.6023,42.5452],[-71.6079,42.5454],[-71.6199,42.5525],[-71.6285,42.548],[-71.6359,42.54],[-71.6366,42.5331],[-71.6392,42.531],[-71.6359,42.524],[-71.679,42.5304],[-71.6777,42.5394],[-71.6646,42.6116],[-71.7758,42.6442],[-71.7753,42.6367],[-71.8448,42.638],[-71.8585,42.6338],[-71.8564,42.6676],[-71.8578,42.675],[-71.8638,42.6796],[-71.8658,42.6841],[-71.8698,42.6836],[-71.8971,42.7037],[-71.8988,42.7114],[-71.7458,42.7073],[-71.6318,42.7048],[-71.3519,42.6982],[-71.3302,42.6972],[-71.2942,42.697],[-71.2789,42.7113],[-71.2679,42.7259],[-71.2552,42.7366],[-71.2384,42.6708]]]}},{"type":"Feature","properties":{"id":"33015","name":"Rockingham Co., NH"},"geometry":{"type":"MultiPolygon","coordinates":[[[[-70.6106,42.9764],[-70.6134,42.9734],[-70.6146,42.9786],[-70.6106,42.9764]]],[[[-70.6223,42.9681],[-70.6235,42.9669],[-70.6268,42.9695],[-70.6223,42.9681]]],[[[-70.6243,42.9767],[-70.6278,42.9754],[-70.6273,42.9777],[-70.6243,42.9767]]],[[[-71.2143,43.2546],[-71.2063,43.2501],[-71.1735,43.2289],[-71.1279,43.2001],[-71.0858,43.1744],[-71.0267,43.1379],[-71.042,43.1195],[-71.0729,43.0817],[-71.0126,43.082],[-70.9808,43.0824],[-70.9341,43.0901],[-70.8922,43.0839],[-70.8917,43.0831],[-70.8754,43.0804],[-70.8628,43.0886],[-70.8609,43.0946],[-70.861,43.1023],[-70.862,43.1114],[-70.8598,43.1156],[-70.8641,43.1201],[-70.8624,43.1244],[-70.8533,43.1271],[-70.8469,43.1261],[-70.8378,43.1195],[-70.8339,43.118],[-70.8258,43.118],[-70.82,43.1226],[-70.8087,43.1171],[-70.7939,43.1067],[-70.7839,43.1009],[-70.7791,43.0959],[-70.768,43.0936],[-70.763,43.0895],[-70.7564,43.08],[-70.7419,43.0774],[-70.7381,43.0738],[-70.7065,43.0753],[-70.7038,43.0596],[-70.7115,43.058],[-70.7121,43.0437],[-70.7189,43.0324],[-70.7232,43.0293],[-70.7284,43.0276],[-70.7321,43.0224],[-70.7327,43.0169],[-70.7355,43.0122],[-70.7404,43.0112],[-70.7438,43.008],[-70.7455,43.004],[-70.743,43.0017],[-70.749,42.9955],[-70.75,42.9917],[-70.7551,42.9918],[-70.7615,42.9867],[-70.7646,42.9802],[-70.7643,42.9738],[-70.7683,42.9717],[-70.7718,42.9681],[-70.7697,42.9644],[-70.7756,42.9572],[-70.7791,42.9568],[-70.7851,42.9508],[-70.7862,42.944],[-70.7907,42.9428],[-70.794,42.9399],[-70.7978,42.93],[-70.7982,42.9209],[-70.7947,42.9181],[-70.8025,42.9176],[-70.806,42.9165],[-70.8087,42.9128],[-70.8107,42.9069],[-70.811,42.8924],[-70.8157,42.8845],[-70.8173,42.8723],[-70.8218,42.8719],[-70.8308,42.8689],[-70.8374,42.865],[-70.8486,42.8609],[-70.8861,42.8826],[-70.9028,42.8865],[-70.9149,42.8866],[-70.9308,42.8846],[-70.9492,42.8761],[-70.9665,42.869],[-71.0312,42.8591],[-71.0444,42.8488],[-71.0536,42.8331],[-71.0642,42.8063],[-71.1325,42.8214],[-71.1497,42.8155],[-71.1656,42.8087],[-71.1744,42.8016],[-71.1861,42.7907],[-71.1818,42.7376],[-71.2239,42.7467],[-71.2334,42.7455],[-71.2455,42.7426],[-71.2601,42.7557],[-71.351,42.7722],[-71.3499,42.7741],[-71.3529,42.7779],[-71.3515,42.7806],[-71.3581,42.7851],[-71.3624,42.783],[-71.3644,42.7852],[-71.3642,42.7889],[-71.3662,42.7917],[-71.3607,42.799],[-71.3872,42.8236],[-71.4271,42.8248],[-71.4437,42.8962],[-71.4512,42.9304],[-71.4498,42.9311],[-71.3754,42.9393],[-71.3822,42.9687],[-71.3924,43.0093],[-71.3963,43.0169],[-71.3976,43.0253],[-71.403,43.0411],[-71.3922,43.0393],[-71.3738,43.071],[-71.3561,43.102],[-71.3293,43.141],[-71.3177,43.1624],[-71.3155,43.1621],[-71.2762,43.2261],[-71.2628,43.2501],[-71.257,43.2567],[-71.2521,43.264],[-71.2473,43.2752],[-71.2143,43.2546]]]]}},{"type":"Feature","properties":{"id":"33017","name":"Strafford Co., NH"},"geometry":{"type":"Polygon","coordinates":[[[-71.247,43.2762],[-71.2076,43.308],[-71.1932,43.3242],[-71.1594,43.3551],[-71.1624,43.3664],[-71.1741,43.4232],[-71.1839,43.4755],[-71.1908,43.515],[-71.1527,43.5476],[-71.1278,43.5728],[-71.1115,43.5067],[-71.1065,43.5122],[-71.1021,43.5069],[-71.0969,43.5117],[-71.0933,43.5073],[-71.0895,43.5127],[-71.0848,43.5067],[-71.0676,43.5272],[-71.0631,43.5242],[-71.0564,43.5281],[-71.0525,43.5247],[-71.0464,43.5297],[-71.0445,43.5248],[-71.0379,43.5298],[-71.0242,43.4829],[-70.9993,43.5073],[-70.9692,43.5355],[-70.9625,43.5413],[-70.9633,43.5352],[-70.9582,43.5316],[-70.9572,43.525],[-70.9541,43.5226],[-70.954,43.5188],[-70.9569,43.5127],[-70.9548,43.5098],[-70.958,43.508],[-70.9592,43.4994],[-70.9619,43.4978],[-70.9696,43.4862],[-70.968,43.4808],[-70.9742,43.4774],[-70.9709,43.4739],[-70.9644,43.4733],[-70.9604,43.4666],[-70.9669,43.4505],[-70.9658,43.4476],[-70.9616,43.443],[-70.9611,43.4383],[-70.9688,43.4349],[-70.9684,43.4293],[-70.9746,43.423],[-70.9829,43.4193],[-70.9868,43.4143],[-70.9867,43.4035],[-70.9828,43.3993],[-70.9829,43.3948],[-70.9874,43.3935],[-70.9876,43.3895],[-70.9852,43.3867],[-70.986,43.38],[-70.9843,43.3761],[-70.9764,43.3673],[-70.9742,43.3629],[-70.9749,43.358],[-70.9672,43.3438],[-70.9604,43.341],[-70.9565,43.3347],[-70.953,43.3333],[-70.9515,43.3347],[-70.9371,43.3374],[-70.9327,43.3368],[-70.9308,43.3296],[-70.9239,43.3248],[-70.9154,43.3199],[-70.912,43.3198],[-70.9116,43.31],[-70.9125,43.3083],[-70.9074,43.3048],[-70.9023,43.3049],[-70.9004,43.3014],[-70.9014,43.2988],[-70.9074,43.2936],[-70.906,43.2917],[-70.9003,43.2915],[-70.8973,43.2927],[-70.8992,43.2875],[-70.8963,43.2853],[-70.8865,43.2828],[-70.8817,43.2725],[-70.8743,43.2719],[-70.8703,43.2663],[-70.8632,43.2651],[-70.8614,43.2631],[-70.8596,43.2573],[-70.8551,43.2552],[-70.852,43.2568],[-70.8433,43.2543],[-70.8392,43.2512],[-70.8413,43.2487],[-70.8387,43.2429],[-70.8336,43.2429],[-70.8251,43.2409],[-70.8179,43.2379],[-70.8162,43.235],[-70.8155,43.229],[-70.8119,43.2283],[-70.8097,43.2246],[-70.8131,43.2173],[-70.8169,43.2146],[-70.8208,43.1998],[-70.8191,43.1952],[-70.8207,43.1917],[-70.8272,43.1895],[-70.8283,43.1867],[-70.8248,43.1797],[-70.8235,43.1746],[-70.8283,43.169],[-70.8278,43.1664],[-70.8291,43.1579],[-70.8338,43.1469],[-70.83,43.1384],[-70.8293,43.1325],[-70.8268,43.1271],[-70.82,43.1226],[-70.8258,43.118],[-70.8339,43.118],[-70.8378,43.1195],[-70.8469,43.1261],[-70.8533,43.1271],[-70.8624,43.1244],[-70.8641,43.1201],[-70.8598,43.1156],[-70.862,43.1114],[-70.861,43.1023],[-70.8609,43.0946],[-70.8628,43.0886],[-70.8754,43.0804],[-70.8917,43.0831],[-70.8922,43.0839],[-70.9341,43.0901],[-70.9808,43.0824],[-71.0126,43.082],[-71.0729,43.0817],[-71.042,43.1195],[-71.0267,43.1379],[-71.0858,43.1744],[-71.1279,43.2001],[-71.1735,43.2289],[-71.2063,43.2501],[-71.2143,43.2546],[-71.2473,43.2752],[-71.247,43.2762]]]}},{"type":"Feature","properties":{"id":"25023","name":"Plymouth Co., MA"},"geometry":{"type":"MultiPolygon","coordinates":[[[[-70.874,42.3436],[-70.8761,42.3412],[-70.8835,42.34],[-70.8802,42.3423],[-70.874,42.3436]]],[[[-70.886,42.3385],[-70.8918,42.3381],[-70.8863,42.3399],[-70.886,42.3385]]],[[[-70.889,42.3289],[-70.892,42.3272],[-70.8923,42.3284],[-70.889,42.3289]]],[[[-70.8972,42.3433],[-70.8946,42.3424],[-70.8952,42.3389],[-70.8984,42.3403],[-70.8972,42.3433]]],[[[-70.8946,42.3351],[-70.8961,42.3304],[-70.8986,42.3305],[-70.8971,42.334],[-70.8946,42.3351]]],[[[-70.9486,42.2916],[-70.9417,42.2922],[-70.9357,42.2965],[-70.9353,42.3021],[-70.9294,42.3033],[-70.9264,42.3014],[-70.9266,42.2992],[-70.9353,42.2919],[-70.9373,42.2849],[-70.9426,42.2875],[-70.949,42.2859],[-70.9511,42.2897],[-70.9486,42.2916]]],[[[-70.9075,42.2623],[-70.8998,42.2612],[-70.8938,42.2623],[-70.8979,42.256],[-70.8929,42.2534],[-70.89,42.2492],[-70.8843,42.2455],[-70.8778,42.2484],[-70.8755,42.2569],[-70.8788,42.259],[-70.8828,42.2681],[-70.8902,42.2762],[-70.9021,42.2804],[-70.9015,42.2827],[-70.894,42.2815],[-70.8847,42.2778],[-70.8783,42.2783],[-70.883,42.2882],[-70.8868,42.2926],[-70.8873,42.2977],[-70.904,42.3017],[-70.9104,42.2991],[-70.9156,42.3025],[-70.9234,42.3024],[-70.9239,42.305],[-70.9175,42.3057],[-70.9076,42.3079],[-70.8959,42.3059],[-70.8895,42.3105],[-70.8827,42.3104],[-70.8812,42.3007],[-70.8709,42.2857],[-70.8618,42.276],[-70.8511,42.2683],[-70.8311,42.2674],[-70.8247,42.2659],[-70.827,42.2644],[-70.8362,42.2647],[-70.8406,42.261],[-70.8446,42.2604],[-70.8489,42.2521],[-70.8493,42.2473],[-70.8412,42.2445],[-70.8412,42.2433],[-70.8534,42.2396],[-70.8408,42.2131],[-70.827,42.2008],[-70.7891,42.2228],[-70.7889,42.2255],[-70.7856,42.2263],[-70.7855,42.2295],[-70.7879,42.2291],[-70.7887,42.2326],[-70.782,42.2364],[-70.7834,42.2405],[-70.789,42.2402],[-70.7848,42.2463],[-70.7815,42.2487],[-70.7763,42.249],[-70.7739,42.2542],[-70.7663,42.2547],[-70.7628,42.2503],[-70.7648,42.2441],[-70.7607,42.2412],[-70.7602,42.235],[-70.7545,42.2287],[-70.7472,42.2218],[-70.7391,42.2196],[-70.7306,42.2109],[-70.7223,42.208],[-70.7181,42.209],[-70.713,42.2044],[-70.7159,42.1959],[-70.716,42.1901],[-70.7187,42.1849],[-70.7148,42.1766],[-70.7143,42.1688],[-70.7063,42.1631],[-70.6853,42.133],[-70.6639,42.1083],[-70.6402,42.0886],[-70.6385,42.0816],[-70.6473,42.0763],[-70.6482,42.0684],[-70.6432,42.0508],[-70.6309,42.036],[-70.6203,42.0271],[-70.611,42.0157],[-70.5979,42.0046],[-70.6027,42.0021],[-70.614,42.0066],[-70.6225,42.0021],[-70.6319,41.9929],[-70.6391,41.9939],[-70.6412,42.0059],[-70.6397,42.0108],[-70.6364,42.0138],[-70.6339,42.012],[-70.6344,42.005],[-70.6299,42.0015],[-70.6242,42.006],[-70.6142,42.0111],[-70.6178,42.0175],[-70.6443,42.0459],[-70.6509,42.0462],[-70.6561,42.042],[-70.6644,42.0412],[-70.6694,42.0371],[-70.6717,42.0214],[-70.6675,42.0123],[-70.6709,42.0078],[-70.6788,42.0055],[-70.6868,42.0128],[-70.6958,42.0133],[-70.7122,42.0076],[-70.71,41.9995],[-70.7064,42.0007],[-70.7,41.9983],[-70.6988,41.9919],[-70.699,41.9871],[-70.691,41.9813],[-70.6814,41.9791],[-70.6788,41.9772],[-70.6763,41.9723],[-70.6645,41.9601],[-70.6532,41.9525],[-70.6468,41.9493],[-70.6398,41.9494],[-70.632,41.946],[-70.6303,41.947],[-70.6385,41.9564],[-70.6487,41.9723],[-70.653,41.977],[-70.6494,41.9786],[-70.6455,41.9752],[-70.6316,41.953],[-70.6239,41.9431],[-70.6165,41.9402],[-70.6082,41.9407],[-70.5981,41.9478],[-70.5916,41.9493],[-70.5836,41.95],[-70.5678,41.9395],[-70.566,41.9362],[-70.5529,41.9296],[-70.544,41.9263],[-70.5392,41.9268],[-70.5401,41.9237],[-70.5379,41.9209],[-70.5449,41.9186],[-70.5474,41.9119],[-70.5459,41.9072],[-70.5321,41.8896],[-70.533,41.8858],[-70.5314,41.8809],[-70.5305,41.8655],[-70.5256,41.8587],[-70.5325,41.8407],[-70.5363,41.8347],[-70.5421,41.8313],[-70.5432,41.8244],[-70.541,41.8158],[-70.5373,41.8109],[-70.5654,41.7867],[-70.6029,41.7747],[-70.6326,41.7629],[-70.63,41.7611],[-70.6259,41.7552],[-70.6252,41.7511],[-70.6208,41.7475],[-70.626,41.745],[-70.6327,41.7378],[-70.6326,41.7337],[-70.6394,41.728],[-70.6403,41.7236],[-70.6431,41.7176],[-70.6488,41.718],[-70.6505,41.7134],[-70.6605,41.7051],[-70.6741,41.6914],[-70.6761,41.6927],[-70.6562,41.7134],[-70.6566,41.7154],[-70.664,41.7162],[-70.6705,41.7219],[-70.6792,41.7274],[-70.6859,41.7271],[-70.6883,41.7237],[-70.6971,41.7292],[-70.7062,41.729],[-70.7082,41.731],[-70.7151,41.7324],[-70.7187,41.7357],[-70.7263,41.7327],[-70.7208,41.7276],[-70.7209,41.7232],[-70.7258,41.7246],[-70.7285,41.7229],[-70.7213,41.713],[-70.7149,41.7103],[-70.712,41.707],[-70.7142,41.7017],[-70.7227,41.7038],[-70.7275,41.7024],[-70.7232,41.696],[-70.7175,41.694],[-70.7149,41.6919],[-70.7184,41.6902],[-70.715,41.681],[-70.7156,41.6753],[-70.7198,41.678],[-70.7215,41.6815],[-70.7294,41.6881],[-70.7396,41.6918],[-70.7444,41.698],[-70.7489,41.6974],[-70.7553,41.6943],[-70.7524,41.6902],[-70.7517,41.6856],[-70.7491,41.6804],[-70.7434,41.6747],[-70.7451,41.6724],[-70.7508,41.6756],[-70.7524,41.6785],[-70.7584,41.6806],[-70.7638,41.6769],[-70.7619,41.6729],[-70.7567,41.6669],[-70.7624,41.6677],[-70.7619,41.6655],[-70.7582,41.6612],[-70.7571,41.6529],[-70.7624,41.6527],[-70.7622,41.6483],[-70.7665,41.6484],[-70.7684,41.6458],[-70.7655,41.6416],[-70.7693,41.6411],[-70.7737,41.645],[-70.7767,41.6508],[-70.7908,41.6532],[-70.7952,41.6509],[-70.8023,41.6557],[-70.809,41.6584],[-70.8216,41.6548],[-70.8233,41.649],[-70.8047,41.6412],[-70.8002,41.6318],[-70.8011,41.6295],[-70.8103,41.6249],[-70.8177,41.6234],[-70.8221,41.6275],[-70.8278,41.6246],[-70.8353,41.6245],[-70.8432,41.6285],[-70.8452,41.6447],[-70.8864,41.7602],[-70.9044,41.758],[-70.9218,41.7912],[-71.0263,41.7789],[-71.0146,41.7996],[-71.0366,41.8165],[-70.9959,41.847],[-70.9905,41.8501],[-70.9858,41.8541],[-70.9783,41.8572],[-70.9737,41.8609],[-70.9772,41.8751],[-70.9873,41.9058],[-70.9932,41.9064],[-70.9911,41.9091],[-70.992,41.9156],[-70.9951,41.915],[-70.9971,41.9167],[-70.9972,41.9231],[-70.9955,41.9251],[-71.0106,41.9401],[-71.0426,41.9595],[-71.0495,41.9631],[-71.0542,41.9827],[-71.0696,42.0497],[-71.0805,42.0955],[-71.002,42.1265],[-71.0022,42.1273],[-70.9249,42.1576],[-70.9147,42.2251],[-70.9235,42.2259],[-70.9224,42.2293],[-70.9258,42.2368],[-70.9313,42.2443],[-70.9312,42.2486],[-70.9335,42.25],[-70.9324,42.2526],[-70.9193,42.2547],[-70.9171,42.2556],[-70.9182,42.2601],[-70.9174,42.2639],[-70.9083,42.2647],[-70.9075,42.2623]]]]}},{"type":"Feature","properties":{"id":"25025","name":"Suffolk Co., MA"},"geometry":{"type":"MultiPolygon","coordinates":[[[[-70.926,42.3219],[-70.9253,42.3172],[-70.9308,42.319],[-70.9302,42.3223],[-70.926,42.3219]]],[[[-70.9226,42.3261],[-70.9268,42.3254],[-70.9277,42.3273],[-70.9314,42.3283],[-70.9297,42.334],[-70.9226,42.3261]]],[[[-70.9349,42.3268],[-70.9399,42.3242],[-70.9429,42.3257],[-70.9407,42.3281],[-70.9349,42.3268]]],[[[-70.9515,42.3136],[-70.9485,42.3119],[-70.9524,42.311],[-70.9543,42.3086],[-70.9581,42.3117],[-70.9515,42.3136]]],[[[-70.9704,42.3162],[-70.9675,42.3229],[-70.9573,42.3317],[-70.9528,42.3306],[-70.9537,42.3279],[-70.9591,42.3246],[-70.9635,42.3185],[-70.9657,42.3135],[-70.9712,42.3112],[-70.9772,42.3102],[-70.9774,42.3123],[-70.9704,42.3162]]],[[[-70.9831,42.3272],[-70.984,42.3213],[-70.9857,42.3187],[-70.9888,42.3192],[-70.9889,42.3237],[-70.9916,42.3263],[-70.9892,42.3283],[-70.9831,42.3272]]],[[[-71.0113,42.3164],[-71.0064,42.3209],[-71.0003,42.3213],[-71.0067,42.3161],[-71.0115,42.3093],[-71.0172,42.3118],[-71.0166,42.3137],[-71.0113,42.3164]]],[[[-71.1521,42.2946],[-71.1469,42.2973],[-71.1401,42.3021],[-71.1365,42.3062],[-71.1319,42.3132],[-71.1237,42.3227],[-71.1165,42.3239],[-71.1131,42.3326],[-71.1108,42.3362],[-71.1106,42.3404],[-71.1055,42.3438],[-71.1072,42.347],[-71.1066,42.3499],[-71.1229,42.3519],[-71.1286,42.3497],[-71.1352,42.346],[-71.1462,42.3374],[-71.157,42.3304],[-71.1609,42.3336],[-71.1676,42.3334],[-71.1689,42.3384],[-71.1667,42.34],[-71.1748,42.3503],[-71.1739,42.3534],[-71.1676,42.3601],[-71.1639,42.3585],[-71.1597,42.3598],[-71.1483,42.3611],[-71.1445,42.3648],[-71.1399,42.3644],[-71.1318,42.3699],[-71.1332,42.3723],[-71.1282,42.3736],[-71.1232,42.3689],[-71.1172,42.3674],[-71.1169,42.3554],[-71.1132,42.3531],[-71.1043,42.3524],[-71.0912,42.3543],[-71.078,42.3587],[-71.0748,42.3638],[-71.0695,42.369],[-71.0641,42.369],[-71.0671,42.3718],[-71.0725,42.3727],[-71.0757,42.3802],[-71.0807,42.381],[-71.0735,42.3918],[-71.067,42.394],[-71.0709,42.389],[-71.0657,42.3866],[-71.0553,42.3871],[-71.05,42.3935],[-71.0533,42.3962],[-71.0519,42.3976],[-71.0481,42.3966],[-71.0406,42.402],[-71.0334,42.4134],[-71.0311,42.4188],[-71.0204,42.4382],[-71.0258,42.4447],[-71.0188,42.4501],[-71.0119,42.4422],[-71.0101,42.4382],[-71.0108,42.4346],[-70.9972,42.4311],[-70.9901,42.4349],[-70.9823,42.4313],[-70.9752,42.4369],[-70.9716,42.4427],[-70.9686,42.4444],[-70.9661,42.4435],[-70.9665,42.4425],[-70.9597,42.4407],[-70.9755,42.4316],[-70.983,42.424],[-70.9877,42.4167],[-70.9906,42.4071],[-70.9892,42.4026],[-70.9851,42.402],[-70.9834,42.3962],[-70.9798,42.3906],[-70.9758,42.3895],[-70.9686,42.3901],[-70.9673,42.3882],[-70.9725,42.385],[-70.9716,42.3774],[-70.9666,42.3676],[-70.9692,42.3643],[-70.968,42.3576],[-70.9624,42.355],[-70.9586,42.3555],[-70.9533,42.3497],[-70.953,42.344],[-70.96,42.3465],[-70.9745,42.3593],[-70.9754,42.3623],[-70.9707,42.3706],[-70.9728,42.3719],[-70.9881,42.3685],[-70.9972,42.3727],[-71.0002,42.3724],[-71.0028,42.3659],[-70.9977,42.3606],[-70.988,42.3619],[-70.9853,42.3583],[-70.9895,42.3545],[-70.9943,42.3539],[-70.9996,42.3564],[-71.0037,42.356],[-71.0056,42.3474],[-71.0078,42.3471],[-71.0277,42.3586],[-71.0269,42.3638],[-71.038,42.3638],[-71.0426,42.3672],[-71.0447,42.3722],[-71.0506,42.3729],[-71.0526,42.3708],[-71.0505,42.3681],[-71.0497,42.3566],[-71.0139,42.3417],[-71.0102,42.3376],[-71.0157,42.3305],[-71.0242,42.3332],[-71.0347,42.3288],[-71.0423,42.3301],[-71.0476,42.3281],[-71.0474,42.3234],[-71.0331,42.3161],[-71.0328,42.3135],[-71.0369,42.3105],[-71.041,42.3122],[-71.0448,42.3092],[-71.0476,42.3034],[-71.0445,42.3015],[-71.0468,42.2981],[-71.0437,42.2929],[-71.0399,42.2925],[-71.038,42.2887],[-71.0381,42.2847],[-71.0416,42.2781],[-71.0449,42.2763],[-71.0498,42.2781],[-71.0533,42.2775],[-71.0556,42.2751],[-71.0538,42.2717],[-71.0622,42.2672],[-71.0651,42.2707],[-71.0765,42.2705],[-71.0828,42.2686],[-71.0894,42.2697],[-71.0903,42.2666],[-71.0939,42.2671],[-71.0975,42.2631],[-71.1037,42.2597],[-71.105,42.2608],[-71.1115,42.2608],[-71.1133,42.2589],[-71.1095,42.2554],[-71.1093,42.248],[-71.1264,42.2392],[-71.1226,42.2345],[-71.1246,42.234],[-71.1307,42.2279],[-71.1427,42.236],[-71.1466,42.2558],[-71.1521,42.2582],[-71.1586,42.2552],[-71.1742,42.267],[-71.173,42.2703],[-71.175,42.276],[-71.1775,42.2769],[-71.1832,42.2759],[-71.1853,42.2795],[-71.1912,42.283],[-71.1786,42.2946],[-71.1647,42.3038],[-71.1521,42.2946]]]]}}]}