{"type":"FeatureCollection","features":[{"type":"Feature","properties":{"id":"26147","name":"St. Clair Co."},"geometry":{"type":"Polygon","coordinates":[[[-82.9436,43.1555],[-82.835,43.1583],[-82.7909,43.1595],[-82.7023,43.1623],[-82.6433,43.164],[-82.525,43.1682],[-82.5034,43.1689],[-82.5013,43.1647],[-82.5017,43.1617],[-82.4942,43.1437],[-82.4906,43.1182],[-82.4873,43.1128],[-82.486,43.1025],[-82.4765,43.0918],[-82.4711,43.0876],[-82.4631,43.0694],[-82.4572,43.0613],[-82.4404,43.0352],[-82.4265,43.0172],[-82.4223,43.0057],[-82.4194,43.0027],[-82.4244,42.997],[-82.425,42.9934],[-82.4205,42.9842],[-82.4135,42.9769],[-82.4167,42.9666],[-82.4286,42.952],[-82.4471,42.9378],[-82.4556,42.9267],[-82.4642,42.9011],[-82.4699,42.8875],[-82.47,42.8814],[-82.4682,42.8591],[-82.4689,42.8516],[-82.4727,42.8368],[-82.4786,42.8252],[-82.4826,42.8086],[-82.4816,42.8048],[-82.4722,42.786],[-82.4702,42.7806],[-82.467,42.7687],[-82.4678,42.7614],[-82.4834,42.7335],[-82.4839,42.718],[-82.4945,42.7008],[-82.5109,42.6645],[-82.5099,42.6373],[-82.5188,42.6139],[-82.5254,42.6057],[-82.5482,42.5918],[-82.5543,42.5846],[-82.5585,42.581],[-82.5699,42.5729],[-82.5796,42.5653],[-82.584,42.554],[-82.5903,42.5509],[-82.6057,42.5482],[-82.6091,42.549],[-82.6171,42.5547],[-82.6243,42.5571],[-82.6337,42.5568],[-82.6431,42.5543],[-82.6624,42.5413],[-82.6675,42.5337],[-82.6791,42.5222],[-82.6807,42.5232],[-82.6815,42.5304],[-82.6795,42.5355],[-82.671,42.538],[-82.6643,42.5462],[-82.6512,42.5533],[-82.6479,42.5593],[-82.6528,42.5648],[-82.6569,42.5677],[-82.6613,42.5686],[-82.6669,42.5667],[-82.6759,42.5615],[-82.6833,42.5555],[-82.6859,42.5601],[-82.6896,42.5598],[-82.6876,42.5661],[-82.681,42.5703],[-82.681,42.5747],[-82.6751,42.5793],[-82.6707,42.5769],[-82.6675,42.5788],[-82.6679,42.5811],[-82.6617,42.5816],[-82.6581,42.5908],[-82.6565,42.5924],[-82.6607,42.5959],[-82.6695,42.5932],[-82.6724,42.5961],[-82.6771,42.5974],[-82.6874,42.5893],[-82.7012,42.586],[-82.7112,42.5909],[-82.713,42.5979],[-82.7008,42.6067],[-82.6871,42.6064],[-82.6794,42.6123],[-82.6765,42.613],[-82.6762,42.6162],[-82.6816,42.6187],[-82.6837,42.623],[-82.6901,42.625],[-82.6898,42.6271],[-82.6754,42.6267],[-82.6655,42.6242],[-82.6647,42.6321],[-82.6691,42.6372],[-82.6667,42.64],[-82.6618,42.6356],[-82.6559,42.6473],[-82.6529,42.6506],[-82.6486,42.649],[-82.6423,42.6443],[-82.639,42.64],[-82.6353,42.64],[-82.6309,42.6421],[-82.6264,42.6474],[-82.623,42.656],[-82.6238,42.6654],[-82.6309,42.6733],[-82.6353,42.6756],[-82.648,42.6752],[-82.6532,42.6722],[-82.6598,42.6786],[-82.6743,42.687],[-82.6855,42.69],[-82.6962,42.6903],[-82.701,42.6895],[-82.7054,42.6867],[-82.706,42.6863],[-82.7233,42.7004],[-82.7197,42.703],[-82.7293,42.7061],[-82.7316,42.7581],[-82.7363,42.8544],[-82.739,42.8975],[-82.779,42.8962],[-82.7995,42.8957],[-82.8384,42.8953],[-82.8657,42.8952],[-82.925,42.8946],[-82.9836,42.8937],[-82.9878,42.9824],[-82.9866,42.9824],[-82.9889,43.033],[-82.9939,43.1191],[-82.9963,43.1541],[-82.9436,43.1555]]]}},{"type":"Feature","properties":{"id":"26099","name":"Macomb Co."},"geometry":{"type":"Polygon","coordinates":[[[-83.043,42.8902],[-83.0236,42.8905],[-83.003,42.8932],[-82.9836,42.8937],[-82.925,42.8946],[-82.8657,42.8952],[-82.8384,42.8953],[-82.7995,42.8957],[-82.779,42.8962],[-82.739,42.8975],[-82.7363,42.8544],[-82.7316,42.7581],[-82.7293,42.7061],[-82.7197,42.703],[-82.7233,42.7004],[-82.706,42.6863],[-82.7054,42.6867],[-82.7091,42.6836],[-82.7193,42.6837],[-82.7264,42.6828],[-82.7313,42.6802],[-82.7357,42.6756],[-82.7355,42.6729],[-82.747,42.6728],[-82.7533,42.6697],[-82.7601,42.6638],[-82.7603,42.6566],[-82.774,42.6542],[-82.7808,42.6522],[-82.7924,42.6551],[-82.7973,42.654],[-82.8056,42.6488],[-82.8079,42.6454],[-82.8135,42.6408],[-82.8204,42.6262],[-82.8207,42.6153],[-82.8123,42.6107],[-82.7926,42.6048],[-82.7931,42.6],[-82.7907,42.596],[-82.7875,42.5953],[-82.7764,42.5961],[-82.7722,42.5934],[-82.774,42.5918],[-82.7787,42.5936],[-82.7868,42.5922],[-82.7888,42.5846],[-82.7854,42.5789],[-82.7846,42.5742],[-82.7816,42.5707],[-82.7834,42.5678],[-82.7824,42.5648],[-82.7845,42.5636],[-82.7891,42.5684],[-82.7967,42.571],[-82.8101,42.5714],[-82.8162,42.5697],[-82.821,42.5707],[-82.8342,42.5678],[-82.8411,42.5632],[-82.8451,42.5614],[-82.8493,42.5557],[-82.8499,42.5498],[-82.8593,42.5419],[-82.8707,42.5289],[-82.8706,42.5259],[-82.8744,42.5235],[-82.8823,42.501],[-82.8827,42.4925],[-82.8791,42.4915],[-82.8827,42.4898],[-82.8844,42.4766],[-82.877,42.472],[-82.8756,42.4602],[-82.8732,42.4568],[-82.8684,42.4548],[-82.8702,42.451],[-82.9286,42.4506],[-82.9368,42.4503],[-82.9661,42.4499],[-83.0247,42.4482],[-83.0639,42.4473],[-83.0834,42.4472],[-83.0856,42.5052],[-83.0869,42.5348],[-83.0882,42.5494],[-83.0899,42.593],[-83.091,42.6143],[-83.0948,42.697],[-83.0976,42.7633],[-83.0994,42.8006],[-83.1029,42.8886],[-83.043,42.8902]]]}},{"type":"Feature","properties":{"id":"26163","name":"Wayne Co."},"geometry":{"type":"MultiPolygon","coordinates":[[[[-83.1899,42.036],[-83.1892,42.0333],[-83.1916,42.0354],[-83.1899,42.036]]],[[[-83.4832,42.4374],[-83.4239,42.4393],[-83.3463,42.4413],[-83.2783,42.4429],[-83.1908,42.4451],[-83.1029,42.4471],[-83.0834,42.4472],[-83.0639,42.4473],[-83.0247,42.4482],[-82.9661,42.4499],[-82.9368,42.4503],[-82.9286,42.4506],[-82.8702,42.451],[-82.8744,42.4417],[-82.8738,42.4354],[-82.8787,42.429],[-82.8859,42.4083],[-82.8815,42.4066],[-82.8827,42.4049],[-82.8865,42.4056],[-82.8886,42.398],[-82.894,42.3894],[-82.8984,42.3854],[-82.9038,42.382],[-82.9151,42.3781],[-82.9191,42.3744],[-82.9235,42.3676],[-82.9246,42.3623],[-82.9288,42.3602],[-82.9287,42.3584],[-82.9326,42.3572],[-82.9558,42.3547],[-82.9645,42.3552],[-82.967,42.3524],[-82.9627,42.3497],[-82.9543,42.3489],[-82.9539,42.3469],[-82.9598,42.34],[-82.9886,42.3324],[-83.0133,42.3314],[-83.0262,42.3289],[-83.0406,42.3241],[-83.0636,42.3169],[-83.0804,42.3068],[-83.0973,42.2901],[-83.0996,42.2871],[-83.1084,42.2699],[-83.112,42.2606],[-83.1264,42.2384],[-83.1306,42.211],[-83.1344,42.1746],[-83.1305,42.162],[-83.1253,42.1376],[-83.1213,42.131],[-83.1192,42.1253],[-83.1213,42.1175],[-83.125,42.1085],[-83.1275,42.105],[-83.132,42.0902],[-83.1426,42.0908],[-83.1456,42.0889],[-83.1524,42.089],[-83.1545,42.0861],[-83.1582,42.0857],[-83.1614,42.0899],[-83.1682,42.089],[-83.1728,42.0872],[-83.172,42.0825],[-83.1694,42.0764],[-83.1731,42.0753],[-83.1781,42.0824],[-83.1824,42.0834],[-83.1857,42.0794],[-83.191,42.0774],[-83.1922,42.066],[-83.1887,42.0556],[-83.1867,42.052],[-83.1876,42.0443],[-83.1954,42.0399],[-83.1998,42.039],[-83.21,42.0437],[-83.2128,42.042],[-83.2177,42.0447],[-83.2197,42.0491],[-83.2291,42.0483],[-83.2306,42.0495],[-83.2293,42.0549],[-83.2323,42.0549],[-83.2344,42.059],[-83.2367,42.0579],[-83.2432,42.0615],[-83.2486,42.0606],[-83.25,42.0635],[-83.2545,42.064],[-83.2515,42.0677],[-83.2549,42.0687],[-83.2576,42.0737],[-83.2626,42.0727],[-83.2643,42.0693],[-83.2676,42.0691],[-83.27,42.0714],[-83.2688,42.0743],[-83.2704,42.0761],[-83.273,42.075],[-83.2771,42.0761],[-83.2753,42.0803],[-83.2782,42.0794],[-83.2804,42.0816],[-83.2776,42.0819],[-83.2803,42.0855],[-83.2832,42.0861],[-83.2831,42.0894],[-83.2893,42.09],[-83.2902,42.0919],[-83.2953,42.0942],[-83.3772,42.0939],[-83.4208,42.0936],[-83.4206,42.0878],[-83.48,42.0869],[-83.5394,42.0856],[-83.541,42.1439],[-83.5436,42.2188],[-83.5444,42.2488],[-83.5437,42.2625],[-83.5454,42.3058],[-83.5504,42.4071],[-83.5519,42.4352],[-83.4832,42.4374]]]]}},{"type":"Feature","properties":{"id":"26125","name":"Oakland Co."},"geometry":{"type":"Polygon","coordinates":[[[-83.4058,42.8813],[-83.3055,42.8834],[-83.1812,42.8866],[-83.1437,42.8879],[-83.1029,42.8886],[-83.0994,42.8006],[-83.0976,42.7633],[-83.0948,42.697],[-83.091,42.6143],[-83.0899,42.593],[-83.0882,42.5494],[-83.0869,42.5348],[-83.0856,42.5052],[-83.0834,42.4472],[-83.1029,42.4471],[-83.1908,42.4451],[-83.2783,42.4429],[-83.3463,42.4413],[-83.4239,42.4393],[-83.4832,42.4374],[-83.5519,42.4352],[-83.6648,42.4312],[-83.6677,42.4753],[-83.6719,42.5336],[-83.6755,42.5808],[-83.681,42.6646],[-83.6828,42.6956],[-83.6851,42.7447],[-83.6865,42.7833],[-83.6875,42.8196],[-83.6886,42.842],[-83.6894,42.8713],[-83.5945,42.8729],[-83.571,42.8733],[-83.551,42.8741],[-83.5126,42.8749],[-83.4533,42.8763],[-83.4534,42.8804],[-83.4058,42.8813]]]}},{"type":"Feature","properties":{"id":"26087","name":"Lapeer Co."},"geometry":{"type":"Polygon","coordinates":[[[-82.9939,43.1191],[-82.9889,43.033],[-82.9866,42.9824],[-82.9878,42.9824],[-82.9836,42.8937],[-83.003,42.8932],[-83.0236,42.8905],[-83.043,42.8902],[-83.1029,42.8886],[-83.1437,42.8879],[-83.1812,42.8866],[-83.3055,42.8834],[-83.4058,42.8813],[-83.4534,42.8804],[-83.4536,42.8823],[-83.4557,42.9312],[-83.4568,42.9631],[-83.4591,43.05],[-83.459,43.0899],[-83.4597,43.1434],[-83.4604,43.2153],[-83.4607,43.2328],[-83.3517,43.2352],[-83.3544,43.3223],[-83.3221,43.3228],[-83.2381,43.3245],[-83.1204,43.327],[-83.119,43.2837],[-83.0995,43.2841],[-83.0795,43.2841],[-83.0004,43.2849],[-82.9991,43.2265],[-82.9963,43.1541],[-82.9939,43.1191]]]}},{"type":"Feature","properties":{"id":"26093","name":"Livingston Co."},"geometry":{"type":"Polygon","coordinates":[[[-83.7448,42.4285],[-83.7651,42.4294],[-83.8118,42.4279],[-83.8349,42.4273],[-83.9058,42.4252],[-83.9446,42.4241],[-84.0151,42.4239],[-84.0741,42.4242],[-84.1407,42.4246],[-84.1408,42.4682],[-84.1406,42.5099],[-84.1417,42.5436],[-84.1448,42.5996],[-84.1454,42.6059],[-84.1493,42.6669],[-84.1512,42.699],[-84.1544,42.7394],[-84.1582,42.7766],[-84.0891,42.7776],[-83.9717,42.7797],[-83.884,42.7817],[-83.8054,42.7811],[-83.7865,42.7816],[-83.6865,42.7833],[-83.6851,42.7447],[-83.6828,42.6956],[-83.681,42.6646],[-83.6755,42.5808],[-83.6719,42.5336],[-83.6677,42.4753],[-83.6648,42.4312],[-83.7448,42.4285]]]}}]}