{"type":"FeatureCollection","features":[{"type":"Feature","properties":{"id":"36053","name":"Madison Co."},"geometry":{"type":"Polygon","coordinates":[[[-75.8766,43.1524],[-75.8748,43.1527],[-75.8718,43.1483],[-75.8676,43.1466],[-75.86,43.1482],[-75.8567,43.1502],[-75.853,43.1565],[-75.8464,43.1575],[-75.84,43.1605],[-75.8284,43.159],[-75.8189,43.1614],[-75.8053,43.1608],[-75.8027,43.1595],[-75.797,43.1591],[-75.7878,43.1641],[-75.7865,43.1667],[-75.7785,43.1681],[-75.7761,43.1733],[-75.7756,43.1716],[-75.7688,43.1699],[-75.7676,43.1683],[-75.7602,43.1647],[-75.7581,43.1617],[-75.7525,43.1587],[-75.7474,43.1581],[-75.7378,43.1647],[-75.732,43.1625],[-75.7284,43.1624],[-75.726,43.1574],[-75.7234,43.1603],[-75.7239,43.1626],[-75.7199,43.1611],[-75.7189,43.1585],[-75.7225,43.1562],[-75.7137,43.1494],[-75.7118,43.1512],[-75.7067,43.1512],[-75.7088,43.1468],[-75.7064,43.1445],[-75.7078,43.1397],[-75.7068,43.137],[-75.7014,43.1367],[-75.6971,43.1396],[-75.6943,43.1393],[-75.6963,43.1365],[-75.6938,43.1336],[-75.6871,43.1335],[-75.6869,43.1298],[-75.6782,43.1269],[-75.6825,43.1265],[-75.6847,43.1235],[-75.6724,43.1206],[-75.6736,43.118],[-75.6695,43.1152],[-75.6607,43.1157],[-75.6597,43.1136],[-75.653,43.114],[-75.6559,43.1098],[-75.6509,43.1056],[-75.6466,43.1063],[-75.6463,43.1029],[-75.6393,43.097],[-75.6416,43.095],[-75.6404,43.0847],[-75.6388,43.0819],[-75.6418,43.0819],[-75.6373,43.0765],[-75.6311,43.0769],[-75.6283,43.0741],[-75.6222,43.0738],[-75.6219,43.0719],[-75.6182,43.0711],[-75.6177,43.0674],[-75.6146,43.0658],[-75.6023,43.0641],[-75.5995,43.0614],[-75.6047,43.0565],[-75.6042,43.0546],[-75.608,43.0531],[-75.6022,43.0485],[-75.5979,43.0429],[-75.5987,43.0381],[-75.5969,43.0354],[-75.5528,43.0376],[-75.5517,43.0291],[-75.5448,42.9563],[-75.5428,42.9318],[-75.4442,42.9331],[-75.4386,42.8751],[-75.4372,42.8633],[-75.3238,42.8687],[-75.264,42.8711],[-75.248,42.8716],[-75.2448,42.8686],[-75.2461,42.8649],[-75.2441,42.8613],[-75.2469,42.8554],[-75.2447,42.8505],[-75.2472,42.8499],[-75.2466,42.8445],[-75.2426,42.8434],[-75.2431,42.8386],[-75.2395,42.8342],[-75.2447,42.8308],[-75.2502,42.8238],[-75.2481,42.8221],[-75.2457,42.8171],[-75.2421,42.8174],[-75.2438,42.8151],[-75.2482,42.8141],[-75.2486,42.8075],[-75.2517,42.8001],[-75.2507,42.7968],[-75.2532,42.7957],[-75.25,42.7922],[-75.2525,42.7904],[-75.2519,42.784],[-75.2571,42.783],[-75.2557,42.7807],[-75.2584,42.7797],[-75.2588,42.777],[-75.2658,42.7748],[-75.2679,42.7755],[-75.2737,42.7715],[-75.2751,42.7645],[-75.2797,42.764],[-75.2782,42.76],[-75.2801,42.7545],[-75.2851,42.7508],[-75.2881,42.7522],[-75.2909,42.7514],[-75.2908,42.7485],[-75.2934,42.7477],[-75.2959,42.7441],[-75.3711,42.7403],[-75.428,42.7381],[-75.4287,42.7454],[-75.4893,42.7422],[-75.4927,42.7422],[-75.5525,42.7394],[-75.6184,42.737],[-75.6246,42.737],[-75.7075,42.733],[-75.7496,42.731],[-75.7798,42.7297],[-75.8033,42.7284],[-75.8211,42.7272],[-75.8898,42.7238],[-75.8923,42.7541],[-75.8961,42.791],[-75.8986,42.8255],[-75.9032,42.8807],[-75.9086,42.9585],[-75.9094,42.9748],[-75.9106,42.9894],[-75.9115,43.0068],[-75.9152,43.0592],[-75.9172,43.0859],[-75.9198,43.0898],[-75.927,43.0905],[-75.9295,43.0873],[-75.9308,43.09],[-75.934,43.0872],[-75.9379,43.0891],[-75.9385,43.0868],[-75.9503,43.0895],[-75.9514,43.0873],[-75.9546,43.0874],[-75.9617,43.0855],[-75.9606,43.0889],[-75.9665,43.0875],[-75.9654,43.0891],[-75.9716,43.0896],[-75.9707,43.0909],[-75.9756,43.0913],[-75.9747,43.0969],[-75.9763,43.0985],[-75.9762,43.1033],[-75.9715,43.1049],[-75.9717,43.1092],[-75.9692,43.1105],[-75.9654,43.1167],[-75.9656,43.1195],[-75.961,43.1158],[-75.9568,43.115],[-75.9544,43.1169],[-75.9571,43.1202],[-75.9588,43.1281],[-75.9568,43.1268],[-75.9503,43.1326],[-75.9533,43.1334],[-75.9501,43.1349],[-75.9605,43.1328],[-75.9667,43.1347],[-75.9723,43.1405],[-75.9753,43.1389],[-75.9738,43.1373],[-75.977,43.136],[-75.977,43.1408],[-75.9718,43.1438],[-75.9734,43.1487],[-75.9715,43.1549],[-75.9771,43.1576],[-75.9744,43.1632],[-75.981,43.1677],[-75.9795,43.1707],[-75.9827,43.1736],[-75.9865,43.1716],[-75.99,43.1715],[-75.9926,43.1738],[-75.9897,43.1796],[-75.9914,43.1833],[-75.9934,43.1834],[-75.9924,43.1852],[-75.9869,43.1839],[-75.9845,43.1797],[-75.9795,43.1774],[-75.9734,43.1799],[-75.9594,43.1804],[-75.9593,43.1762],[-75.9556,43.1722],[-75.9495,43.1713],[-75.9461,43.1737],[-75.9382,43.1743],[-75.9328,43.1766],[-75.9282,43.1693],[-75.9275,43.1627],[-75.9232,43.1612],[-75.9046,43.1579],[-75.8871,43.1563],[-75.8843,43.1556],[-75.8766,43.1524]]]}},{"type":"Feature","properties":{"id":"36067","name":"Onondaga Co."},"geometry":{"type":"Polygon","coordinates":[[[-76.4153,43.2298],[-76.366,43.2317],[-76.3446,43.2327],[-76.3446,43.2315],[-76.3242,43.2323],[-76.3161,43.2294],[-76.3075,43.2308],[-76.3008,43.2271],[-76.2979,43.2238],[-76.2895,43.219],[-76.2878,43.2168],[-76.2871,43.2107],[-76.2829,43.2068],[-76.281,43.2011],[-76.2762,43.2018],[-76.2714,43.204],[-76.2682,43.2095],[-76.2645,43.2135],[-76.2621,43.2185],[-76.2622,43.2236],[-76.2636,43.2262],[-76.2669,43.2275],[-76.2684,43.2334],[-76.2722,43.2349],[-76.2756,43.2388],[-76.2729,43.2402],[-76.2683,43.2396],[-76.2638,43.2364],[-76.259,43.2375],[-76.2565,43.2321],[-76.25,43.2252],[-76.2446,43.2146],[-76.2338,43.2124],[-76.23,43.2079],[-76.2244,43.205],[-76.2176,43.2048],[-76.2083,43.208],[-76.2106,43.2106],[-76.2062,43.2166],[-76.1987,43.2126],[-76.1942,43.2171],[-76.2025,43.2223],[-76.2047,43.229],[-76.2039,43.2348],[-76.205,43.2374],[-76.2134,43.24],[-76.2106,43.244],[-76.2128,43.2574],[-76.2093,43.2621],[-76.2108,43.2685],[-76.205,43.2711],[-76.2004,43.2706],[-76.1941,43.2661],[-76.1853,43.2587],[-76.1821,43.2576],[-76.1796,43.2536],[-76.1743,43.2514],[-76.169,43.2467],[-76.1613,43.2436],[-76.1576,43.2433],[-76.1485,43.2396],[-76.1398,43.2404],[-76.1345,43.2364],[-76.1265,43.2338],[-76.1215,43.2345],[-76.1159,43.2333],[-76.1067,43.2269],[-76.1066,43.2244],[-76.1038,43.2237],[-76.0993,43.2249],[-76.0875,43.2192],[-76.0847,43.2169],[-76.0758,43.215],[-76.0694,43.2147],[-76.068,43.2127],[-76.0768,43.2141],[-76.0836,43.2142],[-76.0853,43.2116],[-76.0801,43.2099],[-76.0825,43.2069],[-76.0818,43.2022],[-76.0789,43.1995],[-76.0742,43.1992],[-76.0658,43.2006],[-76.0567,43.1993],[-76.0535,43.2005],[-76.0526,43.2029],[-76.0461,43.2022],[-76.0351,43.1956],[-76.0325,43.1912],[-76.0257,43.1905],[-76.0116,43.1855],[-76.0087,43.1813],[-76.0052,43.1794],[-75.9991,43.1806],[-75.9934,43.1834],[-75.9914,43.1833],[-75.9897,43.1796],[-75.9926,43.1738],[-75.99,43.1715],[-75.9865,43.1716],[-75.9827,43.1736],[-75.9795,43.1707],[-75.981,43.1677],[-75.9744,43.1632],[-75.9771,43.1576],[-75.9715,43.1549],[-75.9734,43.1487],[-75.9718,43.1438],[-75.977,43.1408],[-75.977,43.136],[-75.9738,43.1373],[-75.9753,43.1389],[-75.9723,43.1405],[-75.9667,43.1347],[-75.9605,43.1328],[-75.9501,43.1349],[-75.9533,43.1334],[-75.9503,43.1326],[-75.9568,43.1268],[-75.9588,43.1281],[-75.9571,43.1202],[-75.9544,43.1169],[-75.9568,43.115],[-75.961,43.1158],[-75.9656,43.1195],[-75.9654,43.1167],[-75.9692,43.1105],[-75.9717,43.1092],[-75.9715,43.1049],[-75.9762,43.1033],[-75.9763,43.0985],[-75.9747,43.0969],[-75.9756,43.0913],[-75.9707,43.0909],[-75.9716,43.0896],[-75.9654,43.0891],[-75.9665,43.0875],[-75.9606,43.0889],[-75.9617,43.0855],[-75.9546,43.0874],[-75.9514,43.0873],[-75.9503,43.0895],[-75.9385,43.0868],[-75.9379,43.0891],[-75.934,43.0872],[-75.9308,43.09],[-75.9295,43.0873],[-75.927,43.0905],[-75.9198,43.0898],[-75.9172,43.0859],[-75.9152,43.0592],[-75.9115,43.0068],[-75.9106,42.9894],[-75.9094,42.9748],[-75.9086,42.9585],[-75.9032,42.8807],[-75.8986,42.8255],[-75.8961,42.791],[-75.9397,42.7884],[-76.0052,42.7849],[-76.0802,42.7816],[-76.0802,42.78],[-76.1151,42.7787],[-76.1264,42.7779],[-76.1966,42.7747],[-76.2747,42.7713],[-76.2753,42.7805],[-76.2791,42.7859],[-76.2862,42.7944],[-76.2988,42.8075],[-76.3058,42.8133],[-76.3363,42.8342],[-76.357,42.8494],[-76.4395,42.8463],[-76.4507,42.8458],[-76.456,42.9127],[-76.4574,42.9295],[-76.463,43.0063],[-76.4919,43.005],[-76.4954,43.0535],[-76.4993,43.0972],[-76.4978,43.1027],[-76.4912,43.1063],[-76.4832,43.1061],[-76.4736,43.104],[-76.4718,43.105],[-76.4728,43.1146],[-76.4786,43.1312],[-76.483,43.1371],[-76.4863,43.1432],[-76.4812,43.1459],[-76.4731,43.146],[-76.4772,43.1992],[-76.4792,43.2275],[-76.4153,43.2298]]]}},{"type":"Feature","properties":{"id":"36075","name":"Oswego Co."},"geometry":{"type":"Polygon","coordinates":[[[-75.8871,43.1563],[-75.9046,43.1579],[-75.9232,43.1612],[-75.9275,43.1627],[-75.9282,43.1693],[-75.9328,43.1766],[-75.9382,43.1743],[-75.9461,43.1737],[-75.9495,43.1713],[-75.9556,43.1722],[-75.9593,43.1762],[-75.9594,43.1804],[-75.9734,43.1799],[-75.9795,43.1774],[-75.9845,43.1797],[-75.9869,43.1839],[-75.9924,43.1852],[-75.9934,43.1834],[-75.9991,43.1806],[-76.0052,43.1794],[-76.0087,43.1813],[-76.0116,43.1855],[-76.0257,43.1905],[-76.0325,43.1912],[-76.0351,43.1956],[-76.0461,43.2022],[-76.0526,43.2029],[-76.0535,43.2005],[-76.0567,43.1993],[-76.0658,43.2006],[-76.0742,43.1992],[-76.0789,43.1995],[-76.0818,43.2022],[-76.0825,43.2069],[-76.0801,43.2099],[-76.0853,43.2116],[-76.0836,43.2142],[-76.0768,43.2141],[-76.068,43.2127],[-76.0694,43.2147],[-76.0758,43.215],[-76.0847,43.2169],[-76.0875,43.2192],[-76.0993,43.2249],[-76.1038,43.2237],[-76.1066,43.2244],[-76.1067,43.2269],[-76.1159,43.2333],[-76.1215,43.2345],[-76.1265,43.2338],[-76.1345,43.2364],[-76.1398,43.2404],[-76.1485,43.2396],[-76.1576,43.2433],[-76.1613,43.2436],[-76.169,43.2467],[-76.1743,43.2514],[-76.1796,43.2536],[-76.1821,43.2576],[-76.1853,43.2587],[-76.1941,43.2661],[-76.2004,43.2706],[-76.205,43.2711],[-76.2108,43.2685],[-76.2093,43.2621],[-76.2128,43.2574],[-76.2106,43.244],[-76.2134,43.24],[-76.205,43.2374],[-76.2039,43.2348],[-76.2047,43.229],[-76.2025,43.2223],[-76.1942,43.2171],[-76.1987,43.2126],[-76.2062,43.2166],[-76.2106,43.2106],[-76.2083,43.208],[-76.2176,43.2048],[-76.2244,43.205],[-76.23,43.2079],[-76.2338,43.2124],[-76.2446,43.2146],[-76.25,43.2252],[-76.2565,43.2321],[-76.259,43.2375],[-76.2638,43.2364],[-76.2683,43.2396],[-76.2729,43.2402],[-76.2756,43.2388],[-76.2722,43.2349],[-76.2684,43.2334],[-76.2669,43.2275],[-76.2636,43.2262],[-76.2622,43.2236],[-76.2621,43.2185],[-76.2645,43.2135],[-76.2682,43.2095],[-76.2714,43.204],[-76.2762,43.2018],[-76.281,43.2011],[-76.2829,43.2068],[-76.2871,43.2107],[-76.2878,43.2168],[-76.2895,43.219],[-76.2979,43.2238],[-76.3008,43.2271],[-76.3075,43.2308],[-76.3161,43.2294],[-76.3242,43.2323],[-76.3446,43.2315],[-76.3446,43.2327],[-76.366,43.2317],[-76.4153,43.2298],[-76.4792,43.2275],[-76.4811,43.2566],[-76.5524,43.2553],[-76.605,43.2536],[-76.6077,43.2967],[-76.6127,43.3675],[-76.6139,43.3796],[-76.6155,43.4027],[-76.6169,43.418],[-76.6071,43.4234],[-76.5989,43.4244],[-76.595,43.4303],[-76.5866,43.4334],[-76.584,43.436],[-76.575,43.4413],[-76.57,43.4426],[-76.5671,43.4447],[-76.565,43.4489],[-76.5624,43.4483],[-76.5529,43.4516],[-76.5496,43.452],[-76.5468,43.4548],[-76.5318,43.4603],[-76.5263,43.4609],[-76.5162,43.4657],[-76.5113,43.4664],[-76.5069,43.4691],[-76.4984,43.4704],[-76.4917,43.4749],[-76.487,43.4754],[-76.4771,43.4857],[-76.4725,43.4928],[-76.4697,43.4955],[-76.4501,43.5039],[-76.4475,43.503],[-76.4464,43.5054],[-76.4375,43.5092],[-76.4338,43.5124],[-76.4283,43.5132],[-76.4222,43.516],[-76.4176,43.5213],[-76.4106,43.5232],[-76.3836,43.5254],[-76.3831,43.5236],[-76.3688,43.5258],[-76.3636,43.5244],[-76.3525,43.5162],[-76.3455,43.5134],[-76.3343,43.5144],[-76.3309,43.512],[-76.3187,43.5144],[-76.3097,43.515],[-76.3044,43.5127],[-76.3003,43.5137],[-76.2971,43.5129],[-76.2913,43.5138],[-76.2837,43.5165],[-76.2781,43.5207],[-76.2749,43.5197],[-76.2702,43.5207],[-76.2599,43.5247],[-76.2358,43.5293],[-76.2287,43.533],[-76.2212,43.5396],[-76.2099,43.5601],[-76.2035,43.575],[-76.1991,43.6005],[-76.1966,43.6498],[-76.1966,43.6632],[-76.1997,43.6802],[-76.1394,43.6769],[-76.102,43.6743],[-76.0664,43.6713],[-76.022,43.6681],[-76.0251,43.707],[-75.9551,43.7015],[-75.9042,43.698],[-75.7749,43.6889],[-75.7738,43.6888],[-75.7705,43.6565],[-75.7674,43.6297],[-75.7576,43.4925],[-75.7564,43.4704],[-75.8146,43.4836],[-75.8506,43.4037],[-75.8868,43.325],[-75.8629,43.3192],[-75.8684,43.2795],[-75.8698,43.2728],[-75.8707,43.2617],[-75.8751,43.2302],[-75.8843,43.1556],[-75.8871,43.1563]]]}}]}