{"type":"FeatureCollection","features":[{"type":"Feature","properties":{"id":"17031","name":"Cook Co., IL"},"geometry":{"type":"Polygon","coordinates":[[[-88.1996,42.1543],[-88.1215,42.1542],[-88.0767,42.1539],[-87.9654,42.1536],[-87.9487,42.1532],[-87.9149,42.1532],[-87.7939,42.1526],[-87.7591,42.1523],[-87.7362,42.1208],[-87.7319,42.1171],[-87.7247,42.1077],[-87.711,42.0953],[-87.6945,42.0844],[-87.6815,42.0784],[-87.6824,42.0757],[-87.6715,42.0583],[-87.6705,42.053],[-87.6732,42.048],[-87.6711,42.0427],[-87.669,42.0291],[-87.6611,42.0123],[-87.6577,42.007],[-87.654,41.989],[-87.6499,41.9785],[-87.6456,41.9714],[-87.6392,41.9662],[-87.6324,41.9653],[-87.6315,41.9635],[-87.6359,41.9614],[-87.6414,41.9617],[-87.6407,41.9539],[-87.6333,41.9424],[-87.6271,41.9171],[-87.6207,41.9132],[-87.6255,41.9105],[-87.6229,41.902],[-87.6199,41.9014],[-87.6143,41.8936],[-87.6101,41.8964],[-87.6024,41.8963],[-87.6023,41.8933],[-87.6097,41.8932],[-87.6095,41.8896],[-87.6137,41.8905],[-87.6132,41.8836],[-87.6165,41.8824],[-87.6163,41.8689],[-87.6059,41.8668],[-87.6065,41.8532],[-87.6105,41.8519],[-87.6094,41.8452],[-87.6005,41.8268],[-87.5822,41.8044],[-87.5802,41.7988],[-87.5758,41.7963],[-87.5795,41.7934],[-87.5763,41.786],[-87.5723,41.7811],[-87.5729,41.7793],[-87.5604,41.7684],[-87.5605,41.7655],[-87.5542,41.7606],[-87.5475,41.7585],[-87.5439,41.76],[-87.5407,41.7573],[-87.5445,41.7548],[-87.5433,41.752],[-87.5311,41.7481],[-87.5293,41.7328],[-87.5246,41.7235],[-87.5252,41.7176],[-87.529,41.7154],[-87.5266,41.7122],[-87.5282,41.7109],[-87.5242,41.7083],[-87.5245,41.7009],[-87.5248,41.6699],[-87.5254,41.5856],[-87.5253,41.5588],[-87.5256,41.5174],[-87.5255,41.4828],[-87.5257,41.4703],[-87.5578,41.4701],[-87.6485,41.4698],[-87.7322,41.4697],[-87.7903,41.4698],[-87.7904,41.5396],[-87.7921,41.5383],[-87.7928,41.5585],[-87.8256,41.5581],[-87.8708,41.5573],[-87.9094,41.5568],[-87.9099,41.5776],[-87.9119,41.6439],[-87.9992,41.642],[-88.0277,41.6415],[-88.029,41.6852],[-87.9821,41.6862],[-87.9794,41.6873],[-87.9754,41.6865],[-87.9667,41.6867],[-87.9554,41.6931],[-87.9478,41.6951],[-87.9422,41.6991],[-87.9421,41.7027],[-87.9366,41.7054],[-87.9347,41.708],[-87.9247,41.7132],[-87.9211,41.7164],[-87.9143,41.7166],[-87.9177,41.8056],[-87.919,41.8331],[-87.9198,41.8406],[-87.9192,41.8477],[-87.9203,41.8616],[-87.9206,41.8827],[-87.9202,41.9582],[-87.9205,41.9939],[-87.9795,41.9929],[-88.0165,41.9925],[-88.0314,41.9925],[-88.1448,41.9883],[-88.1688,41.9877],[-88.2284,41.987],[-88.2629,41.9864],[-88.2636,42.0669],[-88.2382,42.067],[-88.2384,42.1542],[-88.1996,42.1543]]]}},{"type":"Feature","properties":{"id":"17097","name":"Lake Co., IL"},"geometry":{"type":"Polygon","coordinates":[[[-88.1153,42.4962],[-88.0498,42.4953],[-87.9585,42.4947],[-87.8021,42.4926],[-87.7994,42.484],[-87.8005,42.4782],[-87.7981,42.4717],[-87.8008,42.4451],[-87.8032,42.4386],[-87.8046,42.4312],[-87.8038,42.4205],[-87.8033,42.3905],[-87.8058,42.3837],[-87.815,42.3694],[-87.8168,42.3616],[-87.8207,42.3615],[-87.8235,42.3642],[-87.824,42.3569],[-87.8258,42.3555],[-87.8272,42.3374],[-87.832,42.3283],[-87.8304,42.3123],[-87.8329,42.3089],[-87.8348,42.3015],[-87.8286,42.2699],[-87.8257,42.2624],[-87.8196,42.2518],[-87.8123,42.2318],[-87.8115,42.2285],[-87.8074,42.223],[-87.8018,42.2106],[-87.7959,42.2014],[-87.777,42.1761],[-87.7688,42.1671],[-87.7591,42.1523],[-87.7939,42.1526],[-87.9149,42.1532],[-87.9487,42.1532],[-87.9654,42.1536],[-88.0767,42.1539],[-88.1215,42.1542],[-88.1996,42.1543],[-88.1998,42.1687],[-88.199,42.236],[-88.1982,42.2416],[-88.1986,42.2923],[-88.199,42.3177],[-88.1985,42.3432],[-88.1985,42.3724],[-88.1988,42.3966],[-88.1986,42.4156],[-88.1989,42.4591],[-88.1994,42.496],[-88.1153,42.4962]]]}},{"type":"Feature","properties":{"id":"18089","name":"Lake Co., IN"},"geometry":{"type":"Polygon","coordinates":[[[-87.5255,41.4828],[-87.5256,41.5174],[-87.5253,41.5588],[-87.5254,41.5856],[-87.5248,41.6699],[-87.5245,41.7009],[-87.5242,41.7083],[-87.5213,41.71],[-87.5149,41.7046],[-87.5171,41.703],[-87.508,41.6941],[-87.5039,41.6937],[-87.5045,41.6916],[-87.4909,41.6849],[-87.4851,41.6836],[-87.4854,41.6812],[-87.4758,41.6779],[-87.4763,41.6752],[-87.468,41.6724],[-87.4627,41.6782],[-87.4499,41.6842],[-87.4468,41.6832],[-87.4426,41.6725],[-87.4428,41.6678],[-87.438,41.6646],[-87.4336,41.6681],[-87.4363,41.6713],[-87.4393,41.6801],[-87.4249,41.6901],[-87.4158,41.6882],[-87.4079,41.6803],[-87.4145,41.6757],[-87.4087,41.6703],[-87.4212,41.6595],[-87.437,41.6552],[-87.4331,41.649],[-87.4298,41.646],[-87.4208,41.641],[-87.4167,41.6409],[-87.4115,41.6437],[-87.4017,41.6393],[-87.3689,41.63],[-87.3629,41.6287],[-87.3474,41.6266],[-87.3279,41.6249],[-87.3186,41.6236],[-87.3186,41.6212],[-87.3121,41.6207],[-87.311,41.6221],[-87.306,41.6223],[-87.3044,41.6195],[-87.299,41.6191],[-87.2978,41.6233],[-87.2935,41.6237],[-87.289,41.6225],[-87.2888,41.6208],[-87.2781,41.6201],[-87.2616,41.6205],[-87.2226,41.6242],[-87.2218,41.5651],[-87.2202,41.5071],[-87.2196,41.4346],[-87.2199,41.3965],[-87.2197,41.3837],[-87.2198,41.3473],[-87.2203,41.347],[-87.2203,41.3333],[-87.2188,41.261],[-87.2189,41.242],[-87.2264,41.2355],[-87.2759,41.2186],[-87.2857,41.2152],[-87.2985,41.2054],[-87.3246,41.1862],[-87.3315,41.183],[-87.3463,41.1824],[-87.3639,41.1768],[-87.381,41.1725],[-87.3938,41.1628],[-87.4143,41.1622],[-87.4211,41.1655],[-87.4418,41.1732],[-87.4483,41.1742],[-87.458,41.1706],[-87.4848,41.1699],[-87.5266,41.1661],[-87.5267,41.2981],[-87.5265,41.3509],[-87.5258,41.4458],[-87.5257,41.4703],[-87.5255,41.4828]]]}},{"type":"Feature","properties":{"id":"17043","name":"DuPage Co., IL"},"geometry":{"type":"Polygon","coordinates":[[[-88.2284,41.987],[-88.1688,41.9877],[-88.1448,41.9883],[-88.0314,41.9925],[-88.0165,41.9925],[-87.9795,41.9929],[-87.9205,41.9939],[-87.9202,41.9582],[-87.9206,41.8827],[-87.9203,41.8616],[-87.9192,41.8477],[-87.9198,41.8406],[-87.919,41.8331],[-87.9177,41.8056],[-87.9143,41.7166],[-87.9211,41.7164],[-87.9247,41.7132],[-87.9347,41.708],[-87.9366,41.7054],[-87.9421,41.7027],[-87.9422,41.6991],[-87.9478,41.6951],[-87.9554,41.6931],[-87.9667,41.6867],[-87.9754,41.6865],[-87.9794,41.6873],[-87.9821,41.6862],[-88.029,41.6852],[-88.0304,41.7289],[-88.1482,41.7261],[-88.2001,41.7253],[-88.2613,41.7247],[-88.262,41.7247],[-88.2621,41.7604],[-88.2628,41.8091],[-88.2628,41.8289],[-88.2624,41.8992],[-88.2629,41.9864],[-88.2284,41.987]]]}},{"type":"Feature","properties":{"id":"17197","name":"Will Co., IL"},"geometry":{"type":"Polygon","coordinates":[[[-88.2001,41.7253],[-88.1482,41.7261],[-88.0304,41.7289],[-88.029,41.6852],[-88.0277,41.6415],[-87.9992,41.642],[-87.9119,41.6439],[-87.9099,41.5776],[-87.9094,41.5568],[-87.8708,41.5573],[-87.8256,41.5581],[-87.7928,41.5585],[-87.7921,41.5383],[-87.7904,41.5396],[-87.7903,41.4698],[-87.7322,41.4697],[-87.6485,41.4698],[-87.5578,41.4701],[-87.5257,41.4703],[-87.5258,41.4458],[-87.5265,41.3509],[-87.5267,41.2981],[-87.5729,41.2976],[-87.7817,41.2959],[-87.8973,41.2943],[-88.0139,41.2924],[-88.0118,41.2055],[-88.1289,41.2039],[-88.2056,41.2022],[-88.2441,41.2016],[-88.2471,41.2914],[-88.248,41.3322],[-88.2492,41.3757],[-88.2522,41.4631],[-88.2553,41.5495],[-88.2591,41.6362],[-88.26,41.6611],[-88.2608,41.6958],[-88.2613,41.7247],[-88.2001,41.7253]]]}},{"type":"Feature","properties":{"id":"17111","name":"McHenry Co., IL"},"geometry":{"type":"Polygon","coordinates":[[[-88.1989,42.4591],[-88.1986,42.4156],[-88.1988,42.3966],[-88.1985,42.3724],[-88.1985,42.3432],[-88.199,42.3177],[-88.1986,42.2923],[-88.1982,42.2416],[-88.199,42.236],[-88.1998,42.1687],[-88.1996,42.1543],[-88.2384,42.1542],[-88.2478,42.1536],[-88.2577,42.1541],[-88.2652,42.1537],[-88.2773,42.154],[-88.3163,42.1538],[-88.3696,42.154],[-88.4396,42.1537],[-88.5887,42.1536],[-88.7056,42.1535],[-88.7057,42.1838],[-88.7055,42.2209],[-88.7056,42.3279],[-88.7059,42.415],[-88.7063,42.4513],[-88.7074,42.4936],[-88.6387,42.495],[-88.5069,42.4949],[-88.4614,42.4946],[-88.4174,42.4946],[-88.2717,42.4948],[-88.2501,42.4958],[-88.1994,42.496],[-88.1989,42.4591]]]}},{"type":"Feature","properties":{"id":"18127","name":"Porter Co., IN"},"geometry":{"type":"Polygon","coordinates":[[[-87.1796,41.631],[-87.1746,41.6341],[-87.1621,41.6354],[-87.1618,41.6315],[-87.1587,41.6314],[-87.1581,41.6416],[-87.1505,41.6414],[-87.1505,41.6359],[-87.1474,41.6359],[-87.1475,41.6456],[-87.1418,41.6455],[-87.1301,41.6484],[-87.1284,41.6463],[-87.1204,41.6471],[-87.099,41.6518],[-87.066,41.6618],[-87.0279,41.6747],[-86.9944,41.6872],[-86.9631,41.6996],[-86.9434,41.7066],[-86.9327,41.7095],[-86.9324,41.6883],[-86.9323,41.6173],[-86.9307,41.5464],[-86.9299,41.5361],[-86.9294,41.4631],[-86.9301,41.4497],[-86.9307,41.3469],[-86.9306,41.328],[-86.9299,41.2594],[-86.9296,41.2488],[-86.9301,41.2368],[-86.9377,41.2302],[-86.9545,41.2253],[-86.9681,41.2197],[-86.977,41.2215],[-86.984,41.2277],[-87.011,41.2409],[-87.0597,41.2695],[-87.1221,41.2864],[-87.1313,41.2862],[-87.1596,41.2763],[-87.1925,41.2652],[-87.2189,41.242],[-87.2188,41.261],[-87.2203,41.3333],[-87.2203,41.347],[-87.2198,41.3473],[-87.2197,41.3837],[-87.2199,41.3965],[-87.2196,41.4346],[-87.2202,41.5071],[-87.2218,41.5651],[-87.2226,41.6242],[-87.1796,41.631]]]}},{"type":"Feature","properties":{"id":"17037","name":"DeKalb Co., IL"},"geometry":{"type":"Polygon","coordinates":[[[-88.5887,42.1536],[-88.5884,42.125],[-88.5883,42.0665],[-88.602,42.0665],[-88.6013,41.9815],[-88.6014,41.894],[-88.6023,41.8211],[-88.6026,41.8068],[-88.6021,41.7746],[-88.6019,41.7196],[-88.6036,41.7195],[-88.603,41.6884],[-88.6022,41.6314],[-88.6684,41.631],[-88.7064,41.6304],[-88.7317,41.6307],[-88.8182,41.6314],[-88.8466,41.6308],[-88.9387,41.6283],[-88.9403,41.7168],[-88.9413,41.7172],[-88.9416,41.7261],[-88.9414,41.7883],[-88.9413,41.8918],[-88.9417,41.931],[-88.9421,42.0651],[-88.9389,42.0651],[-88.9397,42.1523],[-88.8224,42.1534],[-88.7932,42.1535],[-88.7056,42.1535],[-88.5887,42.1536]]]}},{"type":"Feature","properties":{"id":"17063","name":"Grundy Co., IL"},"geometry":{"type":"Polygon","coordinates":[[[-88.5523,41.4576],[-88.4817,41.4579],[-88.4136,41.4596],[-88.3653,41.4605],[-88.3225,41.4611],[-88.2565,41.4627],[-88.2522,41.4631],[-88.2492,41.3757],[-88.248,41.3322],[-88.2471,41.2914],[-88.2441,41.2016],[-88.2409,41.1144],[-88.2985,41.1132],[-88.471,41.1089],[-88.5862,41.1083],[-88.5867,41.181],[-88.587,41.2023],[-88.5885,41.268],[-88.5904,41.3115],[-88.5936,41.3697],[-88.5952,41.4205],[-88.596,41.4571],[-88.5523,41.4576]]]}},{"type":"Feature","properties":{"id":"17089","name":"Kane Co., IL"},"geometry":{"type":"Polygon","coordinates":[[[-88.4396,42.1537],[-88.3696,42.154],[-88.3163,42.1538],[-88.2773,42.154],[-88.2652,42.1537],[-88.2577,42.1541],[-88.2478,42.1536],[-88.2384,42.1542],[-88.2382,42.067],[-88.2636,42.0669],[-88.2629,41.9864],[-88.2624,41.8992],[-88.2628,41.8289],[-88.2628,41.8091],[-88.2621,41.7604],[-88.262,41.7247],[-88.3637,41.7228],[-88.4492,41.7217],[-88.5276,41.7206],[-88.5612,41.72],[-88.6019,41.7196],[-88.6021,41.7746],[-88.6026,41.8068],[-88.6023,41.8211],[-88.6014,41.894],[-88.6013,41.9815],[-88.602,42.0665],[-88.5883,42.0665],[-88.5884,42.125],[-88.5887,42.1536],[-88.4396,42.1537]]]}},{"type":"Feature","properties":{"id":"18111","name":"Newton Co., IN"},"geometry":{"type":"Polygon","coordinates":[[[-87.4848,41.1699],[-87.458,41.1706],[-87.4483,41.1742],[-87.4418,41.1732],[-87.4211,41.1655],[-87.4143,41.1622],[-87.3938,41.1628],[-87.381,41.1725],[-87.3639,41.1768],[-87.3463,41.1824],[-87.3315,41.183],[-87.3246,41.1862],[-87.2985,41.2054],[-87.2857,41.2152],[-87.2759,41.2186],[-87.2757,41.1685],[-87.2761,40.9984],[-87.276,40.9841],[-87.2765,40.9659],[-87.2764,40.9115],[-87.269,40.9115],[-87.2685,40.8964],[-87.268,40.8659],[-87.2673,40.7656],[-87.2673,40.7366],[-87.3818,40.7365],[-87.526,40.7369],[-87.5258,40.8069],[-87.5258,40.8536],[-87.5264,40.8942],[-87.526,40.8944],[-87.5261,40.9449],[-87.5264,41.0244],[-87.5267,41.1492],[-87.5266,41.1661],[-87.4848,41.1699]]]}},{"type":"Feature","properties":{"id":"18073","name":"Jasper Co., IN"},"geometry":{"type":"Polygon","coordinates":[[[-87.2264,41.2355],[-87.2189,41.242],[-87.1925,41.2652],[-87.1596,41.2763],[-87.1313,41.2862],[-87.1221,41.2864],[-87.0597,41.2695],[-87.011,41.2409],[-86.984,41.2277],[-86.977,41.2215],[-86.9681,41.2197],[-86.9545,41.2253],[-86.9377,41.2302],[-86.9301,41.2368],[-86.9296,41.2297],[-86.9305,41.1368],[-86.9303,41.1289],[-86.9309,40.9773],[-86.9308,40.9124],[-86.9874,40.9122],[-86.9868,40.8524],[-86.9864,40.8379],[-87.0998,40.8376],[-87.0993,40.7801],[-87.0987,40.7656],[-87.0984,40.7365],[-87.1728,40.7367],[-87.2673,40.7366],[-87.2673,40.7656],[-87.268,40.8659],[-87.2685,40.8964],[-87.269,40.9115],[-87.2764,40.9115],[-87.2765,40.9659],[-87.276,40.9841],[-87.2761,40.9984],[-87.2757,41.1685],[-87.2759,41.2186],[-87.2264,41.2355]]]}},{"type":"Feature","properties":{"id":"17093","name":"Kendall Co., IL"},"geometry":{"type":"Polygon","coordinates":[[[-88.5612,41.72],[-88.5276,41.7206],[-88.4492,41.7217],[-88.3637,41.7228],[-88.262,41.7247],[-88.2613,41.7247],[-88.2608,41.6958],[-88.26,41.6611],[-88.2591,41.6362],[-88.2553,41.5495],[-88.2522,41.4631],[-88.2565,41.4627],[-88.3225,41.4611],[-88.3653,41.4605],[-88.4136,41.4596],[-88.4817,41.4579],[-88.5523,41.4576],[-88.596,41.4571],[-88.5965,41.4751],[-88.6006,41.5878],[-88.6022,41.6314],[-88.603,41.6884],[-88.6036,41.7195],[-88.6019,41.7196],[-88.5612,41.72]]]}}]}