{"type":"FeatureCollection","features":[{"type":"Feature","properties":{"id":"06073","name":"San Diego Co."},"geometry":{"type":"Polygon","coordinates":[[[-117.5785,33.4539],[-117.558,33.4516],[-117.5384,33.4556],[-117.515,33.4677],[-117.5086,33.4696],[-117.5096,33.4716],[-117.5097,33.505],[-117.3643,33.505],[-117.3709,33.4905],[-117.3636,33.4881],[-117.2845,33.4627],[-117.2417,33.4489],[-117.2413,33.432],[-117.1915,33.4322],[-117.1538,33.4326],[-117.1364,33.4325],[-117.1069,33.4306],[-117.0308,33.43],[-117.0309,33.4269],[-117.0019,33.4269],[-116.9937,33.4275],[-116.9459,33.4276],[-116.9234,33.4275],[-116.8571,33.4266],[-116.8218,33.4269],[-116.6177,33.4274],[-116.5184,33.4269],[-116.4152,33.4273],[-116.267,33.4281],[-116.1976,33.4289],[-116.1126,33.4259],[-116.0852,33.4259],[-116.0851,33.3827],[-116.0836,33.2847],[-116.0832,33.2796],[-116.0824,33.2511],[-116.0809,33.1322],[-116.0811,33.1238],[-116.0811,33.0748],[-116.1033,33.0747],[-116.1031,32.9352],[-116.1032,32.8751],[-116.1026,32.8578],[-116.1035,32.8379],[-116.1037,32.7871],[-116.1031,32.7265],[-116.1056,32.7265],[-116.1063,32.6647],[-116.1058,32.6625],[-116.1057,32.6467],[-116.1062,32.6402],[-116.1062,32.6186],[-116.1258,32.6167],[-116.211,32.6103],[-116.5406,32.5837],[-116.627,32.5763],[-116.8572,32.5575],[-116.9281,32.5508],[-116.946,32.5501],[-117.0264,32.5425],[-117.0628,32.5399],[-117.1237,32.5344],[-117.1259,32.5511],[-117.1286,32.5553],[-117.1331,32.5668],[-117.1325,32.5765],[-117.1324,32.597],[-117.1347,32.6127],[-117.1377,32.6246],[-117.1475,32.6463],[-117.1607,32.6657],[-117.181,32.6809],[-117.1931,32.6866],[-117.2127,32.6879],[-117.2235,32.6837],[-117.2362,32.6714],[-117.2373,32.6675],[-117.2431,32.6645],[-117.2546,32.7002],[-117.2575,32.7253],[-117.2554,32.7273],[-117.2566,32.7317],[-117.2553,32.7374],[-117.2546,32.7467],[-117.252,32.7512],[-117.2532,32.7609],[-117.2534,32.7806],[-117.2561,32.7937],[-117.2601,32.8026],[-117.264,32.8072],[-117.2672,32.8077],[-117.2736,32.8157],[-117.2729,32.8168],[-117.2806,32.8219],[-117.2797,32.8259],[-117.2819,32.8328],[-117.2822,32.8395],[-117.2812,32.843],[-117.2749,32.8502],[-117.2645,32.8487],[-117.2607,32.8526],[-117.2562,32.8594],[-117.2517,32.8743],[-117.2513,32.8786],[-117.2528,32.8844],[-117.2537,32.9038],[-117.2586,32.916],[-117.2618,32.9397],[-117.268,32.9573],[-117.2691,32.9693],[-117.2775,33.0002],[-117.2795,33.0114],[-117.2818,33.0171],[-117.2917,33.034],[-117.2958,33.0378],[-117.2976,33.045],[-117.3038,33.0615],[-117.3098,33.0753],[-117.3125,33.087],[-117.3158,33.0936],[-117.3284,33.1218],[-117.3367,33.1322],[-117.3419,33.1433],[-117.3585,33.1644],[-117.3915,33.2028],[-117.397,33.2076],[-117.4029,33.2056],[-117.4058,33.2092],[-117.4057,33.2138],[-117.404,33.2157],[-117.4456,33.2685],[-117.4698,33.2964],[-117.5059,33.3333],[-117.5478,33.3649],[-117.5604,33.3705],[-117.569,33.3753],[-117.5717,33.379],[-117.5752,33.3805],[-117.5804,33.3809],[-117.5877,33.3828],[-117.596,33.3878],[-117.5785,33.4539]]]}}]}