{"type":"FeatureCollection","features":[{"type":"Feature","properties":{"id":"12105","name":"Polk Co."},"geometry":{"type":"Polygon","coordinates":[[[-82.0756,28.2592],[-82.0555,28.2589],[-82.0555,28.2946],[-82.0558,28.3128],[-82.0455,28.3183],[-82.0393,28.3191],[-82.0255,28.3229],[-82.0158,28.3236],[-82.0104,28.3221],[-82.0076,28.3232],[-82.0024,28.3203],[-81.9957,28.3188],[-81.9883,28.307],[-81.9858,28.3053],[-81.9789,28.3057],[-81.9763,28.3095],[-81.9734,28.3085],[-81.9652,28.308],[-81.958,28.3089],[-81.9576,28.3452],[-81.9403,28.3452],[-81.8575,28.346],[-81.8576,28.3619],[-81.8189,28.3617],[-81.7909,28.3618],[-81.7907,28.3464],[-81.7061,28.3466],[-81.6573,28.3471],[-81.6569,28.3275],[-81.6573,28.3212],[-81.657,28.2884],[-81.6572,28.2592],[-81.6136,28.2595],[-81.5575,28.2594],[-81.5513,28.249],[-81.5241,28.201],[-81.5242,28.1428],[-81.4733,28.1428],[-81.4701,28.1433],[-81.4562,28.1432],[-81.4558,28.0849],[-81.445,28.0852],[-81.3755,28.0851],[-81.3464,28.0847],[-81.3487,28.0815],[-81.3473,28.0803],[-81.3463,28.0697],[-81.3488,28.0677],[-81.3535,28.0671],[-81.3604,28.0684],[-81.3624,28.07],[-81.365,28.0682],[-81.3668,28.0617],[-81.3641,28.0569],[-81.3651,28.0552],[-81.3638,28.0495],[-81.3645,28.0469],[-81.3619,28.0437],[-81.3637,28.0378],[-81.3756,28.0297],[-81.3761,28.0247],[-81.379,28.022],[-81.3765,28.0158],[-81.3787,28.0117],[-81.3825,28.0124],[-81.3857,28.0172],[-81.3921,28.0196],[-81.394,28.028],[-81.3972,28.0294],[-81.4058,28.029],[-81.4108,28.0336],[-81.4179,28.038],[-81.4232,28.0386],[-81.424,28.0404],[-81.428,28.0393],[-81.4276,28.0413],[-81.4325,28.0433],[-81.434,28.0459],[-81.4354,28.0529],[-81.4385,28.057],[-81.4434,28.0592],[-81.4506,28.0567],[-81.4539,28.0576],[-81.4574,28.0551],[-81.46,28.0472],[-81.4588,28.0401],[-81.4559,28.0389],[-81.4483,28.0323],[-81.4403,28.0339],[-81.4371,28.0307],[-81.4325,28.0224],[-81.4281,28.0215],[-81.4242,28.0107],[-81.42,28.0018],[-81.4156,27.9982],[-81.4135,28.0008],[-81.4089,28.001],[-81.4037,28.0028],[-81.3982,28.003],[-81.3925,28.0046],[-81.387,28.0036],[-81.3858,27.9994],[-81.3827,27.9978],[-81.3785,27.9885],[-81.3818,27.986],[-81.381,27.9834],[-81.377,27.9839],[-81.3765,27.9783],[-81.3706,27.9779],[-81.3687,27.9738],[-81.3651,27.9729],[-81.3498,27.9638],[-81.348,27.9607],[-81.349,27.9533],[-81.3436,27.9523],[-81.3367,27.9496],[-81.3367,27.9453],[-81.3385,27.94],[-81.3459,27.9415],[-81.3476,27.9389],[-81.3455,27.9357],[-81.3387,27.9313],[-81.3383,27.9334],[-81.3334,27.9304],[-81.3171,27.9247],[-81.3188,27.9281],[-81.3162,27.9286],[-81.3086,27.9216],[-81.3092,27.9153],[-81.3124,27.9099],[-81.3149,27.9012],[-81.312,27.8943],[-81.3061,27.8862],[-81.3045,27.8799],[-81.3059,27.8775],[-81.3034,27.8704],[-81.2977,27.8635],[-81.3022,27.8639],[-81.2971,27.8596],[-81.2896,27.8573],[-81.2813,27.8575],[-81.2791,27.852],[-81.2591,27.846],[-81.2542,27.8488],[-81.2505,27.8489],[-81.2514,27.8446],[-81.2488,27.8449],[-81.2465,27.8488],[-81.2417,27.8457],[-81.2413,27.8472],[-81.2348,27.8437],[-81.2295,27.8418],[-81.2236,27.8362],[-81.2208,27.8349],[-81.2144,27.8286],[-81.2156,27.8268],[-81.2131,27.8234],[-81.2081,27.8211],[-81.2099,27.8172],[-81.2007,27.8037],[-81.2001,27.797],[-81.1988,27.7975],[-81.1963,27.7908],[-81.1896,27.7853],[-81.1894,27.7823],[-81.1857,27.7782],[-81.1877,27.7755],[-81.1847,27.7729],[-81.1808,27.7737],[-81.1808,27.7699],[-81.1782,27.7705],[-81.1791,27.7658],[-81.175,27.7644],[-81.1729,27.7605],[-81.178,27.7589],[-81.1785,27.7519],[-81.1754,27.7493],[-81.1745,27.7456],[-81.1729,27.7474],[-81.1706,27.7454],[-81.1718,27.7432],[-81.165,27.7422],[-81.1644,27.736],[-81.1686,27.7322],[-81.1687,27.726],[-81.1669,27.7231],[-81.1608,27.7238],[-81.16,27.7193],[-81.1526,27.7183],[-81.1489,27.7128],[-81.1458,27.7102],[-81.1459,27.7065],[-81.1493,27.7031],[-81.148,27.6992],[-81.1502,27.6998],[-81.1473,27.6958],[-81.149,27.692],[-81.1449,27.6822],[-81.1454,27.6774],[-81.1441,27.6693],[-81.1419,27.6688],[-81.1376,27.6642],[-81.1318,27.6615],[-81.131,27.6593],[-81.1325,27.6475],[-81.1368,27.6443],[-81.1373,27.647],[-81.14,27.6467],[-81.1422,27.6432],[-81.3616,27.6465],[-81.4035,27.6466],[-81.4775,27.6466],[-81.5299,27.6464],[-81.5635,27.6466],[-81.6623,27.6465],[-81.7413,27.6463],[-81.8227,27.6462],[-81.8783,27.6462],[-81.8951,27.6461],[-81.9094,27.6465],[-81.949,27.6463],[-82.0543,27.6464],[-82.054,27.8546],[-82.0552,27.8653],[-82.0549,27.9072],[-82.0553,27.9273],[-82.0554,27.9504],[-82.0559,27.9895],[-82.0555,27.9928],[-82.0557,28.0251],[-82.0562,28.0476],[-82.0566,28.1057],[-82.0563,28.1311],[-82.0563,28.1716],[-82.1059,28.1717],[-82.1059,28.1973],[-82.1062,28.2242],[-82.1062,28.2592],[-82.0756,28.2592]]]}}]}