{"type":"FeatureCollection","features":[{"type":"Feature","properties":{"zcta":"33830","d":106},"geometry":{"type":"Polygon","coordinates":[[[-81.9478,27.9295],[-81.94547,27.92702],[-81.94151,27.92757],[-81.93999,27.9263],[-81.94011,27.93832],[-81.93473,27.93833],[-81.91737,27.92927],[-81.91511,27.92571],[-81.91507,27.91832],[-81.91557,27.9165],[-81.92055,27.91282],[-81.9204,27.90918],[-81.91847,27.9075],[-81.91834,27.89457],[-81.91577,27.89493],[-81.90719,27.89841],[-81.88833,27.89841],[-81.87735,27.89767],[-81.85885,27.8985],[-81.85897,27.9082],[-81.86344,27.90898],[-81.8903,27.90916],[-81.89034,27.91646],[-81.88622,27.91646],[-81.8862,27.91281],[-81.88208,27.91281],[-81.88211,27.91829],[-81.88623,27.91829],[-81.88623,27.92012],[-81.88211,27.92012],[-81.88218,27.92746],[-81.88424,27.92746],[-81.88428,27.93114],[-81.88222,27.93114],[-81.88224,27.93298],[-81.89045,27.93296],[-81.89052,27.93847],[-81.87863,27.93853],[-81.87822,27.94218],[-81.8741,27.94217],[-81.87413,27.94397],[-81.87,27.94398],[-81.87002,27.94577],[-81.87418,27.94577],[-81.87421,27.94762],[-81.87004,27.9476],[-81.87013,27.95076],[-81.8714,27.95297],[-81.86947,27.95299],[-81.87193,27.95665],[-81.85773,27.95657],[-81.85791,27.9622],[-81.85727,27.96466],[-81.85895,27.96793],[-81.85734,27.97429],[-81.85828,27.97583],[-81.8567,27.98054],[-81.85423,27.98163],[-81.85216,27.98279],[-81.83633,27.97944],[-81.82561,27.98816],[-81.82075,27.98158],[-81.81736,27.97479],[-81.80047,27.97482],[-81.8004,27.96753],[-81.79772,27.96712],[-81.8004,27.96572],[-81.80038,27.96026],[-81.79216,27.96027],[-81.7922,27.9639],[-81.78558,27.96396],[-81.78675,27.9602],[-81.79214,27.95649],[-81.79211,27.95432],[-81.78819,27.95433],[-81.7878,27.95303],[-81.78372,27.95629],[-81.78412,27.96372],[-81.78019,27.96729],[-81.77846,27.96462],[-81.77434,27.96563],[-81.77261,27.96806],[-81.77086,27.96762],[-81.76274,27.97477],[-81.76401,27.97291],[-81.76368,27.9676],[-81.76784,27.96762],[-81.76783,27.96579],[-81.77132,27.96578],[-81.77352,27.96299],[-81.76999,27.963],[-81.76998,27.96147],[-81.76782,27.96031],[-81.76372,27.96027],[-81.76371,27.95667],[-81.76364,27.95299],[-81.75951,27.95299],[-81.75923,27.93836],[-81.76645,27.93834],[-81.76582,27.93066],[-81.76736,27.92982],[-81.77122,27.92463],[-81.76999,27.9229],[-81.75254,27.92397],[-81.75,27.92381],[-81.73503,27.9208],[-81.73396,27.92086],[-81.72095,27.92725],[-81.71704,27.92746],[-81.71402,27.92703],[-81.70897,27.92492],[-81.70897,27.92899],[-81.70561,27.92902],[-81.70572,27.93398],[-81.70508,27.93842],[-81.69899,27.93841],[-81.69539,27.93482],[-81.6895,27.93258],[-81.68435,27.93275],[-81.69464,27.94515],[-81.67648,27.92365],[-81.68386,27.9236],[-81.68472,27.9215],[-81.68775,27.91972],[-81.69291,27.91882],[-81.69382,27.91649],[-81.69787,27.9131],[-81.67956,27.89502],[-81.67756,27.89329],[-81.65964,27.88727],[-81.65819,27.88574],[-81.65519,27.87223],[-81.65417,27.87043],[-81.66486,27.8592],[-81.6679,27.85911],[-81.67086,27.858],[-81.67044,27.8547],[-81.66916,27.85421],[-81.67397,27.85195],[-81.6736,27.84984],[-81.673,27.83522],[-81.67877,27.83536],[-81.67872,27.8211],[-81.68994,27.82063],[-81.68994,27.8187],[-81.69801,27.81883],[-81.69792,27.81308],[-81.69544,27.8127],[-81.69547,27.80595],[-81.71194,27.80612],[-81.71167,27.81635],[-81.73558,27.81708],[-81.73562,27.81797],[-81.74624,27.81911],[-81.74809,27.82092],[-81.78452,27.82075],[-81.79954,27.82103],[-81.79734,27.81815],[-81.79569,27.81438],[-81.79342,27.81247],[-81.79365,27.80966],[-81.79207,27.80971],[-81.79084,27.80746],[-81.79234,27.80511],[-81.79218,27.8025],[-81.79084,27.8024],[-81.79046,27.79777],[-81.78741,27.79618],[-81.78582,27.79312],[-81.78611,27.78901],[-81.78728,27.78717],[-81.78627,27.78475],[-81.78709,27.78105],[-81.7857,27.78019],[-81.78478,27.77697],[-81.80191,27.77699],[-81.8039,27.78074],[-81.81015,27.78628],[-81.80351,27.78634],[-81.80353,27.7843],[-81.79852,27.78431],[-81.79854,27.78742],[-81.80336,27.78743],[-81.8037,27.79023],[-81.80526,27.79156],[-81.80524,27.8014],[-81.80737,27.8014],[-81.80738,27.79906],[-81.8097,27.79906],[-81.80969,27.80128],[-81.81774,27.80139],[-81.82049,27.81057],[-81.82164,27.82053],[-81.82858,27.8205],[-81.82867,27.82226],[-81.83057,27.8222],[-81.83055,27.82413],[-81.83214,27.82415],[-81.8309,27.8205],[-81.83148,27.81415],[-81.83262,27.81308],[-81.82613,27.81285],[-81.82613,27.81126],[-81.82745,27.81033],[-81.83221,27.8094],[-81.83435,27.80557],[-81.83645,27.80635],[-81.84251,27.8064],[-81.84253,27.81261],[-81.84359,27.81307],[-81.84848,27.82057],[-81.85257,27.8224],[-81.85399,27.82962],[-81.85667,27.83085],[-81.87048,27.83085],[-81.87568,27.8331],[-81.88323,27.83307],[-81.90007,27.83298],[-81.905,27.83509],[-81.90827,27.8359],[-81.91733,27.83577],[-81.91996,27.83511],[-81.92669,27.83528],[-81.93404,27.83483],[-81.93418,27.83377],[-81.94015,27.8336],[-81.93939,27.83253],[-81.93876,27.82337],[-81.94833,27.8237],[-81.95445,27.82848],[-81.95611,27.82925],[-81.97134,27.82865],[-81.96978,27.83402],[-81.97156,27.83496],[-81.96897,27.84296],[-81.96756,27.84282],[-81.96277,27.84735],[-81.96171,27.84933],[-81.95949,27.84826],[-81.95547,27.85056],[-81.93992,27.85092],[-81.93469,27.85286],[-81.93179,27.85586],[-81.92888,27.85711],[-81.92841,27.85842],[-81.9282,27.87327],[-81.92433,27.88024],[-81.92444,27.89456],[-81.94512,27.89465],[-81.94512,27.89737],[-81.94814,27.89753],[-81.95046,27.89878],[-81.95632,27.899],[-81.95727,27.89964],[-81.95837,27.90512],[-81.96206,27.90974],[-81.96422,27.90959],[-81.96696,27.91077],[-81.96658,27.91666],[-81.9602,27.92251],[-81.9527,27.92611],[-81.95066,27.92914],[-81.9478,27.9295]]]}},{"type":"Feature","properties":{"zcta":"33841","d":23},"geometry":{"type":"Polygon","coordinates":[[[-81.87568,27.8331],[-81.87048,27.83085],[-81.85667,27.83085],[-81.85399,27.82962],[-81.85257,27.8224],[-81.84848,27.82057],[-81.84359,27.81307],[-81.84253,27.81261],[-81.84251,27.8064],[-81.83645,27.80635],[-81.83435,27.80557],[-81.83221,27.8094],[-81.82745,27.81033],[-81.82613,27.81126],[-81.82512,27.79539],[-81.82468,27.79486],[-81.81618,27.79468],[-81.81774,27.80139],[-81.80969,27.80128],[-81.8097,27.79906],[-81.80738,27.79906],[-81.80737,27.8014],[-81.80524,27.8014],[-81.80526,27.79156],[-81.8037,27.79023],[-81.80336,27.78743],[-81.79854,27.78742],[-81.79852,27.78431],[-81.80353,27.7843],[-81.80351,27.78634],[-81.81015,27.78628],[-81.8039,27.78074],[-81.80191,27.77699],[-81.78478,27.77697],[-81.7857,27.78019],[-81.78709,27.78105],[-81.78627,27.78475],[-81.78728,27.78717],[-81.78611,27.78901],[-81.78582,27.79312],[-81.78741,27.79618],[-81.79046,27.79777],[-81.79084,27.8024],[-81.79218,27.8025],[-81.79234,27.80511],[-81.79084,27.80746],[-81.79207,27.80971],[-81.79365,27.80966],[-81.79342,27.81247],[-81.79569,27.81438],[-81.79734,27.81815],[-81.79954,27.82103],[-81.78452,27.82075],[-81.74809,27.82092],[-81.74624,27.81911],[-81.73562,27.81797],[-81.73558,27.81708],[-81.71167,27.81635],[-81.71194,27.80612],[-81.69547,27.80595],[-81.69544,27.8127],[-81.69487,27.81332],[-81.68257,27.81788],[-81.67754,27.81781],[-81.67663,27.81372],[-81.67582,27.81339],[-81.63836,27.81348],[-81.63902,27.82066],[-81.61406,27.82066],[-81.61409,27.81631],[-81.61361,27.77719],[-81.61469,27.77719],[-81.6196,27.78446],[-81.62998,27.78453],[-81.6298,27.77328],[-81.63793,27.77329],[-81.63808,27.76258],[-81.64619,27.76264],[-81.64623,27.74016],[-81.65008,27.74105],[-81.65028,27.75438],[-81.65781,27.75391],[-81.65841,27.76068],[-81.66151,27.75892],[-81.66645,27.75899],[-81.66819,27.75146],[-81.68133,27.7513],[-81.68231,27.74869],[-81.68216,27.74404],[-81.6798,27.74187],[-81.679,27.73936],[-81.68012,27.73578],[-81.67744,27.73056],[-81.67673,27.72502],[-81.6749,27.72115],[-81.67146,27.72435],[-81.6707,27.72677],[-81.66409,27.7319],[-81.66128,27.73341],[-81.64623,27.73342],[-81.64594,27.68998],[-81.64543,27.68984],[-81.60498,27.67202],[-81.60505,27.67743],[-81.60274,27.67719],[-81.60082,27.67826],[-81.59671,27.67777],[-81.59297,27.67814],[-81.59276,27.67491],[-81.59079,27.67607],[-81.58548,27.67613],[-81.58583,27.67898],[-81.58412,27.68185],[-81.58349,27.68584],[-81.58067,27.69052],[-81.57615,27.6896],[-81.57476,27.68708],[-81.56902,27.68505],[-81.56535,27.68167],[-81.56456,27.68012],[-81.56345,27.68256],[-81.56141,27.68349],[-81.55791,27.68352],[-81.5538,27.67783],[-81.5546,27.67295],[-81.5556,27.67238],[-81.5927,27.67203],[-81.59267,27.66571],[-81.59446,27.66377],[-81.59485,27.65907],[-81.59787,27.65864],[-81.60058,27.65597],[-81.60578,27.6539],[-81.61012,27.65006],[-81.61392,27.64793],[-81.61391,27.64648],[-81.66227,27.64648],[-81.78921,27.64618],[-81.78926,27.65654],[-81.79452,27.65383],[-81.79917,27.65426],[-81.80266,27.65716],[-81.80214,27.6605],[-81.80338,27.66173],[-81.80259,27.66328],[-81.80491,27.66489],[-81.80395,27.66713],[-81.80467,27.66975],[-81.80618,27.67117],[-81.80436,27.67477],[-81.80629,27.67594],[-81.80622,27.67797],[-81.80461,27.67934],[-81.80813,27.68376],[-81.80773,27.68573],[-81.80399,27.68682],[-81.80119,27.69072],[-81.80189,27.69254],[-81.8003,27.69432],[-81.80231,27.69597],[-81.79896,27.70253],[-81.80008,27.70781],[-81.80358,27.70812],[-81.80572,27.70689],[-81.8093,27.7073],[-81.81214,27.70658],[-81.81454,27.69098],[-81.81777,27.68878],[-81.8465,27.68889],[-81.8547,27.68697],[-81.85601,27.68756],[-81.85638,27.69072],[-81.85344,27.6938],[-81.85394,27.69719],[-81.85844,27.69719],[-81.86087,27.69391],[-81.86648,27.6953],[-81.86646,27.69995],[-81.86787,27.70105],[-81.8741,27.70114],[-81.87859,27.70361],[-81.88833,27.70362],[-81.8898,27.70236],[-81.88993,27.6995],[-81.89153,27.69927],[-81.89201,27.704],[-81.89157,27.70926],[-81.89403,27.70983],[-81.90503,27.7102],[-81.90791,27.71254],[-81.91683,27.71263],[-81.91971,27.71215],[-81.92953,27.71258],[-81.93267,27.71114],[-81.93568,27.7119],[-81.93704,27.71339],[-81.94833,27.71967],[-81.95301,27.72482],[-81.95642,27.72847],[-81.95688,27.73261],[-81.95631,27.73414],[-81.9532,27.73686],[-81.9511,27.74077],[-81.94846,27.74079],[-81.94107,27.74729],[-81.94035,27.74854],[-81.94038,27.80242],[-81.94193,27.80391],[-81.91301,27.80275],[-81.90695,27.79952],[-81.90238,27.79912],[-81.90011,27.79279],[-81.89612,27.79034],[-81.89144,27.7907],[-81.88882,27.79604],[-81.88731,27.82227],[-81.88669,27.83017],[-81.88323,27.83307],[-81.87568,27.8331]]]}},{"type":"Feature","properties":{"zcta":"33877","d":0},"geometry":{"type":"Polygon","coordinates":[[[-81.62796,28.00771],[-81.6279,28.00409],[-81.62377,28.00409],[-81.62371,28.00046],[-81.61957,28.00045],[-81.6195,27.99683],[-81.61046,27.99681],[-81.61387,27.99489],[-81.61167,27.99137],[-81.61245,27.98901],[-81.61003,27.98518],[-81.60509,27.98318],[-81.60508,27.98089],[-81.60304,27.98089],[-81.60303,27.97904],[-81.60105,27.97903],[-81.60104,27.9773],[-81.60822,27.97712],[-81.6071,27.97156],[-81.60966,27.97159],[-81.60966,27.97355],[-81.61273,27.97547],[-81.61328,27.97398],[-81.61944,27.97398],[-81.61945,27.97791],[-81.62199,27.97891],[-81.631,27.9788],[-81.63147,28.00772],[-81.62796,28.00771]],[[-81.62393,27.99102],[-81.62394,27.99321],[-81.62959,27.99325],[-81.63068,27.99139],[-81.62393,27.99102]]]}},{"type":"Feature","properties":{"zcta":"33856","d":0},"geometry":{"type":"Polygon","coordinates":[[[-81.42865,27.85799],[-81.42632,27.85973],[-81.42405,27.8566],[-81.42523,27.85536],[-81.42749,27.85563],[-81.42849,27.85324],[-81.43055,27.85306],[-81.43186,27.85544],[-81.43174,27.85762],[-81.42865,27.85799]]]}},{"type":"Feature","properties":{"zcta":"33844","d":235},"geometry":{"type":"Polygon","coordinates":[[[-81.71564,28.19404],[-81.70196,28.1998],[-81.68229,28.20936],[-81.67744,28.21229],[-81.65003,28.23255],[-81.64987,28.2323],[-81.66025,28.22466],[-81.66529,28.22051],[-81.66532,28.21554],[-81.65742,28.21558],[-81.65706,28.21342],[-81.65702,28.17706],[-81.65714,28.14732],[-81.65489,28.14586],[-81.65381,28.14315],[-81.64401,28.14321],[-81.64803,28.14525],[-81.64396,28.14538],[-81.64367,28.14862],[-81.6405,28.14861],[-81.6379,28.145],[-81.63781,28.15045],[-81.63371,28.14951],[-81.63165,28.1504],[-81.63166,28.14497],[-81.62957,28.14494],[-81.62958,28.14683],[-81.62595,28.14669],[-81.62601,28.14969],[-81.62338,28.14872],[-81.62336,28.15034],[-81.61882,28.15027],[-81.6193,28.1539],[-81.61511,28.15271],[-81.60887,28.15229],[-81.61262,28.14682],[-81.61375,28.14302],[-81.6151,28.14305],[-81.61467,28.13585],[-81.61312,28.13583],[-81.61128,28.14663],[-81.60684,28.14662],[-81.60684,28.14311],[-81.60139,28.14302],[-81.59946,28.14442],[-81.59859,28.14299],[-81.59034,28.14298],[-81.59037,28.13583],[-81.58207,28.13579],[-81.58207,28.14302],[-81.5779,28.14305],[-81.57758,28.13935],[-81.56983,28.1395],[-81.56765,28.13763],[-81.56005,28.13632],[-81.55742,28.13693],[-81.55731,28.13188],[-81.54194,28.13175],[-81.5407,28.13342],[-81.5392,28.13158],[-81.53718,28.12704],[-81.53728,28.12546],[-81.5333,28.1201],[-81.52886,28.11886],[-81.52548,28.11664],[-81.52202,28.11575],[-81.51912,28.11618],[-81.51828,28.11505],[-81.5203,28.11354],[-81.5195,28.11183],[-81.51675,28.11157],[-81.51572,28.10985],[-81.51571,28.10659],[-81.51405,28.10593],[-81.51609,28.10451],[-81.51583,28.09924],[-81.52255,28.09925],[-81.52004,28.09608],[-81.51996,28.09167],[-81.52128,28.08854],[-81.52128,28.08633],[-81.51986,28.0828],[-81.52385,28.08157],[-81.52388,28.08028],[-81.52112,28.07716],[-81.52203,28.07284],[-81.52048,28.07064],[-81.52042,28.06799],[-81.51843,28.06713],[-81.51661,28.06103],[-81.51513,28.05804],[-81.51866,28.05348],[-81.52389,28.05286],[-81.52158,28.04981],[-81.52162,28.04678],[-81.52297,28.04329],[-81.52453,28.03584],[-81.52557,28.03279],[-81.52093,28.03119],[-81.51354,28.0268],[-81.47955,28.02699],[-81.47961,28.04178],[-81.46455,28.04185],[-81.46455,28.05101],[-81.45839,28.05104],[-81.45954,28.04994],[-81.45981,28.04496],[-81.45849,28.04183],[-81.45881,28.04007],[-81.45572,28.03883],[-81.4516,28.03422],[-81.44834,28.0323],[-81.4403,28.03387],[-81.43709,28.03065],[-81.43553,28.02669],[-81.43245,28.02238],[-81.4292,28.02098],[-81.42809,28.02154],[-81.42678,28.01706],[-81.42455,28.01248],[-81.4308,28.00943],[-81.43685,28.00753],[-81.43942,28.00568],[-81.44417,27.99853],[-81.44347,27.99757],[-81.44748,27.9923],[-81.45052,27.99113],[-81.45055,27.98885],[-81.45264,27.98705],[-81.4523,27.98274],[-81.45061,27.97561],[-81.44923,27.9747],[-81.45011,27.96882],[-81.45378,27.96752],[-81.45536,27.96489],[-81.45987,27.96077],[-81.46271,27.96056],[-81.46739,27.9572],[-81.47285,27.96074],[-81.47838,27.96195],[-81.48112,27.96338],[-81.48442,27.96152],[-81.48965,27.96233],[-81.49139,27.96089],[-81.49235,27.96278],[-81.49422,27.96314],[-81.49598,27.96138],[-81.49935,27.96329],[-81.49823,27.96827],[-81.49951,27.97281],[-81.50243,27.97347],[-81.50995,27.97854],[-81.51297,27.98329],[-81.51558,27.98975],[-81.51854,27.99354],[-81.51774,27.99422],[-81.52305,27.99714],[-81.52125,28.00462],[-81.52298,28.00574],[-81.52271,28.01337],[-81.52323,28.01553],[-81.52953,28.01467],[-81.52956,28.00666],[-81.53369,28.00662],[-81.53421,28.00844],[-81.53779,28.00841],[-81.53781,28.01145],[-81.54593,28.01152],[-81.54602,28.01552],[-81.55007,28.01559],[-81.54985,28.0229],[-81.55933,28.02297],[-81.5601,28.0266],[-81.56648,28.02645],[-81.56611,28.01352],[-81.57032,28.0134],[-81.57036,28.01438],[-81.57841,28.01442],[-81.57841,28.01705],[-81.58475,28.017],[-81.58472,28.01516],[-81.58628,28.01515],[-81.58686,28.01882],[-81.58479,28.01884],[-81.5848,28.02068],[-81.58268,28.0207],[-81.58292,28.03356],[-81.59107,28.03347],[-81.59105,28.02897],[-81.59308,28.03001],[-81.5931,28.03341],[-81.60332,28.03336],[-81.60333,28.03523],[-81.60745,28.03517],[-81.60745,28.037],[-81.61157,28.03697],[-81.61157,28.04063],[-81.62047,28.04065],[-81.6206,28.04225],[-81.61567,28.04247],[-81.61562,28.04791],[-81.62,28.04794],[-81.61983,28.05154],[-81.61563,28.05153],[-81.61575,28.05531],[-81.63511,28.05538],[-81.63389,28.0496],[-81.63735,28.05898],[-81.64398,28.06047],[-81.64681,28.0625],[-81.64928,28.06284],[-81.64892,28.06061],[-81.64666,28.05946],[-81.64808,28.05642],[-81.65147,28.05531],[-81.65083,28.06027],[-81.65426,28.06298],[-81.65376,28.06794],[-81.65571,28.06988],[-81.65214,28.06984],[-81.65126,28.07222],[-81.64887,28.07367],[-81.64866,28.07764],[-81.64982,28.08289],[-81.64915,28.08812],[-81.6522,28.08856],[-81.65021,28.09103],[-81.65095,28.09208],[-81.65678,28.09372],[-81.65893,28.0964],[-81.66148,28.09566],[-81.66556,28.09743],[-81.66709,28.09956],[-81.66559,28.10219],[-81.67042,28.10197],[-81.67276,28.09841],[-81.67778,28.09704],[-81.67777,28.09931],[-81.69011,28.09925],[-81.69011,28.10563],[-81.69114,28.10543],[-81.69114,28.10665],[-81.6985,28.10546],[-81.69809,28.11386],[-81.70239,28.11382],[-81.70242,28.11747],[-81.70479,28.11746],[-81.70455,28.12112],[-81.6983,28.12112],[-81.69828,28.12383],[-81.70043,28.12385],[-81.7006,28.12852],[-81.70246,28.12847],[-81.70244,28.13201],[-81.70637,28.13203],[-81.7067,28.15761],[-81.72191,28.15741],[-81.72185,28.16517],[-81.72532,28.16373],[-81.72911,28.16511],[-81.73587,28.16562],[-81.73658,28.1675],[-81.74384,28.18194],[-81.74396,28.18217],[-81.72279,28.19061],[-81.71564,28.19404]]]}},{"type":"Feature","properties":{"zcta":"33854","d":0},"geometry":{"type":"Polygon","coordinates":[[[-81.40828,27.85978],[-81.40692,27.85822],[-81.40728,27.85412],[-81.40993,27.85246],[-81.41209,27.85257],[-81.41435,27.85465],[-81.41115,27.85971],[-81.40828,27.85978]]]}},{"type":"Feature","properties":{"zcta":"33811","d":494},"geometry":{"type":"Polygon","coordinates":[[[-82.05252,28.02708],[-82.04025,28.02924],[-82.03948,28.02973],[-82.01917,28.03321],[-82.01842,28.02959],[-82.01418,28.03097],[-81.99835,28.01242],[-82.01053,28.00644],[-82.00502,28.00191],[-82.00093,27.9996],[-81.99582,27.99856],[-81.98276,27.99679],[-81.97602,27.99163],[-81.97555,27.99032],[-81.97457,27.97943],[-81.97323,27.97488],[-81.97305,27.96798],[-81.97112,27.96123],[-81.9708,27.95623],[-81.97294,27.95167],[-81.97629,27.93852],[-82.0553,27.93818],[-82.05565,27.9747],[-82.05595,27.98562],[-82.05551,27.99281],[-82.05592,28.00275],[-82.05562,28.00471],[-82.05565,28.02576],[-82.05252,28.02708]]]}},{"type":"Feature","properties":{"zcta":"33898","d":24},"geometry":{"type":"Polygon","coordinates":[[[-81.60586,27.99929],[-81.60594,28.00151],[-81.597,28.00168],[-81.59495,28.00088],[-81.59495,28.00256],[-81.58873,28.00261],[-81.58873,28.00087],[-81.58109,28.00094],[-81.57841,28.00058],[-81.57841,28.00797],[-81.58081,28.00791],[-81.5817,28.01148],[-81.57864,28.01149],[-81.57841,28.01442],[-81.57036,28.01438],[-81.57032,28.0134],[-81.56611,28.01352],[-81.56648,28.02645],[-81.5601,28.0266],[-81.55933,28.02297],[-81.54985,28.0229],[-81.55007,28.01559],[-81.54602,28.01552],[-81.54593,28.01152],[-81.53781,28.01145],[-81.53779,28.00841],[-81.53421,28.00844],[-81.53369,28.00662],[-81.52956,28.00666],[-81.52953,28.01467],[-81.52323,28.01553],[-81.52271,28.01337],[-81.52298,28.00574],[-81.52125,28.00462],[-81.52305,27.99714],[-81.51774,27.99422],[-81.51854,27.99354],[-81.51558,27.98975],[-81.51297,27.98329],[-81.50995,27.97854],[-81.50243,27.97347],[-81.49951,27.97281],[-81.49823,27.96827],[-81.49935,27.96329],[-81.49598,27.96138],[-81.49422,27.96314],[-81.49235,27.96278],[-81.49139,27.96089],[-81.48965,27.96233],[-81.48442,27.96152],[-81.48112,27.96338],[-81.47838,27.96195],[-81.47285,27.96074],[-81.46739,27.9572],[-81.46271,27.96056],[-81.45987,27.96077],[-81.45536,27.96489],[-81.45378,27.96752],[-81.45011,27.96882],[-81.44923,27.9747],[-81.45061,27.97561],[-81.4523,27.98274],[-81.45264,27.98705],[-81.45055,27.98885],[-81.45052,27.99113],[-81.44748,27.9923],[-81.44347,27.99757],[-81.44417,27.99853],[-81.43942,28.00568],[-81.43685,28.00753],[-81.4308,28.00943],[-81.42455,28.01248],[-81.42678,28.01706],[-81.42809,28.02154],[-81.4292,28.02098],[-81.43245,28.02238],[-81.43553,28.02669],[-81.43709,28.03065],[-81.4403,28.03387],[-81.44834,28.0323],[-81.4516,28.03422],[-81.45572,28.03883],[-81.45881,28.04007],[-81.45849,28.04183],[-81.45981,28.04496],[-81.45954,28.04994],[-81.45839,28.05104],[-81.45745,28.05508],[-81.45362,28.0576],[-81.45063,28.05666],[-81.44336,28.05919],[-81.43847,28.057],[-81.43541,28.05295],[-81.43402,28.04593],[-81.43253,28.04326],[-81.42763,28.04134],[-81.42804,28.03935],[-81.42398,28.04043],[-81.42316,28.03859],[-81.41786,28.03802],[-81.41465,28.03654],[-81.41083,28.03361],[-81.40765,28.02969],[-81.40585,28.02897],[-81.39724,28.02935],[-81.39397,28.02803],[-81.39271,28.02434],[-81.39205,28.0196],[-81.39082,28.01967],[-81.38569,28.01723],[-81.38248,28.01236],[-81.38154,28.01305],[-81.37872,28.01174],[-81.37648,28.01585],[-81.37787,28.01739],[-81.37901,28.02203],[-81.37611,28.02472],[-81.37516,28.02688],[-81.37556,28.02971],[-81.36864,28.03436],[-81.36737,28.03633],[-81.36527,28.0374],[-81.36666,28.03641],[-81.36414,28.0356],[-81.36165,28.03132],[-81.36076,28.03256],[-81.35851,28.03196],[-81.35605,28.03271],[-81.35604,28.03058],[-81.35456,28.02797],[-81.35649,28.02732],[-81.35389,28.02612],[-81.35973,28.02326],[-81.36017,28.02062],[-81.36167,28.01822],[-81.3639,28.01772],[-81.36295,28.0124],[-81.36404,28.0076],[-81.36272,28.00552],[-81.36498,28.00467],[-81.36638,28.00629],[-81.37083,28.00636],[-81.37585,28.00868],[-81.37709,28.00385],[-81.37978,27.99986],[-81.37832,27.99025],[-81.37609,27.98273],[-81.37455,27.9806],[-81.36914,27.97614],[-81.36869,27.97381],[-81.36515,27.9729],[-81.34983,27.96376],[-81.34798,27.96098],[-81.34846,27.95547],[-81.34984,27.95392],[-81.34363,27.95226],[-81.34284,27.953],[-81.34052,27.95092],[-81.3375,27.9507],[-81.33665,27.94958],[-81.33665,27.94534],[-81.33847,27.93998],[-81.34587,27.94145],[-81.34757,27.93893],[-81.34577,27.93577],[-81.34376,27.93597],[-81.34141,27.93254],[-81.33866,27.93134],[-81.33827,27.93341],[-81.33336,27.9304],[-81.3281,27.92882],[-81.31707,27.92467],[-81.31884,27.92813],[-81.31562,27.92824],[-81.31438,27.92579],[-81.31236,27.92529],[-81.3087,27.92188],[-81.30917,27.9153],[-81.31239,27.90991],[-81.31491,27.90124],[-81.31413,27.89806],[-81.31198,27.89433],[-81.3081,27.88972],[-81.30611,27.88618],[-81.30455,27.87985],[-81.30591,27.87752],[-81.30551,27.875],[-81.30338,27.87039],[-81.29771,27.86349],[-81.29891,27.86249],[-81.30147,27.8652],[-81.30215,27.86238],[-81.29794,27.86088],[-81.29711,27.85958],[-81.29205,27.85763],[-81.28965,27.8573],[-81.28132,27.85747],[-81.28152,27.85579],[-81.2791,27.852],[-81.27612,27.85052],[-81.27294,27.85024],[-81.26521,27.84759],[-81.26081,27.84696],[-81.25848,27.84818],[-81.25911,27.84599],[-81.25417,27.84883],[-81.25017,27.8484],[-81.25124,27.84693],[-81.25066,27.84367],[-81.2488,27.84494],[-81.24647,27.84879],[-81.24171,27.84566],[-81.24132,27.84718],[-81.23479,27.84365],[-81.23334,27.8437],[-81.22952,27.84183],[-81.22356,27.83621],[-81.22081,27.83493],[-81.21441,27.82855],[-81.21559,27.82685],[-81.21308,27.82335],[-81.20812,27.82113],[-81.21004,27.81923],[-81.20993,27.81724],[-81.20382,27.80884],[-81.20179,27.80496],[-81.21855,27.80501],[-81.21833,27.79901],[-81.22378,27.79857],[-81.22834,27.79416],[-81.22828,27.78651],[-81.2287,27.7824],[-81.21731,27.78576],[-81.21052,27.78443],[-81.20979,27.78102],[-81.20364,27.77389],[-81.19995,27.77051],[-81.19798,27.76971],[-81.19666,27.76604],[-81.19214,27.7669],[-81.19004,27.76347],[-81.18727,27.76081],[-81.18361,27.76194],[-81.18246,27.7601],[-81.18297,27.7566],[-81.18251,27.75122],[-81.17932,27.7459],[-81.17495,27.74579],[-81.1755,27.74931],[-81.179,27.75253],[-81.17912,27.7564],[-81.17801,27.75893],[-81.1731,27.75916],[-81.17321,27.76134],[-81.17504,27.76441],[-81.17912,27.76582],[-81.1782,27.77053],[-81.18081,27.76988],[-81.18079,27.77374],[-81.18252,27.77448],[-81.18467,27.77293],[-81.18747,27.77498],[-81.18598,27.77904],[-81.18944,27.78228],[-81.18956,27.78532],[-81.19125,27.78633],[-81.19972,27.79882],[-81.19928,27.80346],[-81.19705,27.80477],[-81.18286,27.80415],[-81.1808,27.80356],[-81.07346,27.75253],[-81.10104,27.70248],[-81.10294,27.7006],[-81.12116,27.69085],[-81.12419,27.68947],[-81.12332,27.68477],[-81.12198,27.6822],[-81.11937,27.67355],[-81.11918,27.66484],[-81.12229,27.66351],[-81.12703,27.65067],[-81.127,27.64643],[-81.12378,27.64633],[-81.12362,27.64307],[-81.14216,27.64324],[-81.20722,27.64434],[-81.20468,27.645],[-81.20365,27.65717],[-81.20218,27.65957],[-81.20332,27.66143],[-81.20132,27.68829],[-81.20642,27.6887],[-81.20885,27.68821],[-81.2121,27.68907],[-81.21478,27.68809],[-81.22001,27.6894],[-81.24784,27.69042],[-81.24816,27.68827],[-81.25345,27.68747],[-81.2542,27.66598],[-81.25358,27.66478],[-81.25462,27.66043],[-81.25645,27.6601],[-81.28238,27.66004],[-81.28269,27.67501],[-81.28323,27.67541],[-81.31809,27.6767],[-81.31866,27.68141],[-81.33476,27.69781],[-81.3366,27.70434],[-81.33529,27.70657],[-81.33672,27.70883],[-81.33764,27.71837],[-81.33641,27.72109],[-81.33393,27.72377],[-81.33477,27.72916],[-81.33477,27.73612],[-81.33304,27.73817],[-81.3333,27.74087],[-81.32856,27.7475],[-81.32658,27.74775],[-81.32653,27.77698],[-81.33378,27.77674],[-81.3334,27.78502],[-81.38016,27.76666],[-81.38271,27.76637],[-81.38268,27.78869],[-81.3746,27.78872],[-81.3746,27.78146],[-81.35823,27.78147],[-81.35824,27.78794],[-81.34188,27.78795],[-81.34188,27.78637],[-81.33783,27.78637],[-81.33783,27.78954],[-81.34188,27.78954],[-81.34189,27.80077],[-81.35007,27.80076],[-81.35001,27.79923],[-81.35814,27.79905],[-81.35826,27.79746],[-81.36643,27.79745],[-81.36642,27.79429],[-81.37461,27.79427],[-81.37462,27.79351],[-81.3827,27.79341],[-81.38287,27.80675],[-81.38797,27.80666],[-81.39168,27.80222],[-81.39544,27.79974],[-81.39988,27.79777],[-81.40379,27.79528],[-81.40856,27.793],[-81.41294,27.79183],[-81.42205,27.7902],[-81.42536,27.79077],[-81.43694,27.79577],[-81.4414,27.79838],[-81.4451,27.80296],[-81.4453,27.80584],[-81.4416,27.80651],[-81.44905,27.80651],[-81.47729,27.8066],[-81.47743,27.80714],[-81.48642,27.81875],[-81.48409,27.81773],[-81.48266,27.81894],[-81.48345,27.82114],[-81.48518,27.82166],[-81.48595,27.82465],[-81.48722,27.82581],[-81.48672,27.82873],[-81.48467,27.82949],[-81.48494,27.83276],[-81.48279,27.83446],[-81.48468,27.83581],[-81.48413,27.83772],[-81.48538,27.83894],[-81.48588,27.84406],[-81.48543,27.84607],[-81.48958,27.84752],[-81.49138,27.8495],[-81.4936,27.85003],[-81.49419,27.85212],[-81.49318,27.85586],[-81.49559,27.85821],[-81.49807,27.85874],[-81.49914,27.86259],[-81.49867,27.86552],[-81.50071,27.86865],[-81.50185,27.87313],[-81.50496,27.87496],[-81.5238,27.877],[-81.53118,27.86685],[-81.53119,27.85763],[-81.54254,27.85775],[-81.54743,27.86467],[-81.54769,27.86863],[-81.55099,27.86858],[-81.55363,27.86517],[-81.55595,27.86485],[-81.5554,27.86034],[-81.55575,27.85364],[-81.56278,27.85096],[-81.56484,27.85156],[-81.56457,27.84461],[-81.56692,27.84477],[-81.56689,27.84283],[-81.5751,27.84281],[-81.57529,27.84774],[-81.57366,27.85053],[-81.5753,27.85226],[-81.57394,27.85298],[-81.57398,27.85745],[-81.57718,27.85744],[-81.57699,27.86397],[-81.57303,27.86344],[-81.57303,27.87205],[-81.57303,27.87934],[-81.56472,27.87929],[-81.56456,27.88298],[-81.55593,27.88313],[-81.55609,27.90851],[-81.5552,27.91042],[-81.56185,27.90913],[-81.56189,27.91395],[-81.56598,27.91388],[-81.56596,27.91752],[-81.57832,27.91731],[-81.57835,27.91913],[-81.58244,27.91901],[-81.58288,27.92088],[-81.58654,27.92088],[-81.58703,27.92454],[-81.59535,27.92448],[-81.59838,27.93241],[-81.60004,27.94116],[-81.59981,27.9423],[-81.59651,27.94432],[-81.59489,27.94628],[-81.5947,27.95945],[-81.59882,27.96061],[-81.59883,27.96259],[-81.59471,27.96261],[-81.59477,27.96813],[-81.59892,27.96804],[-81.59893,27.96989],[-81.59478,27.96998],[-81.59479,27.97178],[-81.59888,27.97171],[-81.59889,27.97356],[-81.5948,27.97358],[-81.59482,27.97732],[-81.60104,27.9773],[-81.60105,27.97903],[-81.60303,27.97904],[-81.60304,27.98089],[-81.60508,27.98089],[-81.60509,27.98318],[-81.61003,27.98518],[-81.61245,27.98901],[-81.61167,27.99137],[-81.61387,27.99489],[-81.61046,27.99681],[-81.60586,27.99929]],[[-81.43186,27.85544],[-81.43055,27.85306],[-81.42849,27.85324],[-81.42749,27.85563],[-81.42523,27.85536],[-81.42405,27.8566],[-81.42632,27.85973],[-81.42865,27.85799],[-81.43174,27.85762],[-81.43186,27.85544]],[[-81.41435,27.85465],[-81.41209,27.85257],[-81.40993,27.85246],[-81.40728,27.85412],[-81.40692,27.85822],[-81.40828,27.85978],[-81.41115,27.85971],[-81.41435,27.85465]]]}},{"type":"Feature","properties":{"zcta":"33838","d":485},"geometry":{"type":"Polygon","coordinates":[[[-81.63645,28.04195],[-81.63671,28.03645],[-81.63599,28.03317],[-81.61973,28.03324],[-81.62047,28.04065],[-81.61157,28.04063],[-81.61157,28.03697],[-81.60745,28.037],[-81.60745,28.03517],[-81.60333,28.03523],[-81.60332,28.03336],[-81.5931,28.03341],[-81.59308,28.03001],[-81.59105,28.02897],[-81.59107,28.03347],[-81.58292,28.03356],[-81.58268,28.0207],[-81.5848,28.02068],[-81.58479,28.01884],[-81.58686,28.01882],[-81.58628,28.01515],[-81.58472,28.01516],[-81.58475,28.017],[-81.57841,28.01705],[-81.57841,28.01442],[-81.57864,28.01149],[-81.5817,28.01148],[-81.58081,28.00791],[-81.57841,28.00797],[-81.57841,28.00058],[-81.58109,28.00094],[-81.58873,28.00087],[-81.58873,28.00261],[-81.59495,28.00256],[-81.59495,28.00088],[-81.597,28.00168],[-81.60594,28.00151],[-81.60586,27.99929],[-81.61046,27.99681],[-81.6195,27.99683],[-81.61957,28.00045],[-81.62371,28.00046],[-81.62377,28.00409],[-81.6279,28.00409],[-81.62796,28.00771],[-81.63147,28.00772],[-81.63212,28.01141],[-81.63834,28.01864],[-81.64138,28.02232],[-81.63853,28.02851],[-81.63926,28.0328],[-81.64434,28.03303],[-81.64442,28.0346],[-81.63974,28.03816],[-81.63552,28.04435],[-81.63645,28.04195]]]}},{"type":"Feature","properties":{"zcta":"33850","d":241},"geometry":{"type":"Polygon","coordinates":[[[-81.7396,28.12842],[-81.74339,28.1293],[-81.74349,28.13787],[-81.74616,28.14024],[-81.74757,28.14293],[-81.75143,28.14573],[-81.75344,28.14912],[-81.75658,28.15236],[-81.75688,28.16818],[-81.76358,28.16818],[-81.76348,28.1737],[-81.75771,28.1764],[-81.74384,28.18194],[-81.73658,28.1675],[-81.73587,28.16562],[-81.72911,28.16511],[-81.72532,28.16373],[-81.72185,28.16517],[-81.72191,28.15741],[-81.7067,28.15761],[-81.70637,28.13203],[-81.70244,28.13201],[-81.70246,28.12847],[-81.7006,28.12852],[-81.70043,28.12385],[-81.69828,28.12383],[-81.6983,28.12112],[-81.70455,28.12112],[-81.70479,28.11746],[-81.70242,28.11747],[-81.70239,28.11382],[-81.69809,28.11386],[-81.6985,28.10546],[-81.69114,28.10665],[-81.69114,28.10543],[-81.69443,28.10455],[-81.69442,28.10286],[-81.69219,28.10289],[-81.69218,28.09924],[-81.69662,28.09925],[-81.69808,28.09565],[-81.69885,28.09094],[-81.70193,28.08935],[-81.70502,28.08444],[-81.70989,28.08095],[-81.7126,28.08165],[-81.71403,28.07538],[-81.71945,28.07847],[-81.72332,28.08],[-81.72551,28.07989],[-81.72984,28.07734],[-81.73121,28.07328],[-81.73268,28.07328],[-81.73269,28.07559],[-81.75188,28.06757],[-81.75383,28.06945],[-81.75497,28.06777],[-81.75855,28.06657],[-81.76146,28.06787],[-81.76181,28.07077],[-81.76807,28.07139],[-81.76807,28.07708],[-81.77113,28.07706],[-81.76467,28.08474],[-81.76467,28.08744],[-81.75514,28.08813],[-81.75514,28.10542],[-81.75646,28.10659],[-81.75653,28.12841],[-81.7396,28.12842]]]}},{"type":"Feature","properties":{"zcta":"33868","d":35},"geometry":{"type":"Polygon","coordinates":[[[-82.05461,28.31408],[-82.04832,28.31633],[-82.04549,28.3183],[-82.04191,28.31891],[-82.03989,28.32032],[-82.03928,28.31909],[-82.02547,28.32287],[-82.02056,28.32378],[-82.01581,28.32357],[-82.01038,28.32215],[-82.00764,28.32321],[-82.00422,28.32208],[-82.00242,28.32032],[-81.9992,28.32031],[-81.9957,28.31883],[-81.99239,28.31424],[-81.99032,28.30983],[-81.98831,28.30705],[-81.98578,28.30532],[-81.9789,28.30574],[-81.97736,28.30668],[-81.97633,28.30955],[-81.97498,28.31017],[-81.97345,28.30851],[-81.96519,28.30805],[-81.96027,28.30923],[-81.9578,28.30889],[-81.95764,28.34518],[-81.94028,28.34519],[-81.85751,28.34597],[-81.85762,28.36187],[-81.8189,28.36171],[-81.79089,28.36184],[-81.79073,28.34641],[-81.76042,28.34644],[-81.7579,28.34451],[-81.75263,28.33751],[-81.75158,28.33377],[-81.74973,28.33307],[-81.7465,28.32777],[-81.7456,28.32468],[-81.74226,28.32387],[-81.74335,28.31988],[-81.74175,28.31692],[-81.74189,28.31508],[-81.73959,28.31144],[-81.73733,28.30543],[-81.73602,28.30546],[-81.72944,28.30959],[-81.72818,28.31203],[-81.72303,28.31074],[-81.72269,28.26052],[-81.72279,28.19061],[-81.74396,28.18217],[-81.74384,28.18194],[-81.75771,28.1764],[-81.76348,28.1737],[-81.76358,28.16818],[-81.75688,28.16818],[-81.75658,28.15236],[-81.75344,28.14912],[-81.75143,28.14573],[-81.74757,28.14293],[-81.74616,28.14024],[-81.74349,28.13787],[-81.74339,28.1293],[-81.7396,28.12842],[-81.75653,28.12841],[-81.75657,28.13931],[-81.79139,28.13929],[-81.78726,28.14153],[-81.78762,28.14403],[-81.7894,28.14461],[-81.78939,28.14299],[-81.79362,28.14297],[-81.79372,28.15696],[-81.79809,28.15659],[-81.79925,28.15449],[-81.80116,28.15439],[-81.80069,28.15218],[-81.80589,28.15044],[-81.82539,28.1504],[-81.82614,28.15398],[-81.82546,28.14305],[-81.83054,28.14295],[-81.83057,28.13576],[-81.84004,28.1357],[-81.84415,28.14761],[-81.84679,28.15449],[-81.8543,28.15216],[-81.89868,28.14005],[-81.89597,28.14352],[-81.89272,28.14597],[-81.88918,28.14758],[-81.88916,28.14339],[-81.87688,28.14658],[-81.87687,28.15063],[-81.8728,28.15177],[-81.87282,28.15018],[-81.86872,28.15021],[-81.86872,28.15289],[-81.86641,28.15371],[-81.86038,28.15377],[-81.86038,28.15847],[-81.86145,28.15738],[-81.86447,28.15729],[-81.86946,28.15473],[-81.88115,28.1532],[-81.88114,28.15508],[-81.88274,28.15508],[-81.88259,28.15302],[-81.88532,28.15308],[-81.89421,28.15732],[-81.89734,28.15739],[-81.89739,28.16102],[-81.90151,28.16101],[-81.90147,28.16863],[-81.90516,28.16861],[-81.90556,28.1769],[-81.90427,28.17748],[-81.91414,28.19403],[-81.91413,28.2005],[-81.9152,28.20051],[-81.91522,28.2423],[-81.91602,28.24523],[-81.91254,28.24849],[-81.91339,28.25167],[-81.91891,28.25723],[-81.91945,28.25895],[-81.92292,28.25895],[-81.92288,28.26419],[-81.91493,28.27155],[-81.91624,28.27438],[-81.91551,28.27759],[-81.91985,28.28239],[-81.9218,28.28667],[-81.92615,28.28768],[-81.93087,28.29035],[-81.93498,28.28891],[-81.93931,28.2893],[-81.93584,28.28791],[-81.93549,28.28451],[-81.93417,28.2822],[-81.93508,28.2809],[-81.93419,28.27848],[-81.9372,28.27897],[-81.93838,28.27501],[-81.94032,28.27588],[-81.94027,28.2591],[-81.95772,28.25899],[-81.96063,28.25657],[-81.96434,28.25746],[-81.97183,28.25601],[-81.97533,28.25879],[-81.97989,28.25866],[-81.98961,28.25906],[-81.99186,28.26289],[-81.9985,28.25933],[-82.00558,28.26085],[-82.00671,28.26476],[-82.00985,28.26466],[-82.01385,28.26578],[-82.0159,28.2684],[-82.02061,28.2686],[-82.02412,28.26968],[-82.02573,28.27212],[-82.03083,28.27686],[-82.03433,28.28265],[-82.0368,28.28525],[-82.03915,28.28586],[-82.04592,28.29122],[-82.04844,28.2944],[-82.03981,28.29429],[-82.04036,28.29865],[-82.04428,28.30352],[-82.04927,28.30739],[-82.05266,28.30803],[-82.05584,28.30573],[-82.05582,28.31279],[-82.05461,28.31408]]]}},{"type":"Feature","properties":{"zcta":"33884","d":874},"geometry":{"type":"Polygon","coordinates":[[[-81.69386,28.02248],[-81.69075,28.02333],[-81.68767,28.02247],[-81.68568,28.02399],[-81.68569,28.02613],[-81.6816,28.02611],[-81.68161,28.02977],[-81.6775,28.02973],[-81.67749,28.02376],[-81.67692,28.02246],[-81.66101,28.0224],[-81.66102,28.02329],[-81.6568,28.02458],[-81.65582,28.01942],[-81.65115,28.01878],[-81.64541,28.01878],[-81.64542,28.02227],[-81.64436,28.02226],[-81.64434,28.01876],[-81.63834,28.01864],[-81.63212,28.01141],[-81.63147,28.00772],[-81.631,27.9788],[-81.63476,27.97868],[-81.63471,27.97501],[-81.63195,27.97243],[-81.62978,27.96792],[-81.62774,27.96073],[-81.62556,27.95696],[-81.63185,27.95735],[-81.64241,27.96053],[-81.66066,27.96049],[-81.66056,27.93841],[-81.65643,27.93845],[-81.65647,27.94512],[-81.65318,27.94369],[-81.64942,27.94014],[-81.6457,27.94123],[-81.64409,27.94276],[-81.64496,27.94569],[-81.6364,27.94564],[-81.63597,27.93478],[-81.64371,27.93089],[-81.65907,27.9285],[-81.66294,27.92308],[-81.66243,27.92021],[-81.6684,27.92018],[-81.66864,27.92372],[-81.67648,27.92365],[-81.69464,27.94515],[-81.68435,27.93275],[-81.6895,27.93258],[-81.69539,27.93482],[-81.69899,27.93841],[-81.70508,27.93842],[-81.70572,27.93398],[-81.70561,27.92902],[-81.70897,27.92899],[-81.70897,27.92492],[-81.71402,27.92703],[-81.71704,27.92746],[-81.71714,27.94251],[-81.72005,27.94129],[-81.72009,27.9457],[-81.71547,27.95068],[-81.71519,27.95172],[-81.7115,27.95129],[-81.71152,27.95316],[-81.71556,27.95309],[-81.71925,27.96032],[-81.71025,27.96037],[-81.71063,27.9643],[-81.71335,27.96756],[-81.71553,27.96899],[-81.71988,27.9694],[-81.71988,27.97111],[-81.72202,27.97115],[-81.72204,27.97398],[-81.72416,27.97603],[-81.72501,27.97327],[-81.72682,27.97494],[-81.72685,27.98604],[-81.72887,27.98568],[-81.73059,27.98781],[-81.72918,27.99124],[-81.72703,27.99358],[-81.72258,27.99206],[-81.71716,27.99266],[-81.71701,27.99017],[-81.71116,27.99285],[-81.71103,27.99834],[-81.7056,28.00022],[-81.70341,28.00289],[-81.70363,28.00439],[-81.70688,28.00572],[-81.71087,28.00629],[-81.71009,28.01261],[-81.70699,28.01545],[-81.70879,28.01674],[-81.70843,28.01879],[-81.70674,28.01996],[-81.70675,28.0225],[-81.69386,28.02248]]]}},{"type":"Feature","properties":{"zcta":"33812","d":740},"geometry":{"type":"Polygon","coordinates":[[[-81.92393,27.99633],[-81.91239,27.9965],[-81.90724,27.99828],[-81.90353,27.9984],[-81.90348,27.99541],[-81.90104,27.99542],[-81.89937,27.9968],[-81.88947,27.98223],[-81.89082,27.98486],[-81.88891,27.98596],[-81.87891,27.98587],[-81.87788,27.98944],[-81.8709,27.99017],[-81.85499,27.98224],[-81.85423,27.98163],[-81.8567,27.98054],[-81.85828,27.97583],[-81.85734,27.97429],[-81.85895,27.96793],[-81.85727,27.96466],[-81.85791,27.9622],[-81.85773,27.95657],[-81.87193,27.95665],[-81.86947,27.95299],[-81.8714,27.95297],[-81.92359,27.95291],[-81.92395,27.98201],[-81.92388,27.98587],[-81.91986,27.98582],[-81.91983,27.98206],[-81.91527,27.98238],[-81.9222,27.98972],[-81.92402,27.99047],[-81.92402,27.99601],[-81.92393,27.99633]]]}},{"type":"Feature","properties":{"zcta":"33859","d":119},"geometry":{"type":"MultiPolygon","coordinates":[[[[-81.62959,27.99325],[-81.62394,27.99321],[-81.62393,27.99102],[-81.63068,27.99139],[-81.62959,27.99325]]],[[[-81.66864,27.92372],[-81.6684,27.92018],[-81.66243,27.92021],[-81.66294,27.92308],[-81.65907,27.9285],[-81.64371,27.93089],[-81.63597,27.93478],[-81.6364,27.94564],[-81.64496,27.94569],[-81.64409,27.94276],[-81.6457,27.94123],[-81.64942,27.94014],[-81.65318,27.94369],[-81.65647,27.94512],[-81.65643,27.93845],[-81.66056,27.93841],[-81.66066,27.96049],[-81.64241,27.96053],[-81.63185,27.95735],[-81.62556,27.95696],[-81.62774,27.96073],[-81.62978,27.96792],[-81.63195,27.97243],[-81.63471,27.97501],[-81.63476,27.97868],[-81.631,27.9788],[-81.62199,27.97891],[-81.61945,27.97791],[-81.61944,27.97398],[-81.61328,27.97398],[-81.61273,27.97547],[-81.60966,27.97355],[-81.60966,27.97159],[-81.6071,27.97156],[-81.60822,27.97712],[-81.60104,27.9773],[-81.59482,27.97732],[-81.5948,27.97358],[-81.59889,27.97356],[-81.59888,27.97171],[-81.59479,27.97178],[-81.59478,27.96998],[-81.59893,27.96989],[-81.59892,27.96804],[-81.59477,27.96813],[-81.59471,27.96261],[-81.59883,27.96259],[-81.59882,27.96061],[-81.5947,27.95945],[-81.59489,27.94628],[-81.59651,27.94432],[-81.59981,27.9423],[-81.60004,27.94116],[-81.59838,27.93241],[-81.59535,27.92448],[-81.60646,27.92436],[-81.60602,27.92275],[-81.60888,27.92225],[-81.61181,27.92278],[-81.61212,27.92432],[-81.61542,27.92517],[-81.61731,27.92432],[-81.62347,27.92423],[-81.6192,27.91693],[-81.61351,27.91347],[-81.61253,27.91007],[-81.61365,27.90675],[-81.61249,27.89948],[-81.61097,27.89399],[-81.60401,27.89401],[-81.603,27.89585],[-81.59991,27.89584],[-81.59968,27.88668],[-81.59893,27.88302],[-81.59388,27.872],[-81.57303,27.87205],[-81.57303,27.86344],[-81.57699,27.86397],[-81.57718,27.85744],[-81.57398,27.85745],[-81.57394,27.85298],[-81.5753,27.85226],[-81.57366,27.85053],[-81.57529,27.84774],[-81.5751,27.84281],[-81.58125,27.84279],[-81.58115,27.83537],[-81.57458,27.83543],[-81.57466,27.83065],[-81.57719,27.8298],[-81.57745,27.82653],[-81.58556,27.8254],[-81.58784,27.82416],[-81.59065,27.8211],[-81.59458,27.82244],[-81.59592,27.81964],[-81.59724,27.814],[-81.59745,27.80941],[-81.61409,27.81631],[-81.61406,27.82066],[-81.63902,27.82066],[-81.63836,27.81348],[-81.67582,27.81339],[-81.67663,27.81372],[-81.67754,27.81781],[-81.68257,27.81788],[-81.69487,27.81332],[-81.69544,27.8127],[-81.69792,27.81308],[-81.69801,27.81883],[-81.68994,27.8187],[-81.68994,27.82063],[-81.67872,27.8211],[-81.67877,27.83536],[-81.673,27.83522],[-81.6736,27.84984],[-81.67397,27.85195],[-81.66916,27.85421],[-81.67044,27.8547],[-81.67086,27.858],[-81.6679,27.85911],[-81.66486,27.8592],[-81.65417,27.87043],[-81.65519,27.87223],[-81.65819,27.88574],[-81.65964,27.88727],[-81.67756,27.89329],[-81.67956,27.89502],[-81.69787,27.9131],[-81.69382,27.91649],[-81.69291,27.91882],[-81.68775,27.91972],[-81.68472,27.9215],[-81.68386,27.9236],[-81.67648,27.92365],[-81.66864,27.92372]]]]}},{"type":"Feature","properties":{"zcta":"33860","d":96},"geometry":{"type":"Polygon","coordinates":[[[-81.97629,27.93852],[-81.97288,27.93717],[-81.9689,27.9372],[-81.96892,27.93481],[-81.96473,27.93478],[-81.96463,27.9316],[-81.96317,27.93101],[-81.95515,27.9311],[-81.95514,27.92892],[-81.95066,27.92914],[-81.9527,27.92611],[-81.9602,27.92251],[-81.96658,27.91666],[-81.96696,27.91077],[-81.96422,27.90959],[-81.96206,27.90974],[-81.95837,27.90512],[-81.95727,27.89964],[-81.95632,27.899],[-81.95046,27.89878],[-81.94814,27.89753],[-81.94512,27.89737],[-81.94512,27.89465],[-81.92444,27.89456],[-81.92433,27.88024],[-81.9282,27.87327],[-81.92841,27.85842],[-81.92888,27.85711],[-81.93179,27.85586],[-81.93469,27.85286],[-81.93992,27.85092],[-81.95547,27.85056],[-81.95949,27.84826],[-81.96171,27.84933],[-81.96277,27.84735],[-81.96756,27.84282],[-81.96897,27.84296],[-81.97156,27.83496],[-81.96978,27.83402],[-81.97134,27.82865],[-81.95611,27.82925],[-81.95445,27.82848],[-81.94833,27.8237],[-81.93876,27.82337],[-81.93939,27.83253],[-81.94015,27.8336],[-81.93418,27.83377],[-81.93404,27.83483],[-81.92669,27.83528],[-81.91996,27.83511],[-81.91733,27.83577],[-81.90827,27.8359],[-81.905,27.83509],[-81.90007,27.83298],[-81.88323,27.83307],[-81.88669,27.83017],[-81.88731,27.82227],[-81.88882,27.79604],[-81.89144,27.7907],[-81.89612,27.79034],[-81.90011,27.79279],[-81.90238,27.79912],[-81.90695,27.79952],[-81.91301,27.80275],[-81.94193,27.80391],[-81.94038,27.80242],[-81.94035,27.74854],[-81.94107,27.74729],[-81.94846,27.74079],[-81.9511,27.74077],[-81.9532,27.73686],[-81.95631,27.73414],[-81.95688,27.73261],[-81.95642,27.72847],[-81.95301,27.72482],[-81.9518,27.72309],[-81.95337,27.72],[-81.95886,27.71705],[-81.96036,27.71392],[-81.95592,27.68809],[-81.95571,27.68464],[-81.96015,27.68485],[-81.98113,27.68487],[-81.98611,27.68299],[-81.99764,27.67032],[-81.99962,27.66941],[-82.0256,27.66936],[-82.04386,27.67166],[-82.04701,27.67139],[-82.04987,27.66977],[-82.05169,27.66672],[-82.05446,27.65034],[-82.05468,27.71928],[-82.05912,27.71928],[-82.0611,27.72017],[-82.0612,27.72268],[-82.06278,27.72324],[-82.06579,27.72702],[-82.06981,27.72945],[-82.07355,27.72971],[-82.06501,27.73528],[-82.06326,27.7372],[-82.06093,27.74294],[-82.0607,27.74811],[-82.05847,27.75248],[-82.05921,27.75327],[-82.05711,27.75497],[-82.05526,27.75869],[-82.05489,27.76626],[-82.05447,27.79592],[-82.05404,27.85465],[-82.05011,27.85068],[-82.02186,27.85076],[-82.02121,27.85427],[-82.02334,27.85888],[-82.02697,27.86136],[-82.02272,27.8673],[-82.02241,27.86958],[-82.02219,27.88266],[-82.02324,27.88053],[-82.02493,27.87992],[-82.04881,27.87983],[-82.04872,27.88362],[-82.05167,27.88693],[-82.05392,27.89382],[-82.0551,27.89448],[-82.05487,27.90773],[-82.05526,27.92725],[-82.0553,27.93818],[-81.97629,27.93852]],[[-81.97672,27.78069],[-81.97097,27.78062],[-81.96687,27.78561],[-81.96786,27.79286],[-81.96964,27.79537],[-81.97288,27.79813],[-81.97337,27.79402],[-81.97745,27.79407],[-81.97759,27.78595],[-81.97672,27.78069]]]}},{"type":"Feature","properties":{"zcta":"33897","d":423},"geometry":{"type":"Polygon","coordinates":[[[-81.70661,28.3466],[-81.6643,28.34707],[-81.66469,28.34293],[-81.66945,28.34309],[-81.66942,28.34076],[-81.66531,28.3408],[-81.66534,28.33846],[-81.66014,28.33842],[-81.66026,28.33523],[-81.66196,28.33248],[-81.66194,28.3284],[-81.65853,28.327],[-81.65633,28.32854],[-81.65267,28.32856],[-81.6526,28.32585],[-81.64865,28.32494],[-81.64846,28.31749],[-81.65174,28.31762],[-81.65251,28.31396],[-81.65724,28.31391],[-81.657,28.28841],[-81.65704,28.27376],[-81.65717,28.26451],[-81.66009,28.26423],[-81.65726,28.24551],[-81.6559,28.24237],[-81.65003,28.23255],[-81.67744,28.21229],[-81.68229,28.20936],[-81.70196,28.1998],[-81.71564,28.19404],[-81.72279,28.19061],[-81.72269,28.26052],[-81.72303,28.31074],[-81.72818,28.31203],[-81.72944,28.30959],[-81.73602,28.30546],[-81.73733,28.30543],[-81.73959,28.31144],[-81.74189,28.31508],[-81.74175,28.31692],[-81.74335,28.31988],[-81.74226,28.32387],[-81.7456,28.32468],[-81.7465,28.32777],[-81.74973,28.33307],[-81.75158,28.33377],[-81.75263,28.33751],[-81.7579,28.34451],[-81.76042,28.34644],[-81.70661,28.3466]]]}},{"type":"Feature","properties":{"zcta":"33896","d":1139},"geometry":{"type":"Polygon","coordinates":[[[-81.65246,28.27382],[-81.65246,28.28115],[-81.6446,28.28115],[-81.64443,28.28841],[-81.64009,28.28752],[-81.64004,28.2811],[-81.63598,28.28118],[-81.63597,28.2775],[-81.63187,28.27753],[-81.63182,28.2739],[-81.62155,28.27398],[-81.62182,28.27064],[-81.6116,28.26786],[-81.61124,28.27033],[-81.6092,28.27034],[-81.60913,28.26852],[-81.60709,28.26748],[-81.61423,28.25943],[-81.59639,28.25947],[-81.59638,28.25977],[-81.58232,28.25982],[-81.57935,28.26056],[-81.5785,28.27475],[-81.56544,28.27463],[-81.56378,28.2713],[-81.5608,28.27116],[-81.55943,28.26892],[-81.55392,28.26434],[-81.55183,28.25996],[-81.54638,28.25982],[-81.53669,28.26417],[-81.53687,28.26523],[-81.54046,28.26837],[-81.54333,28.26962],[-81.5442,28.27245],[-81.54373,28.27586],[-81.54122,28.27669],[-81.54079,28.28896],[-81.53811,28.28897],[-81.53813,28.28255],[-81.53116,28.27553],[-81.52717,28.27375],[-81.52576,28.27193],[-81.52507,28.26764],[-81.52287,28.26745],[-81.52222,28.269],[-81.5202,28.26845],[-81.52074,28.26672],[-81.50799,28.26319],[-81.5081,28.26287],[-81.52196,28.26657],[-81.52642,28.26687],[-81.53307,28.26496],[-81.53657,28.26329],[-81.53328,28.25808],[-81.53148,28.25709],[-81.53081,28.2542],[-81.527,28.25051],[-81.52474,28.24947],[-81.52468,28.24663],[-81.52317,28.24691],[-81.52173,28.24286],[-81.51826,28.24136],[-81.51804,28.23787],[-81.51322,28.23091],[-81.51067,28.22883],[-81.50863,28.22063],[-81.50659,28.21785],[-81.50463,28.21672],[-81.5114,28.21866],[-81.50915,28.21621],[-81.50802,28.21285],[-81.50807,28.20062],[-81.50686,28.19706],[-81.50686,28.18874],[-81.51101,28.18886],[-81.51316,28.18775],[-81.51944,28.18601],[-81.52418,28.187],[-81.52408,28.20101],[-81.53667,28.22319],[-81.54929,28.22325],[-81.55362,28.22512],[-81.55355,28.23325],[-81.55907,28.23697],[-81.55319,28.24639],[-81.55615,28.24693],[-81.55398,28.25071],[-81.5516,28.24952],[-81.55474,28.25435],[-81.55846,28.25049],[-81.56485,28.24089],[-81.5715,28.2433],[-81.58023,28.24489],[-81.59054,28.24494],[-81.59558,28.24601],[-81.60043,28.24554],[-81.60717,28.2484],[-81.61335,28.25029],[-81.62031,28.25414],[-81.64987,28.2323],[-81.65003,28.23255],[-81.6559,28.24237],[-81.65726,28.24551],[-81.66009,28.26423],[-81.65717,28.26451],[-81.65704,28.27376],[-81.65246,28.27382]]]}},{"type":"Feature","properties":{"zcta":"34759","d":316},"geometry":{"type":"Polygon","coordinates":[[[-81.53911,28.1349],[-81.53212,28.13908],[-81.52629,28.14044],[-81.51378,28.138],[-81.51099,28.13861],[-81.5045,28.14236],[-81.50148,28.14275],[-81.47328,28.14276],[-81.47009,28.14328],[-81.46434,28.14625],[-81.45663,28.14562],[-81.44735,28.14733],[-81.44359,28.14747],[-81.44014,28.15286],[-81.43726,28.1534],[-81.43479,28.15235],[-81.43053,28.15187],[-81.42712,28.15517],[-81.41404,28.15496],[-81.40301,28.14776],[-81.39552,28.14418],[-81.3661,28.13669],[-81.364,28.13685],[-81.36044,28.13903],[-81.35194,28.1389],[-81.34498,28.08624],[-81.34784,28.08387],[-81.34867,28.08151],[-81.34726,28.08031],[-81.34634,28.06967],[-81.34879,28.06774],[-81.35031,28.06854],[-81.35349,28.06706],[-81.36042,28.06839],[-81.36244,28.07001],[-81.36501,28.06822],[-81.3651,28.06487],[-81.36681,28.06167],[-81.36556,28.06078],[-81.36406,28.05691],[-81.36513,28.05519],[-81.3638,28.04949],[-81.36446,28.04688],[-81.36185,28.04365],[-81.36372,28.03776],[-81.36527,28.0374],[-81.36737,28.03633],[-81.36864,28.03436],[-81.37556,28.02971],[-81.37516,28.02688],[-81.37611,28.02472],[-81.37901,28.02203],[-81.37787,28.01739],[-81.37648,28.01585],[-81.37872,28.01174],[-81.38154,28.01305],[-81.38248,28.01236],[-81.38569,28.01723],[-81.39082,28.01967],[-81.39205,28.0196],[-81.39271,28.02434],[-81.39397,28.02803],[-81.39724,28.02935],[-81.40585,28.02897],[-81.40765,28.02969],[-81.41083,28.03361],[-81.41465,28.03654],[-81.41786,28.03802],[-81.42316,28.03859],[-81.42398,28.04043],[-81.42804,28.03935],[-81.42763,28.04134],[-81.43253,28.04326],[-81.43402,28.04593],[-81.43541,28.05295],[-81.43847,28.057],[-81.44336,28.05919],[-81.45063,28.05666],[-81.45362,28.0576],[-81.45745,28.05508],[-81.45839,28.05104],[-81.46455,28.05101],[-81.46455,28.04185],[-81.47961,28.04178],[-81.47955,28.02699],[-81.51354,28.0268],[-81.52093,28.03119],[-81.52557,28.03279],[-81.52453,28.03584],[-81.52297,28.04329],[-81.52162,28.04678],[-81.52158,28.04981],[-81.52389,28.05286],[-81.51866,28.05348],[-81.51513,28.05804],[-81.51661,28.06103],[-81.51843,28.06713],[-81.52042,28.06799],[-81.52048,28.07064],[-81.52203,28.07284],[-81.52112,28.07716],[-81.52388,28.08028],[-81.52385,28.08157],[-81.51986,28.0828],[-81.52128,28.08633],[-81.52128,28.08854],[-81.51996,28.09167],[-81.52004,28.09608],[-81.52255,28.09925],[-81.51583,28.09924],[-81.51609,28.10451],[-81.51405,28.10593],[-81.51571,28.10659],[-81.51572,28.10985],[-81.51675,28.11157],[-81.5195,28.11183],[-81.5203,28.11354],[-81.51828,28.11505],[-81.51912,28.11618],[-81.52202,28.11575],[-81.52548,28.11664],[-81.52886,28.11886],[-81.5333,28.1201],[-81.53728,28.12546],[-81.53718,28.12704],[-81.5392,28.13158],[-81.5407,28.13342],[-81.53911,28.1349]]]}},{"type":"Feature","properties":{"zcta":"33813","d":1150},"geometry":{"type":"Polygon","coordinates":[[[-81.92402,27.99047],[-81.9222,27.98972],[-81.91527,27.98238],[-81.91983,27.98206],[-81.91986,27.98582],[-81.92388,27.98587],[-81.92395,27.98201],[-81.92359,27.95291],[-81.8714,27.95297],[-81.87013,27.95076],[-81.87004,27.9476],[-81.87421,27.94762],[-81.87418,27.94577],[-81.87002,27.94577],[-81.87,27.94398],[-81.87413,27.94397],[-81.8741,27.94217],[-81.87822,27.94218],[-81.87863,27.93853],[-81.89052,27.93847],[-81.89045,27.93296],[-81.88224,27.93298],[-81.88222,27.93114],[-81.88428,27.93114],[-81.88424,27.92746],[-81.88218,27.92746],[-81.88211,27.92012],[-81.88623,27.92012],[-81.88623,27.91829],[-81.88211,27.91829],[-81.88208,27.91281],[-81.8862,27.91281],[-81.88622,27.91646],[-81.89034,27.91646],[-81.8903,27.90916],[-81.86344,27.90898],[-81.85897,27.9082],[-81.85885,27.8985],[-81.87735,27.89767],[-81.88833,27.89841],[-81.90719,27.89841],[-81.91577,27.89493],[-81.91834,27.89457],[-81.91847,27.9075],[-81.9204,27.90918],[-81.92055,27.91282],[-81.91557,27.9165],[-81.91507,27.91832],[-81.91511,27.92571],[-81.91737,27.92927],[-81.93473,27.93833],[-81.94011,27.93832],[-81.93999,27.9263],[-81.94151,27.92757],[-81.94547,27.92702],[-81.9478,27.9295],[-81.95066,27.92914],[-81.95514,27.92892],[-81.95515,27.9311],[-81.96317,27.93101],[-81.96463,27.9316],[-81.96473,27.93478],[-81.96892,27.93481],[-81.9689,27.9372],[-81.97288,27.93717],[-81.97629,27.93852],[-81.97294,27.95167],[-81.9708,27.95623],[-81.97112,27.96123],[-81.97305,27.96798],[-81.97323,27.97488],[-81.97457,27.97943],[-81.97555,27.99032],[-81.97602,27.99163],[-81.98276,27.99679],[-81.95696,27.99664],[-81.95687,27.99593],[-81.9518,27.99465],[-81.94464,27.99481],[-81.93167,27.99627],[-81.92404,27.99685],[-81.92402,27.99601],[-81.92402,27.99047]]]}},{"type":"Feature","properties":{"zcta":"33815","d":827},"geometry":{"type":"Polygon","coordinates":[[[-82.03853,28.03707],[-82.03404,28.03856],[-82.01532,28.05221],[-82.01239,28.05134],[-82.00104,28.05441],[-82.00129,28.05492],[-81.99424,28.05488],[-81.99412,28.05859],[-81.99014,28.05859],[-81.99019,28.05485],[-81.95741,28.05497],[-81.95734,28.04942],[-81.95799,28.0494],[-81.95721,28.04412],[-81.95823,28.0429],[-81.95819,28.03866],[-81.95717,28.03776],[-81.95818,28.03533],[-81.95766,28.03324],[-81.9612,28.03274],[-81.96376,28.03064],[-81.96895,28.02855],[-81.97006,28.02912],[-81.97335,28.02587],[-81.98177,28.02599],[-81.9818,28.03139],[-81.9859,28.03136],[-81.9859,28.02954],[-81.98401,28.02937],[-81.98399,28.02587],[-81.99314,28.02625],[-81.99315,28.0277],[-81.99611,28.02775],[-81.99609,28.02586],[-82.00019,28.02635],[-82.00022,28.02958],[-82.00225,28.0295],[-82.00366,28.03327],[-82.00205,28.03325],[-81.99871,28.03668],[-81.99005,28.0387],[-82.01917,28.03321],[-82.03948,28.02973],[-82.04025,28.02924],[-82.05252,28.02708],[-82.05565,28.02576],[-82.05595,28.03694],[-82.03853,28.03707]]]}},{"type":"Feature","properties":{"zcta":"33823","d":567},"geometry":{"type":"Polygon","coordinates":[[[-81.83057,28.13576],[-81.83054,28.14295],[-81.82546,28.14305],[-81.82614,28.15398],[-81.82539,28.1504],[-81.80589,28.15044],[-81.80069,28.15218],[-81.80116,28.15439],[-81.79925,28.15449],[-81.79809,28.15659],[-81.79372,28.15696],[-81.79362,28.14297],[-81.78939,28.14299],[-81.7894,28.14461],[-81.78762,28.14403],[-81.78726,28.14153],[-81.79139,28.13929],[-81.75657,28.13931],[-81.75653,28.12841],[-81.75646,28.10659],[-81.75514,28.10542],[-81.75514,28.08813],[-81.76467,28.08744],[-81.76467,28.08474],[-81.77113,28.07706],[-81.76807,28.07708],[-81.76807,28.07139],[-81.76805,28.06452],[-81.77011,28.06413],[-81.77006,28.05099],[-81.77627,28.05393],[-81.77627,28.05505],[-81.78027,28.05506],[-81.78026,28.0478],[-81.77832,28.04623],[-81.77626,28.04623],[-81.77623,28.04413],[-81.78023,28.0441],[-81.78022,28.04137],[-81.77618,28.04135],[-81.7761,28.03912],[-81.78228,28.03965],[-81.78351,28.04043],[-81.78796,28.04709],[-81.78909,28.04709],[-81.7906,28.04968],[-81.79327,28.05123],[-81.8,28.05136],[-81.79974,28.04452],[-81.7964,28.04081],[-81.7951,28.03778],[-81.79643,28.03317],[-81.81456,28.03311],[-81.81559,28.03247],[-81.81675,28.0258],[-81.8315,28.0259],[-81.83349,28.03685],[-81.84145,28.03688],[-81.84589,28.03607],[-81.85099,28.03688],[-81.85436,28.03684],[-81.85441,28.03964],[-81.85846,28.04047],[-81.85852,28.04798],[-81.85992,28.04796],[-81.85998,28.05229],[-81.86176,28.05189],[-81.86263,28.05381],[-81.85854,28.05517],[-81.86459,28.05519],[-81.86265,28.05654],[-81.86261,28.06654],[-81.85855,28.06654],[-81.85856,28.06942],[-81.85755,28.06979],[-81.85759,28.07344],[-81.87512,28.07346],[-81.87518,28.07677],[-81.87527,28.08437],[-81.87283,28.08441],[-81.87295,28.10305],[-81.87149,28.10306],[-81.87129,28.11273],[-81.87065,28.11395],[-81.86282,28.11393],[-81.86282,28.11177],[-81.85795,28.11163],[-81.85805,28.114],[-81.83885,28.11423],[-81.83879,28.13178],[-81.84004,28.1357],[-81.83057,28.13576]]]}},{"type":"Feature","properties":{"zcta":"33810","d":453},"geometry":{"type":"Polygon","coordinates":[[[-82.06523,28.17159],[-82.0693,28.1768],[-82.06651,28.17819],[-82.06424,28.18056],[-82.06143,28.18219],[-82.0563,28.18328],[-82.05626,28.19363],[-82.02708,28.19351],[-82.02742,28.19736],[-82.02353,28.19483],[-82.0219,28.19481],[-82.0218,28.20104],[-82.02251,28.204],[-82.02528,28.2086],[-82.02721,28.20917],[-82.02727,28.21222],[-82.03113,28.21313],[-82.03109,28.21092],[-82.03296,28.21115],[-82.03236,28.21343],[-82.03584,28.21426],[-82.03583,28.21693],[-82.03326,28.21629],[-82.03195,28.21766],[-82.03481,28.22039],[-82.03149,28.22052],[-82.03265,28.22176],[-82.0294,28.22174],[-82.02642,28.21884],[-82.02273,28.21892],[-82.00857,28.20576],[-82.00587,28.20246],[-81.99716,28.18575],[-81.9949,28.18248],[-81.99087,28.17891],[-81.97723,28.1677],[-81.97471,28.16481],[-81.97598,28.16478],[-81.97596,28.16109],[-81.97384,28.16112],[-81.9738,28.15254],[-81.97648,28.15238],[-81.97646,28.15015],[-81.97379,28.15017],[-81.97368,28.12813],[-81.97374,28.1076],[-81.97499,28.10748],[-81.97473,28.10437],[-81.97375,28.10437],[-81.97387,28.09534],[-81.97672,28.09417],[-81.97564,28.09254],[-81.97567,28.08981],[-81.9771,28.08802],[-81.97966,28.08747],[-81.97911,28.08535],[-81.98114,28.08058],[-81.97668,28.08058],[-81.9912,28.06969],[-82.01131,28.05492],[-82.01532,28.05221],[-82.03404,28.03856],[-82.03853,28.03707],[-82.05595,28.03694],[-82.05611,28.04137],[-82.0564,28.08039],[-82.05723,28.08038],[-82.05725,28.08408],[-82.06022,28.08406],[-82.05832,28.0854],[-82.05901,28.09486],[-82.06267,28.09455],[-82.06282,28.09863],[-82.07252,28.09863],[-82.0727,28.11334],[-82.08889,28.11311],[-82.08916,28.13767],[-82.09186,28.14014],[-82.10903,28.14085],[-82.11456,28.14014],[-82.11857,28.13771],[-82.12266,28.13963],[-82.12682,28.13986],[-82.12975,28.14078],[-82.13298,28.13968],[-82.13895,28.14021],[-82.14092,28.13938],[-82.14576,28.14147],[-82.14967,28.13995],[-82.15574,28.17166],[-82.1393,28.17166],[-82.12481,28.17215],[-82.10585,28.17165],[-82.06523,28.17159]]]}},{"type":"Feature","properties":{"zcta":"33803","d":867},"geometry":{"type":"Polygon","coordinates":[[[-81.99005,28.0387],[-81.99871,28.03668],[-82.00205,28.03325],[-82.00366,28.03327],[-82.00225,28.0295],[-82.00022,28.02958],[-82.00019,28.02635],[-81.99609,28.02586],[-81.99611,28.02775],[-81.99315,28.0277],[-81.99314,28.02625],[-81.98399,28.02587],[-81.98401,28.02937],[-81.9859,28.02954],[-81.9859,28.03136],[-81.9818,28.03139],[-81.98177,28.02599],[-81.97335,28.02587],[-81.97006,28.02912],[-81.96895,28.02855],[-81.96376,28.03064],[-81.9612,28.03274],[-81.95766,28.03324],[-81.94481,28.03315],[-81.9448,28.02959],[-81.94223,28.02983],[-81.93923,28.02814],[-81.93801,28.02587],[-81.92714,28.0259],[-81.91925,28.01866],[-81.91389,28.01438],[-81.9048,28.01416],[-81.90201,28.01157],[-81.89951,28.01052],[-81.89527,28.01055],[-81.89501,28.01146],[-81.87886,28.01149],[-81.87855,28.00952],[-81.87592,28.00909],[-81.86347,28.01042],[-81.85349,28.01089],[-81.8529,28.00804],[-81.85386,28.00493],[-81.84978,27.99975],[-81.85243,27.99828],[-81.85323,27.9957],[-81.85258,27.99229],[-81.84919,27.9909],[-81.85005,27.9862],[-81.85216,27.98279],[-81.85423,27.98163],[-81.85499,27.98224],[-81.8709,27.99017],[-81.87788,27.98944],[-81.87891,27.98587],[-81.88891,27.98596],[-81.89082,27.98486],[-81.88947,27.98223],[-81.89937,27.9968],[-81.90104,27.99542],[-81.90348,27.99541],[-81.90353,27.9984],[-81.90724,27.99828],[-81.91239,27.9965],[-81.92393,27.99633],[-81.92402,27.99601],[-81.92404,27.99685],[-81.93167,27.99627],[-81.94464,27.99481],[-81.9518,27.99465],[-81.95687,27.99593],[-81.95696,27.99664],[-81.98276,27.99679],[-81.99582,27.99856],[-82.00093,27.9996],[-82.00502,28.00191],[-82.01053,28.00644],[-81.99835,28.01242],[-82.01418,28.03097],[-82.01842,28.02959],[-82.01917,28.03321],[-81.99005,28.0387]],[[-81.90645,28.0077],[-81.90157,28.00774],[-81.90158,28.0096],[-81.90567,28.00956],[-81.90568,28.0114],[-81.90775,28.01137],[-81.90772,28.00886],[-81.90645,28.0077]]]}},{"type":"Feature","properties":{"zcta":"33809","d":169},"geometry":{"type":"Polygon","coordinates":[[[-82.05553,28.25893],[-82.0555,28.29504],[-82.05585,28.30212],[-82.06027,28.30444],[-82.05767,28.31045],[-82.05582,28.31279],[-82.05584,28.30573],[-82.05266,28.30803],[-82.04927,28.30739],[-82.04428,28.30352],[-82.04036,28.29865],[-82.03981,28.29429],[-82.04844,28.2944],[-82.04592,28.29122],[-82.03915,28.28586],[-82.0368,28.28525],[-82.03433,28.28265],[-82.03083,28.27686],[-82.02573,28.27212],[-82.02412,28.26968],[-82.02061,28.2686],[-82.0159,28.2684],[-82.01385,28.26578],[-82.00985,28.26466],[-82.00671,28.26476],[-82.00558,28.26085],[-81.9985,28.25933],[-81.99186,28.26289],[-81.98961,28.25906],[-81.97989,28.25866],[-81.97533,28.25879],[-81.97183,28.25601],[-81.96434,28.25746],[-81.96063,28.25657],[-81.95772,28.25899],[-81.94027,28.2591],[-81.94032,28.27588],[-81.93838,28.27501],[-81.9372,28.27897],[-81.93419,28.27848],[-81.93508,28.2809],[-81.93417,28.2822],[-81.93549,28.28451],[-81.93584,28.28791],[-81.93931,28.2893],[-81.93498,28.28891],[-81.93087,28.29035],[-81.92615,28.28768],[-81.9218,28.28667],[-81.91985,28.28239],[-81.91551,28.27759],[-81.91624,28.27438],[-81.91493,28.27155],[-81.92288,28.26419],[-81.92292,28.25895],[-81.91945,28.25895],[-81.91891,28.25723],[-81.91339,28.25167],[-81.91254,28.24849],[-81.91602,28.24523],[-81.91522,28.2423],[-81.9152,28.20051],[-81.91413,28.2005],[-81.91414,28.19403],[-81.90427,28.17748],[-81.90556,28.1769],[-81.90516,28.16861],[-81.90147,28.16863],[-81.90151,28.16101],[-81.89739,28.16102],[-81.89734,28.15739],[-81.89421,28.15732],[-81.88532,28.15308],[-81.88259,28.15302],[-81.88274,28.15508],[-81.88114,28.15508],[-81.88115,28.1532],[-81.86946,28.15473],[-81.86447,28.15729],[-81.86145,28.15738],[-81.86038,28.15847],[-81.86038,28.15377],[-81.86641,28.15371],[-81.86872,28.15289],[-81.86872,28.15021],[-81.87282,28.15018],[-81.8728,28.15177],[-81.87687,28.15063],[-81.87688,28.14658],[-81.88916,28.14339],[-81.88918,28.14758],[-81.89272,28.14597],[-81.89597,28.14352],[-81.89868,28.14005],[-81.90798,28.13726],[-81.91154,28.13564],[-81.91702,28.13214],[-81.9259,28.12493],[-81.92629,28.12496],[-81.9392,28.11433],[-81.94255,28.11008],[-81.95021,28.09944],[-81.95429,28.09573],[-81.96174,28.09175],[-81.97668,28.08058],[-81.98114,28.08058],[-81.97911,28.08535],[-81.97966,28.08747],[-81.9771,28.08802],[-81.97567,28.08981],[-81.97564,28.09254],[-81.97672,28.09417],[-81.97387,28.09534],[-81.97375,28.10437],[-81.97473,28.10437],[-81.97499,28.10748],[-81.97374,28.1076],[-81.97368,28.12813],[-81.97379,28.15017],[-81.97646,28.15015],[-81.97648,28.15238],[-81.9738,28.15254],[-81.97384,28.16112],[-81.97596,28.16109],[-81.97598,28.16478],[-81.97471,28.16481],[-81.97723,28.1677],[-81.99087,28.17891],[-81.9949,28.18248],[-81.99716,28.18575],[-82.00587,28.20246],[-82.00857,28.20576],[-82.02273,28.21892],[-82.02642,28.21884],[-82.0294,28.22174],[-82.03265,28.22176],[-82.03149,28.22052],[-82.03481,28.22039],[-82.0396,28.2249],[-82.03962,28.23096],[-82.04574,28.2317],[-82.04597,28.24046],[-82.05197,28.24569],[-82.0568,28.24804],[-82.06368,28.25254],[-82.06406,28.25527],[-82.06257,28.25913],[-82.05553,28.25893]]]}},{"type":"Feature","properties":{"zcta":"33847","d":0},"geometry":{"type":"Polygon","coordinates":[[[-81.82613,27.81285],[-81.83262,27.81308],[-81.83148,27.81415],[-81.8309,27.8205],[-81.83214,27.82415],[-81.83055,27.82413],[-81.83057,27.8222],[-81.82867,27.82226],[-81.82858,27.8205],[-81.82164,27.82053],[-81.82049,27.81057],[-81.81774,27.80139],[-81.81618,27.79468],[-81.82468,27.79486],[-81.82512,27.79539],[-81.82613,27.81126],[-81.82613,27.81285]]]}},{"type":"Feature","properties":{"zcta":"33849","d":27},"geometry":{"type":"Polygon","coordinates":[[[-82.06406,28.25527],[-82.06368,28.25254],[-82.0568,28.24804],[-82.05197,28.24569],[-82.04597,28.24046],[-82.04574,28.2317],[-82.03962,28.23096],[-82.0396,28.2249],[-82.03481,28.22039],[-82.03195,28.21766],[-82.03326,28.21629],[-82.03583,28.21693],[-82.03584,28.21426],[-82.03236,28.21343],[-82.03296,28.21115],[-82.03109,28.21092],[-82.03113,28.21313],[-82.02727,28.21222],[-82.02721,28.20917],[-82.02528,28.2086],[-82.02251,28.204],[-82.0218,28.20104],[-82.0219,28.19481],[-82.02353,28.19483],[-82.02742,28.19736],[-82.02708,28.19351],[-82.05626,28.19363],[-82.0563,28.18328],[-82.06143,28.18219],[-82.06424,28.18056],[-82.06651,28.17819],[-82.0693,28.1768],[-82.06523,28.17159],[-82.10585,28.17165],[-82.10584,28.21545],[-82.1062,28.2242],[-82.1062,28.25923],[-82.09671,28.25926],[-82.09671,28.26029],[-82.09066,28.26759],[-82.07559,28.2592],[-82.06257,28.25913],[-82.06406,28.25527]]]}},{"type":"Feature","properties":{"zcta":"33851","d":0},"geometry":{"type":"Polygon","coordinates":[[[-81.63389,28.0496],[-81.63511,28.05538],[-81.61575,28.05531],[-81.61563,28.05153],[-81.61983,28.05154],[-81.62,28.04794],[-81.61562,28.04791],[-81.61567,28.04247],[-81.6206,28.04225],[-81.62047,28.04065],[-81.61973,28.03324],[-81.63599,28.03317],[-81.63671,28.03645],[-81.63645,28.04195],[-81.63552,28.04435],[-81.63389,28.0496]]]}},{"type":"Feature","properties":{"zcta":"33837","d":494},"geometry":{"type":"Polygon","coordinates":[[[-81.62031,28.25414],[-81.61335,28.25029],[-81.60717,28.2484],[-81.60043,28.24554],[-81.59558,28.24601],[-81.59054,28.24494],[-81.58023,28.24489],[-81.5715,28.2433],[-81.56485,28.24089],[-81.55907,28.23697],[-81.55355,28.23325],[-81.55362,28.22512],[-81.54929,28.22325],[-81.53667,28.22319],[-81.52408,28.20101],[-81.52418,28.187],[-81.52423,28.14281],[-81.50148,28.14275],[-81.5045,28.14236],[-81.51099,28.13861],[-81.51378,28.138],[-81.52629,28.14044],[-81.53212,28.13908],[-81.53911,28.1349],[-81.5407,28.13342],[-81.54194,28.13175],[-81.55731,28.13188],[-81.55742,28.13693],[-81.56005,28.13632],[-81.56765,28.13763],[-81.56983,28.1395],[-81.57758,28.13935],[-81.5779,28.14305],[-81.58207,28.14302],[-81.58207,28.13579],[-81.59037,28.13583],[-81.59034,28.14298],[-81.59859,28.14299],[-81.59946,28.14442],[-81.60139,28.14302],[-81.60684,28.14311],[-81.60684,28.14662],[-81.61128,28.14663],[-81.61312,28.13583],[-81.61467,28.13585],[-81.6151,28.14305],[-81.61375,28.14302],[-81.61262,28.14682],[-81.60887,28.15229],[-81.61511,28.15271],[-81.6193,28.1539],[-81.61882,28.15027],[-81.62336,28.15034],[-81.62338,28.14872],[-81.62601,28.14969],[-81.62595,28.14669],[-81.62958,28.14683],[-81.62957,28.14494],[-81.63166,28.14497],[-81.63165,28.1504],[-81.63371,28.14951],[-81.63781,28.15045],[-81.6379,28.145],[-81.6405,28.14861],[-81.64367,28.14862],[-81.64396,28.14538],[-81.64803,28.14525],[-81.64401,28.14321],[-81.65381,28.14315],[-81.65489,28.14586],[-81.65714,28.14732],[-81.65702,28.17706],[-81.65706,28.21342],[-81.65742,28.21558],[-81.66532,28.21554],[-81.66529,28.22051],[-81.66025,28.22466],[-81.64987,28.2323],[-81.62031,28.25414]]]}},{"type":"Feature","properties":{"zcta":"33843","d":42},"geometry":{"type":"Polygon","coordinates":[[[-81.59745,27.80941],[-81.59724,27.814],[-81.59592,27.81964],[-81.59458,27.82244],[-81.59065,27.8211],[-81.58784,27.82416],[-81.58556,27.8254],[-81.57745,27.82653],[-81.57719,27.8298],[-81.57466,27.83065],[-81.57184,27.82817],[-81.57019,27.8285],[-81.57121,27.83329],[-81.56986,27.83681],[-81.56628,27.84052],[-81.5618,27.84148],[-81.5618,27.83548],[-81.56475,27.83546],[-81.56431,27.82132],[-81.56825,27.81727],[-81.57777,27.81372],[-81.57828,27.80611],[-81.57782,27.80492],[-81.57438,27.78898],[-81.57283,27.77791],[-81.57818,27.77873],[-81.58196,27.77763],[-81.58081,27.77598],[-81.57694,27.77591],[-81.5706,27.77481],[-81.56896,27.7773],[-81.55121,27.7776],[-81.55124,27.7977],[-81.54712,27.79777],[-81.54713,27.79595],[-81.5451,27.79686],[-81.54304,27.79594],[-81.53894,27.79593],[-81.53892,27.7923],[-81.53481,27.79229],[-81.53482,27.79774],[-81.53073,27.79774],[-81.53073,27.7923],[-81.52459,27.79229],[-81.5246,27.79593],[-81.52239,27.79593],[-81.52236,27.79227],[-81.51925,27.79173],[-81.51917,27.79555],[-81.5182,27.79991],[-81.51502,27.80121],[-81.5112,27.80099],[-81.50847,27.80229],[-81.50534,27.80156],[-81.50394,27.80377],[-81.50199,27.8036],[-81.50204,27.75943],[-81.4669,27.75959],[-81.45212,27.76254],[-81.44756,27.76659],[-81.44611,27.77012],[-81.44901,27.79899],[-81.44905,27.80651],[-81.4416,27.80651],[-81.4453,27.80584],[-81.4451,27.80296],[-81.4414,27.79838],[-81.43694,27.79577],[-81.42536,27.79077],[-81.42205,27.7902],[-81.41294,27.79183],[-81.40856,27.793],[-81.40379,27.79528],[-81.39988,27.79777],[-81.39544,27.79974],[-81.39168,27.80222],[-81.38797,27.80666],[-81.38287,27.80675],[-81.3827,27.79341],[-81.38268,27.78869],[-81.38271,27.76637],[-81.38016,27.76666],[-81.3334,27.78502],[-81.33378,27.77674],[-81.32653,27.77698],[-81.32658,27.74775],[-81.32856,27.7475],[-81.3333,27.74087],[-81.33304,27.73817],[-81.33732,27.73884],[-81.34445,27.74274],[-81.35029,27.74198],[-81.35456,27.73994],[-81.35552,27.73874],[-81.35595,27.73324],[-81.40009,27.73326],[-81.40129,27.72981],[-81.40129,27.72642],[-81.41233,27.72693],[-81.41555,27.72613],[-81.41851,27.72261],[-81.41738,27.72051],[-81.42181,27.71762],[-81.4227,27.71318],[-81.42239,27.70975],[-81.4249,27.70698],[-81.42532,27.71053],[-81.42725,27.71019],[-81.42819,27.71315],[-81.43242,27.7134],[-81.43526,27.71431],[-81.43638,27.7158],[-81.4416,27.71745],[-81.44312,27.71113],[-81.44649,27.70858],[-81.44121,27.70507],[-81.43824,27.70135],[-81.41234,27.67832],[-81.40911,27.67069],[-81.39265,27.6571],[-81.40348,27.64663],[-81.47747,27.64663],[-81.47344,27.6478],[-81.47314,27.65104],[-81.47108,27.65234],[-81.4697,27.65493],[-81.4656,27.65844],[-81.46442,27.66027],[-81.46581,27.6612],[-81.46953,27.66114],[-81.46954,27.67188],[-81.48173,27.6719],[-81.48183,27.66105],[-81.48999,27.66102],[-81.48997,27.65381],[-81.50613,27.65375],[-81.5081,27.65462],[-81.51053,27.65375],[-81.5224,27.65373],[-81.52268,27.64645],[-81.54706,27.64655],[-81.54711,27.6538],[-81.54258,27.65374],[-81.54285,27.65574],[-81.53952,27.65814],[-81.5538,27.67783],[-81.55791,27.68352],[-81.56141,27.68349],[-81.56345,27.68256],[-81.56456,27.68012],[-81.56535,27.68167],[-81.56902,27.68505],[-81.57476,27.68708],[-81.57615,27.6896],[-81.58067,27.69052],[-81.58349,27.68584],[-81.58412,27.68185],[-81.58583,27.67898],[-81.58548,27.67613],[-81.59079,27.67607],[-81.59276,27.67491],[-81.59297,27.67814],[-81.59671,27.67777],[-81.60082,27.67826],[-81.60274,27.67719],[-81.60505,27.67743],[-81.60498,27.67202],[-81.64543,27.68984],[-81.64594,27.68998],[-81.64623,27.73342],[-81.66128,27.73341],[-81.66409,27.7319],[-81.6707,27.72677],[-81.67146,27.72435],[-81.6749,27.72115],[-81.67673,27.72502],[-81.67744,27.73056],[-81.68012,27.73578],[-81.679,27.73936],[-81.6798,27.74187],[-81.68216,27.74404],[-81.68231,27.74869],[-81.68133,27.7513],[-81.66819,27.75146],[-81.66645,27.75899],[-81.66151,27.75892],[-81.65841,27.76068],[-81.65781,27.75391],[-81.65028,27.75438],[-81.65008,27.74105],[-81.64623,27.74016],[-81.64619,27.76264],[-81.63808,27.76258],[-81.63793,27.77329],[-81.6298,27.77328],[-81.62998,27.78453],[-81.6196,27.78446],[-81.61469,27.77719],[-81.61361,27.77719],[-81.61409,27.81631],[-81.59745,27.80941]]]}},{"type":"Feature","properties":{"zcta":"33853","d":642},"geometry":{"type":"Polygon","coordinates":[[[-81.59388,27.872],[-81.59893,27.88302],[-81.59968,27.88668],[-81.59991,27.89584],[-81.603,27.89585],[-81.60401,27.89401],[-81.61097,27.89399],[-81.61249,27.89948],[-81.61365,27.90675],[-81.61253,27.91007],[-81.61351,27.91347],[-81.6192,27.91693],[-81.62347,27.92423],[-81.61731,27.92432],[-81.61542,27.92517],[-81.61212,27.92432],[-81.61181,27.92278],[-81.60888,27.92225],[-81.60602,27.92275],[-81.60646,27.92436],[-81.59535,27.92448],[-81.58703,27.92454],[-81.58654,27.92088],[-81.58288,27.92088],[-81.58244,27.91901],[-81.57835,27.91913],[-81.57832,27.91731],[-81.56596,27.91752],[-81.56598,27.91388],[-81.56189,27.91395],[-81.56185,27.90913],[-81.5552,27.91042],[-81.55609,27.90851],[-81.55593,27.88313],[-81.56456,27.88298],[-81.56472,27.87929],[-81.57303,27.87934],[-81.57303,27.87205],[-81.59388,27.872]]]}},{"type":"Feature","properties":{"zcta":"33867","d":0},"geometry":{"type":"Polygon","coordinates":[[[-81.20069,27.80365],[-81.2005,27.7974],[-81.19884,27.79745],[-81.19631,27.79077],[-81.19431,27.78982],[-81.19125,27.78633],[-81.18956,27.78532],[-81.18944,27.78228],[-81.18598,27.77904],[-81.18747,27.77498],[-81.18467,27.77293],[-81.18252,27.77448],[-81.18079,27.77374],[-81.18081,27.76988],[-81.1782,27.77053],[-81.17912,27.76582],[-81.17504,27.76441],[-81.17321,27.76134],[-81.1731,27.75916],[-81.17801,27.75893],[-81.17912,27.7564],[-81.179,27.75253],[-81.1755,27.74931],[-81.17495,27.74579],[-81.17932,27.7459],[-81.18251,27.75122],[-81.18297,27.7566],[-81.18246,27.7601],[-81.18361,27.76194],[-81.18727,27.76081],[-81.19004,27.76347],[-81.19214,27.7669],[-81.19666,27.76604],[-81.19798,27.76971],[-81.19995,27.77051],[-81.20364,27.77389],[-81.20979,27.78102],[-81.21052,27.78443],[-81.21731,27.78576],[-81.2287,27.7824],[-81.22828,27.78651],[-81.22834,27.79416],[-81.22378,27.79857],[-81.21833,27.79901],[-81.21855,27.80501],[-81.20179,27.80496],[-81.20069,27.80365]]]}},{"type":"Feature","properties":{"zcta":"33839","d":869},"geometry":{"type":"Polygon","coordinates":[[[-81.77599,27.96808],[-81.77598,27.97154],[-81.76847,27.97125],[-81.76851,27.97481],[-81.77093,27.97492],[-81.76787,27.97672],[-81.76686,27.97995],[-81.76137,27.98129],[-81.75925,27.98283],[-81.75832,27.98689],[-81.7606,27.99076],[-81.76365,27.99284],[-81.76272,27.99384],[-81.75579,27.9941],[-81.75554,27.99669],[-81.74975,27.9967],[-81.7494,27.99305],[-81.74736,27.99305],[-81.74659,27.98943],[-81.73909,27.99594],[-81.74175,27.99323],[-81.74118,27.99223],[-81.7444,27.98939],[-81.7393,27.98937],[-81.73565,27.98396],[-81.73226,27.98026],[-81.7387,27.98025],[-81.74021,27.97817],[-81.7432,27.97627],[-81.74319,27.97483],[-81.74117,27.97484],[-81.74117,27.97301],[-81.74313,27.97118],[-81.74306,27.95661],[-81.76371,27.95667],[-81.76372,27.96027],[-81.76782,27.96031],[-81.76998,27.96147],[-81.76999,27.963],[-81.77352,27.96299],[-81.77132,27.96578],[-81.76783,27.96579],[-81.76784,27.96762],[-81.76368,27.9676],[-81.76401,27.97291],[-81.76274,27.97477],[-81.77086,27.96762],[-81.77261,27.96806],[-81.77599,27.96808]]]}},{"type":"Feature","properties":{"zcta":"33880","d":459},"geometry":{"type":"Polygon","coordinates":[[[-81.84195,28.01085],[-81.84207,28.02587],[-81.84642,28.02676],[-81.84589,28.03003],[-81.84589,28.03607],[-81.84145,28.03688],[-81.83349,28.03685],[-81.8315,28.0259],[-81.81675,28.0258],[-81.81559,28.03247],[-81.81456,28.03311],[-81.79643,28.03317],[-81.7951,28.03778],[-81.7964,28.04081],[-81.79974,28.04452],[-81.8,28.05136],[-81.79327,28.05123],[-81.7906,28.04968],[-81.78909,28.04709],[-81.78796,28.04709],[-81.78351,28.04043],[-81.77659,28.02952],[-81.77612,28.03312],[-81.76795,28.03316],[-81.768,28.02946],[-81.75969,28.02951],[-81.75737,28.03005],[-81.75123,28.03012],[-81.74979,28.03198],[-81.74813,28.03211],[-81.73809,28.01675],[-81.73819,28.02022],[-81.73706,28.02251],[-81.73499,28.0233],[-81.73306,28.02234],[-81.72897,28.02217],[-81.72681,28.02314],[-81.71856,28.02314],[-81.71586,28.02115],[-81.71293,28.02246],[-81.70675,28.0225],[-81.70674,28.01996],[-81.70843,28.01879],[-81.70879,28.01674],[-81.70699,28.01545],[-81.71009,28.01261],[-81.71087,28.00629],[-81.70688,28.00572],[-81.70363,28.00439],[-81.70341,28.00289],[-81.7056,28.00022],[-81.71103,27.99834],[-81.71116,27.99285],[-81.71701,27.99017],[-81.71716,27.99266],[-81.72258,27.99206],[-81.72703,27.99358],[-81.72918,27.99124],[-81.73059,27.98781],[-81.72887,27.98568],[-81.72685,27.98604],[-81.72682,27.97494],[-81.72501,27.97327],[-81.72416,27.97603],[-81.72204,27.97398],[-81.72202,27.97115],[-81.71988,27.97111],[-81.71988,27.9694],[-81.71553,27.96899],[-81.71335,27.96756],[-81.71063,27.9643],[-81.71025,27.96037],[-81.71925,27.96032],[-81.71556,27.95309],[-81.71152,27.95316],[-81.7115,27.95129],[-81.71519,27.95172],[-81.71547,27.95068],[-81.72009,27.9457],[-81.72005,27.94129],[-81.71714,27.94251],[-81.71704,27.92746],[-81.72095,27.92725],[-81.73396,27.92086],[-81.73503,27.9208],[-81.75,27.92381],[-81.75254,27.92397],[-81.76999,27.9229],[-81.77122,27.92463],[-81.76736,27.92982],[-81.76582,27.93066],[-81.76645,27.93834],[-81.75923,27.93836],[-81.75951,27.95299],[-81.76364,27.95299],[-81.76371,27.95667],[-81.74306,27.95661],[-81.74313,27.97118],[-81.74117,27.97301],[-81.74117,27.97484],[-81.74319,27.97483],[-81.7432,27.97627],[-81.74021,27.97817],[-81.7387,27.98025],[-81.73226,27.98026],[-81.73565,27.98396],[-81.7393,27.98937],[-81.7444,27.98939],[-81.74118,27.99223],[-81.74175,27.99323],[-81.73909,27.99594],[-81.74659,27.98943],[-81.74736,27.99305],[-81.7494,27.99305],[-81.74975,27.9967],[-81.75554,27.99669],[-81.75579,27.9941],[-81.76272,27.99384],[-81.76365,27.99284],[-81.7606,27.99076],[-81.75832,27.98689],[-81.75925,27.98283],[-81.76137,27.98129],[-81.76686,27.97995],[-81.76787,27.97672],[-81.77093,27.97492],[-81.76851,27.97481],[-81.76847,27.97125],[-81.77598,27.97154],[-81.77599,27.96808],[-81.77261,27.96806],[-81.77434,27.96563],[-81.77846,27.96462],[-81.78019,27.96729],[-81.78412,27.96372],[-81.78372,27.95629],[-81.7878,27.95303],[-81.78819,27.95433],[-81.79211,27.95432],[-81.79214,27.95649],[-81.78675,27.9602],[-81.78558,27.96396],[-81.7922,27.9639],[-81.79216,27.96027],[-81.80038,27.96026],[-81.8004,27.96572],[-81.79772,27.96712],[-81.8004,27.96753],[-81.80047,27.97482],[-81.81736,27.97479],[-81.82075,27.98158],[-81.82561,27.98816],[-81.83633,27.97944],[-81.85216,27.98279],[-81.85005,27.9862],[-81.84919,27.9909],[-81.85258,27.99229],[-81.85323,27.9957],[-81.85243,27.99828],[-81.84978,27.99975],[-81.85386,28.00493],[-81.8529,28.00804],[-81.85349,28.01089],[-81.84195,28.01085]]]}},{"type":"Feature","properties":{"zcta":"33827","d":44},"geometry":{"type":"Polygon","coordinates":[[[-81.57458,27.83543],[-81.58115,27.83537],[-81.58125,27.84279],[-81.5751,27.84281],[-81.56689,27.84283],[-81.56692,27.84477],[-81.56457,27.84461],[-81.56484,27.85156],[-81.56278,27.85096],[-81.55575,27.85364],[-81.5554,27.86034],[-81.55595,27.86485],[-81.55363,27.86517],[-81.55099,27.86858],[-81.54769,27.86863],[-81.54743,27.86467],[-81.54254,27.85775],[-81.53119,27.85763],[-81.53118,27.86685],[-81.5238,27.877],[-81.50496,27.87496],[-81.50185,27.87313],[-81.50071,27.86865],[-81.49867,27.86552],[-81.49914,27.86259],[-81.49807,27.85874],[-81.49559,27.85821],[-81.49318,27.85586],[-81.49419,27.85212],[-81.4936,27.85003],[-81.49138,27.8495],[-81.48958,27.84752],[-81.48543,27.84607],[-81.48588,27.84406],[-81.48538,27.83894],[-81.48413,27.83772],[-81.48468,27.83581],[-81.48279,27.83446],[-81.48494,27.83276],[-81.48467,27.82949],[-81.48672,27.82873],[-81.48722,27.82581],[-81.48595,27.82465],[-81.48518,27.82166],[-81.48345,27.82114],[-81.48266,27.81894],[-81.48409,27.81773],[-81.48642,27.81875],[-81.47743,27.80714],[-81.47729,27.8066],[-81.44905,27.80651],[-81.44901,27.79899],[-81.44611,27.77012],[-81.44756,27.76659],[-81.45212,27.76254],[-81.4669,27.75959],[-81.50204,27.75943],[-81.50199,27.8036],[-81.50394,27.80377],[-81.50534,27.80156],[-81.50847,27.80229],[-81.5112,27.80099],[-81.51502,27.80121],[-81.5182,27.79991],[-81.51917,27.79555],[-81.51925,27.79173],[-81.52236,27.79227],[-81.52239,27.79593],[-81.5246,27.79593],[-81.52459,27.79229],[-81.53073,27.7923],[-81.53073,27.79774],[-81.53482,27.79774],[-81.53481,27.79229],[-81.53892,27.7923],[-81.53894,27.79593],[-81.54304,27.79594],[-81.5451,27.79686],[-81.54713,27.79595],[-81.54712,27.79777],[-81.55124,27.7977],[-81.55121,27.7776],[-81.56896,27.7773],[-81.5706,27.77481],[-81.57694,27.77591],[-81.58081,27.77598],[-81.58196,27.77763],[-81.57818,27.77873],[-81.57283,27.77791],[-81.57438,27.78898],[-81.57782,27.80492],[-81.57828,27.80611],[-81.57777,27.81372],[-81.56825,27.81727],[-81.56431,27.82132],[-81.56475,27.83546],[-81.5618,27.83548],[-81.5618,27.84148],[-81.56628,27.84052],[-81.56986,27.83681],[-81.57121,27.83329],[-81.57019,27.8285],[-81.57184,27.82817],[-81.57466,27.83065],[-81.57458,27.83543]]]}},{"type":"Feature","properties":{"zcta":"33855","d":0},"geometry":{"type":"Polygon","coordinates":[[[-81.3827,27.79341],[-81.37462,27.79351],[-81.37461,27.79427],[-81.36642,27.79429],[-81.36643,27.79745],[-81.35826,27.79746],[-81.35814,27.79905],[-81.35001,27.79923],[-81.35007,27.80076],[-81.34189,27.80077],[-81.34188,27.78954],[-81.33783,27.78954],[-81.33783,27.78637],[-81.34188,27.78637],[-81.34188,27.78795],[-81.35824,27.78794],[-81.35823,27.78147],[-81.3746,27.78146],[-81.3746,27.78872],[-81.38268,27.78869],[-81.3827,27.79341]]]}},{"type":"Feature","properties":{"zcta":"33801","d":766},"geometry":{"type":"Polygon","coordinates":[[[-81.95321,28.05504],[-81.95219,28.05598],[-81.94809,28.056],[-81.94807,28.05504],[-81.94061,28.05489],[-81.93517,28.05299],[-81.93047,28.05273],[-81.92646,28.04986],[-81.9222,28.04968],[-81.91856,28.05208],[-81.9148,28.05921],[-81.91382,28.06453],[-81.91433,28.06981],[-81.9122,28.06977],[-81.9122,28.07163],[-81.90872,28.07163],[-81.90446,28.07339],[-81.88082,28.07346],[-81.8782,28.0766],[-81.87518,28.07677],[-81.87512,28.07346],[-81.85759,28.07344],[-81.85755,28.06979],[-81.85856,28.06942],[-81.85855,28.06654],[-81.86261,28.06654],[-81.86265,28.05654],[-81.86459,28.05519],[-81.85854,28.05517],[-81.86263,28.05381],[-81.86176,28.05189],[-81.85998,28.05229],[-81.85992,28.04796],[-81.85852,28.04798],[-81.85846,28.04047],[-81.85441,28.03964],[-81.85436,28.03684],[-81.85099,28.03688],[-81.84589,28.03607],[-81.84589,28.03003],[-81.84642,28.02676],[-81.84207,28.02587],[-81.84195,28.01085],[-81.85349,28.01089],[-81.86347,28.01042],[-81.87592,28.00909],[-81.87855,28.00952],[-81.87886,28.01149],[-81.89501,28.01146],[-81.89527,28.01055],[-81.89951,28.01052],[-81.90201,28.01157],[-81.9048,28.01416],[-81.91389,28.01438],[-81.91925,28.01866],[-81.92714,28.0259],[-81.93801,28.02587],[-81.93923,28.02814],[-81.94223,28.02983],[-81.9448,28.02959],[-81.94481,28.03315],[-81.95766,28.03324],[-81.95818,28.03533],[-81.95717,28.03776],[-81.95819,28.03866],[-81.95823,28.0429],[-81.95721,28.04412],[-81.95799,28.0494],[-81.95734,28.04942],[-81.95741,28.05497],[-81.95321,28.05504]]]}},{"type":"Feature","properties":{"zcta":"33881","d":893},"geometry":{"type":"Polygon","coordinates":[[[-81.78228,28.03965],[-81.7761,28.03912],[-81.77618,28.04135],[-81.78022,28.04137],[-81.78023,28.0441],[-81.77623,28.04413],[-81.77626,28.04623],[-81.77832,28.04623],[-81.78026,28.0478],[-81.78027,28.05506],[-81.77627,28.05505],[-81.77627,28.05393],[-81.77006,28.05099],[-81.77011,28.06413],[-81.76805,28.06452],[-81.76807,28.07139],[-81.76181,28.07077],[-81.76146,28.06787],[-81.75855,28.06657],[-81.75497,28.06777],[-81.75383,28.06945],[-81.75188,28.06757],[-81.73269,28.07559],[-81.73268,28.07328],[-81.73121,28.07328],[-81.72984,28.07734],[-81.72551,28.07989],[-81.72332,28.08],[-81.71945,28.07847],[-81.71403,28.07538],[-81.7126,28.08165],[-81.70989,28.08095],[-81.70502,28.08444],[-81.70193,28.08935],[-81.69885,28.09094],[-81.69808,28.09565],[-81.69662,28.09925],[-81.69218,28.09924],[-81.69219,28.10289],[-81.69442,28.10286],[-81.69443,28.10455],[-81.69114,28.10543],[-81.69011,28.10563],[-81.69011,28.09925],[-81.67777,28.09931],[-81.67778,28.09704],[-81.67276,28.09841],[-81.67042,28.10197],[-81.66559,28.10219],[-81.66709,28.09956],[-81.66556,28.09743],[-81.66148,28.09566],[-81.65893,28.0964],[-81.65678,28.09372],[-81.65095,28.09208],[-81.65021,28.09103],[-81.6522,28.08856],[-81.64915,28.08812],[-81.64982,28.08289],[-81.64866,28.07764],[-81.64887,28.07367],[-81.65126,28.07222],[-81.65214,28.06984],[-81.65571,28.06988],[-81.65376,28.06794],[-81.65426,28.06298],[-81.65083,28.06027],[-81.65147,28.05531],[-81.64808,28.05642],[-81.64666,28.05946],[-81.64892,28.06061],[-81.64928,28.06284],[-81.64681,28.0625],[-81.64398,28.06047],[-81.63735,28.05898],[-81.63389,28.0496],[-81.63552,28.04435],[-81.63974,28.03816],[-81.64442,28.0346],[-81.64434,28.03303],[-81.63926,28.0328],[-81.63853,28.02851],[-81.64138,28.02232],[-81.63834,28.01864],[-81.64434,28.01876],[-81.64436,28.02226],[-81.64542,28.02227],[-81.64541,28.01878],[-81.65115,28.01878],[-81.65582,28.01942],[-81.6568,28.02458],[-81.66102,28.02329],[-81.66101,28.0224],[-81.67692,28.02246],[-81.67749,28.02376],[-81.6775,28.02973],[-81.68161,28.02977],[-81.6816,28.02611],[-81.68569,28.02613],[-81.68568,28.02399],[-81.68767,28.02247],[-81.69075,28.02333],[-81.69386,28.02248],[-81.70675,28.0225],[-81.71293,28.02246],[-81.71586,28.02115],[-81.71856,28.02314],[-81.72681,28.02314],[-81.72897,28.02217],[-81.73306,28.02234],[-81.73499,28.0233],[-81.73706,28.02251],[-81.73819,28.02022],[-81.73809,28.01675],[-81.74813,28.03211],[-81.74979,28.03198],[-81.75123,28.03012],[-81.75737,28.03005],[-81.75969,28.02951],[-81.768,28.02946],[-81.76795,28.03316],[-81.77612,28.03312],[-81.77659,28.02952],[-81.78351,28.04043],[-81.78228,28.03965]]]}},{"type":"Feature","properties":{"zcta":"33805","d":457},"geometry":{"type":"Polygon","coordinates":[[[-81.96174,28.09175],[-81.95429,28.09573],[-81.95021,28.09944],[-81.94255,28.11008],[-81.9392,28.11433],[-81.92629,28.12496],[-81.9259,28.12493],[-81.91702,28.13214],[-81.91154,28.13564],[-81.90798,28.13726],[-81.89868,28.14005],[-81.8543,28.15216],[-81.84679,28.15449],[-81.84415,28.14761],[-81.84004,28.1357],[-81.83879,28.13178],[-81.83885,28.11423],[-81.85805,28.114],[-81.85795,28.11163],[-81.86282,28.11177],[-81.86282,28.11393],[-81.87065,28.11395],[-81.87129,28.11273],[-81.87149,28.10306],[-81.87295,28.10305],[-81.87283,28.08441],[-81.87527,28.08437],[-81.87518,28.07677],[-81.8782,28.0766],[-81.88082,28.07346],[-81.90446,28.07339],[-81.90872,28.07163],[-81.9122,28.07163],[-81.9122,28.06977],[-81.91433,28.06981],[-81.91382,28.06453],[-81.9148,28.05921],[-81.91856,28.05208],[-81.9222,28.04968],[-81.92646,28.04986],[-81.93047,28.05273],[-81.93517,28.05299],[-81.94061,28.05489],[-81.94807,28.05504],[-81.94809,28.056],[-81.95219,28.05598],[-81.95321,28.05504],[-81.95741,28.05497],[-81.99019,28.05485],[-81.99014,28.05859],[-81.99412,28.05859],[-81.99424,28.05488],[-82.00129,28.05492],[-82.00104,28.05441],[-82.01239,28.05134],[-82.01532,28.05221],[-82.01131,28.05492],[-81.9912,28.06969],[-81.97668,28.08058],[-81.96174,28.09175]]]}}]}