{"type":"FeatureCollection","features":[{"type":"Feature","properties":{"id":"40113","name":"Osage Co."},"geometry":{"type":"Polygon","coordinates":[[[-96.0015,36.2855],[-96.0013,36.2794],[-96.0014,36.2206],[-96.0013,36.2193],[-96.0012,36.1613],[-96.0734,36.1611],[-96.0841,36.1609],[-96.1746,36.1611],[-96.2683,36.162],[-96.2702,36.1676],[-96.2692,36.1737],[-96.2645,36.1794],[-96.2577,36.1837],[-96.2476,36.1915],[-96.244,36.197],[-96.2428,36.2047],[-96.2463,36.2147],[-96.2503,36.22],[-96.2566,36.2257],[-96.2673,36.2274],[-96.2905,36.2269],[-96.3015,36.2282],[-96.3165,36.2275],[-96.3222,36.2262],[-96.3267,36.2266],[-96.34,36.23],[-96.3477,36.2344],[-96.3515,36.2375],[-96.3626,36.2501],[-96.3713,36.2558],[-96.3868,36.2671],[-96.4013,36.2735],[-96.4224,36.2775],[-96.4278,36.2802],[-96.4338,36.2859],[-96.4379,36.2942],[-96.4385,36.3051],[-96.442,36.3151],[-96.4458,36.3213],[-96.4542,36.3304],[-96.4568,36.3322],[-96.4644,36.334],[-96.4741,36.3336],[-96.4841,36.3311],[-96.4881,36.3279],[-96.4973,36.3173],[-96.4987,36.3121],[-96.5014,36.3074],[-96.5057,36.303],[-96.5152,36.2983],[-96.5253,36.2964],[-96.5364,36.2964],[-96.547,36.2981],[-96.5525,36.2999],[-96.5639,36.3061],[-96.5693,36.3108],[-96.5735,36.3157],[-96.5725,36.3326],[-96.5644,36.3428],[-96.559,36.3485],[-96.554,36.3513],[-96.5465,36.3522],[-96.5342,36.356],[-96.5231,36.3652],[-96.5215,36.3712],[-96.5193,36.3734],[-96.5187,36.3776],[-96.5224,36.3871],[-96.5266,36.3942],[-96.5363,36.3999],[-96.5407,36.4004],[-96.5485,36.3963],[-96.561,36.3863],[-96.5664,36.3804],[-96.5757,36.3743],[-96.5831,36.3735],[-96.5912,36.3751],[-96.5954,36.3771],[-96.6019,36.3823],[-96.6042,36.3983],[-96.6064,36.4033],[-96.613,36.4053],[-96.6202,36.41],[-96.6225,36.4164],[-96.6274,36.4222],[-96.6357,36.4259],[-96.6476,36.4239],[-96.6617,36.4227],[-96.6745,36.4204],[-96.6825,36.4218],[-96.6902,36.4241],[-96.702,36.4314],[-96.7061,36.4354],[-96.7108,36.4377],[-96.7171,36.4453],[-96.7181,36.454],[-96.7123,36.4652],[-96.7102,36.4709],[-96.7062,36.4776],[-96.7063,36.4862],[-96.7097,36.4912],[-96.7139,36.4928],[-96.72,36.4968],[-96.7249,36.5032],[-96.7231,36.5089],[-96.7235,36.5202],[-96.727,36.5261],[-96.7283,36.532],[-96.7327,36.5432],[-96.7372,36.5501],[-96.7432,36.554],[-96.7487,36.5595],[-96.7536,36.5626],[-96.7695,36.5654],[-96.7734,36.5635],[-96.7832,36.5605],[-96.7909,36.5556],[-96.7981,36.5536],[-96.8079,36.547],[-96.8206,36.5393],[-96.8264,36.5295],[-96.8344,36.5246],[-96.8377,36.5208],[-96.8379,36.5117],[-96.8476,36.4989],[-96.8519,36.4911],[-96.8574,36.4859],[-96.8604,36.485],[-96.8656,36.4812],[-96.868,36.4775],[-96.8753,36.4709],[-96.884,36.4725],[-96.8904,36.472],[-96.8967,36.4687],[-96.9038,36.469],[-96.9125,36.4678],[-96.9175,36.4639],[-96.9256,36.4627],[-96.9282,36.4596],[-96.9338,36.4563],[-96.9402,36.4555],[-96.9543,36.46],[-96.9672,36.4601],[-96.9746,36.4626],[-96.982,36.4661],[-96.9838,36.4705],[-96.9927,36.4779],[-97.0008,36.4812],[-97.0052,36.4857],[-97.007,36.4892],[-97.0068,36.4929],[-97.0084,36.4966],[-97.0098,36.5069],[-97.0095,36.5125],[-97.0078,36.5183],[-97.0015,36.5255],[-96.9962,36.529],[-96.9882,36.5324],[-96.979,36.5352],[-96.9715,36.536],[-96.9638,36.5342],[-96.9585,36.5343],[-96.9499,36.5373],[-96.944,36.5435],[-96.9384,36.5468],[-96.9247,36.5526],[-96.9127,36.5529],[-96.9026,36.5514],[-96.8991,36.5532],[-96.8957,36.5581],[-96.8904,36.5636],[-96.889,36.5664],[-96.8883,36.5756],[-96.9045,36.5889],[-96.9087,36.5958],[-96.9128,36.5989],[-96.9205,36.6007],[-96.9264,36.5996],[-96.9337,36.5955],[-96.9416,36.5941],[-96.9486,36.59],[-96.964,36.5874],[-96.967,36.5863],[-96.9758,36.5852],[-96.9806,36.586],[-96.9856,36.585],[-96.9928,36.585],[-97.0043,36.5826],[-97.0166,36.5838],[-97.0359,36.5862],[-97.0559,36.5925],[-97.0581,36.5965],[-97.0541,36.5981],[-97.0469,36.5974],[-97.0439,36.5999],[-97.0447,36.6027],[-97.0517,36.6111],[-97.0518,36.6163],[-97.0486,36.6232],[-97.0511,36.63],[-97.051,36.6374],[-97.053,36.6439],[-97.062,36.6507],[-97.0632,36.6579],[-97.0625,36.6603],[-97.0641,36.6653],[-97.0641,36.6842],[-97.0532,36.6922],[-97.0385,36.6993],[-97.0364,36.7011],[-97.0307,36.7016],[-97.0276,36.6992],[-97.0242,36.6934],[-97.0211,36.6929],[-97.0152,36.6944],[-97.0069,36.6923],[-97.003,36.6935],[-96.9957,36.6882],[-96.992,36.6876],[-96.9784,36.6887],[-96.9671,36.6885],[-96.9502,36.6836],[-96.9437,36.6839],[-96.9319,36.6861],[-96.9274,36.6884],[-96.9285,36.6937],[-96.9268,36.6978],[-96.9226,36.7029],[-96.9209,36.7171],[-96.9132,36.7227],[-96.9097,36.7271],[-96.9074,36.7358],[-96.9036,36.7386],[-96.8886,36.7518],[-96.8788,36.7519],[-96.8718,36.7536],[-96.8664,36.7529],[-96.8536,36.7461],[-96.8501,36.7463],[-96.8437,36.7444],[-96.8341,36.7434],[-96.8266,36.7453],[-96.8217,36.75],[-96.8181,36.759],[-96.8188,36.7637],[-96.8226,36.7676],[-96.7887,36.7676],[-96.7887,36.782],[-96.7524,36.7821],[-96.7522,36.843],[-96.7523,36.8989],[-96.7522,36.9412],[-96.75,36.9412],[-96.7498,36.999],[-96.7366,36.9993],[-96.5003,36.9986],[-96.3943,36.9992],[-96.2764,36.9993],[-96.2,36.999],[-96.1848,36.9992],[-96.1412,36.999],[-96.0008,36.9989],[-96.0008,36.8687],[-96.0006,36.7523],[-96.0006,36.6762],[-96.0007,36.6507],[-96.0012,36.4237],[-96.0015,36.2855]]]}},{"type":"Feature","properties":{"id":"40117","name":"Pawnee Co."},"geometry":{"type":"Polygon","coordinates":[[[-97.0084,36.4966],[-97.0068,36.4929],[-97.007,36.4892],[-97.0052,36.4857],[-97.0008,36.4812],[-96.9927,36.4779],[-96.9838,36.4705],[-96.982,36.4661],[-96.9746,36.4626],[-96.9672,36.4601],[-96.9543,36.46],[-96.9402,36.4555],[-96.9338,36.4563],[-96.9282,36.4596],[-96.9256,36.4627],[-96.9175,36.4639],[-96.9125,36.4678],[-96.9038,36.469],[-96.8967,36.4687],[-96.8904,36.472],[-96.884,36.4725],[-96.8753,36.4709],[-96.868,36.4775],[-96.8656,36.4812],[-96.8604,36.485],[-96.8574,36.4859],[-96.8519,36.4911],[-96.8476,36.4989],[-96.8379,36.5117],[-96.8377,36.5208],[-96.8344,36.5246],[-96.8264,36.5295],[-96.8206,36.5393],[-96.8079,36.547],[-96.7981,36.5536],[-96.7909,36.5556],[-96.7832,36.5605],[-96.7734,36.5635],[-96.7695,36.5654],[-96.7536,36.5626],[-96.7487,36.5595],[-96.7432,36.554],[-96.7372,36.5501],[-96.7327,36.5432],[-96.7283,36.532],[-96.727,36.5261],[-96.7235,36.5202],[-96.7231,36.5089],[-96.7249,36.5032],[-96.72,36.4968],[-96.7139,36.4928],[-96.7097,36.4912],[-96.7063,36.4862],[-96.7062,36.4776],[-96.7102,36.4709],[-96.7123,36.4652],[-96.7181,36.454],[-96.7171,36.4453],[-96.7108,36.4377],[-96.7061,36.4354],[-96.702,36.4314],[-96.6902,36.4241],[-96.6825,36.4218],[-96.6745,36.4204],[-96.6617,36.4227],[-96.6476,36.4239],[-96.6357,36.4259],[-96.6274,36.4222],[-96.6225,36.4164],[-96.6202,36.41],[-96.613,36.4053],[-96.6064,36.4033],[-96.6042,36.3983],[-96.6019,36.3823],[-96.5954,36.3771],[-96.5912,36.3751],[-96.5831,36.3735],[-96.5757,36.3743],[-96.5664,36.3804],[-96.561,36.3863],[-96.5485,36.3963],[-96.5407,36.4004],[-96.5363,36.3999],[-96.5266,36.3942],[-96.5224,36.3871],[-96.5187,36.3776],[-96.5193,36.3734],[-96.5215,36.3712],[-96.5231,36.3652],[-96.5342,36.356],[-96.5465,36.3522],[-96.554,36.3513],[-96.559,36.3485],[-96.5644,36.3428],[-96.5725,36.3326],[-96.5735,36.3157],[-96.5693,36.3108],[-96.5639,36.3061],[-96.5525,36.2999],[-96.547,36.2981],[-96.5364,36.2964],[-96.5253,36.2964],[-96.5152,36.2983],[-96.5057,36.303],[-96.5014,36.3074],[-96.4987,36.3121],[-96.4973,36.3173],[-96.4881,36.3279],[-96.4841,36.3311],[-96.4741,36.3336],[-96.4644,36.334],[-96.4568,36.3322],[-96.4542,36.3304],[-96.4458,36.3213],[-96.442,36.3151],[-96.4385,36.3051],[-96.4379,36.2942],[-96.4338,36.2859],[-96.4278,36.2802],[-96.4224,36.2775],[-96.4013,36.2735],[-96.3868,36.2671],[-96.3713,36.2558],[-96.3626,36.2501],[-96.3515,36.2375],[-96.3477,36.2344],[-96.34,36.23],[-96.3267,36.2266],[-96.3222,36.2262],[-96.3165,36.2275],[-96.3015,36.2282],[-96.2905,36.2269],[-96.2673,36.2274],[-96.2566,36.2257],[-96.2503,36.22],[-96.2463,36.2147],[-96.2428,36.2047],[-96.244,36.197],[-96.2476,36.1915],[-96.2577,36.1837],[-96.2645,36.1794],[-96.2692,36.1737],[-96.2702,36.1676],[-96.2683,36.162],[-96.2979,36.1623],[-96.448,36.1632],[-96.5127,36.1635],[-96.6209,36.1634],[-96.6221,36.1599],[-96.6615,36.1596],[-96.7047,36.1596],[-96.784,36.1592],[-96.8024,36.1594],[-96.819,36.1589],[-96.8187,36.2169],[-96.8184,36.2299],[-96.819,36.2465],[-96.9251,36.2465],[-96.9249,36.2479],[-96.9249,36.3333],[-97.0321,36.3334],[-97.032,36.478],[-97.0321,36.507],[-97.0098,36.5069],[-97.0084,36.4966]]]}},{"type":"Feature","properties":{"id":"40145","name":"Wagoner Co."},"geometry":{"type":"Polygon","coordinates":[[[-95.7545,36.1625],[-95.7264,36.1624],[-95.7082,36.1619],[-95.6996,36.1624],[-95.6727,36.1623],[-95.6185,36.1625],[-95.6179,36.1503],[-95.6162,36.1466],[-95.6106,36.1422],[-95.6047,36.1335],[-95.5949,36.1294],[-95.5923,36.1323],[-95.5928,36.1371],[-95.589,36.1362],[-95.5872,36.1341],[-95.5762,36.1336],[-95.5736,36.1313],[-95.5678,36.1294],[-95.57,36.1203],[-95.5707,36.1138],[-95.5683,36.1074],[-95.5615,36.0992],[-95.5526,36.0915],[-95.5566,36.0824],[-95.5583,36.082],[-95.5643,36.0846],[-95.571,36.0822],[-95.5784,36.0841],[-95.5799,36.083],[-95.5775,36.0784],[-95.5715,36.0753],[-95.44,36.0753],[-95.3328,36.0753],[-95.2385,36.0747],[-95.2079,36.0748],[-95.2081,36.0405],[-95.2084,36.0399],[-95.2253,36.0398],[-95.2253,36.0092],[-95.2302,36.0093],[-95.2303,36.0023],[-95.2343,36.0023],[-95.2344,35.9913],[-95.2387,35.9915],[-95.2384,35.9877],[-95.2522,35.9878],[-95.255,35.9849],[-95.2626,35.9796],[-95.2711,35.9745],[-95.2747,35.9708],[-95.2787,35.9641],[-95.2781,35.9607],[-95.2736,35.9562],[-95.2699,35.9474],[-95.2686,35.9318],[-95.2693,35.9294],[-95.2757,35.9245],[-95.2807,35.9189],[-95.2823,35.9153],[-95.283,35.9082],[-95.2816,35.9041],[-95.2775,35.8985],[-95.2679,35.8898],[-95.2648,35.8838],[-95.2577,35.8773],[-95.2541,35.8758],[-95.2461,35.8743],[-95.2366,35.874],[-95.2325,35.8728],[-95.2293,35.8691],[-95.2275,35.8622],[-95.2295,35.8549],[-95.2315,35.8512],[-95.2372,35.8479],[-95.2475,35.8376],[-95.2532,35.834],[-95.2525,35.8284],[-95.2557,35.8247],[-95.2665,35.8204],[-95.2678,35.816],[-95.2657,35.8133],[-95.3377,35.8133],[-95.3444,35.8136],[-95.3466,35.816],[-95.3524,35.8172],[-95.3604,35.8224],[-95.3638,35.8197],[-95.3737,35.8154],[-95.3826,35.8141],[-95.3908,35.8106],[-95.3969,35.8096],[-95.4011,35.8071],[-95.4202,35.7996],[-95.4263,35.7984],[-95.4463,35.7999],[-95.4532,35.8024],[-95.4635,35.8047],[-95.4686,35.804],[-95.4776,35.8042],[-95.4976,35.7995],[-95.5207,35.7922],[-95.526,35.7927],[-95.5273,35.7912],[-95.5385,35.7906],[-95.5446,35.7883],[-95.5479,35.789],[-95.5535,35.7872],[-95.5563,35.7888],[-95.5631,35.7879],[-95.5683,35.7829],[-95.5773,35.7716],[-95.5846,35.7656],[-95.5901,35.7654],[-95.5935,35.7676],[-95.6019,35.7781],[-95.6094,35.7765],[-95.6215,35.7776],[-95.6253,35.7801],[-95.6316,35.7824],[-95.6383,35.7876],[-95.6398,35.791],[-95.6382,35.7962],[-95.6389,35.7988],[-95.6363,35.8005],[-95.6415,35.8154],[-95.6397,35.8217],[-95.6391,35.8372],[-95.6411,35.8403],[-95.6405,35.8349],[-95.647,35.8392],[-95.6491,35.8421],[-95.648,35.8474],[-95.6511,35.8537],[-95.6504,35.8566],[-95.731,35.8565],[-95.7661,35.8563],[-95.8195,35.8563],[-95.8195,35.9011],[-95.762,35.9012],[-95.7617,35.9093],[-95.7616,35.9333],[-95.7617,35.9884],[-95.7616,36.1628],[-95.7545,36.1625]]]}},{"type":"Feature","properties":{"id":"40143","name":"Tulsa Co."},"geometry":{"type":"Polygon","coordinates":[[[-96.2683,36.162],[-96.1746,36.1611],[-96.0841,36.1609],[-96.0734,36.1611],[-96.0012,36.1613],[-96.0013,36.2193],[-96.0014,36.2206],[-96.0013,36.2794],[-96.0015,36.2855],[-96.0012,36.4237],[-95.8662,36.4238],[-95.8303,36.4235],[-95.8123,36.4236],[-95.7944,36.4236],[-95.7942,36.3945],[-95.8123,36.3946],[-95.8122,36.2785],[-95.8121,36.2495],[-95.8153,36.2495],[-95.815,36.2294],[-95.8153,36.2223],[-95.8154,36.1626],[-95.7616,36.1628],[-95.7617,35.9884],[-95.7616,35.9333],[-95.7617,35.9093],[-95.762,35.9012],[-95.8195,35.9011],[-95.8195,35.8563],[-95.8995,35.8564],[-95.9798,35.8569],[-96.0331,35.8568],[-96.033,35.873],[-96.0333,35.9011],[-96.0296,35.9011],[-96.0295,35.9447],[-96.0296,36.0754],[-96.0741,36.0756],[-96.1904,36.0757],[-96.2979,36.0758],[-96.2979,36.1623],[-96.2683,36.162]]]}},{"type":"Feature","properties":{"id":"40037","name":"Creek Co."},"geometry":{"type":"Polygon","coordinates":[[[-96.6209,36.1634],[-96.5127,36.1635],[-96.448,36.1632],[-96.2979,36.1623],[-96.2979,36.0758],[-96.1904,36.0757],[-96.0741,36.0756],[-96.0296,36.0754],[-96.0295,35.9447],[-96.0296,35.9011],[-96.0333,35.9011],[-96.033,35.873],[-96.0331,35.8568],[-96.0861,35.8572],[-96.1924,35.857],[-96.1924,35.7701],[-96.1925,35.7692],[-96.1926,35.6777],[-96.1926,35.6391],[-96.2806,35.6389],[-96.2815,35.6388],[-96.3944,35.6391],[-96.4192,35.6393],[-96.4335,35.6391],[-96.5765,35.639],[-96.6208,35.639],[-96.6208,35.6554],[-96.6201,35.7019],[-96.6204,35.7098],[-96.6196,35.7844],[-96.6196,35.8202],[-96.6195,35.8643],[-96.62,35.9116],[-96.6204,35.9304],[-96.6197,35.9416],[-96.6215,35.987],[-96.6225,36.061],[-96.6226,36.0731],[-96.6223,36.1266],[-96.6214,36.1599],[-96.6221,36.1599],[-96.6209,36.1634]]]}},{"type":"Feature","properties":{"id":"40111","name":"Okmulgee Co."},"geometry":{"type":"Polygon","coordinates":[[[-96.1926,35.6777],[-96.1925,35.7692],[-96.1924,35.7701],[-96.1924,35.857],[-96.0861,35.8572],[-96.0331,35.8568],[-95.9798,35.8569],[-95.8995,35.8564],[-95.8195,35.8563],[-95.7661,35.8563],[-95.7663,35.7258],[-95.7131,35.7258],[-95.7131,35.6393],[-95.713,35.6375],[-95.7132,35.5662],[-95.713,35.5517],[-95.8224,35.5517],[-95.8224,35.4637],[-95.8753,35.4636],[-95.8754,35.3767],[-95.9608,35.3768],[-96.0875,35.3769],[-96.0877,35.4185],[-96.0878,35.552],[-96.1056,35.5521],[-96.1927,35.552],[-96.1926,35.6391],[-96.1926,35.6777]]]}},{"type":"Feature","properties":{"id":"40131","name":"Rogers Co."},"geometry":{"type":"Polygon","coordinates":[[[-95.8125,36.4942],[-95.8123,36.4961],[-95.8123,36.5975],[-95.7562,36.5975],[-95.4316,36.5975],[-95.3284,36.5976],[-95.3282,36.5102],[-95.4356,36.5102],[-95.4355,36.3824],[-95.4355,36.2493],[-95.4385,36.2493],[-95.4399,36.2062],[-95.44,36.1914],[-95.44,36.0753],[-95.5715,36.0753],[-95.5775,36.0784],[-95.5799,36.083],[-95.5784,36.0841],[-95.571,36.0822],[-95.5643,36.0846],[-95.5583,36.082],[-95.5566,36.0824],[-95.5526,36.0915],[-95.5615,36.0992],[-95.5683,36.1074],[-95.5707,36.1138],[-95.57,36.1203],[-95.5678,36.1294],[-95.5736,36.1313],[-95.5762,36.1336],[-95.5872,36.1341],[-95.589,36.1362],[-95.5928,36.1371],[-95.5923,36.1323],[-95.5949,36.1294],[-95.6047,36.1335],[-95.6106,36.1422],[-95.6162,36.1466],[-95.6179,36.1503],[-95.6185,36.1625],[-95.6727,36.1623],[-95.6996,36.1624],[-95.7082,36.1619],[-95.7264,36.1624],[-95.7545,36.1625],[-95.7616,36.1628],[-95.8154,36.1626],[-95.8153,36.2223],[-95.815,36.2294],[-95.8153,36.2495],[-95.8121,36.2495],[-95.8122,36.2785],[-95.8123,36.3946],[-95.7942,36.3945],[-95.7944,36.4236],[-95.8123,36.4236],[-95.8125,36.4942]]]}}]}