{"type":"FeatureCollection","features":[{"type":"Feature","properties":{"id":"55131","name":"Washington Co."},"geometry":{"type":"Polygon","coordinates":[[[-88.0408,43.4706],[-88.0407,43.4545],[-88.041,43.4252],[-88.04,43.3679],[-88.0401,43.3673],[-88.0624,43.3673],[-88.0629,43.3223],[-88.0629,43.3079],[-88.0639,43.2356],[-88.0634,43.1921],[-88.1132,43.1919],[-88.1427,43.1921],[-88.2192,43.1931],[-88.2662,43.1933],[-88.3199,43.193],[-88.3793,43.1936],[-88.3993,43.194],[-88.418,43.1947],[-88.4187,43.2529],[-88.4192,43.2819],[-88.4187,43.3253],[-88.4188,43.347],[-88.4184,43.3702],[-88.4015,43.3701],[-88.4007,43.4568],[-88.4005,43.5059],[-88.4007,43.5354],[-88.4004,43.5435],[-88.281,43.5428],[-88.1609,43.5429],[-88.0993,43.5424],[-88.0405,43.5424],[-88.0408,43.4706]]]}},{"type":"Feature","properties":{"id":"55079","name":"Milwaukee Co."},"geometry":{"type":"Polygon","coordinates":[[[-88.0038,43.1926],[-87.8921,43.192],[-87.8876,43.1866],[-87.8811,43.1706],[-87.8851,43.162],[-87.8923,43.1487],[-87.9003,43.1373],[-87.9014,43.1332],[-87.9005,43.1259],[-87.8985,43.1211],[-87.8932,43.114],[-87.8761,43.099],[-87.8699,43.0843],[-87.8702,43.0806],[-87.8665,43.0744],[-87.8641,43.0743],[-87.8638,43.0706],[-87.8748,43.0603],[-87.8755,43.0585],[-87.8823,43.0531],[-87.8864,43.0521],[-87.8906,43.0484],[-87.895,43.0425],[-87.8967,43.0378],[-87.8987,43.0257],[-87.8975,43.0201],[-87.8916,43.007],[-87.888,43.0022],[-87.8787,42.9924],[-87.8646,42.9841],[-87.8572,42.978],[-87.85,42.9707],[-87.845,42.9611],[-87.8456,42.9547],[-87.8435,42.951],[-87.8433,42.944],[-87.8459,42.9321],[-87.844,42.9218],[-87.8397,42.9146],[-87.8427,42.9069],[-87.8451,42.9048],[-87.8478,42.8964],[-87.8467,42.8904],[-87.8435,42.8903],[-87.8437,42.8853],[-87.8465,42.8841],[-87.8432,42.8745],[-87.8435,42.8733],[-87.8389,42.8652],[-87.8355,42.8565],[-87.8284,42.8459],[-87.8271,42.8422],[-87.8436,42.8421],[-87.8938,42.8428],[-87.9141,42.8427],[-87.9519,42.8435],[-87.9813,42.8436],[-88.0699,42.8433],[-88.0696,42.8673],[-88.0696,42.9238],[-88.0692,42.9592],[-88.0689,42.9737],[-88.0673,43.0164],[-88.0668,43.0593],[-88.0656,43.1254],[-88.0644,43.148],[-88.0641,43.1737],[-88.0634,43.1921],[-88.0038,43.1926]]]}},{"type":"Feature","properties":{"id":"55133","name":"Waukesha Co."},"geometry":{"type":"Polygon","coordinates":[[[-88.3993,43.194],[-88.3793,43.1936],[-88.3199,43.193],[-88.2662,43.1933],[-88.2192,43.1931],[-88.1427,43.1921],[-88.1132,43.1919],[-88.0634,43.1921],[-88.0641,43.1737],[-88.0644,43.148],[-88.0656,43.1254],[-88.0668,43.0593],[-88.0673,43.0164],[-88.0689,42.9737],[-88.0692,42.9592],[-88.0696,42.9238],[-88.0696,42.8673],[-88.0699,42.8433],[-88.1236,42.8432],[-88.161,42.8429],[-88.1881,42.8428],[-88.2227,42.8421],[-88.3064,42.8421],[-88.3438,42.8429],[-88.4241,42.8426],[-88.4635,42.8426],[-88.5415,42.843],[-88.542,42.8661],[-88.5422,42.905],[-88.5419,42.9521],[-88.5416,42.9748],[-88.5416,43.0194],[-88.5409,43.0356],[-88.5399,43.093],[-88.5392,43.1278],[-88.5383,43.1511],[-88.5358,43.196],[-88.4576,43.1957],[-88.418,43.1947],[-88.3993,43.194]]]}},{"type":"Feature","properties":{"id":"55089","name":"Ozaukee Co."},"geometry":{"type":"Polygon","coordinates":[[[-87.971,43.5427],[-87.921,43.5434],[-87.8409,43.5431],[-87.7919,43.543],[-87.7941,43.5247],[-87.7935,43.5],[-87.7917,43.4922],[-87.8009,43.4744],[-87.804,43.4634],[-87.8119,43.4546],[-87.8125,43.4504],[-87.8167,43.4483],[-87.8273,43.4348],[-87.8556,43.4054],[-87.865,43.3936],[-87.8656,43.3904],[-87.8696,43.3872],[-87.8684,43.3849],[-87.8725,43.3802],[-87.8774,43.3692],[-87.8824,43.3521],[-87.8843,43.3398],[-87.8862,43.3208],[-87.8883,43.314],[-87.8892,43.3077],[-87.8918,43.3018],[-87.9018,43.2841],[-87.9118,43.2504],[-87.9101,43.2359],[-87.9039,43.224],[-87.8967,43.2143],[-87.8958,43.2088],[-87.8974,43.2042],[-87.8963,43.1971],[-87.8921,43.192],[-88.0038,43.1926],[-88.0634,43.1921],[-88.0639,43.2356],[-88.0629,43.3079],[-88.0629,43.3223],[-88.0624,43.3673],[-88.0401,43.3673],[-88.04,43.3679],[-88.041,43.4252],[-88.0407,43.4545],[-88.0408,43.4706],[-88.0405,43.5424],[-87.971,43.5427]]]}}]}