{"type":"FeatureCollection","features":[{"type":"Feature","properties":{"id":"13089","name":"DeKalb Co."},"geometry":{"type":"Polygon","coordinates":[[[-84.2753,33.9541],[-84.2715,33.9559],[-84.2662,33.9477],[-84.2699,33.9459],[-84.2693,33.9401],[-84.2653,33.9326],[-84.2598,33.9189],[-84.2524,33.9116],[-84.2322,33.902],[-84.2249,33.8929],[-84.2228,33.8921],[-84.2172,33.8857],[-84.2077,33.8779],[-84.2013,33.8719],[-84.1973,33.8717],[-84.1935,33.868],[-84.1793,33.8643],[-84.1749,33.8596],[-84.1615,33.8539],[-84.1584,33.8536],[-84.154,33.8481],[-84.1499,33.8459],[-84.1483,33.8427],[-84.1444,33.8392],[-84.1368,33.8367],[-84.1334,33.8335],[-84.1321,33.8294],[-84.1206,33.8168],[-84.1134,33.8075],[-84.105,33.8031],[-84.1035,33.8014],[-84.0978,33.7993],[-84.0913,33.7925],[-84.0873,33.79],[-84.0759,33.7775],[-84.0709,33.7748],[-84.0582,33.7728],[-84.0524,33.7671],[-84.0465,33.7647],[-84.0433,33.7623],[-84.0403,33.7577],[-84.0324,33.7561],[-84.0237,33.7528],[-84.0412,33.7395],[-84.0566,33.7266],[-84.0716,33.6982],[-84.0781,33.6853],[-84.0897,33.6638],[-84.1158,33.6147],[-84.1154,33.6186],[-84.1191,33.6223],[-84.1235,33.6237],[-84.1238,33.6256],[-84.128,33.6268],[-84.1292,33.6314],[-84.1389,33.6308],[-84.1412,33.6321],[-84.1383,33.6377],[-84.1439,33.6363],[-84.1514,33.639],[-84.1545,33.6457],[-84.1586,33.6445],[-84.1608,33.638],[-84.17,33.6393],[-84.1731,33.641],[-84.1702,33.6459],[-84.1841,33.6462],[-84.224,33.6466],[-84.2242,33.6307],[-84.2455,33.6307],[-84.2458,33.6469],[-84.2817,33.6473],[-84.3501,33.6479],[-84.3495,33.6926],[-84.3492,33.765],[-84.3482,33.7918],[-84.3486,33.8072],[-84.3483,33.8686],[-84.3483,33.8909],[-84.3478,33.9353],[-84.3478,33.9593],[-84.3474,33.9681],[-84.3464,33.966],[-84.3373,33.9709],[-84.3251,33.9672],[-84.3201,33.9674],[-84.3133,33.9654],[-84.3025,33.9601],[-84.2941,33.9597],[-84.2843,33.9564],[-84.2805,33.956],[-84.2771,33.9576],[-84.2753,33.9541]]]}},{"type":"Feature","properties":{"id":"13121","name":"Fulton Co."},"geometry":{"type":"Polygon","coordinates":[[[-84.8074,33.5831],[-84.8057,33.5864],[-84.8012,33.59],[-84.7965,33.5956],[-84.7885,33.5993],[-84.7756,33.6097],[-84.7631,33.6142],[-84.7529,33.6279],[-84.7527,33.6302],[-84.7488,33.6318],[-84.7426,33.6244],[-84.7396,33.6233],[-84.7357,33.6246],[-84.7315,33.6313],[-84.73,33.6365],[-84.7252,33.6392],[-84.7167,33.6418],[-84.7105,33.6464],[-84.6858,33.6511],[-84.6739,33.6565],[-84.6614,33.657],[-84.6564,33.6594],[-84.6519,33.6679],[-84.6537,33.6752],[-84.6527,33.6836],[-84.649,33.6859],[-84.6408,33.6838],[-84.6305,33.6903],[-84.6301,33.6931],[-84.6321,33.7003],[-84.6212,33.7045],[-84.6157,33.7096],[-84.608,33.7129],[-84.6025,33.7197],[-84.6008,33.725],[-84.5943,33.729],[-84.5868,33.7291],[-84.5826,33.7374],[-84.5779,33.7437],[-84.5724,33.7463],[-84.5607,33.7566],[-84.5552,33.7609],[-84.538,33.7712],[-84.5354,33.7766],[-84.5314,33.782],[-84.5251,33.7859],[-84.5107,33.7931],[-84.503,33.7993],[-84.4997,33.8041],[-84.4922,33.8116],[-84.4858,33.8138],[-84.4804,33.8175],[-84.4709,33.8264],[-84.4668,33.8276],[-84.4572,33.8248],[-84.4549,33.8284],[-84.4602,33.8382],[-84.4605,33.8421],[-84.4588,33.846],[-84.4601,33.8529],[-84.4545,33.8588],[-84.456,33.8653],[-84.4522,33.8692],[-84.4508,33.8725],[-84.4433,33.8793],[-84.4442,33.8876],[-84.4412,33.8907],[-84.4438,33.8958],[-84.4417,33.8999],[-84.4475,33.9079],[-84.4467,33.9122],[-84.4398,33.9169],[-84.4364,33.923],[-84.4304,33.9249],[-84.4172,33.9325],[-84.4051,33.9437],[-84.3992,33.9502],[-84.3906,33.9561],[-84.3834,33.9633],[-84.3845,33.9711],[-84.3788,33.9726],[-84.3751,33.9785],[-84.3747,33.986],[-84.376,33.9887],[-84.3833,33.9928],[-84.3865,33.9926],[-84.39,33.9954],[-84.3876,33.9968],[-84.3923,33.9992],[-84.3925,34.0011],[-84.3973,34.0066],[-84.4001,34.0077],[-84.401,34.012],[-84.3983,34.0165],[-84.3996,34.0206],[-84.3987,34.0231],[-84.4011,34.0242],[-84.4012,34.0302],[-84.4038,34.0334],[-84.4024,34.0356],[-84.4067,34.0361],[-84.411,34.0418],[-84.4109,34.0496],[-84.4168,34.0516],[-84.4191,34.0552],[-84.4189,34.0735],[-84.4184,34.109],[-84.4149,34.1103],[-84.4114,34.108],[-84.404,34.1101],[-84.3995,34.1097],[-84.3992,34.1112],[-84.3935,34.1146],[-84.3916,34.1177],[-84.3882,34.1194],[-84.3797,34.1187],[-84.3696,34.1226],[-84.3649,34.1223],[-84.3618,34.1242],[-84.3597,34.1316],[-84.3613,34.137],[-84.3589,34.1414],[-84.36,34.1437],[-84.3589,34.1487],[-84.3597,34.1531],[-84.3569,34.1551],[-84.3605,34.1623],[-84.3563,34.1683],[-84.3542,34.1749],[-84.3523,34.1767],[-84.3433,34.1761],[-84.3382,34.178],[-84.3285,34.186],[-84.3175,34.1863],[-84.2728,34.1861],[-84.259,34.1859],[-84.2589,34.1549],[-84.2589,34.1095],[-84.2549,34.1075],[-84.2541,34.1043],[-84.2493,34.1044],[-84.2413,34.1015],[-84.2354,34.1013],[-84.2336,34.0985],[-84.2293,34.0966],[-84.2226,34.0999],[-84.2186,34.1003],[-84.2138,34.0991],[-84.2058,34.0906],[-84.1998,34.09],[-84.1907,34.0865],[-84.1856,34.0826],[-84.1843,34.079],[-84.1789,34.0711],[-84.177,34.0696],[-84.1627,34.0664],[-84.1592,34.0627],[-84.1436,34.0554],[-84.1317,34.0567],[-84.1228,34.0525],[-84.1153,34.051],[-84.0977,34.0507],[-84.1004,34.0477],[-84.1075,34.0451],[-84.1123,34.042],[-84.1163,34.0366],[-84.1235,34.0335],[-84.1287,34.0331],[-84.1411,34.03],[-84.1531,34.0308],[-84.1571,34.0324],[-84.1619,34.0299],[-84.1692,34.0283],[-84.1753,34.0206],[-84.1803,34.0069],[-84.1803,34.0004],[-84.1853,33.9948],[-84.1917,33.9915],[-84.2028,33.9897],[-84.2047,33.9917],[-84.2014,33.994],[-84.2021,33.9972],[-84.2125,34.0038],[-84.2281,34.0039],[-84.2372,34.0002],[-84.2483,33.9983],[-84.2496,33.9925],[-84.2533,33.9872],[-84.2567,33.986],[-84.2601,33.9875],[-84.2631,33.9866],[-84.2633,33.9833],[-84.2616,33.9772],[-84.2628,33.9737],[-84.2581,33.9682],[-84.2676,33.9638],[-84.2725,33.9588],[-84.2771,33.9576],[-84.2805,33.956],[-84.2843,33.9564],[-84.2941,33.9597],[-84.3025,33.9601],[-84.3133,33.9654],[-84.3201,33.9674],[-84.3251,33.9672],[-84.3373,33.9709],[-84.3464,33.966],[-84.3474,33.9681],[-84.3478,33.9593],[-84.3478,33.9353],[-84.3483,33.8909],[-84.3483,33.8686],[-84.3486,33.8072],[-84.3482,33.7918],[-84.3492,33.765],[-84.3495,33.6926],[-84.3501,33.6479],[-84.38,33.6483],[-84.4483,33.6488],[-84.4482,33.6412],[-84.453,33.6412],[-84.453,33.6489],[-84.4577,33.6485],[-84.4584,33.5727],[-84.4589,33.5654],[-84.4587,33.5509],[-84.4888,33.5447],[-84.4999,33.5419],[-84.5132,33.5392],[-84.5448,33.531],[-84.5569,33.5284],[-84.5948,33.5186],[-84.598,33.5137],[-84.6044,33.5124],[-84.6079,33.507],[-84.6073,33.5046],[-84.6095,33.5025],[-84.6209,33.5033],[-84.621,33.5107],[-84.6318,33.5111],[-84.6701,33.5118],[-84.6998,33.5114],[-84.7109,33.511],[-84.7479,33.5106],[-84.7506,33.5108],[-84.8507,33.5115],[-84.8493,33.5132],[-84.841,33.5148],[-84.8347,33.5132],[-84.8276,33.5133],[-84.8181,33.5184],[-84.8151,33.5212],[-84.8152,33.5247],[-84.8221,33.5322],[-84.8249,33.5386],[-84.8323,33.5453],[-84.8321,33.5487],[-84.8273,33.5544],[-84.8261,33.5606],[-84.8236,33.5642],[-84.8177,33.5679],[-84.8118,33.5705],[-84.8089,33.5741],[-84.8074,33.5831]]]}},{"type":"Feature","properties":{"id":"13113","name":"Fayette Co."},"geometry":{"type":"Polygon","coordinates":[[[-84.6073,33.5046],[-84.6079,33.507],[-84.6044,33.5124],[-84.598,33.5137],[-84.5948,33.5186],[-84.5569,33.5284],[-84.5448,33.531],[-84.5132,33.5392],[-84.4999,33.5419],[-84.4888,33.5447],[-84.4587,33.5509],[-84.4394,33.5507],[-84.4349,33.5416],[-84.4334,33.5318],[-84.4336,33.5244],[-84.4246,33.5138],[-84.4204,33.5096],[-84.4206,33.494],[-84.4097,33.4939],[-84.3962,33.4849],[-84.392,33.4793],[-84.387,33.4762],[-84.3849,33.4713],[-84.386,33.4665],[-84.3816,33.463],[-84.3848,33.4587],[-84.3843,33.4544],[-84.3888,33.4503],[-84.3874,33.4461],[-84.3858,33.4473],[-84.3837,33.4444],[-84.3925,33.4445],[-84.3926,33.4365],[-84.4022,33.4364],[-84.4023,33.4201],[-84.3931,33.42],[-84.3931,33.412],[-84.3886,33.412],[-84.3867,33.4098],[-84.387,33.4046],[-84.3845,33.4015],[-84.3871,33.4007],[-84.3886,33.3961],[-84.3905,33.3968],[-84.3948,33.3944],[-84.3928,33.3909],[-84.3946,33.3885],[-84.3899,33.3857],[-84.3905,33.3819],[-84.3873,33.3801],[-84.3874,33.3754],[-84.3963,33.3733],[-84.393,33.3672],[-84.3951,33.3603],[-84.3884,33.3558],[-84.3881,33.3525],[-84.3828,33.3431],[-84.3836,33.3389],[-84.3862,33.3411],[-84.3888,33.3393],[-84.3885,33.336],[-84.3905,33.3343],[-84.3849,33.3274],[-84.3855,33.3223],[-84.3842,33.32],[-84.3868,33.3163],[-84.3892,33.3154],[-84.3933,33.3169],[-84.393,33.3079],[-84.3954,33.306],[-84.3972,33.3015],[-84.3988,33.3044],[-84.4024,33.3055],[-84.4084,33.2984],[-84.4085,33.2942],[-84.4127,33.2946],[-84.4132,33.2925],[-84.4191,33.2935],[-84.4202,33.2919],[-84.4191,33.2873],[-84.4229,33.2865],[-84.426,33.2797],[-84.4307,33.2755],[-84.4317,33.2722],[-84.4304,33.2685],[-84.4316,33.263],[-84.4334,33.2613],[-84.433,33.2565],[-84.4975,33.2574],[-84.5022,33.2614],[-84.5002,33.2646],[-84.503,33.2721],[-84.5071,33.277],[-84.5044,33.2809],[-84.5069,33.2828],[-84.5122,33.2806],[-84.5146,33.2901],[-84.5174,33.293],[-84.517,33.2986],[-84.5147,33.3032],[-84.5201,33.3085],[-84.5219,33.3136],[-84.5178,33.3163],[-84.5183,33.3185],[-84.5222,33.3191],[-84.5263,33.3214],[-84.5282,33.3269],[-84.5314,33.3276],[-84.5352,33.3311],[-84.5347,33.3358],[-84.5406,33.3333],[-84.5435,33.3352],[-84.5442,33.3383],[-84.5496,33.3385],[-84.5518,33.3423],[-84.5607,33.3407],[-84.5689,33.3482],[-84.5713,33.3485],[-84.5746,33.3532],[-84.5758,33.3576],[-84.5781,33.3589],[-84.5819,33.3566],[-84.586,33.3579],[-84.5887,33.3624],[-84.5871,33.364],[-84.5923,33.3716],[-84.5922,33.3784],[-84.594,33.3816],[-84.5968,33.3815],[-84.5992,33.387],[-84.6008,33.3868],[-84.6045,33.3913],[-84.6091,33.3931],[-84.6068,33.3951],[-84.6096,33.3969],[-84.6091,33.4004],[-84.6131,33.4015],[-84.6155,33.4072],[-84.6182,33.4081],[-84.6201,33.4129],[-84.6184,33.4146],[-84.6197,33.4177],[-84.6193,33.4227],[-84.6229,33.4307],[-84.6236,33.4356],[-84.627,33.4397],[-84.6257,33.4435],[-84.6268,33.4507],[-84.6253,33.4585],[-84.627,33.461],[-84.6254,33.463],[-84.6233,33.4701],[-84.6268,33.4752],[-84.6224,33.4809],[-84.6179,33.4838],[-84.6168,33.4874],[-84.6125,33.4944],[-84.6095,33.5025],[-84.6073,33.5046]]]}},{"type":"Feature","properties":{"id":"13217","name":"Newton Co."},"geometry":{"type":"Polygon","coordinates":[[[-84.0107,33.5633],[-84.0107,33.5549],[-84.0033,33.5549],[-84.0034,33.5635],[-84.0105,33.5636],[-83.9515,33.6289],[-83.9315,33.6509],[-83.9297,33.6593],[-83.926,33.6642],[-83.9232,33.6736],[-83.9226,33.685],[-83.9205,33.6855],[-83.9181,33.6895],[-83.9205,33.6919],[-83.9239,33.7039],[-83.9255,33.7062],[-83.9252,33.7102],[-83.9228,33.7111],[-83.9174,33.7084],[-83.9132,33.7127],[-83.9167,33.7168],[-83.9154,33.7182],[-83.918,33.7211],[-83.9183,33.7274],[-83.9161,33.7312],[-83.9175,33.7368],[-83.9152,33.7392],[-83.9148,33.7442],[-83.8513,33.7047],[-83.7583,33.6464],[-83.7344,33.6456],[-83.6916,33.617],[-83.6994,33.6094],[-83.6809,33.5969],[-83.6874,33.5886],[-83.6859,33.5844],[-83.6871,33.5823],[-83.6814,33.5779],[-83.6777,33.5712],[-83.6822,33.5262],[-83.6881,33.5106],[-83.6846,33.5021],[-83.683,33.4944],[-83.6746,33.4872],[-83.6784,33.4836],[-83.6876,33.4831],[-83.6889,33.4858],[-83.7011,33.4983],[-83.7052,33.5008],[-83.7123,33.4951],[-83.7047,33.4885],[-83.7367,33.4809],[-83.7713,33.4525],[-83.7919,33.4464],[-83.8074,33.4408],[-83.8084,33.4363],[-83.8122,33.4347],[-83.8163,33.4367],[-83.8249,33.4373],[-83.8235,33.4334],[-83.8283,33.4263],[-83.8286,33.4227],[-83.8308,33.4192],[-83.8283,33.4151],[-83.8452,33.4147],[-83.845,33.4078],[-83.8369,33.4079],[-83.837,33.405],[-83.8437,33.4049],[-83.8411,33.4006],[-83.8331,33.3959],[-83.831,33.3935],[-83.8378,33.39],[-83.8422,33.3838],[-83.8455,33.381],[-83.8472,33.3747],[-83.8569,33.3717],[-83.8539,33.3672],[-83.8599,33.3688],[-83.8631,33.3683],[-83.8666,33.3728],[-83.8643,33.3757],[-83.8656,33.3777],[-83.8733,33.378],[-83.8774,33.3832],[-83.8788,33.3898],[-83.8855,33.3913],[-83.8924,33.394],[-83.8951,33.3967],[-83.8959,33.402],[-83.8952,33.4075],[-83.8982,33.4104],[-83.9061,33.4138],[-83.9083,33.4178],[-83.9125,33.4178],[-83.9106,33.4261],[-83.9153,33.4274],[-83.9145,33.4312],[-83.9162,33.4334],[-83.915,33.4361],[-83.9188,33.4342],[-83.9189,33.4391],[-83.9239,33.4442],[-83.9249,33.4459],[-83.9229,33.451],[-83.9321,33.4551],[-83.9315,33.4576],[-83.9344,33.4594],[-83.9375,33.4673],[-83.9443,33.4714],[-83.9479,33.4772],[-83.9465,33.4818],[-83.9492,33.4857],[-83.9552,33.4837],[-83.9643,33.4866],[-83.9712,33.4862],[-83.9744,33.4836],[-83.9747,33.487],[-83.977,33.4889],[-83.9811,33.487],[-83.9858,33.488],[-83.9877,33.4909],[-83.9914,33.4928],[-83.9974,33.4941],[-84.0126,33.4925],[-84.0153,33.4977],[-84.0265,33.4958],[-84.0273,33.4921],[-84.0371,33.497],[-84.0315,33.4979],[-84.0306,33.5011],[-84.0342,33.5039],[-84.0356,33.5091],[-84.0429,33.5096],[-84.0419,33.5186],[-84.0441,33.5204],[-84.0467,33.5178],[-84.0508,33.5162],[-84.0483,33.5119],[-84.0518,33.5114],[-84.0552,33.5188],[-84.048,33.5227],[-84.0445,33.5258],[-84.0107,33.5633]]]}},{"type":"Feature","properties":{"id":"13077","name":"Coweta Co."},"geometry":{"type":"Polygon","coordinates":[[[-84.7506,33.5108],[-84.7479,33.5106],[-84.7109,33.511],[-84.6998,33.5114],[-84.6701,33.5118],[-84.6318,33.5111],[-84.621,33.5107],[-84.6209,33.5033],[-84.6095,33.5025],[-84.6125,33.4944],[-84.6168,33.4874],[-84.6179,33.4838],[-84.6224,33.4809],[-84.6268,33.4752],[-84.6233,33.4701],[-84.6254,33.463],[-84.627,33.461],[-84.6253,33.4585],[-84.6268,33.4507],[-84.6257,33.4435],[-84.627,33.4397],[-84.6236,33.4356],[-84.6229,33.4307],[-84.6193,33.4227],[-84.6197,33.4177],[-84.6184,33.4146],[-84.6201,33.4129],[-84.6182,33.4081],[-84.6155,33.4072],[-84.6131,33.4015],[-84.6091,33.4004],[-84.6096,33.3969],[-84.6068,33.3951],[-84.6091,33.3931],[-84.6045,33.3913],[-84.6008,33.3868],[-84.5992,33.387],[-84.5968,33.3815],[-84.594,33.3816],[-84.5922,33.3784],[-84.5923,33.3716],[-84.5871,33.364],[-84.5887,33.3624],[-84.586,33.3579],[-84.5819,33.3566],[-84.5781,33.3589],[-84.5758,33.3576],[-84.5746,33.3532],[-84.5713,33.3485],[-84.5689,33.3482],[-84.5607,33.3407],[-84.5518,33.3423],[-84.5496,33.3385],[-84.5442,33.3383],[-84.5435,33.3352],[-84.5406,33.3333],[-84.5347,33.3358],[-84.5352,33.3311],[-84.5314,33.3276],[-84.5282,33.3269],[-84.5263,33.3214],[-84.5222,33.3191],[-84.5183,33.3185],[-84.5178,33.3163],[-84.5219,33.3136],[-84.5201,33.3085],[-84.5147,33.3032],[-84.517,33.2986],[-84.5174,33.293],[-84.5146,33.2901],[-84.5122,33.2806],[-84.5069,33.2828],[-84.5044,33.2809],[-84.5071,33.277],[-84.503,33.2721],[-84.5002,33.2646],[-84.5022,33.2614],[-84.4975,33.2574],[-84.4982,33.25],[-84.5016,33.2515],[-84.5066,33.2483],[-84.5089,33.2452],[-84.5072,33.2379],[-84.5041,33.2391],[-84.5021,33.2338],[-84.5003,33.2333],[-84.5038,33.2273],[-84.5064,33.2261],[-84.5024,33.2211],[-84.566,33.2215],[-84.6357,33.2224],[-84.6527,33.2225],[-84.6546,33.2243],[-84.6546,33.2307],[-84.6693,33.2308],[-84.6695,33.2264],[-84.6745,33.2265],[-84.6746,33.2227],[-84.694,33.223],[-84.694,33.2313],[-84.7032,33.2312],[-84.7033,33.2228],[-84.7478,33.2232],[-84.8524,33.2236],[-84.8523,33.191],[-84.8624,33.1912],[-84.8624,33.1991],[-84.8671,33.1959],[-84.8699,33.1957],[-84.8692,33.1984],[-84.8703,33.205],[-84.872,33.2074],[-84.8622,33.2075],[-84.8621,33.2239],[-84.939,33.2247],[-84.9546,33.2656],[-84.9488,33.2657],[-84.9488,33.2823],[-84.9586,33.2824],[-84.9586,33.2771],[-84.9682,33.3022],[-84.9955,33.3747],[-85.0154,33.4255],[-85.0112,33.431],[-84.9972,33.435],[-84.9865,33.4413],[-84.9852,33.4458],[-84.9891,33.4521],[-84.9862,33.4565],[-84.9819,33.4573],[-84.9763,33.455],[-84.9729,33.4518],[-84.9661,33.4488],[-84.9545,33.4393],[-84.9501,33.4408],[-84.9432,33.4365],[-84.936,33.4372],[-84.9325,33.4417],[-84.9213,33.4453],[-84.9192,33.4485],[-84.9205,33.4523],[-84.9192,33.4557],[-84.9158,33.4579],[-84.9093,33.4595],[-84.9083,33.4618],[-84.909,33.4671],[-84.9073,33.4714],[-84.9025,33.4758],[-84.8948,33.4783],[-84.8861,33.4839],[-84.8775,33.4917],[-84.8741,33.4925],[-84.8687,33.4917],[-84.8631,33.4924],[-84.8571,33.4945],[-84.8522,33.5018],[-84.8507,33.5115],[-84.7506,33.5108]]]}},{"type":"Feature","properties":{"id":"13135","name":"Gwinnett Co."},"geometry":{"type":"Polygon","coordinates":[[[-84.2725,33.9588],[-84.2676,33.9638],[-84.2581,33.9682],[-84.2628,33.9737],[-84.2616,33.9772],[-84.2633,33.9833],[-84.2631,33.9866],[-84.2601,33.9875],[-84.2567,33.986],[-84.2533,33.9872],[-84.2496,33.9925],[-84.2483,33.9983],[-84.2372,34.0002],[-84.2281,34.0039],[-84.2125,34.0038],[-84.2021,33.9972],[-84.2014,33.994],[-84.2047,33.9917],[-84.2028,33.9897],[-84.1917,33.9915],[-84.1853,33.9948],[-84.1803,34.0004],[-84.1803,34.0069],[-84.1753,34.0206],[-84.1692,34.0283],[-84.1619,34.0299],[-84.1571,34.0324],[-84.1531,34.0308],[-84.1411,34.03],[-84.1287,34.0331],[-84.1235,34.0335],[-84.1163,34.0366],[-84.1123,34.042],[-84.1075,34.0451],[-84.1004,34.0477],[-84.0977,34.0507],[-84.1008,34.0534],[-84.1039,34.0537],[-84.1081,34.0565],[-84.1118,34.0631],[-84.1178,34.0653],[-84.1168,34.0708],[-84.1134,34.0763],[-84.1138,34.0852],[-84.1099,34.0925],[-84.1099,34.0984],[-84.1019,34.1046],[-84.1014,34.1168],[-84.0977,34.1195],[-84.0975,34.1229],[-84.0943,34.1246],[-84.0933,34.1282],[-84.0948,34.1322],[-84.0908,34.1354],[-84.0851,34.1432],[-84.0865,34.1463],[-84.0854,34.1488],[-84.0796,34.1556],[-84.0759,34.1586],[-84.0751,34.1633],[-84.0643,34.1671],[-84.0622,34.1685],[-84.0496,34.1647],[-84.0255,34.1553],[-83.9905,34.1429],[-83.9783,34.138],[-83.974,34.1371],[-83.941,34.1249],[-83.8755,34.1011],[-83.8678,34.0987],[-83.8425,34.1132],[-83.8276,34.1223],[-83.8177,34.1275],[-83.8493,34.0512],[-83.867,34.0081],[-83.8691,34.0043],[-83.8635,34.0013],[-83.8606,33.997],[-83.8556,33.9931],[-83.8506,33.9914],[-83.8434,33.9874],[-83.8373,33.9821],[-83.8368,33.9794],[-83.832,33.9664],[-83.8257,33.9651],[-83.8137,33.9545],[-83.8134,33.9495],[-83.8083,33.946],[-83.8044,33.9407],[-83.8059,33.9375],[-83.8033,33.9332],[-83.7991,33.9298],[-83.8551,33.8853],[-83.9022,33.8476],[-83.9667,33.7987],[-83.982,33.7861],[-83.9865,33.7827],[-84.0237,33.7528],[-84.0324,33.7561],[-84.0403,33.7577],[-84.0433,33.7623],[-84.0465,33.7647],[-84.0524,33.7671],[-84.0582,33.7728],[-84.0709,33.7748],[-84.0759,33.7775],[-84.0873,33.79],[-84.0913,33.7925],[-84.0978,33.7993],[-84.1035,33.8014],[-84.105,33.8031],[-84.1134,33.8075],[-84.1206,33.8168],[-84.1321,33.8294],[-84.1334,33.8335],[-84.1368,33.8367],[-84.1444,33.8392],[-84.1483,33.8427],[-84.1499,33.8459],[-84.154,33.8481],[-84.1584,33.8536],[-84.1615,33.8539],[-84.1749,33.8596],[-84.1793,33.8643],[-84.1935,33.868],[-84.1973,33.8717],[-84.2013,33.8719],[-84.2077,33.8779],[-84.2172,33.8857],[-84.2228,33.8921],[-84.2249,33.8929],[-84.2322,33.902],[-84.2524,33.9116],[-84.2598,33.9189],[-84.2653,33.9326],[-84.2693,33.9401],[-84.2699,33.9459],[-84.2662,33.9477],[-84.2715,33.9559],[-84.2753,33.9541],[-84.2771,33.9576],[-84.2725,33.9588]]]}},{"type":"Feature","properties":{"id":"13143","name":"Haralson Co."},"geometry":{"type":"Polygon","coordinates":[[[-85.0367,33.9043],[-85.0379,33.8119],[-85.049,33.8123],[-85.0499,33.7555],[-85.0509,33.7146],[-85.0665,33.715],[-85.0665,33.7107],[-85.1148,33.6914],[-85.1297,33.6914],[-85.1294,33.6998],[-85.139,33.7],[-85.2356,33.6699],[-85.2563,33.6633],[-85.2656,33.6598],[-85.2897,33.6521],[-85.3382,33.6531],[-85.3574,33.7501],[-85.3618,33.774],[-85.3774,33.856],[-85.3865,33.9017],[-85.2128,33.8992],[-85.2128,33.9063],[-85.0503,33.9045],[-85.0367,33.9043]]]}},{"type":"Feature","properties":{"id":"13045","name":"Carroll Co."},"geometry":{"type":"Polygon","coordinates":[[[-85.2897,33.6521],[-85.2656,33.6598],[-85.2563,33.6633],[-85.2356,33.6699],[-85.139,33.7],[-85.1294,33.6998],[-85.1297,33.6914],[-85.1148,33.6914],[-85.0665,33.7107],[-85.0665,33.715],[-85.0509,33.7146],[-85.0499,33.7555],[-85.049,33.8123],[-85.0379,33.8119],[-85.0044,33.8056],[-84.9956,33.8046],[-84.9859,33.8023],[-84.9712,33.7996],[-84.9186,33.7863],[-84.9017,33.7807],[-84.9014,33.7615],[-84.902,33.749],[-84.9023,33.7306],[-84.9109,33.731],[-84.911,33.7221],[-84.9016,33.722],[-84.9015,33.7142],[-84.9027,33.65],[-84.9035,33.6399],[-84.9049,33.6052],[-84.9058,33.5734],[-84.83,33.5738],[-84.83,33.5766],[-84.8243,33.5766],[-84.8243,33.5736],[-84.8089,33.5741],[-84.8118,33.5705],[-84.8177,33.5679],[-84.8236,33.5642],[-84.8261,33.5606],[-84.8273,33.5544],[-84.8321,33.5487],[-84.8323,33.5453],[-84.8249,33.5386],[-84.8221,33.5322],[-84.8152,33.5247],[-84.8151,33.5212],[-84.8181,33.5184],[-84.8276,33.5133],[-84.8347,33.5132],[-84.841,33.5148],[-84.8493,33.5132],[-84.8507,33.5115],[-84.8522,33.5018],[-84.8571,33.4945],[-84.8631,33.4924],[-84.8687,33.4917],[-84.8741,33.4925],[-84.8775,33.4917],[-84.8861,33.4839],[-84.8948,33.4783],[-84.9025,33.4758],[-84.9073,33.4714],[-84.909,33.4671],[-84.9083,33.4618],[-84.9093,33.4595],[-84.9158,33.4579],[-84.9192,33.4557],[-84.9205,33.4523],[-84.9192,33.4485],[-84.9213,33.4453],[-84.9325,33.4417],[-84.936,33.4372],[-84.9432,33.4365],[-84.9501,33.4408],[-84.9545,33.4393],[-84.9661,33.4488],[-84.9729,33.4518],[-84.9763,33.455],[-84.9819,33.4573],[-84.9862,33.4565],[-84.9891,33.4521],[-84.9852,33.4458],[-84.9865,33.4413],[-84.9972,33.435],[-85.0112,33.431],[-85.0154,33.4255],[-85.0807,33.4264],[-85.1161,33.4268],[-85.1975,33.4272],[-85.2663,33.428],[-85.2939,33.4281],[-85.3044,33.4829],[-85.314,33.5298],[-85.315,33.5359],[-85.3382,33.6531],[-85.2897,33.6521]]]}},{"type":"Feature","properties":{"id":"13015","name":"Bartow Co."},"geometry":{"type":"Polygon","coordinates":[[[-84.654,34.3552],[-84.6443,34.3552],[-84.6447,34.3468],[-84.654,34.3469],[-84.6532,34.2501],[-84.6538,34.2272],[-84.6577,34.2027],[-84.6576,34.1924],[-84.6579,34.1425],[-84.6592,34.0782],[-84.7378,34.0794],[-84.7378,34.0823],[-84.8591,34.0826],[-84.8968,34.0825],[-84.8969,34.0787],[-84.9099,34.0786],[-84.91,34.0753],[-84.9144,34.0753],[-84.9143,34.0826],[-84.9227,34.0825],[-84.9299,34.0826],[-84.93,34.0782],[-84.939,34.0784],[-84.9391,34.0826],[-84.999,34.0829],[-85.047,34.0829],[-85.0447,34.2136],[-85.0238,34.2134],[-85.0239,34.2508],[-85.0156,34.2511],[-85.0155,34.2582],[-85.0239,34.2583],[-85.0232,34.3053],[-85.0233,34.326],[-85.0231,34.3471],[-85.0052,34.3471],[-85.0058,34.3924],[-84.9909,34.3925],[-84.9888,34.3846],[-84.9801,34.3848],[-84.9539,34.3842],[-84.9557,34.3918],[-84.9473,34.3915],[-84.9472,34.3989],[-84.8962,34.3986],[-84.8963,34.3963],[-84.8749,34.3968],[-84.8629,34.3966],[-84.8372,34.3977],[-84.7341,34.3965],[-84.7339,34.413],[-84.7278,34.4131],[-84.6532,34.4126],[-84.654,34.3552]]]}},{"type":"Feature","properties":{"id":"13297","name":"Walton Co."},"geometry":{"type":"Polygon","coordinates":[[[-83.7991,33.9281],[-83.7867,33.9194],[-83.7849,33.9171],[-83.7798,33.9155],[-83.7763,33.9108],[-83.7729,33.9119],[-83.7709,33.9088],[-83.7646,33.9072],[-83.763,33.9016],[-83.7638,33.8967],[-83.7603,33.8958],[-83.7538,33.8982],[-83.7501,33.8965],[-83.7459,33.8987],[-83.744,33.9022],[-83.7442,33.9057],[-83.7395,33.8997],[-83.7331,33.899],[-83.7292,33.9006],[-83.7274,33.8982],[-83.7244,33.901],[-83.7219,33.9001],[-83.7096,33.9051],[-83.7018,33.9056],[-83.6957,33.9116],[-83.6869,33.9111],[-83.6764,33.9176],[-83.6653,33.9158],[-83.6647,33.9124],[-83.6603,33.9122],[-83.6577,33.9086],[-83.6554,33.9092],[-83.6489,33.908],[-83.647,33.9062],[-83.6389,33.9083],[-83.6371,33.9042],[-83.6334,33.9011],[-83.6313,33.897],[-83.6317,33.8913],[-83.6303,33.8866],[-83.6264,33.8849],[-83.6192,33.8855],[-83.6184,33.8838],[-83.6115,33.8813],[-83.6047,33.8816],[-83.602,33.8834],[-83.6004,33.8815],[-83.5963,33.8828],[-83.5905,33.8815],[-83.5836,33.8836],[-83.5823,33.8818],[-83.5862,33.877],[-83.5873,33.8676],[-83.5906,33.8634],[-83.5849,33.8644],[-83.5816,33.8599],[-83.5749,33.8544],[-83.5746,33.849],[-83.5716,33.8466],[-83.5663,33.847],[-83.5618,33.8425],[-83.5536,33.8388],[-83.547,33.8336],[-83.5328,33.8256],[-83.5312,33.8232],[-83.5332,33.8209],[-83.5292,33.8212],[-83.5219,33.8182],[-83.5201,33.8197],[-83.5176,33.8166],[-83.5157,33.8177],[-83.5102,33.8154],[-83.5096,33.8176],[-83.5059,33.8178],[-83.5113,33.8113],[-83.5124,33.8079],[-83.5214,33.7988],[-83.5264,33.7961],[-83.5347,33.7815],[-83.551,33.7606],[-83.6001,33.6989],[-83.6188,33.6749],[-83.6578,33.6261],[-83.6809,33.5969],[-83.6994,33.6094],[-83.6916,33.617],[-83.7344,33.6456],[-83.7583,33.6464],[-83.8513,33.7047],[-83.9148,33.7442],[-83.982,33.7861],[-83.9667,33.7987],[-83.9022,33.8476],[-83.8551,33.8853],[-83.7991,33.9298],[-83.7991,33.9281]]]}},{"type":"Feature","properties":{"id":"13187","name":"Lumpkin Co."},"geometry":{"type":"Polygon","coordinates":[[[-84.158,34.6482],[-84.1518,34.6513],[-84.149,34.6469],[-84.1463,34.6466],[-84.1379,34.653],[-84.1365,34.6562],[-84.1381,34.6598],[-84.1294,34.6638],[-84.1249,34.6644],[-84.1189,34.6609],[-84.1179,34.6589],[-84.0987,34.6532],[-84.0912,34.653],[-84.0889,34.6514],[-84.0869,34.6529],[-84.0801,34.6537],[-84.0799,34.6567],[-84.0712,34.6568],[-84.0698,34.6532],[-84.0662,34.6506],[-84.0676,34.648],[-84.0626,34.6491],[-84.055,34.6429],[-84.0514,34.6439],[-84.0494,34.6415],[-84.0454,34.6406],[-84.0424,34.6423],[-84.0363,34.6421],[-84.0385,34.6517],[-84.0308,34.6522],[-84.0283,34.6569],[-84.0292,34.661],[-84.0265,34.663],[-84.0269,34.6673],[-84.0241,34.6708],[-84.0186,34.6702],[-84.016,34.673],[-84.0088,34.6733],[-84.0007,34.6777],[-83.9948,34.6782],[-83.9953,34.685],[-83.9922,34.6888],[-83.9905,34.6944],[-83.9921,34.6959],[-83.9864,34.7002],[-83.987,34.7045],[-83.9895,34.7076],[-83.9876,34.7086],[-83.9849,34.714],[-83.9826,34.7159],[-83.9772,34.7165],[-83.9729,34.7192],[-83.9716,34.7233],[-83.9669,34.7235],[-83.9634,34.728],[-83.9538,34.7317],[-83.9531,34.7334],[-83.9472,34.7381],[-83.939,34.7409],[-83.936,34.7383],[-83.9254,34.7348],[-83.9215,34.7375],[-83.9184,34.7349],[-83.9101,34.7345],[-83.9063,34.7314],[-83.9001,34.7322],[-83.8966,34.7301],[-83.8931,34.7258],[-83.8858,34.7268],[-83.8774,34.7233],[-83.8698,34.7274],[-83.8636,34.7263],[-83.8623,34.7238],[-83.8565,34.7222],[-83.8591,34.7159],[-83.86,34.7077],[-83.8582,34.7046],[-83.8624,34.7007],[-83.8604,34.697],[-83.8648,34.6907],[-83.8636,34.6886],[-83.8725,34.6831],[-83.8747,34.6732],[-83.8709,34.6686],[-83.8712,34.6649],[-83.8746,34.664],[-83.8764,34.6604],[-83.8718,34.6575],[-83.8724,34.6521],[-83.8754,34.6428],[-83.872,34.6424],[-83.8711,34.6399],[-83.8756,34.6367],[-83.8737,34.6308],[-83.8773,34.6296],[-83.874,34.6235],[-83.8762,34.6205],[-83.8727,34.619],[-83.8728,34.6156],[-83.8645,34.6156],[-83.8645,34.6045],[-83.8668,34.6028],[-83.8645,34.6005],[-83.8643,34.5646],[-83.8644,34.5506],[-83.8537,34.5507],[-83.8537,34.5415],[-83.8438,34.5414],[-83.8438,34.5324],[-83.8328,34.5323],[-83.8329,34.5235],[-83.8363,34.5235],[-83.8393,34.5186],[-83.8376,34.5153],[-83.8431,34.5154],[-83.8433,34.497],[-83.8739,34.4773],[-83.8777,34.4756],[-83.8876,34.4688],[-83.8876,34.4599],[-83.9099,34.4598],[-83.9098,34.4692],[-83.9319,34.4693],[-83.9319,34.4605],[-83.9207,34.4601],[-83.9207,34.4511],[-83.9313,34.4512],[-83.9564,34.4373],[-83.9635,34.4362],[-83.966,34.4341],[-83.9751,34.4327],[-83.9707,34.424],[-83.9759,34.4187],[-83.9806,34.4184],[-84.0021,34.4258],[-84.0287,34.4365],[-84.056,34.4465],[-84.0759,34.4547],[-84.102,34.4645],[-84.1067,34.4659],[-84.1026,34.4662],[-84.1011,34.4713],[-84.106,34.4725],[-84.1154,34.4733],[-84.144,34.4989],[-84.1533,34.508],[-84.1677,34.5208],[-84.191,34.5392],[-84.1888,34.5969],[-84.1872,34.5993],[-84.1886,34.6027],[-84.158,34.6482]]]}},{"type":"Feature","properties":{"id":"13097","name":"Douglas Co."},"geometry":{"type":"Polygon","coordinates":[[[-84.8792,33.7748],[-84.8327,33.776],[-84.8327,33.7785],[-84.7999,33.7799],[-84.8003,33.7823],[-84.7638,33.7873],[-84.7547,33.7871],[-84.7413,33.7886],[-84.7241,33.7886],[-84.7241,33.8064],[-84.6341,33.8052],[-84.6227,33.8048],[-84.6163,33.7949],[-84.5935,33.7662],[-84.5778,33.7456],[-84.5779,33.7437],[-84.5826,33.7374],[-84.5868,33.7291],[-84.5943,33.729],[-84.6008,33.725],[-84.6025,33.7197],[-84.608,33.7129],[-84.6157,33.7096],[-84.6212,33.7045],[-84.6321,33.7003],[-84.6301,33.6931],[-84.6305,33.6903],[-84.6408,33.6838],[-84.649,33.6859],[-84.6527,33.6836],[-84.6537,33.6752],[-84.6519,33.6679],[-84.6564,33.6594],[-84.6614,33.657],[-84.6739,33.6565],[-84.6858,33.6511],[-84.7105,33.6464],[-84.7167,33.6418],[-84.7252,33.6392],[-84.73,33.6365],[-84.7315,33.6313],[-84.7357,33.6246],[-84.7396,33.6233],[-84.7426,33.6244],[-84.7488,33.6318],[-84.7527,33.6302],[-84.7529,33.6279],[-84.7631,33.6142],[-84.7756,33.6097],[-84.7885,33.5993],[-84.7965,33.5956],[-84.8012,33.59],[-84.8057,33.5864],[-84.8074,33.5831],[-84.8089,33.5741],[-84.8243,33.5736],[-84.8243,33.5766],[-84.83,33.5766],[-84.83,33.5738],[-84.9058,33.5734],[-84.9049,33.6052],[-84.9035,33.6399],[-84.9027,33.65],[-84.9015,33.7142],[-84.9016,33.722],[-84.911,33.7221],[-84.9109,33.731],[-84.9023,33.7306],[-84.902,33.749],[-84.9014,33.7615],[-84.9017,33.7807],[-84.8792,33.7748]]]}},{"type":"Feature","properties":{"id":"13227","name":"Pickens Co."},"geometry":{"type":"Polygon","coordinates":[[[-84.3457,34.5484],[-84.3401,34.5309],[-84.3197,34.4679],[-84.2569,34.4673],[-84.2576,34.381],[-84.371,34.3808],[-84.3921,34.3807],[-84.3922,34.3733],[-84.4008,34.3733],[-84.4007,34.3805],[-84.4245,34.3806],[-84.4245,34.388],[-84.4421,34.3882],[-84.4423,34.3804],[-84.4757,34.3806],[-84.5826,34.3815],[-84.5828,34.4122],[-84.6532,34.4126],[-84.6537,34.4558],[-84.6444,34.4558],[-84.6445,34.463],[-84.6533,34.4632],[-84.6542,34.5116],[-84.6544,34.5489],[-84.6099,34.5495],[-84.5739,34.5495],[-84.5737,34.5507],[-84.5214,34.5505],[-84.5204,34.5567],[-84.5117,34.5567],[-84.5115,34.5636],[-84.5026,34.5637],[-84.5028,34.5505],[-84.4767,34.5501],[-84.4765,34.5567],[-84.4857,34.5567],[-84.4858,34.5633],[-84.468,34.5635],[-84.4679,34.55],[-84.4324,34.5494],[-84.429,34.5537],[-84.4287,34.5575],[-84.4244,34.5574],[-84.4246,34.5493],[-84.3803,34.5489],[-84.3714,34.5485],[-84.3715,34.5629],[-84.3456,34.5627],[-84.3457,34.5484]]]}},{"type":"Feature","properties":{"id":"13159","name":"Jasper Co."},"geometry":{"type":"Polygon","coordinates":[[[-83.8599,33.3688],[-83.8539,33.3672],[-83.8569,33.3717],[-83.8472,33.3747],[-83.8455,33.381],[-83.8422,33.3838],[-83.8378,33.39],[-83.831,33.3935],[-83.8331,33.3959],[-83.8411,33.4006],[-83.8437,33.4049],[-83.837,33.405],[-83.8369,33.4079],[-83.845,33.4078],[-83.8452,33.4147],[-83.8283,33.4151],[-83.8308,33.4192],[-83.8286,33.4227],[-83.8283,33.4263],[-83.8235,33.4334],[-83.8249,33.4373],[-83.8163,33.4367],[-83.8122,33.4347],[-83.8084,33.4363],[-83.8074,33.4408],[-83.7919,33.4464],[-83.7713,33.4525],[-83.7367,33.4809],[-83.7047,33.4885],[-83.7123,33.4951],[-83.7052,33.5008],[-83.7011,33.4983],[-83.6889,33.4858],[-83.6876,33.4831],[-83.6784,33.4836],[-83.6746,33.4872],[-83.683,33.4944],[-83.6846,33.5021],[-83.6881,33.5106],[-83.6822,33.5262],[-83.6189,33.486],[-83.5337,33.4345],[-83.5339,33.4276],[-83.5378,33.3938],[-83.5367,33.3741],[-83.5393,33.3533],[-83.5399,33.3122],[-83.5417,33.2855],[-83.5458,33.1723],[-83.5462,33.1719],[-83.6406,33.1586],[-83.816,33.1318],[-83.8173,33.1415],[-83.8169,33.1448],[-83.8141,33.1485],[-83.8229,33.1579],[-83.8243,33.1623],[-83.8237,33.171],[-83.8246,33.1756],[-83.8223,33.1802],[-83.8169,33.1865],[-83.8119,33.19],[-83.8079,33.1914],[-83.8078,33.1938],[-83.8132,33.1929],[-83.8169,33.1959],[-83.8119,33.1983],[-83.8147,33.2002],[-83.8204,33.2013],[-83.8239,33.2047],[-83.8246,33.2091],[-83.8263,33.2105],[-83.8343,33.2101],[-83.833,33.2132],[-83.8237,33.2218],[-83.8218,33.2287],[-83.8141,33.2421],[-83.8134,33.2486],[-83.8202,33.2532],[-83.8235,33.2578],[-83.8246,33.2636],[-83.8283,33.2661],[-83.8323,33.2723],[-83.8328,33.2824],[-83.8288,33.2863],[-83.8274,33.2925],[-83.8305,33.3018],[-83.8375,33.3077],[-83.837,33.3116],[-83.8428,33.3184],[-83.8396,33.3245],[-83.8404,33.3289],[-83.8469,33.3331],[-83.8552,33.3356],[-83.8583,33.3392],[-83.8634,33.3423],[-83.8605,33.3489],[-83.8571,33.3538],[-83.862,33.3601],[-83.8613,33.3654],[-83.8631,33.3683],[-83.8599,33.3688]]]}},{"type":"Feature","properties":{"id":"13255","name":"Spalding Co."},"geometry":{"type":"Polygon","coordinates":[[[-84.433,33.2565],[-84.4334,33.2613],[-84.4316,33.263],[-84.4304,33.2685],[-84.4317,33.2722],[-84.4307,33.2755],[-84.426,33.2797],[-84.4229,33.2865],[-84.4191,33.2873],[-84.4202,33.2919],[-84.4191,33.2935],[-84.4132,33.2925],[-84.4127,33.2946],[-84.4085,33.2942],[-84.4084,33.2984],[-84.4024,33.3055],[-84.3988,33.3044],[-84.3972,33.3015],[-84.3954,33.306],[-84.393,33.3079],[-84.3933,33.3169],[-84.3892,33.3154],[-84.3868,33.3163],[-84.3842,33.32],[-84.3855,33.3223],[-84.3849,33.3274],[-84.3905,33.3343],[-84.3885,33.336],[-84.3888,33.3393],[-84.3862,33.3411],[-84.3836,33.3389],[-84.3828,33.3431],[-84.3881,33.3525],[-84.3544,33.3525],[-84.2509,33.3524],[-84.247,33.3516],[-84.2473,33.3358],[-84.177,33.336],[-84.1506,33.3356],[-84.1508,33.313],[-84.1453,33.3166],[-84.1464,33.3143],[-84.143,33.3147],[-84.1399,33.313],[-84.1386,33.3088],[-84.1347,33.3076],[-84.1344,33.3037],[-84.1277,33.3022],[-84.124,33.3001],[-84.1185,33.3024],[-84.1139,33.2978],[-84.1088,33.3013],[-84.1026,33.2982],[-84.0971,33.2938],[-84.0972,33.2921],[-84.093,33.2899],[-84.0914,33.2865],[-84.089,33.2856],[-84.1226,33.2527],[-84.1227,33.2488],[-84.1181,33.2487],[-84.1181,33.2444],[-84.123,33.2445],[-84.1238,33.2028],[-84.124,33.1786],[-84.1439,33.1789],[-84.2243,33.1794],[-84.2242,33.1839],[-84.2275,33.1889],[-84.2482,33.189],[-84.285,33.1891],[-84.3737,33.1896],[-84.3731,33.2004],[-84.3936,33.2003],[-84.3935,33.2083],[-84.4513,33.2089],[-84.4553,33.2026],[-84.4588,33.2011],[-84.4624,33.2019],[-84.4667,33.1993],[-84.4687,33.2012],[-84.4735,33.2019],[-84.4755,33.2006],[-84.4782,33.1914],[-84.4813,33.1885],[-84.4873,33.1868],[-84.4931,33.1863],[-84.4968,33.1839],[-84.495,33.1874],[-84.4968,33.192],[-84.4938,33.1965],[-84.4905,33.1976],[-84.4929,33.2],[-84.4984,33.2016],[-84.4961,33.2072],[-84.4995,33.2122],[-84.5024,33.2211],[-84.5064,33.2261],[-84.5038,33.2273],[-84.5003,33.2333],[-84.5021,33.2338],[-84.5041,33.2391],[-84.5072,33.2379],[-84.5089,33.2452],[-84.5066,33.2483],[-84.5016,33.2515],[-84.4982,33.25],[-84.4975,33.2574],[-84.433,33.2565]]]}},{"type":"Feature","properties":{"id":"13247","name":"Rockdale Co."},"geometry":{"type":"Polygon","coordinates":[[[-84.1702,33.6459],[-84.1731,33.641],[-84.17,33.6393],[-84.1608,33.638],[-84.1586,33.6445],[-84.1545,33.6457],[-84.1514,33.639],[-84.1439,33.6363],[-84.1383,33.6377],[-84.1412,33.6321],[-84.1389,33.6308],[-84.1292,33.6314],[-84.128,33.6268],[-84.1238,33.6256],[-84.1235,33.6237],[-84.1191,33.6223],[-84.1154,33.6186],[-84.1158,33.6147],[-84.0897,33.6638],[-84.0781,33.6853],[-84.0716,33.6982],[-84.0566,33.7266],[-84.0412,33.7395],[-84.0237,33.7528],[-83.9865,33.7827],[-83.982,33.7861],[-83.9148,33.7442],[-83.9152,33.7392],[-83.9175,33.7368],[-83.9161,33.7312],[-83.9183,33.7274],[-83.918,33.7211],[-83.9154,33.7182],[-83.9167,33.7168],[-83.9132,33.7127],[-83.9174,33.7084],[-83.9228,33.7111],[-83.9252,33.7102],[-83.9255,33.7062],[-83.9239,33.7039],[-83.9205,33.6919],[-83.9181,33.6895],[-83.9205,33.6855],[-83.9226,33.685],[-83.9232,33.6736],[-83.926,33.6642],[-83.9297,33.6593],[-83.9315,33.6509],[-83.9515,33.6289],[-84.0105,33.5636],[-84.0034,33.5635],[-84.0033,33.5549],[-84.0107,33.5549],[-84.0107,33.5633],[-84.0445,33.5258],[-84.0447,33.5285],[-84.0475,33.5304],[-84.054,33.5261],[-84.0562,33.5267],[-84.0558,33.5305],[-84.0511,33.5301],[-84.0513,33.5361],[-84.0486,33.5388],[-84.0523,33.5426],[-84.0576,33.54],[-84.0596,33.5406],[-84.0665,33.5494],[-84.0701,33.547],[-84.073,33.5483],[-84.0746,33.5514],[-84.077,33.5508],[-84.0806,33.5545],[-84.0854,33.5559],[-84.0908,33.5557],[-84.1085,33.5668],[-84.1151,33.5662],[-84.1173,33.5629],[-84.1248,33.5612],[-84.131,33.5646],[-84.1338,33.57],[-84.1398,33.5758],[-84.1401,33.5802],[-84.1444,33.583],[-84.1467,33.5865],[-84.1497,33.5868],[-84.154,33.5975],[-84.1612,33.6075],[-84.1648,33.6109],[-84.1722,33.6208],[-84.1721,33.6219],[-84.1816,33.6292],[-84.1795,33.6327],[-84.1805,33.6366],[-84.1841,33.643],[-84.1841,33.6462],[-84.1702,33.6459]]]}},{"type":"Feature","properties":{"id":"13117","name":"Forsyth Co."},"geometry":{"type":"Polygon","coordinates":[[[-84.2587,34.2129],[-84.2587,34.2624],[-84.2584,34.3107],[-84.2581,34.3352],[-84.0665,34.3344],[-84.0185,34.3343],[-83.9571,34.334],[-83.9523,34.3309],[-83.9451,34.3294],[-83.9461,34.3239],[-83.951,34.3228],[-83.953,34.316],[-83.9444,34.3058],[-83.9428,34.3012],[-83.9468,34.2976],[-83.9417,34.2921],[-83.9398,34.2923],[-83.9403,34.2975],[-83.937,34.2994],[-83.9314,34.2978],[-83.9363,34.2947],[-83.9342,34.286],[-83.9311,34.2863],[-83.9322,34.2901],[-83.9285,34.2899],[-83.9256,34.2864],[-83.9273,34.2794],[-83.9324,34.2784],[-83.9378,34.2757],[-83.9426,34.2748],[-83.9533,34.269],[-83.9541,34.2675],[-83.9505,34.2625],[-83.9536,34.2541],[-83.9511,34.2501],[-83.9489,34.2431],[-83.9498,34.2398],[-83.9544,34.2375],[-83.961,34.2327],[-83.9712,34.2286],[-83.9724,34.226],[-83.9703,34.2227],[-83.9656,34.2222],[-83.9645,34.2203],[-83.9667,34.2161],[-83.9722,34.2142],[-83.9778,34.2139],[-83.98,34.2112],[-83.9849,34.2001],[-83.9899,34.1951],[-83.9957,34.1938],[-84.0032,34.1957],[-84.0059,34.193],[-84.0137,34.1912],[-84.0238,34.1949],[-84.0307,34.1953],[-84.0413,34.1936],[-84.0507,34.1901],[-84.0539,34.1857],[-84.0591,34.1816],[-84.0595,34.1755],[-84.0622,34.1685],[-84.0643,34.1671],[-84.0751,34.1633],[-84.0759,34.1586],[-84.0796,34.1556],[-84.0854,34.1488],[-84.0865,34.1463],[-84.0851,34.1432],[-84.0908,34.1354],[-84.0948,34.1322],[-84.0933,34.1282],[-84.0943,34.1246],[-84.0975,34.1229],[-84.0977,34.1195],[-84.1014,34.1168],[-84.1019,34.1046],[-84.1099,34.0984],[-84.1099,34.0925],[-84.1138,34.0852],[-84.1134,34.0763],[-84.1168,34.0708],[-84.1178,34.0653],[-84.1118,34.0631],[-84.1081,34.0565],[-84.1039,34.0537],[-84.1008,34.0534],[-84.0977,34.0507],[-84.1153,34.051],[-84.1228,34.0525],[-84.1317,34.0567],[-84.1436,34.0554],[-84.1592,34.0627],[-84.1627,34.0664],[-84.177,34.0696],[-84.1789,34.0711],[-84.1843,34.079],[-84.1856,34.0826],[-84.1907,34.0865],[-84.1998,34.09],[-84.2058,34.0906],[-84.2138,34.0991],[-84.2186,34.1003],[-84.2226,34.0999],[-84.2293,34.0966],[-84.2336,34.0985],[-84.2354,34.1013],[-84.2413,34.1015],[-84.2493,34.1044],[-84.2541,34.1043],[-84.2549,34.1075],[-84.2589,34.1095],[-84.2589,34.1549],[-84.259,34.1859],[-84.2587,34.2129]]]}},{"type":"Feature","properties":{"id":"13199","name":"Meriwether Co."},"geometry":{"type":"Polygon","coordinates":[[[-84.8523,33.191],[-84.8524,33.2236],[-84.7478,33.2232],[-84.7033,33.2228],[-84.7032,33.2312],[-84.694,33.2313],[-84.694,33.223],[-84.6746,33.2227],[-84.6745,33.2265],[-84.6695,33.2264],[-84.6693,33.2308],[-84.6546,33.2307],[-84.6546,33.2243],[-84.6527,33.2225],[-84.6357,33.2224],[-84.566,33.2215],[-84.5024,33.2211],[-84.4995,33.2122],[-84.4961,33.2072],[-84.4984,33.2016],[-84.4929,33.2],[-84.4905,33.1976],[-84.4938,33.1965],[-84.4968,33.192],[-84.495,33.1874],[-84.4968,33.1839],[-84.5076,33.1747],[-84.5056,33.1681],[-84.5101,33.1621],[-84.5074,33.1545],[-84.51,33.1541],[-84.5125,33.1498],[-84.5154,33.1479],[-84.5149,33.144],[-84.5177,33.1416],[-84.5156,33.1399],[-84.5127,33.1312],[-84.5108,33.131],[-84.5109,33.1263],[-84.5137,33.1261],[-84.5181,33.1225],[-84.5198,33.1141],[-84.5178,33.1105],[-84.5187,33.1014],[-84.5214,33.102],[-84.5286,33.0984],[-84.5278,33.0919],[-84.5225,33.0946],[-84.5193,33.0903],[-84.5115,33.086],[-84.5108,33.0841],[-84.513,33.0784],[-84.5174,33.079],[-84.5174,33.0817],[-84.521,33.0812],[-84.5251,33.0785],[-84.5272,33.0701],[-84.5236,33.0651],[-84.5227,33.0613],[-84.5235,33.0539],[-84.5253,33.0524],[-84.5276,33.0442],[-84.5291,33.0427],[-84.5352,33.0422],[-84.537,33.0359],[-84.5332,33.0282],[-84.5347,33.0256],[-84.5339,33.0205],[-84.538,33.0114],[-84.5329,33.0048],[-84.527,33.0001],[-84.5308,32.996],[-84.5312,32.9937],[-84.5286,32.9896],[-84.5304,32.9859],[-84.5294,32.9834],[-84.5252,32.9811],[-84.5216,32.9761],[-84.522,32.9734],[-84.527,32.9705],[-84.5315,32.9701],[-84.5344,32.9642],[-84.532,32.9607],[-84.5244,32.9605],[-84.5193,32.9524],[-84.5188,32.9483],[-84.5229,32.9379],[-84.5231,32.9321],[-84.528,32.9279],[-84.5277,32.9254],[-84.5244,32.9209],[-84.5244,32.917],[-84.5266,32.9135],[-84.5233,32.9131],[-84.5162,32.9149],[-84.5116,32.9123],[-84.5104,32.9071],[-84.5082,32.9034],[-84.5097,32.8845],[-84.5069,32.8818],[-84.5071,32.8775],[-84.514,32.8736],[-84.5707,32.8452],[-84.6204,32.845],[-84.6249,32.8447],[-84.7005,32.8446],[-84.7369,32.8579],[-84.7515,32.8627],[-84.7513,32.8692],[-84.7678,32.8689],[-84.7679,32.8677],[-84.8078,32.8678],[-84.8476,32.8684],[-84.8477,32.8724],[-84.8618,32.8725],[-84.8615,32.9608],[-84.8645,32.9608],[-84.8642,32.973],[-84.8641,32.9956],[-84.8634,33.0358],[-84.8636,33.0768],[-84.8627,33.1253],[-84.8624,33.1912],[-84.8523,33.191]]]}},{"type":"Feature","properties":{"id":"13231","name":"Pike Co."},"geometry":{"type":"Polygon","coordinates":[[[-84.4931,33.1863],[-84.4873,33.1868],[-84.4813,33.1885],[-84.4782,33.1914],[-84.4755,33.2006],[-84.4735,33.2019],[-84.4687,33.2012],[-84.4667,33.1993],[-84.4624,33.2019],[-84.4588,33.2011],[-84.4553,33.2026],[-84.4513,33.2089],[-84.3935,33.2083],[-84.3936,33.2003],[-84.3731,33.2004],[-84.3737,33.1896],[-84.285,33.1891],[-84.2482,33.189],[-84.2478,33.1422],[-84.248,33.133],[-84.2484,33.0786],[-84.2482,33.0658],[-84.2487,33.0393],[-84.2589,33.0397],[-84.2591,33.0315],[-84.2692,33.0314],[-84.2701,32.991],[-84.2891,32.9913],[-84.2923,32.996],[-84.2929,32.9995],[-84.2987,32.9997],[-84.2987,32.9915],[-84.3195,32.9918],[-84.4016,32.9926],[-84.4897,32.9937],[-84.4901,32.9907],[-84.4947,32.9884],[-84.4951,32.9851],[-84.4985,32.9827],[-84.5019,32.983],[-84.4993,32.98],[-84.5055,32.9729],[-84.5138,32.9706],[-84.5242,32.9687],[-84.527,32.9705],[-84.522,32.9734],[-84.5216,32.9761],[-84.5252,32.9811],[-84.5294,32.9834],[-84.5304,32.9859],[-84.5286,32.9896],[-84.5312,32.9937],[-84.5308,32.996],[-84.527,33.0001],[-84.5329,33.0048],[-84.538,33.0114],[-84.5339,33.0205],[-84.5347,33.0256],[-84.5332,33.0282],[-84.537,33.0359],[-84.5352,33.0422],[-84.5291,33.0427],[-84.5276,33.0442],[-84.5253,33.0524],[-84.5235,33.0539],[-84.5227,33.0613],[-84.5236,33.0651],[-84.5272,33.0701],[-84.5251,33.0785],[-84.521,33.0812],[-84.5174,33.0817],[-84.5174,33.079],[-84.513,33.0784],[-84.5108,33.0841],[-84.5115,33.086],[-84.5193,33.0903],[-84.5225,33.0946],[-84.5278,33.0919],[-84.5286,33.0984],[-84.5214,33.102],[-84.5187,33.1014],[-84.5178,33.1105],[-84.5198,33.1141],[-84.5181,33.1225],[-84.5137,33.1261],[-84.5109,33.1263],[-84.5108,33.131],[-84.5127,33.1312],[-84.5156,33.1399],[-84.5177,33.1416],[-84.5149,33.144],[-84.5154,33.1479],[-84.5125,33.1498],[-84.51,33.1541],[-84.5074,33.1545],[-84.5101,33.1621],[-84.5056,33.1681],[-84.5076,33.1747],[-84.4968,33.1839],[-84.4931,33.1863]],[[-84.2987,33.0041],[-84.3027,33.0042],[-84.3027,32.9997],[-84.2987,32.9997],[-84.2987,33.0041]]]}},{"type":"Feature","properties":{"id":"13013","name":"Barrow Co."},"geometry":{"type":"Polygon","coordinates":[[[-83.816,34.1269],[-83.8165,34.1225],[-83.8122,34.1205],[-83.813,34.1173],[-83.8111,34.1155],[-83.8152,34.1138],[-83.8108,34.1124],[-83.7998,34.1028],[-83.7922,34.1003],[-83.7899,34.0935],[-83.791,34.0872],[-83.7863,34.084],[-83.778,34.0798],[-83.7738,34.0742],[-83.7697,34.073],[-83.7675,34.0664],[-83.7633,34.0649],[-83.7592,34.0666],[-83.7514,34.0642],[-83.7425,34.0652],[-83.7434,34.068],[-83.7406,34.0695],[-83.7386,34.0667],[-83.7337,34.0673],[-83.7343,34.0641],[-83.7318,34.0601],[-83.7279,34.0607],[-83.7238,34.0634],[-83.7216,34.0626],[-83.7202,34.0591],[-83.7208,34.0555],[-83.7184,34.0535],[-83.7135,34.0564],[-83.7123,34.0544],[-83.7144,34.05],[-83.7096,34.0452],[-83.7044,34.0463],[-83.7025,34.0487],[-83.7009,34.0543],[-83.6981,34.0526],[-83.6946,34.0563],[-83.6918,34.0516],[-83.6855,34.0534],[-83.6867,34.0485],[-83.6853,34.047],[-83.6795,34.0474],[-83.6796,34.0514],[-83.6762,34.0536],[-83.6735,34.053],[-83.6682,34.0481],[-83.6633,34.0488],[-83.664,34.0514],[-83.6565,34.0528],[-83.6551,34.0475],[-83.6478,34.046],[-83.6466,34.05],[-83.6386,34.0483],[-83.6361,34.046],[-83.6309,34.0462],[-83.6303,34.0448],[-83.6251,34.0451],[-83.6217,34.0468],[-83.6146,34.0472],[-83.6147,34.0447],[-83.6117,34.0444],[-83.6117,34.0413],[-83.6091,34.0382],[-83.6048,34.0387],[-83.6005,34.0353],[-83.5978,34.0366],[-83.5902,34.0373],[-83.5844,34.041],[-83.5734,34.0391],[-83.5737,34.0366],[-83.5711,34.0314],[-83.5633,34.0319],[-83.5511,34.0031],[-83.5498,33.9977],[-83.5374,33.9659],[-83.5755,33.9454],[-83.647,33.9062],[-83.6489,33.908],[-83.6554,33.9092],[-83.6577,33.9086],[-83.6603,33.9122],[-83.6647,33.9124],[-83.6653,33.9158],[-83.6764,33.9176],[-83.6869,33.9111],[-83.6957,33.9116],[-83.7018,33.9056],[-83.7096,33.9051],[-83.7219,33.9001],[-83.7244,33.901],[-83.7274,33.8982],[-83.7292,33.9006],[-83.7331,33.899],[-83.7395,33.8997],[-83.7442,33.9057],[-83.744,33.9022],[-83.7459,33.8987],[-83.7501,33.8965],[-83.7538,33.8982],[-83.7603,33.8958],[-83.7638,33.8967],[-83.763,33.9016],[-83.7646,33.9072],[-83.7709,33.9088],[-83.7729,33.9119],[-83.7763,33.9108],[-83.7798,33.9155],[-83.7849,33.9171],[-83.7867,33.9194],[-83.7991,33.9281],[-83.7991,33.9298],[-83.8033,33.9332],[-83.8059,33.9375],[-83.8044,33.9407],[-83.8083,33.946],[-83.8134,33.9495],[-83.8137,33.9545],[-83.8257,33.9651],[-83.832,33.9664],[-83.8368,33.9794],[-83.8373,33.9821],[-83.8434,33.9874],[-83.8506,33.9914],[-83.8556,33.9931],[-83.8606,33.997],[-83.8635,34.0013],[-83.8691,34.0043],[-83.867,34.0081],[-83.8493,34.0512],[-83.8177,34.1275],[-83.816,34.1269]]]}},{"type":"Feature","properties":{"id":"13085","name":"Dawson Co."},"geometry":{"type":"Polygon","coordinates":[[[-84.1872,34.5993],[-84.1888,34.5969],[-84.191,34.5392],[-84.1677,34.5208],[-84.1533,34.508],[-84.144,34.4989],[-84.1154,34.4733],[-84.106,34.4725],[-84.1011,34.4713],[-84.1026,34.4662],[-84.1067,34.4659],[-84.102,34.4645],[-84.0759,34.4547],[-84.056,34.4465],[-84.0287,34.4365],[-84.0021,34.4258],[-83.9806,34.4184],[-83.9833,34.417],[-83.9848,34.4116],[-83.9792,34.4115],[-83.972,34.4055],[-83.9728,34.399],[-83.9765,34.3979],[-83.9785,34.3908],[-83.9836,34.3861],[-83.9843,34.383],[-83.9772,34.3792],[-83.9796,34.3771],[-83.9792,34.373],[-83.9809,34.3687],[-83.9763,34.3647],[-83.9771,34.3619],[-83.9815,34.3595],[-83.9814,34.3578],[-83.9762,34.3566],[-83.9723,34.3484],[-83.9685,34.3441],[-83.9669,34.3396],[-83.9626,34.3427],[-83.96,34.3402],[-83.9571,34.334],[-84.0185,34.3343],[-84.0665,34.3344],[-84.2581,34.3352],[-84.2576,34.381],[-84.2569,34.4673],[-84.3197,34.4679],[-84.3401,34.5309],[-84.3457,34.5484],[-84.3456,34.5627],[-84.3465,34.566],[-84.3422,34.5675],[-84.3366,34.5719],[-84.3315,34.5725],[-84.3367,34.5773],[-84.3365,34.5793],[-84.3328,34.5799],[-84.329,34.5834],[-84.3201,34.5821],[-84.318,34.5788],[-84.3115,34.5776],[-84.3073,34.5814],[-84.2974,34.5752],[-84.2951,34.5705],[-84.2879,34.5688],[-84.2789,34.5696],[-84.2791,34.5726],[-84.276,34.5737],[-84.2718,34.5709],[-84.2653,34.5706],[-84.2553,34.5683],[-84.2547,34.5975],[-84.2239,34.597],[-84.2239,34.5994],[-84.2188,34.6005],[-84.2144,34.6097],[-84.2079,34.6137],[-84.2046,34.6133],[-84.1996,34.6152],[-84.1968,34.6179],[-84.1893,34.6089],[-84.1899,34.6047],[-84.1886,34.6027],[-84.1872,34.5993]]]}},{"type":"Feature","properties":{"id":"13211","name":"Morgan Co."},"geometry":{"type":"Polygon","coordinates":[[[-83.6578,33.6261],[-83.6188,33.6749],[-83.6001,33.6989],[-83.551,33.7606],[-83.5347,33.7815],[-83.5264,33.7961],[-83.5214,33.7988],[-83.5124,33.8079],[-83.5113,33.8113],[-83.5059,33.8178],[-83.501,33.8166],[-83.5021,33.8141],[-83.4988,33.8145],[-83.4938,33.8094],[-83.4922,33.8052],[-83.487,33.8051],[-83.4855,33.8072],[-83.4829,33.8024],[-83.4795,33.8024],[-83.483,33.7998],[-83.4798,33.7967],[-83.4771,33.7986],[-83.478,33.7915],[-83.4732,33.789],[-83.4742,33.7869],[-83.471,33.7848],[-83.4707,33.7803],[-83.4647,33.7744],[-83.4619,33.7741],[-83.4581,33.7684],[-83.4595,33.7659],[-83.4548,33.7587],[-83.4556,33.7573],[-83.4523,33.7474],[-83.4505,33.7468],[-83.4518,33.7382],[-83.4497,33.734],[-83.4469,33.733],[-83.4451,33.7263],[-83.4455,33.7232],[-83.4395,33.7191],[-83.4342,33.719],[-83.4318,33.7158],[-83.4253,33.716],[-83.424,33.7126],[-83.4193,33.709],[-83.4192,33.706],[-83.4093,33.7019],[-83.4049,33.6967],[-83.4013,33.6966],[-83.3993,33.6909],[-83.3949,33.6905],[-83.3963,33.6871],[-83.3949,33.6836],[-83.3888,33.6791],[-83.3871,33.6729],[-83.3832,33.6704],[-83.384,33.6666],[-83.3796,33.6606],[-83.3756,33.6595],[-83.3743,33.6562],[-83.3705,33.6559],[-83.3689,33.6526],[-83.3705,33.6504],[-83.3678,33.6491],[-83.3681,33.6463],[-83.3651,33.6443],[-83.3658,33.6402],[-83.3625,33.64],[-83.3644,33.6355],[-83.3597,33.6279],[-83.3598,33.6235],[-83.3579,33.6202],[-83.3544,33.6201],[-83.3497,33.6143],[-83.3479,33.6088],[-83.3482,33.6041],[-83.3469,33.6005],[-83.3488,33.5972],[-83.3421,33.596],[-83.338,33.5974],[-83.3376,33.591],[-83.3362,33.5884],[-83.331,33.5834],[-83.3264,33.5842],[-83.3262,33.5799],[-83.3227,33.5794],[-83.3204,33.5743],[-83.3172,33.5734],[-83.3174,33.5704],[-83.3131,33.5674],[-83.3108,33.563],[-83.3076,33.5644],[-83.3032,33.5631],[-83.3043,33.5573],[-83.2951,33.5523],[-83.291,33.5464],[-83.2866,33.5427],[-83.2805,33.5429],[-83.2784,33.5446],[-83.2746,33.5416],[-83.2696,33.5344],[-83.2695,33.5318],[-83.2776,33.5276],[-83.2809,33.5221],[-83.2801,33.5169],[-83.2835,33.5106],[-83.2839,33.5062],[-83.2768,33.4942],[-83.2794,33.4892],[-83.2799,33.4834],[-83.3749,33.4662],[-83.3908,33.4634],[-83.4598,33.4495],[-83.4863,33.4439],[-83.4994,33.4416],[-83.5337,33.4345],[-83.6189,33.486],[-83.6822,33.5262],[-83.6777,33.5712],[-83.6814,33.5779],[-83.6871,33.5823],[-83.6859,33.5844],[-83.6874,33.5886],[-83.6809,33.5969],[-83.6578,33.6261]]]}},{"type":"Feature","properties":{"id":"13223","name":"Paulding Co."},"geometry":{"type":"Polygon","coordinates":[[[-84.9143,34.0826],[-84.9144,34.0753],[-84.91,34.0753],[-84.9099,34.0786],[-84.8969,34.0787],[-84.8968,34.0825],[-84.8591,34.0826],[-84.7378,34.0823],[-84.7378,34.0794],[-84.7381,34.0784],[-84.7389,34.03],[-84.739,34.0028],[-84.7396,33.9683],[-84.7396,33.9478],[-84.723,33.9476],[-84.7239,33.9226],[-84.7242,33.8852],[-84.7247,33.8669],[-84.725,33.817],[-84.7239,33.817],[-84.7241,33.8064],[-84.7241,33.7886],[-84.7413,33.7886],[-84.7547,33.7871],[-84.7638,33.7873],[-84.8003,33.7823],[-84.7999,33.7799],[-84.8327,33.7785],[-84.8327,33.776],[-84.8792,33.7748],[-84.9017,33.7807],[-84.9186,33.7863],[-84.9712,33.7996],[-84.9859,33.8023],[-84.9956,33.8046],[-85.0044,33.8056],[-85.0379,33.8119],[-85.0367,33.9043],[-85.0503,33.9045],[-85.0498,33.9526],[-84.9787,33.9514],[-84.9702,33.9716],[-84.9481,34.0252],[-84.9287,34.0717],[-84.9227,34.0825],[-84.9143,34.0826]]]}},{"type":"Feature","properties":{"id":"13063","name":"Clayton Co."},"geometry":{"type":"Polygon","coordinates":[[[-84.2817,33.6473],[-84.2815,33.6394],[-84.2719,33.6392],[-84.2721,33.6312],[-84.2626,33.631],[-84.263,33.607],[-84.2532,33.6069],[-84.2532,33.5988],[-84.2439,33.5986],[-84.2439,33.5903],[-84.2532,33.5903],[-84.2531,33.5822],[-84.2636,33.5822],[-84.2633,33.5749],[-84.2637,33.5489],[-84.2926,33.5491],[-84.293,33.533],[-84.2825,33.5329],[-84.2838,33.4956],[-84.2839,33.4843],[-84.2942,33.4843],[-84.2944,33.4474],[-84.2947,33.4357],[-84.3043,33.4356],[-84.3042,33.4274],[-84.3234,33.428],[-84.3232,33.4359],[-84.3536,33.4362],[-84.3542,33.3534],[-84.3544,33.3525],[-84.3881,33.3525],[-84.3884,33.3558],[-84.3951,33.3603],[-84.393,33.3672],[-84.3963,33.3733],[-84.3874,33.3754],[-84.3873,33.3801],[-84.3905,33.3819],[-84.3899,33.3857],[-84.3946,33.3885],[-84.3928,33.3909],[-84.3948,33.3944],[-84.3905,33.3968],[-84.3886,33.3961],[-84.3871,33.4007],[-84.3845,33.4015],[-84.387,33.4046],[-84.3867,33.4098],[-84.3886,33.412],[-84.3931,33.412],[-84.3931,33.42],[-84.4023,33.4201],[-84.4022,33.4364],[-84.3926,33.4365],[-84.3925,33.4445],[-84.3837,33.4444],[-84.3858,33.4473],[-84.3874,33.4461],[-84.3888,33.4503],[-84.3843,33.4544],[-84.3848,33.4587],[-84.3816,33.463],[-84.386,33.4665],[-84.3849,33.4713],[-84.387,33.4762],[-84.392,33.4793],[-84.3962,33.4849],[-84.4097,33.4939],[-84.4206,33.494],[-84.4204,33.5096],[-84.4246,33.5138],[-84.4336,33.5244],[-84.4334,33.5318],[-84.4349,33.5416],[-84.4394,33.5507],[-84.4587,33.5509],[-84.4589,33.5654],[-84.4584,33.5727],[-84.4577,33.6485],[-84.453,33.6489],[-84.453,33.6412],[-84.4482,33.6412],[-84.4483,33.6488],[-84.38,33.6483],[-84.3501,33.6479],[-84.2817,33.6473]]]}},{"type":"Feature","properties":{"id":"13151","name":"Henry Co."},"geometry":{"type":"Polygon","coordinates":[[[-84.2458,33.6469],[-84.2455,33.6307],[-84.2242,33.6307],[-84.224,33.6466],[-84.1841,33.6462],[-84.1841,33.643],[-84.1805,33.6366],[-84.1795,33.6327],[-84.1816,33.6292],[-84.1721,33.6219],[-84.1722,33.6208],[-84.1648,33.6109],[-84.1612,33.6075],[-84.154,33.5975],[-84.1497,33.5868],[-84.1467,33.5865],[-84.1444,33.583],[-84.1401,33.5802],[-84.1398,33.5758],[-84.1338,33.57],[-84.131,33.5646],[-84.1248,33.5612],[-84.1173,33.5629],[-84.1151,33.5662],[-84.1085,33.5668],[-84.0908,33.5557],[-84.0854,33.5559],[-84.0806,33.5545],[-84.077,33.5508],[-84.0746,33.5514],[-84.073,33.5483],[-84.0701,33.547],[-84.0665,33.5494],[-84.0596,33.5406],[-84.0576,33.54],[-84.0523,33.5426],[-84.0486,33.5388],[-84.0513,33.5361],[-84.0511,33.5301],[-84.0558,33.5305],[-84.0562,33.5267],[-84.054,33.5261],[-84.0475,33.5304],[-84.0447,33.5285],[-84.0445,33.5258],[-84.048,33.5227],[-84.0552,33.5188],[-84.0518,33.5114],[-84.0483,33.5119],[-84.0508,33.5162],[-84.0467,33.5178],[-84.0441,33.5204],[-84.0419,33.5186],[-84.0429,33.5096],[-84.0356,33.5091],[-84.0342,33.5039],[-84.0306,33.5011],[-84.0315,33.4979],[-84.0371,33.497],[-84.0273,33.4921],[-84.0265,33.4958],[-84.0153,33.4977],[-84.0126,33.4925],[-83.9974,33.4941],[-83.9914,33.4928],[-83.9877,33.4909],[-83.9858,33.488],[-83.9811,33.487],[-83.977,33.4889],[-83.9747,33.487],[-83.9744,33.4836],[-83.9712,33.4862],[-83.9643,33.4866],[-83.9552,33.4837],[-83.9492,33.4857],[-83.9465,33.4818],[-83.9479,33.4772],[-83.9443,33.4714],[-83.9375,33.4673],[-83.9344,33.4594],[-83.9315,33.4576],[-83.9321,33.4551],[-83.9229,33.451],[-83.9249,33.4459],[-83.9239,33.4442],[-83.9326,33.4445],[-83.9326,33.4419],[-83.9435,33.4418],[-83.9435,33.4253],[-83.954,33.4252],[-83.954,33.4192],[-83.9631,33.4192],[-83.9631,33.4076],[-83.9731,33.4076],[-83.9732,33.3852],[-83.966,33.3851],[-83.9673,33.3803],[-83.9637,33.3785],[-83.9644,33.3752],[-83.9769,33.3747],[-83.984,33.3682],[-83.9997,33.3686],[-84.0076,33.3683],[-84.0126,33.3605],[-84.0213,33.3569],[-84.0246,33.357],[-84.0244,33.3613],[-84.0327,33.3616],[-84.0331,33.3428],[-84.0383,33.3428],[-84.0425,33.3411],[-84.0427,33.3365],[-84.0445,33.3372],[-84.0446,33.3335],[-84.0427,33.3313],[-84.0459,33.3295],[-84.0536,33.3295],[-84.0537,33.3177],[-84.0613,33.3096],[-84.0636,33.3098],[-84.0635,33.3176],[-84.073,33.3176],[-84.0733,33.3018],[-84.0802,33.3019],[-84.0855,33.298],[-84.0885,33.3019],[-84.1024,33.3021],[-84.1026,33.2982],[-84.1088,33.3013],[-84.1139,33.2978],[-84.1185,33.3024],[-84.124,33.3001],[-84.1277,33.3022],[-84.1344,33.3037],[-84.1347,33.3076],[-84.1386,33.3088],[-84.1399,33.313],[-84.143,33.3147],[-84.1464,33.3143],[-84.1453,33.3166],[-84.1508,33.313],[-84.1506,33.3356],[-84.177,33.336],[-84.2473,33.3358],[-84.247,33.3516],[-84.2509,33.3524],[-84.3544,33.3525],[-84.3542,33.3534],[-84.3536,33.4362],[-84.3232,33.4359],[-84.3234,33.428],[-84.3042,33.4274],[-84.3043,33.4356],[-84.2947,33.4357],[-84.2944,33.4474],[-84.2942,33.4843],[-84.2839,33.4843],[-84.2838,33.4956],[-84.2825,33.5329],[-84.293,33.533],[-84.2926,33.5491],[-84.2637,33.5489],[-84.2633,33.5749],[-84.2636,33.5822],[-84.2531,33.5822],[-84.2532,33.5903],[-84.2439,33.5903],[-84.2439,33.5986],[-84.2532,33.5988],[-84.2532,33.6069],[-84.263,33.607],[-84.2626,33.631],[-84.2721,33.6312],[-84.2719,33.6392],[-84.2815,33.6394],[-84.2817,33.6473],[-84.2458,33.6469]]]}},{"type":"Feature","properties":{"id":"13067","name":"Cobb Co."},"geometry":{"type":"Polygon","coordinates":[[[-84.6592,34.0782],[-84.6243,34.0776],[-84.6242,34.0818],[-84.6153,34.0816],[-84.6154,34.0775],[-84.5885,34.0767],[-84.5159,34.0753],[-84.5159,34.0792],[-84.5115,34.0792],[-84.5115,34.0753],[-84.4401,34.0738],[-84.4189,34.0735],[-84.4191,34.0552],[-84.4168,34.0516],[-84.4109,34.0496],[-84.411,34.0418],[-84.4067,34.0361],[-84.4024,34.0356],[-84.4038,34.0334],[-84.4012,34.0302],[-84.4011,34.0242],[-84.3987,34.0231],[-84.3996,34.0206],[-84.3983,34.0165],[-84.401,34.012],[-84.4001,34.0077],[-84.3973,34.0066],[-84.3925,34.0011],[-84.3923,33.9992],[-84.3876,33.9968],[-84.39,33.9954],[-84.3865,33.9926],[-84.3833,33.9928],[-84.376,33.9887],[-84.3747,33.986],[-84.3751,33.9785],[-84.3788,33.9726],[-84.3845,33.9711],[-84.3834,33.9633],[-84.3906,33.9561],[-84.3992,33.9502],[-84.4051,33.9437],[-84.4172,33.9325],[-84.4304,33.9249],[-84.4364,33.923],[-84.4398,33.9169],[-84.4467,33.9122],[-84.4475,33.9079],[-84.4417,33.8999],[-84.4438,33.8958],[-84.4412,33.8907],[-84.4442,33.8876],[-84.4433,33.8793],[-84.4508,33.8725],[-84.4522,33.8692],[-84.456,33.8653],[-84.4545,33.8588],[-84.4601,33.8529],[-84.4588,33.846],[-84.4605,33.8421],[-84.4602,33.8382],[-84.4549,33.8284],[-84.4572,33.8248],[-84.4668,33.8276],[-84.4709,33.8264],[-84.4804,33.8175],[-84.4858,33.8138],[-84.4922,33.8116],[-84.4997,33.8041],[-84.503,33.7993],[-84.5107,33.7931],[-84.5251,33.7859],[-84.5314,33.782],[-84.5354,33.7766],[-84.538,33.7712],[-84.5552,33.7609],[-84.5607,33.7566],[-84.5724,33.7463],[-84.5779,33.7437],[-84.5778,33.7456],[-84.5935,33.7662],[-84.6163,33.7949],[-84.6227,33.8048],[-84.6341,33.8052],[-84.7241,33.8064],[-84.7239,33.817],[-84.725,33.817],[-84.7247,33.8669],[-84.7242,33.8852],[-84.7239,33.9226],[-84.723,33.9476],[-84.7396,33.9478],[-84.7396,33.9683],[-84.739,34.0028],[-84.7389,34.03],[-84.7381,34.0784],[-84.7378,34.0794],[-84.6592,34.0782]]]}},{"type":"Feature","properties":{"id":"13149","name":"Heard Co."},"geometry":{"type":"Polygon","coordinates":[[[-85.2663,33.428],[-85.1975,33.4272],[-85.1161,33.4268],[-85.0807,33.4264],[-85.0154,33.4255],[-84.9955,33.3747],[-84.9682,33.3022],[-84.9586,33.2771],[-84.9586,33.2824],[-84.9488,33.2823],[-84.9488,33.2657],[-84.9546,33.2656],[-84.939,33.2247],[-84.9904,33.2062],[-85.0408,33.1883],[-85.0447,33.182],[-85.0495,33.1814],[-85.0558,33.1837],[-85.0592,33.1832],[-85.0645,33.1785],[-85.088,33.1717],[-85.0877,33.1866],[-85.0976,33.1866],[-85.0976,33.1951],[-85.108,33.1951],[-85.1079,33.1785],[-85.1175,33.1785],[-85.1174,33.1637],[-85.2365,33.1296],[-85.2939,33.4281],[-85.2663,33.428]]]}},{"type":"Feature","properties":{"id":"13035","name":"Butts Co."},"geometry":{"type":"Polygon","coordinates":[[[-84.1024,33.3021],[-84.0885,33.3019],[-84.0855,33.298],[-84.0802,33.3019],[-84.0733,33.3018],[-84.073,33.3176],[-84.0635,33.3176],[-84.0636,33.3098],[-84.0613,33.3096],[-84.0537,33.3177],[-84.0536,33.3295],[-84.0459,33.3295],[-84.0427,33.3313],[-84.0446,33.3335],[-84.0445,33.3372],[-84.0427,33.3365],[-84.0425,33.3411],[-84.0383,33.3428],[-84.0331,33.3428],[-84.0327,33.3616],[-84.0244,33.3613],[-84.0246,33.357],[-84.0213,33.3569],[-84.0126,33.3605],[-84.0076,33.3683],[-83.9997,33.3686],[-83.984,33.3682],[-83.9769,33.3747],[-83.9644,33.3752],[-83.9637,33.3785],[-83.9673,33.3803],[-83.966,33.3851],[-83.9732,33.3852],[-83.9731,33.4076],[-83.9631,33.4076],[-83.9631,33.4192],[-83.954,33.4192],[-83.954,33.4252],[-83.9435,33.4253],[-83.9435,33.4418],[-83.9326,33.4419],[-83.9326,33.4445],[-83.9239,33.4442],[-83.9189,33.4391],[-83.9188,33.4342],[-83.915,33.4361],[-83.9162,33.4334],[-83.9145,33.4312],[-83.9153,33.4274],[-83.9106,33.4261],[-83.9125,33.4178],[-83.9083,33.4178],[-83.9061,33.4138],[-83.8982,33.4104],[-83.8952,33.4075],[-83.8959,33.402],[-83.8951,33.3967],[-83.8924,33.394],[-83.8855,33.3913],[-83.8788,33.3898],[-83.8774,33.3832],[-83.8733,33.378],[-83.8656,33.3777],[-83.8643,33.3757],[-83.8666,33.3728],[-83.8631,33.3683],[-83.8613,33.3654],[-83.862,33.3601],[-83.8571,33.3538],[-83.8605,33.3489],[-83.8634,33.3423],[-83.8583,33.3392],[-83.8552,33.3356],[-83.8469,33.3331],[-83.8404,33.3289],[-83.8396,33.3245],[-83.8428,33.3184],[-83.837,33.3116],[-83.8375,33.3077],[-83.8305,33.3018],[-83.8274,33.2925],[-83.8288,33.2863],[-83.8328,33.2824],[-83.8323,33.2723],[-83.8283,33.2661],[-83.8246,33.2636],[-83.8235,33.2578],[-83.8202,33.2532],[-83.8134,33.2486],[-83.8141,33.2421],[-83.8218,33.2287],[-83.8237,33.2218],[-83.833,33.2132],[-83.8343,33.2101],[-83.8263,33.2105],[-83.8246,33.2091],[-83.8239,33.2047],[-83.8204,33.2013],[-83.8147,33.2002],[-83.8119,33.1983],[-83.8169,33.1959],[-83.8132,33.1929],[-83.8078,33.1938],[-83.8079,33.1914],[-83.8119,33.19],[-83.8169,33.1865],[-83.8223,33.1802],[-83.8322,33.1844],[-83.8401,33.1926],[-83.8399,33.1951],[-83.846,33.1972],[-83.8522,33.1948],[-83.8592,33.2005],[-83.8657,33.2002],[-83.8681,33.2019],[-83.877,33.2024],[-83.9284,33.2019],[-83.9934,33.2024],[-84.0415,33.2026],[-84.1238,33.2028],[-84.123,33.2445],[-84.1181,33.2444],[-84.1181,33.2487],[-84.1227,33.2488],[-84.1226,33.2527],[-84.089,33.2856],[-84.0914,33.2865],[-84.093,33.2899],[-84.0972,33.2921],[-84.0971,33.2938],[-84.1026,33.2982],[-84.1024,33.3021]]]}},{"type":"Feature","properties":{"id":"13057","name":"Cherokee Co."},"geometry":{"type":"Polygon","coordinates":[[[-84.5828,34.4122],[-84.5826,34.3815],[-84.4757,34.3806],[-84.4423,34.3804],[-84.4421,34.3882],[-84.4245,34.388],[-84.4245,34.3806],[-84.4007,34.3805],[-84.4008,34.3733],[-84.3922,34.3733],[-84.3921,34.3807],[-84.371,34.3808],[-84.2576,34.381],[-84.2581,34.3352],[-84.2584,34.3107],[-84.2587,34.2624],[-84.2587,34.2129],[-84.259,34.1859],[-84.2728,34.1861],[-84.3175,34.1863],[-84.3285,34.186],[-84.3382,34.178],[-84.3433,34.1761],[-84.3523,34.1767],[-84.3542,34.1749],[-84.3563,34.1683],[-84.3605,34.1623],[-84.3569,34.1551],[-84.3597,34.1531],[-84.3589,34.1487],[-84.36,34.1437],[-84.3589,34.1414],[-84.3613,34.137],[-84.3597,34.1316],[-84.3618,34.1242],[-84.3649,34.1223],[-84.3696,34.1226],[-84.3797,34.1187],[-84.3882,34.1194],[-84.3916,34.1177],[-84.3935,34.1146],[-84.3992,34.1112],[-84.3995,34.1097],[-84.404,34.1101],[-84.4114,34.108],[-84.4149,34.1103],[-84.4184,34.109],[-84.4189,34.0735],[-84.4401,34.0738],[-84.5115,34.0753],[-84.5115,34.0792],[-84.5159,34.0792],[-84.5159,34.0753],[-84.5885,34.0767],[-84.6154,34.0775],[-84.6153,34.0816],[-84.6242,34.0818],[-84.6243,34.0776],[-84.6592,34.0782],[-84.6579,34.1425],[-84.6576,34.1924],[-84.6577,34.2027],[-84.6538,34.2272],[-84.6532,34.2501],[-84.654,34.3469],[-84.6447,34.3468],[-84.6443,34.3552],[-84.654,34.3552],[-84.6532,34.4126],[-84.5828,34.4122]]]}}]}