{"type":"FeatureCollection","features":[{"type":"Feature","properties":{"id":"28033","name":"DeSoto Co., MS"},"geometry":{"type":"Polygon","coordinates":[[[-89.8934,34.9944],[-89.8485,34.9942],[-89.7952,34.9943],[-89.7418,34.9952],[-89.7243,34.9952],[-89.7242,34.971],[-89.7244,34.9499],[-89.724,34.9276],[-89.7239,34.8783],[-89.7239,34.831],[-89.7234,34.7723],[-89.7309,34.7722],[-89.8119,34.7728],[-89.8739,34.773],[-89.9122,34.7725],[-89.9107,34.7714],[-89.9162,34.7667],[-89.9129,34.7654],[-89.9161,34.7636],[-89.9145,34.7618],[-89.9155,34.7582],[-89.9189,34.7601],[-89.9255,34.7516],[-89.9299,34.7518],[-89.9348,34.7462],[-89.939,34.7461],[-89.9464,34.744],[-89.9486,34.7389],[-89.9512,34.7407],[-89.9559,34.7362],[-89.9545,34.7341],[-89.9541,34.7269],[-89.9626,34.724],[-89.9671,34.7242],[-89.9689,34.7258],[-89.9741,34.7239],[-89.9818,34.7262],[-89.9843,34.7232],[-89.9827,34.7203],[-89.9857,34.7213],[-89.9866,34.719],[-89.9888,34.7212],[-89.9973,34.7174],[-90.0003,34.7202],[-90.0,34.7166],[-90.0074,34.7171],[-90.0114,34.714],[-90.0157,34.7139],[-90.0196,34.712],[-90.0239,34.713],[-90.0239,34.7101],[-90.0274,34.7102],[-90.0301,34.7079],[-90.033,34.7101],[-90.0383,34.7093],[-90.0394,34.7117],[-90.0451,34.7146],[-90.0482,34.7118],[-90.0482,34.7151],[-90.0535,34.7124],[-90.055,34.7164],[-90.0599,34.7209],[-90.058,34.7256],[-90.0612,34.7261],[-90.0606,34.7282],[-90.065,34.7284],[-90.0698,34.7265],[-90.0693,34.7234],[-90.0729,34.721],[-90.0754,34.7231],[-90.0747,34.7253],[-90.0811,34.7269],[-90.0809,34.7315],[-90.0906,34.7358],[-90.091,34.732],[-90.094,34.7314],[-90.1003,34.7325],[-90.1016,34.7315],[-90.1062,34.7367],[-90.1104,34.7379],[-90.1071,34.7406],[-90.1115,34.7423],[-90.1099,34.7438],[-90.1148,34.7466],[-90.1172,34.754],[-90.1211,34.7526],[-90.1214,34.7564],[-90.1271,34.7574],[-90.1289,34.7605],[-90.1358,34.7605],[-90.1399,34.7619],[-90.1403,34.7581],[-90.1542,34.7593],[-90.1532,34.7567],[-90.1575,34.7547],[-90.1618,34.7583],[-90.17,34.7587],[-90.1725,34.7581],[-90.1714,34.7548],[-90.175,34.7535],[-90.1745,34.7482],[-90.1727,34.7472],[-90.1746,34.7435],[-90.1773,34.7455],[-90.1784,34.7431],[-90.1813,34.7437],[-90.1827,34.7398],[-90.1861,34.7367],[-90.1889,34.7379],[-90.1871,34.7348],[-90.1881,34.7294],[-90.1916,34.7275],[-90.1929,34.7248],[-90.1954,34.7275],[-90.1986,34.7245],[-90.1958,34.7219],[-90.1996,34.7224],[-90.2002,34.7244],[-90.201,34.7292],[-90.2025,34.773],[-90.202,34.8011],[-90.2023,34.8301],[-90.2021,34.8604],[-90.2705,34.8607],[-90.3048,34.8604],[-90.3058,34.8617],[-90.3149,34.864],[-90.3177,34.8711],[-90.3045,34.8778],[-90.2897,34.8833],[-90.2769,34.8852],[-90.2579,34.8934],[-90.2491,34.9001],[-90.2432,34.9091],[-90.2413,34.919],[-90.242,34.9315],[-90.2438,34.9453],[-90.2459,34.9487],[-90.2707,34.9588],[-90.2961,34.9765],[-90.3013,34.982],[-90.3073,34.9919],[-90.3084,34.9957],[-89.8934,34.9944]]]}},{"type":"Feature","properties":{"id":"28143","name":"Tunica Co., MS"},"geometry":{"type":"Polygon","coordinates":[[[-90.3998,34.8277],[-90.3894,34.8307],[-90.3623,34.8428],[-90.3384,34.8585],[-90.3286,34.8497],[-90.3192,34.8449],[-90.3113,34.8442],[-90.3074,34.8462],[-90.3039,34.8505],[-90.3027,34.8544],[-90.3048,34.8604],[-90.2705,34.8607],[-90.2021,34.8604],[-90.2023,34.8301],[-90.202,34.8011],[-90.2025,34.773],[-90.201,34.7292],[-90.2002,34.7244],[-90.2021,34.7201],[-90.2065,34.7223],[-90.2079,34.7247],[-90.2133,34.7226],[-90.2162,34.7196],[-90.2223,34.7158],[-90.2206,34.7119],[-90.2251,34.7115],[-90.2265,34.7069],[-90.2292,34.7052],[-90.2251,34.7024],[-90.2297,34.7036],[-90.2314,34.702],[-90.2311,34.6981],[-90.2276,34.6967],[-90.2204,34.6899],[-90.2218,34.6862],[-90.2202,34.6843],[-90.2252,34.6765],[-90.2249,34.673],[-90.2212,34.6704],[-90.2186,34.6657],[-90.2201,34.6618],[-90.2233,34.664],[-90.2252,34.6616],[-90.2151,34.6604],[-90.2163,34.6469],[-90.2244,34.6414],[-90.2264,34.6363],[-90.2296,34.634],[-90.2303,34.6307],[-90.24,34.6262],[-90.2384,34.6212],[-90.2411,34.6149],[-90.2365,34.6111],[-90.2366,34.6076],[-90.2414,34.6056],[-90.2439,34.6022],[-90.2439,34.5996],[-90.238,34.6009],[-90.2363,34.605],[-90.2342,34.6015],[-90.2345,34.5984],[-90.2381,34.5976],[-90.2399,34.5932],[-90.236,34.5929],[-90.2342,34.5951],[-90.2313,34.5919],[-90.2317,34.5882],[-90.2267,34.5863],[-90.2247,34.5833],[-90.2215,34.5825],[-90.2211,34.5787],[-90.2244,34.5764],[-90.2212,34.575],[-90.2111,34.5731],[-90.2108,34.5636],[-90.2159,34.5633],[-90.2183,34.5595],[-90.2113,34.5607],[-90.2078,34.558],[-90.204,34.5591],[-90.2049,34.5544],[-90.1986,34.5544],[-90.1985,34.5111],[-90.2476,34.5104],[-90.2507,34.5101],[-90.3043,34.5096],[-90.3042,34.4808],[-90.3021,34.4674],[-90.3019,34.4245],[-90.3431,34.4244],[-90.3995,34.4238],[-90.4933,34.4799],[-90.5001,34.4844],[-90.5678,34.524],[-90.5529,34.5313],[-90.546,34.5362],[-90.5425,34.5401],[-90.5396,34.5539],[-90.5405,34.5579],[-90.5494,34.5693],[-90.5738,34.5921],[-90.5872,34.6109],[-90.5911,34.6192],[-90.5918,34.6238],[-90.5909,34.6287],[-90.5866,34.6437],[-90.5832,34.652],[-90.5809,34.6552],[-90.5697,34.6664],[-90.5684,34.6689],[-90.5677,34.6791],[-90.5701,34.6934],[-90.5562,34.6936],[-90.5457,34.6884],[-90.5415,34.6831],[-90.54,34.6768],[-90.5526,34.6597],[-90.5551,34.6462],[-90.5541,34.6409],[-90.5518,34.6365],[-90.5476,34.6317],[-90.5416,34.6286],[-90.5321,34.6273],[-90.5245,34.6285],[-90.5172,34.6309],[-90.5081,34.6367],[-90.4999,34.645],[-90.4815,34.658],[-90.4688,34.67],[-90.466,34.6743],[-90.4628,34.6841],[-90.4637,34.6926],[-90.4667,34.7],[-90.4742,34.7053],[-90.4833,34.7042],[-90.5167,34.6956],[-90.5324,34.6962],[-90.5425,34.7],[-90.5532,34.706],[-90.5594,34.7108],[-90.5719,34.7128],[-90.5686,34.7214],[-90.5678,34.7333],[-90.5636,34.7378],[-90.5583,34.7392],[-90.55,34.7397],[-90.5456,34.7389],[-90.5394,34.7553],[-90.5452,34.7706],[-90.5478,34.7833],[-90.5442,34.7917],[-90.5408,34.7958],[-90.5335,34.7999],[-90.5264,34.8017],[-90.5211,34.8019],[-90.5141,34.8001],[-90.5111,34.7983],[-90.5114,34.79],[-90.5031,34.7833],[-90.4928,34.7725],[-90.4925,34.7645],[-90.4944,34.7574],[-90.5067,34.7498],[-90.5128,34.7443],[-90.5242,34.7314],[-90.5083,34.7236],[-90.5,34.7217],[-90.4917,34.7214],[-90.475,34.7239],[-90.465,34.7273],[-90.4554,34.7326],[-90.4484,34.7391],[-90.449,34.7475],[-90.4527,34.7557],[-90.4579,34.7626],[-90.4704,34.7809],[-90.4748,34.789],[-90.4765,34.7936],[-90.4762,34.8005],[-90.4747,34.8042],[-90.4694,34.8126],[-90.4634,34.817],[-90.4554,34.8208],[-90.4616,34.8317],[-90.4749,34.8504],[-90.482,34.8578],[-90.4844,34.8636],[-90.485,34.8693],[-90.4843,34.8749],[-90.4813,34.8811],[-90.476,34.8858],[-90.4671,34.8904],[-90.4623,34.8917],[-90.4539,34.8909],[-90.4401,34.8855],[-90.4366,34.8827],[-90.4301,34.8712],[-90.4294,34.8666],[-90.4356,34.8563],[-90.4497,34.8399],[-90.4387,34.8252],[-90.4302,34.8262],[-90.4175,34.8258],[-90.4079,34.8268],[-90.3998,34.8277]]]}},{"type":"Feature","properties":{"id":"28137","name":"Tate Co., MS"},"geometry":{"type":"Polygon","coordinates":[[[-90.1996,34.7224],[-90.1958,34.7219],[-90.1986,34.7245],[-90.1954,34.7275],[-90.1929,34.7248],[-90.1916,34.7275],[-90.1881,34.7294],[-90.1871,34.7348],[-90.1889,34.7379],[-90.1861,34.7367],[-90.1827,34.7398],[-90.1813,34.7437],[-90.1784,34.7431],[-90.1773,34.7455],[-90.1746,34.7435],[-90.1727,34.7472],[-90.1745,34.7482],[-90.175,34.7535],[-90.1714,34.7548],[-90.1725,34.7581],[-90.17,34.7587],[-90.1618,34.7583],[-90.1575,34.7547],[-90.1532,34.7567],[-90.1542,34.7593],[-90.1403,34.7581],[-90.1399,34.7619],[-90.1358,34.7605],[-90.1289,34.7605],[-90.1271,34.7574],[-90.1214,34.7564],[-90.1211,34.7526],[-90.1172,34.754],[-90.1148,34.7466],[-90.1099,34.7438],[-90.1115,34.7423],[-90.1071,34.7406],[-90.1104,34.7379],[-90.1062,34.7367],[-90.1016,34.7315],[-90.1003,34.7325],[-90.094,34.7314],[-90.091,34.732],[-90.0906,34.7358],[-90.0809,34.7315],[-90.0811,34.7269],[-90.0747,34.7253],[-90.0754,34.7231],[-90.0729,34.721],[-90.0693,34.7234],[-90.0698,34.7265],[-90.065,34.7284],[-90.0606,34.7282],[-90.0612,34.7261],[-90.058,34.7256],[-90.0599,34.7209],[-90.055,34.7164],[-90.0535,34.7124],[-90.0482,34.7151],[-90.0482,34.7118],[-90.0451,34.7146],[-90.0394,34.7117],[-90.0383,34.7093],[-90.033,34.7101],[-90.0301,34.7079],[-90.0274,34.7102],[-90.0239,34.7101],[-90.0239,34.713],[-90.0196,34.712],[-90.0157,34.7139],[-90.0114,34.714],[-90.0074,34.7171],[-90.0,34.7166],[-90.0003,34.7202],[-89.9973,34.7174],[-89.9888,34.7212],[-89.9866,34.719],[-89.9857,34.7213],[-89.9827,34.7203],[-89.9843,34.7232],[-89.9818,34.7262],[-89.9741,34.7239],[-89.9689,34.7258],[-89.9671,34.7242],[-89.9626,34.724],[-89.9541,34.7269],[-89.9545,34.7341],[-89.9559,34.7362],[-89.9512,34.7407],[-89.9486,34.7389],[-89.9464,34.744],[-89.939,34.7461],[-89.9348,34.7462],[-89.9299,34.7518],[-89.9255,34.7516],[-89.9189,34.7601],[-89.9155,34.7582],[-89.9145,34.7618],[-89.9161,34.7636],[-89.9129,34.7654],[-89.9162,34.7667],[-89.9107,34.7714],[-89.9122,34.7725],[-89.8739,34.773],[-89.8119,34.7728],[-89.7309,34.7722],[-89.7234,34.7723],[-89.7233,34.7349],[-89.7223,34.6855],[-89.6692,34.6856],[-89.6692,34.6402],[-89.6684,34.5544],[-89.7213,34.5543],[-89.8086,34.5539],[-89.8097,34.5538],[-89.9372,34.5537],[-89.9509,34.5541],[-90.0039,34.554],[-90.0566,34.5542],[-90.1223,34.5541],[-90.1986,34.5544],[-90.2049,34.5544],[-90.204,34.5591],[-90.2078,34.558],[-90.2113,34.5607],[-90.2183,34.5595],[-90.2159,34.5633],[-90.2108,34.5636],[-90.2111,34.5731],[-90.2212,34.575],[-90.2244,34.5764],[-90.2211,34.5787],[-90.2215,34.5825],[-90.2247,34.5833],[-90.2267,34.5863],[-90.2317,34.5882],[-90.2313,34.5919],[-90.2342,34.5951],[-90.236,34.5929],[-90.2399,34.5932],[-90.2381,34.5976],[-90.2345,34.5984],[-90.2342,34.6015],[-90.2363,34.605],[-90.238,34.6009],[-90.2439,34.5996],[-90.2439,34.6022],[-90.2414,34.6056],[-90.2366,34.6076],[-90.2365,34.6111],[-90.2411,34.6149],[-90.2384,34.6212],[-90.24,34.6262],[-90.2303,34.6307],[-90.2296,34.634],[-90.2264,34.6363],[-90.2244,34.6414],[-90.2163,34.6469],[-90.2151,34.6604],[-90.2252,34.6616],[-90.2233,34.664],[-90.2201,34.6618],[-90.2186,34.6657],[-90.2212,34.6704],[-90.2249,34.673],[-90.2252,34.6765],[-90.2202,34.6843],[-90.2218,34.6862],[-90.2204,34.6899],[-90.2276,34.6967],[-90.2311,34.6981],[-90.2314,34.702],[-90.2297,34.7036],[-90.2251,34.7024],[-90.2292,34.7052],[-90.2265,34.7069],[-90.2251,34.7115],[-90.2206,34.7119],[-90.2223,34.7158],[-90.2162,34.7196],[-90.2133,34.7226],[-90.2079,34.7247],[-90.2065,34.7223],[-90.2021,34.7201],[-90.2002,34.7244],[-90.1996,34.7224]]]}},{"type":"Feature","properties":{"id":"28009","name":"Benton Co., MS"},"geometry":{"type":"Polygon","coordinates":[[[-89.2174,34.9947],[-89.1983,34.9945],[-89.1568,34.9939],[-89.139,34.9943],[-89.0265,34.995],[-89.0171,34.9949],[-89.0171,34.976],[-89.0167,34.9687],[-89.0174,34.9102],[-89.0176,34.8587],[-89.035,34.8588],[-89.0353,34.8153],[-89.0881,34.8153],[-89.0886,34.7571],[-89.0885,34.6609],[-89.0885,34.5982],[-89.1379,34.5978],[-89.1411,34.5979],[-89.2021,34.5977],[-89.2456,34.5976],[-89.2456,34.5832],[-89.2983,34.5829],[-89.2982,34.6406],[-89.2986,34.6705],[-89.2987,34.7196],[-89.2989,34.731],[-89.2992,34.8444],[-89.3527,34.8444],[-89.3529,34.861],[-89.3529,34.9173],[-89.3527,34.9941],[-89.2174,34.9947]]]}},{"type":"Feature","properties":{"id":"47157","name":"Shelby Co., TN"},"geometry":{"type":"Polygon","coordinates":[[[-90.075,35.3842],[-90.0618,35.3862],[-90.0543,35.3893],[-90.0449,35.393],[-90.0416,35.3966],[-89.9722,35.3936],[-89.9269,35.3935],[-89.8985,35.3921],[-89.8893,35.3909],[-89.884,35.3912],[-89.8585,35.3906],[-89.8391,35.3916],[-89.8378,35.3906],[-89.8287,35.3922],[-89.8201,35.3906],[-89.8116,35.3903],[-89.8004,35.3913],[-89.7788,35.3878],[-89.7767,35.4052],[-89.7669,35.4041],[-89.7373,35.4014],[-89.7308,35.4011],[-89.7328,35.4057],[-89.7303,35.4068],[-89.7207,35.4066],[-89.7102,35.4044],[-89.7093,35.4095],[-89.7025,35.4086],[-89.7029,35.3891],[-89.6428,35.388],[-89.6417,35.3859],[-89.6446,35.383],[-89.646,35.3723],[-89.6405,35.3754],[-89.6367,35.3749],[-89.6365,35.3769],[-89.6328,35.3758],[-89.6357,35.3176],[-89.6348,35.318],[-89.6344,35.2959],[-89.6353,35.2746],[-89.6363,35.2717],[-89.6357,35.2663],[-89.6367,35.2327],[-89.6373,35.2321],[-89.6371,35.2102],[-89.6379,35.2098],[-89.6371,35.198],[-89.6409,35.0815],[-89.6428,35.0449],[-89.6439,35.0064],[-89.644,34.9953],[-89.7243,34.9952],[-89.7418,34.9952],[-89.7952,34.9943],[-89.8485,34.9942],[-89.8934,34.9944],[-90.3084,34.9957],[-90.3105,35.0027],[-90.3093,35.0096],[-90.3053,35.0136],[-90.3057,35.0191],[-90.2995,35.0303],[-90.297,35.0382],[-90.2923,35.0414],[-90.2648,35.0404],[-90.2617,35.0362],[-90.2562,35.0347],[-90.2518,35.0316],[-90.243,35.0327],[-90.2324,35.0312],[-90.2132,35.0255],[-90.2073,35.0258],[-90.1912,35.0402],[-90.1865,35.0454],[-90.1812,35.0539],[-90.1776,35.0638],[-90.175,35.0761],[-90.1785,35.0798],[-90.181,35.085],[-90.1814,35.094],[-90.1768,35.1121],[-90.1723,35.1189],[-90.1674,35.1236],[-90.1547,35.1309],[-90.1507,35.1325],[-90.1418,35.133],[-90.1291,35.1285],[-90.1068,35.1194],[-90.095,35.1175],[-90.0897,35.1181],[-90.0826,35.1213],[-90.073,35.1292],[-90.0665,35.1368],[-90.064,35.1446],[-90.0654,35.1514],[-90.0687,35.156],[-90.0789,35.1594],[-90.1014,35.1711],[-90.1067,35.176],[-90.1081,35.1816],[-90.1137,35.1833],[-90.1167,35.1869],[-90.1174,35.1901],[-90.1161,35.1986],[-90.1087,35.1993],[-90.0965,35.1948],[-90.0933,35.2033],[-90.0886,35.2123],[-90.0807,35.2085],[-90.0782,35.2097],[-90.0755,35.214],[-90.0749,35.2181],[-90.0762,35.2215],[-90.0845,35.231],[-90.0864,35.2382],[-90.0943,35.2488],[-90.1051,35.2544],[-90.1173,35.2558],[-90.1397,35.2523],[-90.1463,35.2536],[-90.1521,35.256],[-90.1588,35.2629],[-90.1666,35.2746],[-90.1689,35.282],[-90.1652,35.2932],[-90.1612,35.299],[-90.1573,35.3015],[-90.1485,35.3029],[-90.1395,35.2988],[-90.1298,35.3012],[-90.1237,35.3045],[-90.1172,35.3034],[-90.11,35.305],[-90.1086,35.312],[-90.1038,35.3243],[-90.0962,35.3489],[-90.0934,35.3541],[-90.0839,35.3656],[-90.0783,35.3749],[-90.0786,35.3806],[-90.081,35.3859],[-90.075,35.3842]]]}},{"type":"Feature","properties":{"id":"47167","name":"Tipton Co., TN"},"geometry":{"type":"MultiPolygon","coordinates":[[[[-89.4972,35.4035],[-89.5001,35.4041],[-89.5406,35.4048],[-89.5497,35.4033],[-89.5518,35.4012],[-89.5634,35.4006],[-89.5663,35.3975],[-89.5732,35.3963],[-89.576,35.3989],[-89.5803,35.3955],[-89.5852,35.3975],[-89.5879,35.3947],[-89.5986,35.3946],[-89.602,35.3919],[-89.6053,35.3916],[-89.6073,35.3891],[-89.6162,35.3887],[-89.6184,35.3863],[-89.6173,35.3836],[-89.6238,35.3817],[-89.629,35.3826],[-89.6285,35.3787],[-89.6328,35.3758],[-89.6365,35.3769],[-89.6367,35.3749],[-89.6405,35.3754],[-89.646,35.3723],[-89.6446,35.383],[-89.6417,35.3859],[-89.6428,35.388],[-89.7029,35.3891],[-89.7025,35.4086],[-89.7093,35.4095],[-89.7102,35.4044],[-89.7207,35.4066],[-89.7303,35.4068],[-89.7328,35.4057],[-89.7308,35.4011],[-89.7373,35.4014],[-89.7669,35.4041],[-89.7767,35.4052],[-89.7788,35.3878],[-89.8004,35.3913],[-89.8116,35.3903],[-89.8201,35.3906],[-89.8287,35.3922],[-89.8378,35.3906],[-89.8391,35.3916],[-89.8585,35.3906],[-89.884,35.3912],[-89.8893,35.3909],[-89.8985,35.3921],[-89.9269,35.3935],[-89.9722,35.3936],[-90.0416,35.3966],[-90.044,35.3967],[-90.0568,35.4039],[-90.0481,35.4117],[-90.0212,35.4202],[-90.0138,35.4234],[-90.0027,35.4305],[-90.004,35.4432],[-90.0068,35.4533],[-90.0119,35.4626],[-90.0197,35.4731],[-90.0277,35.4773],[-90.0351,35.4827],[-90.044,35.4944],[-90.0477,35.5026],[-90.0502,35.5156],[-90.0491,35.5223],[-90.0461,35.5296],[-90.0422,35.5366],[-90.0398,35.5471],[-90.0345,35.5526],[-90.0239,35.5563],[-90.0179,35.556],[-90.0083,35.5601],[-89.9989,35.5611],[-89.9894,35.56],[-89.9763,35.5539],[-89.9585,35.5417],[-89.9556,35.5345],[-89.9587,35.5238],[-89.9351,35.5155],[-89.9289,35.5124],[-89.9244,35.5113],[-89.9185,35.5114],[-89.9089,35.5142],[-89.9046,35.5193],[-89.9024,35.525],[-89.9023,35.5302],[-89.9044,35.5359],[-89.9097,35.538],[-89.9011,35.5423],[-89.8944,35.5502],[-89.8878,35.5679],[-89.8891,35.5707],[-89.8854,35.5751],[-89.8812,35.5779],[-89.8861,35.5828],[-89.8845,35.585],[-89.8789,35.5865],[-89.8739,35.5856],[-89.8714,35.5813],[-89.8699,35.5858],[-89.866,35.5885],[-89.8622,35.5851],[-89.8592,35.5851],[-89.8599,35.5875],[-89.8572,35.5917],[-89.8528,35.5909],[-89.851,35.595],[-89.8466,35.5948],[-89.8424,35.5976],[-89.8449,35.6012],[-89.8447,35.6048],[-89.8398,35.6041],[-89.8378,35.6014],[-89.8362,35.6034],[-89.8334,35.6028],[-89.8311,35.6051],[-89.8278,35.6024],[-89.8235,35.6038],[-89.8255,35.6082],[-89.8265,35.6144],[-89.8236,35.6132],[-89.8209,35.6168],[-89.8148,35.6184],[-89.8179,35.6189],[-89.8186,35.622],[-89.815,35.6252],[-89.8152,35.6198],[-89.8114,35.6202],[-89.8124,35.6231],[-89.8084,35.6204],[-89.8045,35.6225],[-89.8068,35.6273],[-89.8011,35.6293],[-89.7967,35.6329],[-89.7929,35.6332],[-89.7952,35.6353],[-89.7931,35.6374],[-89.7885,35.6347],[-89.7866,35.6377],[-89.782,35.6347],[-89.7762,35.638],[-89.7695,35.6386],[-89.7711,35.643],[-89.7657,35.6402],[-89.7643,35.6456],[-89.7591,35.6426],[-89.7577,35.6467],[-89.7581,35.6504],[-89.7525,35.6493],[-89.7515,35.6467],[-89.7406,35.6453],[-89.7411,35.6416],[-89.7391,35.6394],[-89.7386,35.643],[-89.7318,35.6478],[-89.7291,35.6474],[-89.7271,35.6412],[-89.7298,35.6382],[-89.727,35.6365],[-89.7268,35.6393],[-89.7227,35.6381],[-89.7233,35.6408],[-89.7201,35.6389],[-89.7132,35.6394],[-89.7107,35.6409],[-89.7061,35.6397],[-89.7023,35.6424],[-89.6958,35.6421],[-89.6959,35.6443],[-89.6928,35.6443],[-89.6914,35.6419],[-89.6926,35.6389],[-89.6889,35.6362],[-89.683,35.6399],[-89.6799,35.6362],[-89.6752,35.6379],[-89.6759,35.6404],[-89.6716,35.6388],[-89.6684,35.6318],[-89.6655,35.6319],[-89.6672,35.6357],[-89.665,35.6357],[-89.6611,35.6318],[-89.659,35.6356],[-89.6583,35.6334],[-89.6507,35.6395],[-89.6538,35.6448],[-89.6501,35.6465],[-89.6505,35.6486],[-89.6405,35.6451],[-89.631,35.6451],[-89.6328,35.648],[-89.631,35.6507],[-89.6269,35.6487],[-89.623,35.6523],[-89.623,35.65],[-89.6192,35.6482],[-89.6216,35.6471],[-89.6157,35.6435],[-89.613,35.6432],[-89.6157,35.6369],[-89.6137,35.638],[-89.6079,35.6356],[-89.6088,35.633],[-89.6049,35.6308],[-89.6068,35.628],[-89.604,35.6262],[-89.6027,35.6289],[-89.5979,35.6301],[-89.5879,35.6254],[-89.5851,35.6256],[-89.5864,35.6227],[-89.5831,35.6179],[-89.5815,35.6214],[-89.579,35.6192],[-89.5799,35.6167],[-89.5766,35.6148],[-89.5761,35.6174],[-89.5721,35.6139],[-89.567,35.614],[-89.565,35.6128],[-89.5602,35.6131],[-89.5617,35.6107],[-89.5555,35.6102],[-89.5557,35.6054],[-89.5479,35.6078],[-89.5476,35.61],[-89.5447,35.6093],[-89.5453,35.6041],[-89.5422,35.6029],[-89.5378,35.6045],[-89.5321,35.6026],[-89.5355,35.5964],[-89.5261,35.5982],[-89.526,35.5948],[-89.5221,35.5933],[-89.5214,35.5958],[-89.519,35.5931],[-89.5212,35.5901],[-89.517,35.5883],[-89.5115,35.588],[-89.5121,35.5825],[-89.5103,35.5808],[-89.5076,35.5831],[-89.5073,35.5805],[-89.5021,35.5806],[-89.4981,35.5756],[-89.4938,35.5768],[-89.4842,35.5744],[-89.4889,35.5714],[-89.4848,35.5685],[-89.4824,35.5652],[-89.479,35.5642],[-89.4774,35.5608],[-89.4803,35.5567],[-89.4806,35.5506],[-89.4827,35.5466],[-89.4773,35.5463],[-89.4766,35.5488],[-89.4715,35.5442],[-89.4727,35.5474],[-89.4699,35.5466],[-89.4721,35.4752],[-89.4742,35.403],[-89.4972,35.4035]]],[[[-90.1294,35.4421],[-90.1231,35.4599],[-90.12,35.4666],[-90.1144,35.4725],[-90.1077,35.4769],[-90.1005,35.4781],[-90.088,35.4786],[-90.079,35.4769],[-90.0678,35.4662],[-90.0672,35.461],[-90.0713,35.4503],[-90.0741,35.4396],[-90.0741,35.434],[-90.0705,35.4233],[-90.062,35.4152],[-90.0695,35.4081],[-90.0543,35.3893],[-90.0618,35.3862],[-90.075,35.3842],[-90.081,35.3859],[-90.0842,35.3887],[-90.0936,35.3933],[-90.1023,35.3997],[-90.1073,35.4042],[-90.1116,35.4096],[-90.1151,35.4114],[-90.1293,35.4138],[-90.1343,35.4133],[-90.1393,35.4105],[-90.1432,35.407],[-90.1462,35.3995],[-90.1459,35.3951],[-90.1435,35.3876],[-90.1355,35.3767],[-90.1465,35.374],[-90.156,35.3746],[-90.1653,35.374],[-90.1721,35.3775],[-90.1783,35.3821],[-90.1793,35.3852],[-90.1707,35.4101],[-90.1706,35.4184],[-90.1689,35.4219],[-90.1401,35.4367],[-90.1294,35.4421]]]]}},{"type":"Feature","properties":{"id":"47047","name":"Fayette Co., TN"},"geometry":{"type":"Polygon","coordinates":[[[-89.6285,35.3787],[-89.629,35.3826],[-89.6238,35.3817],[-89.6173,35.3836],[-89.6184,35.3863],[-89.6162,35.3887],[-89.6073,35.3891],[-89.6053,35.3916],[-89.602,35.3919],[-89.5986,35.3946],[-89.5879,35.3947],[-89.5852,35.3975],[-89.5803,35.3955],[-89.576,35.3989],[-89.5732,35.3963],[-89.5663,35.3975],[-89.5634,35.4006],[-89.5518,35.4012],[-89.5497,35.4033],[-89.5406,35.4048],[-89.5001,35.4041],[-89.4972,35.4035],[-89.4742,35.403],[-89.4385,35.4021],[-89.4386,35.401],[-89.3475,35.3995],[-89.3475,35.4003],[-89.2803,35.3989],[-89.2501,35.3985],[-89.2476,35.3982],[-89.1839,35.3971],[-89.1861,35.3442],[-89.1916,35.1775],[-89.1941,35.0992],[-89.196,35.0566],[-89.1983,34.9945],[-89.2174,34.9947],[-89.3527,34.9941],[-89.435,34.9938],[-89.4869,34.994],[-89.5112,34.9948],[-89.644,34.9953],[-89.6439,35.0064],[-89.6428,35.0449],[-89.6409,35.0815],[-89.6371,35.198],[-89.6379,35.2098],[-89.6371,35.2102],[-89.6373,35.2321],[-89.6367,35.2327],[-89.6357,35.2663],[-89.6363,35.2717],[-89.6353,35.2746],[-89.6344,35.2959],[-89.6348,35.318],[-89.6357,35.3176],[-89.6328,35.3758],[-89.6285,35.3787]]]}},{"type":"Feature","properties":{"id":"28093","name":"Marshall Co., MS"},"geometry":{"type":"Polygon","coordinates":[[[-89.644,34.9953],[-89.5112,34.9948],[-89.4869,34.994],[-89.435,34.9938],[-89.3527,34.9941],[-89.3529,34.9173],[-89.3529,34.861],[-89.3527,34.8444],[-89.2992,34.8444],[-89.2989,34.731],[-89.2987,34.7196],[-89.2986,34.6705],[-89.2982,34.6406],[-89.2983,34.5829],[-89.2456,34.5832],[-89.2459,34.5461],[-89.246,34.5001],[-89.2467,34.4975],[-89.2504,34.4996],[-89.2512,34.4965],[-89.2563,34.4978],[-89.258,34.5004],[-89.2632,34.5007],[-89.262,34.5038],[-89.2643,34.5054],[-89.2697,34.5052],[-89.2694,34.5069],[-89.2742,34.5056],[-89.28,34.5064],[-89.2825,34.509],[-89.2845,34.5069],[-89.2866,34.5084],[-89.2891,34.5064],[-89.2883,34.5098],[-89.2901,34.5111],[-89.2929,34.5172],[-89.2947,34.5147],[-89.2972,34.5173],[-89.3005,34.5135],[-89.3033,34.5166],[-89.3105,34.5176],[-89.3111,34.52],[-89.3152,34.5215],[-89.3151,34.5244],[-89.3187,34.5202],[-89.3264,34.5231],[-89.3258,34.526],[-89.3308,34.5231],[-89.3301,34.5262],[-89.3364,34.5221],[-89.3373,34.5248],[-89.3393,34.5234],[-89.3462,34.5255],[-89.3473,34.522],[-89.3537,34.5223],[-89.3536,34.5272],[-89.359,34.5236],[-89.3628,34.5224],[-89.3658,34.5263],[-89.3667,34.5238],[-89.3642,34.5192],[-89.369,34.5206],[-89.3698,34.5186],[-89.3762,34.5202],[-89.3788,34.519],[-89.3815,34.5207],[-89.3849,34.5202],[-89.3892,34.5222],[-89.392,34.5253],[-89.394,34.524],[-89.4015,34.5256],[-89.402,34.5281],[-89.4065,34.526],[-89.4074,34.5223],[-89.4104,34.5228],[-89.4127,34.5259],[-89.4149,34.5222],[-89.4245,34.5191],[-89.4343,34.5201],[-89.4402,34.5234],[-89.4431,34.5312],[-89.4482,34.5305],[-89.4557,34.5325],[-89.4605,34.5386],[-89.465,34.5407],[-89.4684,34.5463],[-89.4736,34.5467],[-89.4767,34.549],[-89.475,34.5516],[-89.4767,34.554],[-89.5276,34.5548],[-89.6266,34.5551],[-89.6684,34.5544],[-89.6692,34.6402],[-89.6692,34.6856],[-89.7223,34.6855],[-89.7233,34.7349],[-89.7234,34.7723],[-89.7239,34.831],[-89.7239,34.8783],[-89.724,34.9276],[-89.7244,34.9499],[-89.7242,34.971],[-89.7243,34.9952],[-89.644,34.9953]]]}},{"type":"Feature","properties":{"id":"05035","name":"Crittenden Co., AR"},"geometry":{"type":"Polygon","coordinates":[[[-90.1689,35.4219],[-90.1706,35.4184],[-90.1707,35.4101],[-90.1793,35.3852],[-90.1783,35.3821],[-90.1721,35.3775],[-90.1653,35.374],[-90.156,35.3746],[-90.1465,35.374],[-90.1355,35.3767],[-90.1435,35.3876],[-90.1459,35.3951],[-90.1462,35.3995],[-90.1432,35.407],[-90.1393,35.4105],[-90.1343,35.4133],[-90.1293,35.4138],[-90.1151,35.4114],[-90.1116,35.4096],[-90.1073,35.4042],[-90.1023,35.3997],[-90.0936,35.3933],[-90.0842,35.3887],[-90.081,35.3859],[-90.0786,35.3806],[-90.0783,35.3749],[-90.0839,35.3656],[-90.0934,35.3541],[-90.0962,35.3489],[-90.1038,35.3243],[-90.1086,35.312],[-90.11,35.305],[-90.1172,35.3034],[-90.1237,35.3045],[-90.1298,35.3012],[-90.1395,35.2988],[-90.1485,35.3029],[-90.1573,35.3015],[-90.1612,35.299],[-90.1652,35.2932],[-90.1689,35.282],[-90.1666,35.2746],[-90.1588,35.2629],[-90.1521,35.256],[-90.1463,35.2536],[-90.1397,35.2523],[-90.1173,35.2558],[-90.1051,35.2544],[-90.0943,35.2488],[-90.0864,35.2382],[-90.0845,35.231],[-90.0762,35.2215],[-90.0749,35.2181],[-90.0755,35.214],[-90.0782,35.2097],[-90.0807,35.2085],[-90.0886,35.2123],[-90.0933,35.2033],[-90.0965,35.1948],[-90.1087,35.1993],[-90.1161,35.1986],[-90.1174,35.1901],[-90.1167,35.1869],[-90.1137,35.1833],[-90.1081,35.1816],[-90.1067,35.176],[-90.1014,35.1711],[-90.0789,35.1594],[-90.0687,35.156],[-90.0654,35.1514],[-90.064,35.1446],[-90.0665,35.1368],[-90.073,35.1292],[-90.0826,35.1213],[-90.0897,35.1181],[-90.095,35.1175],[-90.1068,35.1194],[-90.1291,35.1285],[-90.1418,35.133],[-90.1507,35.1325],[-90.1547,35.1309],[-90.1674,35.1236],[-90.1723,35.1189],[-90.1768,35.1121],[-90.1814,35.094],[-90.181,35.085],[-90.1785,35.0798],[-90.175,35.0761],[-90.1776,35.0638],[-90.1812,35.0539],[-90.1865,35.0454],[-90.1912,35.0402],[-90.2073,35.0258],[-90.2132,35.0255],[-90.2324,35.0312],[-90.243,35.0327],[-90.2518,35.0316],[-90.2562,35.0347],[-90.2617,35.0362],[-90.2648,35.0404],[-90.2923,35.0414],[-90.297,35.0382],[-90.2995,35.0303],[-90.3057,35.0191],[-90.3053,35.0136],[-90.3093,35.0096],[-90.3105,35.0027],[-90.3084,34.9957],[-90.3073,34.9919],[-90.3013,34.982],[-90.2961,34.9765],[-90.2707,34.9588],[-90.2459,34.9487],[-90.2438,34.9453],[-90.242,34.9315],[-90.2413,34.919],[-90.2432,34.9091],[-90.2491,34.9001],[-90.2579,34.8934],[-90.2769,34.8852],[-90.2897,34.8833],[-90.3045,34.8778],[-90.3177,34.8711],[-90.3149,34.864],[-90.3058,34.8617],[-90.3048,34.8604],[-90.3027,34.8544],[-90.3039,34.8505],[-90.3074,34.8462],[-90.3113,34.8442],[-90.3192,34.8449],[-90.3286,34.8497],[-90.3384,34.8585],[-90.3623,34.8428],[-90.3894,34.8307],[-90.3998,34.8277],[-90.4079,34.8268],[-90.408,34.8603],[-90.4085,34.904],[-90.4077,35.0025],[-90.4027,35.0025],[-90.4018,35.0495],[-90.402,35.0539],[-90.4004,35.1482],[-90.4271,35.1471],[-90.4668,35.1449],[-90.4892,35.144],[-90.503,35.1442],[-90.5022,35.1788],[-90.5065,35.1788],[-90.5049,35.2584],[-90.5031,35.354],[-90.503,35.376],[-90.5024,35.4416],[-90.3973,35.4401],[-90.3409,35.4391],[-90.2155,35.4376],[-90.1401,35.4367],[-90.1689,35.4219]]]}}]}