{"type":"FeatureCollection","features":[{"type":"Feature","properties":{"id":"48039","name":"Brazoria Co."},"geometry":{"type":"Polygon","coordinates":[[[-95.7978,29.308],[-95.784,29.2962],[-95.7529,29.3245],[-95.6728,29.2995],[-95.6651,29.2989],[-95.6644,29.2966],[-95.6546,29.291],[-95.6527,29.2944],[-95.6485,29.2937],[-95.6418,29.2943],[-95.6406,29.2966],[-95.6313,29.2927],[-95.6265,29.2931],[-95.6208,29.2998],[-95.622,29.3051],[-95.6282,29.3095],[-95.6258,29.313],[-95.6161,29.3194],[-95.6145,29.3234],[-95.6039,29.3304],[-95.6032,29.3283],[-95.5908,29.3275],[-95.5891,29.3346],[-95.5872,29.3369],[-95.5812,29.3391],[-95.5788,29.3429],[-95.5826,29.3499],[-95.5803,29.3525],[-95.5761,29.3529],[-95.5741,29.3547],[-95.5755,29.3579],[-95.5805,29.3609],[-95.5779,29.3651],[-95.5757,29.3727],[-95.5757,29.3759],[-95.5723,29.3838],[-95.5673,29.3897],[-95.5629,29.3911],[-95.5589,29.3905],[-95.553,29.3935],[-95.5476,29.3952],[-95.5472,29.3971],[-95.5499,29.4026],[-95.5458,29.4077],[-95.5519,29.4196],[-95.556,29.4228],[-95.5559,29.4253],[-95.5518,29.4288],[-95.5501,29.4352],[-95.5506,29.4383],[-95.541,29.4385],[-95.4626,29.4392],[-95.4469,29.4976],[-95.4243,29.5803],[-95.4171,29.5833],[-95.4084,29.5829],[-95.4039,29.5818],[-95.3964,29.5827],[-95.3933,29.5817],[-95.3881,29.5857],[-95.3762,29.5883],[-95.3682,29.5847],[-95.364,29.5859],[-95.3607,29.5849],[-95.3568,29.5868],[-95.3529,29.5855],[-95.3491,29.5865],[-95.3464,29.5855],[-95.3406,29.5927],[-95.3323,29.5989],[-95.3224,29.5967],[-95.3197,29.5982],[-95.3147,29.598],[-95.3097,29.595],[-95.3039,29.5952],[-95.2986,29.597],[-95.2963,29.5962],[-95.288,29.5983],[-95.2828,29.5977],[-95.2802,29.5955],[-95.2663,29.5946],[-95.2616,29.5932],[-95.2603,29.5899],[-95.2621,29.5871],[-95.2603,29.5841],[-95.2612,29.5811],[-95.259,29.5782],[-95.2597,29.5744],[-95.2554,29.5672],[-95.255,29.5639],[-95.2525,29.5608],[-95.2549,29.5573],[-95.254,29.5539],[-95.2482,29.5557],[-95.2474,29.5531],[-95.242,29.5563],[-95.2416,29.5597],[-95.2377,29.5614],[-95.2337,29.5571],[-95.2286,29.56],[-95.2236,29.5591],[-95.2213,29.557],[-95.2182,29.5594],[-95.2148,29.5571],[-95.2163,29.5558],[-95.2233,29.5176],[-95.2331,29.4656],[-95.1693,29.37],[-95.1656,29.3638],[-95.1445,29.3329],[-95.1041,29.2726],[-95.0766,29.2309],[-95.0719,29.223],[-95.0571,29.2005],[-95.0597,29.2001],[-95.0806,29.1893],[-95.0973,29.1774],[-95.1038,29.1754],[-95.1123,29.1751],[-95.1127,29.1769],[-95.1087,29.1802],[-95.108,29.1827],[-95.1105,29.1916],[-95.113,29.197],[-95.1158,29.1995],[-95.1212,29.1973],[-95.1268,29.1969],[-95.1342,29.1918],[-95.138,29.1948],[-95.1438,29.1962],[-95.1505,29.1966],[-95.157,29.195],[-95.1587,29.1915],[-95.1573,29.1873],[-95.1522,29.1865],[-95.1499,29.1793],[-95.154,29.1718],[-95.1535,29.1634],[-95.1558,29.1573],[-95.1552,29.1515],[-95.1601,29.1464],[-95.1596,29.1421],[-95.1673,29.1212],[-95.1671,29.1131],[-95.1622,29.1073],[-95.1593,29.101],[-95.1561,29.1017],[-95.1503,29.0977],[-95.1448,29.0908],[-95.1409,29.0879],[-95.138,29.0816],[-95.1311,29.0809],[-95.1244,29.0765],[-95.1238,29.0706],[-95.145,29.0552],[-95.1901,29.0249],[-95.2518,28.979],[-95.2723,28.9615],[-95.2864,28.9479],[-95.2949,28.9372],[-95.2979,28.9347],[-95.3038,28.9323],[-95.3098,28.9283],[-95.3205,28.9224],[-95.3405,28.9085],[-95.3535,28.8981],[-95.3774,28.8784],[-95.3807,28.8772],[-95.3837,28.87],[-95.3918,28.8677],[-95.4162,28.8595],[-95.4367,28.8596],[-95.4632,28.8489],[-95.5072,28.8256],[-95.5042,28.8284],[-95.504,28.8375],[-95.5087,28.8371],[-95.5228,28.8332],[-95.5305,28.8291],[-95.5382,28.8329],[-95.5411,28.8304],[-95.5436,28.8326],[-95.5502,28.8288],[-95.5545,28.8303],[-95.5675,28.8297],[-95.5737,28.8328],[-95.579,28.8396],[-95.5762,28.8524],[-95.5793,28.8573],[-95.5792,28.8596],[-95.5853,28.8622],[-95.587,28.8662],[-95.5939,28.8716],[-95.6026,28.8765],[-95.6112,28.8829],[-95.6165,28.8851],[-95.6232,28.8937],[-95.6307,28.8974],[-95.6335,28.8975],[-95.6375,28.9037],[-95.6417,28.9037],[-95.6455,28.9097],[-95.645,28.9123],[-95.6481,28.9174],[-95.6511,28.9192],[-95.6519,28.9257],[-95.6487,28.9347],[-95.6458,28.9389],[-95.6494,28.9425],[-95.6551,28.9515],[-95.6641,28.9542],[-95.6694,28.9567],[-95.6751,28.9642],[-95.6796,28.9657],[-95.6838,28.9605],[-95.6905,28.9647],[-95.6965,28.9656],[-95.6991,28.9695],[-95.7055,28.9686],[-95.7649,28.9674],[-95.7703,28.9727],[-95.7694,28.9778],[-95.7656,28.9797],[-95.7699,28.983],[-95.77,28.9885],[-95.7672,28.9887],[-95.7721,28.9944],[-95.7768,28.9947],[-95.7783,28.9971],[-95.7719,29.0054],[-95.7691,29.0027],[-95.7695,29.0056],[-95.7731,29.0056],[-95.7791,29.0087],[-95.7796,29.0068],[-95.7834,29.0065],[-95.7851,29.0089],[-95.7795,29.0108],[-95.7799,29.0161],[-95.7767,29.0187],[-95.782,29.0217],[-95.7783,29.0232],[-95.7785,29.0265],[-95.784,29.028],[-95.7841,29.0304],[-95.7794,29.0347],[-95.781,29.0374],[-95.7855,29.0392],[-95.7839,29.0428],[-95.7773,29.0446],[-95.7756,29.0523],[-95.7706,29.0519],[-95.7675,29.0532],[-95.765,29.0605],[-95.7691,29.0626],[-95.7704,29.0662],[-95.774,29.0644],[-95.7809,29.0656],[-95.7918,29.0712],[-95.7952,29.0744],[-95.7975,29.0803],[-95.8008,29.0797],[-95.8035,29.0845],[-95.8036,29.0875],[-95.8059,29.0905],[-95.8178,29.0895],[-95.8221,29.0907],[-95.8284,29.0897],[-95.8343,29.0941],[-95.8365,29.0929],[-95.839,29.0976],[-95.8419,29.0991],[-95.8432,29.1066],[-95.8464,29.1074],[-95.8437,29.1124],[-95.8408,29.1152],[-95.8416,29.1174],[-95.8407,29.1242],[-95.8375,29.1299],[-95.8383,29.1368],[-95.8405,29.1427],[-95.8436,29.1427],[-95.845,29.1454],[-95.8481,29.1462],[-95.8507,29.1519],[-95.8491,29.155],[-95.8502,29.1599],[-95.8477,29.1603],[-95.8484,29.1654],[-95.8432,29.169],[-95.84,29.1682],[-95.8394,29.1725],[-95.8417,29.1735],[-95.8384,29.1766],[-95.8578,29.1933],[-95.8447,29.2047],[-95.874,29.2297],[-95.8419,29.2587],[-95.8477,29.2626],[-95.7978,29.308]]]}},{"type":"Feature","properties":{"id":"48157","name":"Fort Bend Co."},"geometry":{"type":"Polygon","coordinates":[[[-96.0248,29.6029],[-96.0248,29.6176],[-96.0227,29.6244],[-96.0189,29.6246],[-96.0164,29.6271],[-96.0193,29.6355],[-96.0151,29.6393],[-96.0148,29.6417],[-96.0175,29.6455],[-96.025,29.65],[-96.0318,29.6556],[-96.0331,29.6582],[-96.0305,29.6604],[-96.0239,29.6583],[-96.0182,29.6603],[-96.016,29.6637],[-96.0185,29.6698],[-96.025,29.6724],[-96.0297,29.6752],[-96.0337,29.6742],[-96.0438,29.6658],[-96.0487,29.6666],[-96.054,29.6719],[-96.0575,29.6727],[-96.06,29.676],[-96.0596,29.6793],[-96.0552,29.6829],[-96.0479,29.6846],[-96.0406,29.6875],[-96.0312,29.6885],[-96.024,29.6844],[-96.0214,29.6789],[-96.0166,29.6801],[-96.015,29.6827],[-96.0141,29.6887],[-96.0145,29.6936],[-96.0162,29.6966],[-96.0224,29.7021],[-96.0226,29.705],[-96.0198,29.7053],[-96.0142,29.7029],[-96.006,29.7039],[-96.0046,29.7086],[-96.0077,29.7177],[-96.0116,29.7198],[-96.016,29.7196],[-96.025,29.7171],[-96.0313,29.7171],[-96.0334,29.7196],[-96.0327,29.7279],[-95.9709,29.7286],[-95.9713,29.7405],[-95.9509,29.7408],[-95.9015,29.7599],[-95.8849,29.7658],[-95.8262,29.7883],[-95.826,29.7886],[-95.772,29.7583],[-95.7304,29.7343],[-95.6701,29.7006],[-95.6522,29.6908],[-95.6232,29.6743],[-95.6055,29.6645],[-95.465,29.5996],[-95.4243,29.5803],[-95.4469,29.4976],[-95.4626,29.4392],[-95.541,29.4385],[-95.5506,29.4383],[-95.5501,29.4352],[-95.5518,29.4288],[-95.5559,29.4253],[-95.556,29.4228],[-95.5519,29.4196],[-95.5458,29.4077],[-95.5499,29.4026],[-95.5472,29.3971],[-95.5476,29.3952],[-95.553,29.3935],[-95.5589,29.3905],[-95.5629,29.3911],[-95.5673,29.3897],[-95.5723,29.3838],[-95.5757,29.3759],[-95.5757,29.3727],[-95.5779,29.3651],[-95.5805,29.3609],[-95.5755,29.3579],[-95.5741,29.3547],[-95.5761,29.3529],[-95.5803,29.3525],[-95.5826,29.3499],[-95.5788,29.3429],[-95.5812,29.3391],[-95.5872,29.3369],[-95.5891,29.3346],[-95.5908,29.3275],[-95.6032,29.3283],[-95.6039,29.3304],[-95.6145,29.3234],[-95.6161,29.3194],[-95.6258,29.313],[-95.6282,29.3095],[-95.622,29.3051],[-95.6208,29.2998],[-95.6265,29.2931],[-95.6313,29.2927],[-95.6406,29.2966],[-95.6418,29.2943],[-95.6485,29.2937],[-95.6527,29.2944],[-95.6546,29.291],[-95.6644,29.2966],[-95.6651,29.2989],[-95.6728,29.2995],[-95.7529,29.3245],[-95.784,29.2962],[-95.7978,29.308],[-95.8477,29.2626],[-95.8509,29.2663],[-95.8535,29.2659],[-95.8569,29.268],[-95.8651,29.2673],[-95.8691,29.2692],[-95.8723,29.2667],[-95.877,29.2657],[-95.8796,29.2668],[-95.8802,29.2708],[-95.8849,29.2743],[-95.8847,29.2792],[-95.8898,29.2875],[-95.8909,29.2921],[-95.8975,29.2993],[-95.8957,29.3039],[-95.8962,29.3067],[-95.8928,29.3109],[-95.8945,29.315],[-95.8983,29.3144],[-95.9038,29.317],[-95.9066,29.3169],[-95.9166,29.3194],[-95.9194,29.3263],[-95.9228,29.3294],[-95.9316,29.3285],[-95.9404,29.3317],[-95.9443,29.3322],[-95.9506,29.3366],[-95.9496,29.341],[-95.9534,29.3451],[-95.9526,29.348],[-95.9503,29.348],[-95.9491,29.3515],[-95.9474,29.3497],[-95.946,29.3529],[-95.9445,29.3517],[-95.9395,29.3525],[-95.9388,29.3577],[-95.9365,29.3584],[-95.9402,29.361],[-95.9439,29.3612],[-95.945,29.3665],[-95.9482,29.3717],[-95.9475,29.3729],[-95.9546,29.3794],[-95.9603,29.3814],[-95.9638,29.38],[-95.9684,29.3834],[-95.9671,29.3871],[-95.9695,29.392],[-95.9697,29.3992],[-95.9725,29.4043],[-95.9708,29.4084],[-95.9734,29.4114],[-95.9821,29.4108],[-95.9838,29.4149],[-95.9882,29.4187],[-95.9862,29.4227],[-95.988,29.4281],[-95.992,29.4338],[-96.0012,29.431],[-96.0038,29.4289],[-96.0084,29.4295],[-96.0124,29.435],[-96.0186,29.4374],[-96.0189,29.4397],[-96.0224,29.4415],[-96.0295,29.441],[-96.0353,29.443],[-96.0366,29.4457],[-96.0296,29.4495],[-96.0295,29.4521],[-96.0389,29.4539],[-96.0375,29.4565],[-96.0436,29.458],[-96.0436,29.4615],[-96.048,29.4618],[-96.05,29.4722],[-96.0562,29.4722],[-96.0607,29.4765],[-96.0577,29.4813],[-96.06,29.4841],[-96.0597,29.4919],[-96.0564,29.4908],[-96.0531,29.4943],[-96.0472,29.4913],[-96.0456,29.4925],[-96.0355,29.4923],[-96.0311,29.4956],[-96.0263,29.495],[-96.0252,29.4991],[-96.0224,29.5019],[-96.025,29.5038],[-96.0243,29.507],[-96.0278,29.509],[-96.0305,29.5078],[-96.0363,29.5108],[-96.04,29.5096],[-96.0471,29.5097],[-96.0531,29.5119],[-96.0547,29.5146],[-96.0531,29.5162],[-96.0558,29.5181],[-96.0508,29.5232],[-96.0523,29.5254],[-96.0556,29.5256],[-96.0546,29.5352],[-96.0563,29.5395],[-96.0513,29.5385],[-96.051,29.5404],[-96.0411,29.5405],[-96.0433,29.5435],[-96.0413,29.5467],[-96.0429,29.5507],[-96.0419,29.5534],[-96.0449,29.5579],[-96.0445,29.5619],[-96.0474,29.5638],[-96.0534,29.5652],[-96.06,29.5687],[-96.0631,29.5759],[-96.062,29.5778],[-96.0628,29.5837],[-96.0596,29.5885],[-96.0623,29.5915],[-96.0671,29.591],[-96.0714,29.5925],[-96.0758,29.5967],[-96.0844,29.6011],[-96.0889,29.6017],[-96.0248,29.6029]]]}},{"type":"Feature","properties":{"id":"48071","name":"Chambers Co."},"geometry":{"type":"MultiPolygon","coordinates":[[[[-94.7165,29.7335],[-94.7138,29.7314],[-94.7162,29.7278],[-94.7183,29.7289],[-94.7165,29.7335]]],[[[-94.9216,29.5881],[-94.9186,29.5876],[-94.9077,29.5737],[-94.9074,29.5714],[-94.914,29.5673],[-94.9168,29.5676],[-94.928,29.5822],[-94.9279,29.5846],[-94.9216,29.5881]]],[[[-94.9686,29.6825],[-94.9658,29.6793],[-94.9532,29.6775],[-94.9477,29.6702],[-94.9414,29.6534],[-94.9424,29.652],[-94.9542,29.6503],[-94.9483,29.6441],[-94.9478,29.6385],[-94.9489,29.6336],[-94.9472,29.6297],[-94.9439,29.6273],[-94.9396,29.6209],[-94.9417,29.6156],[-94.9448,29.613],[-94.9474,29.6134],[-94.9533,29.6187],[-94.9542,29.6226],[-94.9521,29.6287],[-94.9537,29.6325],[-94.9592,29.6362],[-94.9608,29.6431],[-94.9653,29.6515],[-94.9667,29.6599],[-94.9683,29.6625],[-94.9683,29.6671],[-94.9711,29.672],[-94.9756,29.6762],[-94.9761,29.6783],[-94.9686,29.6825]]],[[[-94.9196,29.8851],[-94.8355,29.886],[-94.7878,29.8866],[-94.6958,29.8877],[-94.6384,29.8884],[-94.5346,29.8895],[-94.5002,29.8899],[-94.4915,29.8895],[-94.4422,29.8895],[-94.4406,29.887],[-94.358,29.8875],[-94.3555,29.7286],[-94.354,29.6252],[-94.3541,29.6203],[-94.3534,29.5748],[-94.3541,29.5626],[-94.3708,29.5562],[-94.3716,29.5972],[-94.3753,29.5968],[-94.3771,29.5937],[-94.3788,29.596],[-94.387,29.5943],[-94.3981,29.5968],[-94.3988,29.5945],[-94.4065,29.5983],[-94.4098,29.5967],[-94.41,29.5943],[-94.4138,29.59],[-94.4168,29.5925],[-94.4192,29.5892],[-94.4188,29.586],[-94.4138,29.5869],[-94.4169,29.5846],[-94.4133,29.5801],[-94.4173,29.5781],[-94.4142,29.5776],[-94.4124,29.5734],[-94.4159,29.5727],[-94.4178,29.5693],[-94.4217,29.5697],[-94.4229,29.5663],[-94.427,29.5669],[-94.4281,29.5652],[-94.4362,29.5643],[-94.4393,29.5654],[-94.4436,29.5624],[-94.4478,29.564],[-94.4589,29.5608],[-94.4631,29.5607],[-94.4698,29.5571],[-94.4723,29.557],[-94.4745,29.5587],[-94.479,29.5557],[-94.49,29.5524],[-94.496,29.5498],[-94.4985,29.5452],[-94.5215,29.5408],[-94.5228,29.5416],[-94.5221,29.5485],[-94.5236,29.5524],[-94.5344,29.5596],[-94.5398,29.5641],[-94.5451,29.5719],[-94.5524,29.574],[-94.561,29.5744],[-94.57,29.5722],[-94.5783,29.568],[-94.5923,29.5625],[-94.5976,29.5621],[-94.6014,29.5595],[-94.6233,29.5536],[-94.6327,29.5521],[-94.6383,29.5503],[-94.6569,29.5477],[-94.6641,29.5457],[-94.666,29.5442],[-94.6812,29.5403],[-94.6873,29.5382],[-94.6997,29.5379],[-94.7022,29.5388],[-94.7113,29.5369],[-94.7172,29.5341],[-94.7201,29.5343],[-94.7407,29.5269],[-94.7471,29.5277],[-94.7522,29.5254],[-94.7626,29.5242],[-94.7687,29.5257],[-94.779,29.5302],[-94.7815,29.5327],[-94.7845,29.5395],[-94.7886,29.5461],[-94.7848,29.5483],[-94.7801,29.549],[-94.7793,29.5459],[-94.7758,29.5454],[-94.7718,29.5396],[-94.7616,29.5418],[-94.761,29.5433],[-94.7512,29.5505],[-94.7497,29.5535],[-94.7533,29.5575],[-94.7533,29.5612],[-94.7477,29.5667],[-94.7367,29.5749],[-94.7295,29.5861],[-94.725,29.5958],[-94.7149,29.6101],[-94.7134,29.6101],[-94.714,29.6156],[-94.7119,29.6167],[-94.707,29.6251],[-94.7013,29.6394],[-94.6998,29.647],[-94.7003,29.651],[-94.6985,29.6524],[-94.6977,29.6581],[-94.699,29.6596],[-94.6977,29.6641],[-94.6955,29.6781],[-94.6964,29.6813],[-94.6894,29.6933],[-94.6901,29.7003],[-94.6896,29.7096],[-94.6925,29.7239],[-94.6946,29.7286],[-94.6969,29.7293],[-94.6979,29.7342],[-94.6973,29.738],[-94.6945,29.7454],[-94.6964,29.7478],[-94.6977,29.7535],[-94.6959,29.7591],[-94.7084,29.7662],[-94.713,29.7761],[-94.7186,29.7811],[-94.7257,29.7804],[-94.7252,29.7934],[-94.7282,29.7947],[-94.7312,29.7896],[-94.7385,29.7907],[-94.7474,29.7896],[-94.7507,29.7832],[-94.7708,29.7764],[-94.7872,29.7692],[-94.7925,29.7683],[-94.7998,29.7656],[-94.8152,29.7585],[-94.8239,29.7501],[-94.8243,29.7486],[-94.8358,29.7373],[-94.8511,29.7214],[-94.8551,29.7154],[-94.8538,29.7136],[-94.8565,29.7101],[-94.865,29.6953],[-94.8674,29.6788],[-94.8726,29.6713],[-94.8918,29.6613],[-94.901,29.6576],[-94.9082,29.6556],[-94.9205,29.6571],[-94.9218,29.6588],[-94.9213,29.6645],[-94.9274,29.6683],[-94.9307,29.6737],[-94.9277,29.6807],[-94.9224,29.6839],[-94.9197,29.6885],[-94.9216,29.6932],[-94.9163,29.6962],[-94.9158,29.6984],[-94.9239,29.6992],[-94.9254,29.6968],[-94.9299,29.6974],[-94.9303,29.6992],[-94.9265,29.7009],[-94.9253,29.7037],[-94.933,29.7052],[-94.9346,29.7104],[-94.9325,29.7136],[-94.935,29.7152],[-94.9415,29.7132],[-94.9454,29.7162],[-94.9423,29.7209],[-94.9415,29.7247],[-94.9348,29.7326],[-94.9323,29.7339],[-94.9283,29.7388],[-94.93,29.7466],[-94.9298,29.75],[-94.9234,29.7553],[-94.9184,29.7561],[-94.9178,29.761],[-94.9192,29.7646],[-94.917,29.7668],[-94.9138,29.7663],[-94.9143,29.7691],[-94.9196,29.7713],[-94.9163,29.7737],[-94.9201,29.7754],[-94.92,29.781],[-94.9171,29.7862],[-94.9178,29.789],[-94.9211,29.7919],[-94.9194,29.7937],[-94.9238,29.7947],[-94.9225,29.7966],[-94.9229,29.8024],[-94.9169,29.8033],[-94.9162,29.8065],[-94.9124,29.8088],[-94.9132,29.8129],[-94.9085,29.8149],[-94.9111,29.8182],[-94.9086,29.8255],[-94.9117,29.8288],[-94.9267,29.8337],[-94.9346,29.8343],[-94.9459,29.8458],[-94.9476,29.8508],[-94.9526,29.855],[-94.9659,29.8581],[-94.9727,29.8632],[-94.9771,29.8682],[-94.9759,29.873],[-94.9763,29.877],[-94.9815,29.8843],[-94.9196,29.8851]]]]}},{"type":"Feature","properties":{"id":"48167","name":"Galveston Co."},"geometry":{"type":"MultiPolygon","coordinates":[[[[-94.4901,29.5112],[-94.4986,29.5071],[-94.5009,29.5069],[-94.5643,29.4814],[-94.5962,29.4679],[-94.6316,29.4518],[-94.6548,29.4401],[-94.6683,29.4326],[-94.6813,29.4246],[-94.6942,29.4156],[-94.7085,29.403],[-94.7178,29.3908],[-94.7237,29.3821],[-94.7286,29.3723],[-94.7334,29.368],[-94.7383,29.3704],[-94.7392,29.3749],[-94.742,29.3759],[-94.7547,29.3676],[-94.7542,29.3662],[-94.7615,29.3619],[-94.7634,29.3658],[-94.77,29.3649],[-94.7787,29.3615],[-94.7807,29.3651],[-94.7773,29.3711],[-94.7778,29.3758],[-94.783,29.3749],[-94.7834,29.3775],[-94.7746,29.385],[-94.7672,29.3904],[-94.7668,29.3935],[-94.7702,29.393],[-94.7737,29.3953],[-94.7743,29.3992],[-94.7665,29.4076],[-94.755,29.4159],[-94.7477,29.4094],[-94.7455,29.4085],[-94.7379,29.4144],[-94.7354,29.4151],[-94.7236,29.4259],[-94.7174,29.43],[-94.7109,29.4313],[-94.7035,29.4365],[-94.7035,29.4404],[-94.6983,29.4467],[-94.6955,29.4527],[-94.6919,29.455],[-94.6912,29.4601],[-94.6872,29.4598],[-94.6852,29.466],[-94.6767,29.4735],[-94.6717,29.4762],[-94.6654,29.4774],[-94.6572,29.4766],[-94.65,29.475],[-94.6456,29.4725],[-94.6404,29.4724],[-94.6282,29.476],[-94.6158,29.4812],[-94.6066,29.4828],[-94.5991,29.4903],[-94.5942,29.4921],[-94.5976,29.4952],[-94.5949,29.5024],[-94.5947,29.5072],[-94.5907,29.513],[-94.5854,29.5184],[-94.5746,29.5276],[-94.5716,29.5275],[-94.569,29.5302],[-94.562,29.5309],[-94.554,29.5283],[-94.5423,29.5214],[-94.5301,29.5168],[-94.5154,29.5172],[-94.5104,29.5149],[-94.5081,29.5116],[-94.5023,29.5104],[-94.4933,29.5136],[-94.4898,29.5165],[-94.4889,29.5196],[-94.4881,29.5331],[-94.4866,29.5368],[-94.4828,29.5409],[-94.4762,29.5451],[-94.4739,29.5504],[-94.4706,29.5533],[-94.4723,29.557],[-94.4698,29.5571],[-94.4631,29.5607],[-94.4589,29.5608],[-94.4478,29.564],[-94.4436,29.5624],[-94.4393,29.5654],[-94.4362,29.5643],[-94.4281,29.5652],[-94.427,29.5669],[-94.4229,29.5663],[-94.4217,29.5697],[-94.4178,29.5693],[-94.4159,29.5727],[-94.4124,29.5734],[-94.4142,29.5776],[-94.4173,29.5781],[-94.4133,29.5801],[-94.4169,29.5846],[-94.4138,29.5869],[-94.4188,29.586],[-94.4192,29.5892],[-94.4168,29.5925],[-94.4138,29.59],[-94.41,29.5943],[-94.4098,29.5967],[-94.4065,29.5983],[-94.3988,29.5945],[-94.3981,29.5968],[-94.387,29.5943],[-94.3788,29.596],[-94.3771,29.5937],[-94.3753,29.5968],[-94.3716,29.5972],[-94.3708,29.5562],[-94.4901,29.5112]]],[[[-94.8216,29.327],[-94.8221,29.3333],[-94.8199,29.3395],[-94.8216,29.3453],[-94.8129,29.3514],[-94.8105,29.3521],[-94.7921,29.3411],[-94.7859,29.335],[-94.7812,29.3325],[-94.7818,29.324],[-94.79,29.3161],[-94.7984,29.3124],[-94.8109,29.3126],[-94.8157,29.3121],[-94.822,29.3132],[-94.8231,29.3166],[-94.8233,29.3239],[-94.8216,29.327]]],[[[-94.821,29.3527],[-94.8199,29.3502],[-94.8242,29.3489],[-94.8252,29.3538],[-94.821,29.3527]]],[[[-94.9131,29.275],[-94.9092,29.274],[-94.9092,29.2698],[-94.9138,29.2699],[-94.9151,29.2734],[-94.9131,29.275]]],[[[-94.9227,29.2884],[-94.9197,29.2868],[-94.9219,29.282],[-94.9244,29.2816],[-94.929,29.2851],[-94.9287,29.287],[-94.9227,29.2884]]],[[[-95.1147,29.0942],[-95.1101,29.0977],[-95.1071,29.1022],[-95.097,29.1189],[-95.093,29.1225],[-95.0832,29.1272],[-95.0795,29.1275],[-95.0713,29.1323],[-95.0683,29.1363],[-95.0638,29.137],[-95.0581,29.142],[-95.0462,29.1494],[-95.0398,29.1543],[-95.0281,29.1566],[-95.0242,29.1602],[-95.0254,29.1627],[-95.0236,29.169],[-95.017,29.1685],[-95.0167,29.1721],[-95.019,29.1756],[-95.0133,29.1788],[-95.0088,29.1778],[-95.0065,29.1798],[-95.0087,29.1829],[-95.0131,29.1851],[-95.0053,29.1851],[-95.0013,29.187],[-94.9933,29.1888],[-94.9895,29.1906],[-94.994,29.1958],[-94.9918,29.2003],[-94.9836,29.2012],[-94.9795,29.2028],[-94.9757,29.2015],[-94.9719,29.207],[-94.975,29.2088],[-94.9743,29.2112],[-94.9692,29.2135],[-94.9595,29.2102],[-94.959,29.2129],[-94.9622,29.2164],[-94.9623,29.2192],[-94.9534,29.2183],[-94.9453,29.2215],[-94.9445,29.2238],[-94.9488,29.2287],[-94.9557,29.2294],[-94.9476,29.233],[-94.9434,29.2357],[-94.9343,29.2326],[-94.9305,29.2349],[-94.9302,29.2435],[-94.9274,29.2466],[-94.924,29.2472],[-94.9207,29.2505],[-94.921,29.2534],[-94.9142,29.2584],[-94.9093,29.2599],[-94.8912,29.2705],[-94.8868,29.2706],[-94.8801,29.2727],[-94.8819,29.2793],[-94.8805,29.2827],[-94.8763,29.2863],[-94.8744,29.2899],[-94.8683,29.2904],[-94.8616,29.2955],[-94.8589,29.2952],[-94.8511,29.2993],[-94.8496,29.2975],[-94.8376,29.2998],[-94.8378,29.3012],[-94.8319,29.3021],[-94.8277,29.3009],[-94.8279,29.3046],[-94.8237,29.3059],[-94.8208,29.3096],[-94.7981,29.3085],[-94.789,29.3119],[-94.7812,29.3185],[-94.7747,29.321],[-94.7723,29.3337],[-94.7666,29.3373],[-94.7563,29.3364],[-94.7462,29.3348],[-94.7314,29.337],[-94.7262,29.3325],[-94.7272,29.3314],[-94.7405,29.3232],[-94.7673,29.3056],[-94.7948,29.2844],[-94.8151,29.2725],[-94.8365,29.2607],[-94.8669,29.2428],[-94.8692,29.2422],[-94.8918,29.229],[-95.0036,29.1622],[-95.0288,29.1469],[-95.0466,29.1357],[-95.0696,29.1208],[-95.0879,29.1079],[-95.1003,29.0972],[-95.107,29.089],[-95.1141,29.0849],[-95.1166,29.0846],[-95.1223,29.0886],[-95.1199,29.0929],[-95.1147,29.0942]]],[[[-95.2132,29.5558],[-95.2128,29.5579],[-95.207,29.5592],[-95.2056,29.5578],[-95.2006,29.5616],[-95.1993,29.559],[-95.1932,29.5595],[-95.1948,29.5561],[-95.1977,29.5573],[-95.2,29.5523],[-95.1974,29.5494],[-95.1995,29.5445],[-95.1972,29.542],[-95.1951,29.5436],[-95.1923,29.5405],[-95.194,29.5366],[-95.1883,29.5354],[-95.1875,29.534],[-95.1906,29.5307],[-95.1868,29.5271],[-95.1878,29.5243],[-95.1848,29.5232],[-95.1827,29.5188],[-95.1793,29.5199],[-95.1776,29.5169],[-95.175,29.5183],[-95.1743,29.5152],[-95.1697,29.5149],[-95.1675,29.5125],[-95.1711,29.51],[-95.1703,29.5069],[-95.1672,29.5057],[-95.1664,29.5021],[-95.1629,29.5013],[-95.1639,29.4981],[-95.1567,29.4982],[-95.1528,29.5004],[-95.1489,29.4987],[-95.1417,29.5064],[-95.1339,29.5064],[-95.1295,29.5051],[-95.1286,29.5084],[-95.122,29.5104],[-95.1185,29.507],[-95.1131,29.5108],[-95.108,29.5096],[-95.1039,29.5113],[-95.1061,29.5169],[-95.1036,29.5179],[-95.1026,29.5213],[-95.0981,29.5183],[-95.0936,29.5258],[-95.097,29.5341],[-95.094,29.5354],[-95.0896,29.5311],[-95.0861,29.5347],[-95.0792,29.5347],[-95.0787,29.5378],[-95.0804,29.541],[-95.0792,29.5432],[-95.0809,29.5457],[-95.0738,29.5483],[-95.0711,29.5507],[-95.0683,29.5575],[-95.0643,29.5588],[-95.0499,29.5585],[-95.0419,29.5546],[-95.0329,29.5522],[-95.0296,29.5522],[-95.0287,29.5477],[-95.0231,29.5494],[-95.0171,29.5487],[-95.0152,29.54],[-95.003,29.5261],[-94.9947,29.5198],[-94.982,29.5132],[-94.9765,29.5113],[-94.9461,29.5036],[-94.9339,29.5015],[-94.9301,29.4997],[-94.912,29.4963],[-94.9095,29.4968],[-94.9105,29.4921],[-94.9209,29.4779],[-94.9254,29.4709],[-94.9282,29.4729],[-94.927,29.4752],[-94.9284,29.4798],[-94.9315,29.4812],[-94.94,29.48],[-94.9534,29.4726],[-94.9518,29.4675],[-94.9381,29.4564],[-94.931,29.452],[-94.9162,29.4448],[-94.892,29.4337],[-94.8888,29.4224],[-94.8879,29.4168],[-94.8888,29.4133],[-94.8877,29.4024],[-94.8869,29.387],[-94.8898,29.3782],[-94.8849,29.3766],[-94.8821,29.3783],[-94.8666,29.3742],[-94.8644,29.3705],[-94.8664,29.3673],[-94.8916,29.3559],[-94.9066,29.356],[-94.9086,29.3466],[-94.9082,29.3399],[-94.8929,29.3253],[-94.8927,29.3135],[-94.8955,29.3083],[-94.9,29.3024],[-94.9088,29.2975],[-94.9125,29.2932],[-94.9183,29.2932],[-94.9274,29.2968],[-94.9288,29.2984],[-94.9259,29.3007],[-94.9169,29.3013],[-94.91,29.2995],[-94.905,29.3025],[-94.9073,29.3088],[-94.9366,29.3149],[-94.942,29.3135],[-94.9441,29.3056],[-94.9543,29.2932],[-94.962,29.2872],[-94.9709,29.2832],[-94.9753,29.2781],[-94.9888,29.2653],[-95.0103,29.2412],[-95.0222,29.2338],[-95.0274,29.2283],[-95.0345,29.2115],[-95.0422,29.2069],[-95.0551,29.2008],[-95.0571,29.2005],[-95.0719,29.223],[-95.0766,29.2309],[-95.1041,29.2726],[-95.1445,29.3329],[-95.1656,29.3638],[-95.1693,29.37],[-95.2331,29.4656],[-95.2233,29.5176],[-95.2163,29.5558],[-95.2132,29.5558]]]]}},{"type":"Feature","properties":{"id":"48339","name":"Montgomery Co."},"geometry":{"type":"Polygon","coordinates":[[[-95.3549,30.4983],[-95.3529,30.4936],[-95.3536,30.4904],[-95.3525,30.4843],[-95.3502,30.4795],[-95.3507,30.4761],[-95.3481,30.4738],[-95.3457,30.4688],[-95.3414,30.4645],[-95.3401,30.4589],[-95.336,30.4495],[-95.3303,30.4431],[-95.331,30.4379],[-95.3295,30.4332],[-95.317,30.4194],[-95.3141,30.4124],[-95.3108,30.4104],[-95.308,30.4055],[-95.3033,30.4024],[-95.2998,30.4024],[-95.2876,30.3953],[-95.2819,30.3952],[-95.277,30.3935],[-95.2749,30.3909],[-95.2712,30.3895],[-95.2686,30.3864],[-95.2607,30.3834],[-95.2501,30.3835],[-95.2424,30.3805],[-95.2368,30.3796],[-95.2332,30.3736],[-95.2269,30.3666],[-95.227,30.3637],[-95.2207,30.3616],[-95.218,30.3562],[-95.2128,30.3532],[-95.2111,30.3543],[-95.2038,30.352],[-95.2033,30.3479],[-95.2089,30.3436],[-95.2114,30.3386],[-95.2208,30.3371],[-95.222,30.3323],[-95.2276,30.326],[-95.2256,30.3195],[-95.1985,30.3305],[-95.1659,30.345],[-95.1369,30.2706],[-95.1294,30.2505],[-95.1256,30.2419],[-95.104,30.1865],[-95.0967,30.1672],[-95.1316,30.1386],[-95.1957,30.0873],[-95.204,30.0802],[-95.2119,30.0742],[-95.239,30.0521],[-95.2641,30.0321],[-95.271,30.0324],[-95.2831,30.0306],[-95.293,30.0279],[-95.2972,30.0314],[-95.3029,30.032],[-95.3056,30.0298],[-95.311,30.0329],[-95.3128,30.036],[-95.3115,30.0419],[-95.3095,30.0456],[-95.316,30.0538],[-95.3198,30.0527],[-95.327,30.058],[-95.3293,30.0625],[-95.3363,30.0628],[-95.3381,30.0661],[-95.3431,30.0683],[-95.346,30.0726],[-95.3494,30.0736],[-95.3495,30.0764],[-95.3555,30.0772],[-95.3597,30.0767],[-95.3621,30.0784],[-95.3652,30.0766],[-95.3737,30.0803],[-95.375,30.0864],[-95.3848,30.0878],[-95.3849,30.0858],[-95.3895,30.0852],[-95.3916,30.0827],[-95.3985,30.0858],[-95.3999,30.0899],[-95.4022,30.0917],[-95.4094,30.0926],[-95.4128,30.0952],[-95.4106,30.0979],[-95.4117,30.1008],[-95.4191,30.105],[-95.4188,30.1085],[-95.422,30.1097],[-95.4242,30.1155],[-95.4356,30.1127],[-95.4369,30.1102],[-95.4419,30.109],[-95.4472,30.1098],[-95.4519,30.1082],[-95.4538,30.1046],[-95.4606,30.1056],[-95.4694,30.1046],[-95.4747,30.1032],[-95.4843,30.1079],[-95.4879,30.1078],[-95.4913,30.1108],[-95.4918,30.1149],[-95.4964,30.1199],[-95.4977,30.1258],[-95.4958,30.1318],[-95.498,30.1353],[-95.4998,30.1425],[-95.5035,30.1451],[-95.5069,30.1457],[-95.5093,30.1482],[-95.5152,30.1512],[-95.5172,30.154],[-95.5185,30.1522],[-95.5244,30.1587],[-95.5239,30.1614],[-95.5295,30.1658],[-95.5317,30.1651],[-95.537,30.1692],[-95.5429,30.1705],[-95.5448,30.1691],[-95.5514,30.1706],[-95.558,30.1655],[-95.5593,30.1631],[-95.5578,30.1605],[-95.5602,30.1583],[-95.5652,30.1607],[-95.5699,30.1574],[-95.5699,30.1537],[-95.5775,30.1501],[-95.5806,30.1499],[-95.5842,30.1466],[-95.5855,30.142],[-95.5881,30.1378],[-95.5975,30.1335],[-95.6026,30.1328],[-95.6135,30.1354],[-95.6232,30.1356],[-95.6259,30.1287],[-95.6235,30.1272],[-95.6287,30.1278],[-95.637,30.1263],[-95.6392,30.1223],[-95.6462,30.119],[-95.6526,30.1137],[-95.6554,30.109],[-95.6591,30.1123],[-95.6616,30.1114],[-95.6623,30.1082],[-95.6673,30.1056],[-95.6676,30.1023],[-95.6711,30.1012],[-95.6761,30.103],[-95.6796,30.1059],[-95.6857,30.1069],[-95.6881,30.1036],[-95.6876,30.1006],[-95.6908,30.0988],[-95.6964,30.0993],[-95.7013,30.0985],[-95.7055,30.1024],[-95.7151,30.1023],[-95.7173,30.0994],[-95.723,30.0998],[-95.7276,30.0959],[-95.7345,30.0935],[-95.7408,30.0961],[-95.7496,30.0954],[-95.7594,30.0902],[-95.7609,30.0864],[-95.7648,30.0884],[-95.7711,30.0875],[-95.7745,30.0912],[-95.7774,30.0897],[-95.7827,30.0909],[-95.7859,30.094],[-95.7893,30.0945],[-95.7886,30.0921],[-95.8033,30.0901],[-95.8038,30.1325],[-95.8039,30.1787],[-95.8043,30.2456],[-95.8044,30.3378],[-95.8139,30.4557],[-95.8175,30.5002],[-95.818,30.5031],[-95.8302,30.6303],[-95.7815,30.6052],[-95.6975,30.5608],[-95.6638,30.5432],[-95.5989,30.509],[-95.4915,30.5088],[-95.3619,30.5089],[-95.3592,30.5044],[-95.3549,30.4983]]]}},{"type":"Feature","properties":{"id":"48015","name":"Austin Co."},"geometry":{"type":"Polygon","coordinates":[[[-96.1441,30.0669],[-96.1464,30.0645],[-96.1406,30.0582],[-96.1347,30.0554],[-96.1267,30.0533],[-96.1218,30.0509],[-96.1172,30.0501],[-96.112,30.0463],[-96.1075,30.0386],[-96.1087,30.032],[-96.1128,30.0295],[-96.1132,30.027],[-96.1083,30.0249],[-96.103,30.0257],[-96.0999,30.0282],[-96.0947,30.0254],[-96.0905,30.014],[-96.0845,30.0051],[-96.0863,29.9999],[-96.0916,29.9982],[-96.0984,30.004],[-96.1015,30.0037],[-96.1045,29.9964],[-96.103,29.9896],[-96.1003,29.9838],[-96.0957,29.9781],[-96.096,29.9767],[-96.1029,29.9678],[-96.1011,29.9662],[-96.0947,29.9643],[-96.0928,29.9615],[-96.0949,29.9598],[-96.1035,29.9614],[-96.1053,29.9592],[-96.1144,29.9625],[-96.1201,29.9671],[-96.1242,29.9681],[-96.126,29.965],[-96.1241,29.959],[-96.1195,29.955],[-96.1093,29.9559],[-96.1064,29.9555],[-96.1038,29.9524],[-96.1035,29.9466],[-96.1008,29.9435],[-96.1031,29.9404],[-96.1084,29.9406],[-96.1131,29.9431],[-96.1156,29.9465],[-96.1215,29.9492],[-96.1243,29.948],[-96.1255,29.9449],[-96.1306,29.9396],[-96.1312,29.9337],[-96.1286,29.9315],[-96.1197,29.9285],[-96.1133,29.9153],[-96.1151,29.9116],[-96.1238,29.9071],[-96.1261,29.9032],[-96.1263,29.8989],[-96.1241,29.895],[-96.1173,29.8909],[-96.1093,29.8889],[-96.1043,29.8826],[-96.0947,29.8841],[-96.0927,29.8828],[-96.0929,29.8794],[-96.0958,29.8767],[-96.1019,29.8747],[-96.1103,29.8738],[-96.1122,29.8726],[-96.1121,29.8657],[-96.1102,29.8587],[-96.1017,29.854],[-96.1009,29.8525],[-96.1045,29.8505],[-96.1105,29.85],[-96.1162,29.8475],[-96.1213,29.842],[-96.1221,29.8394],[-96.1199,29.8338],[-96.1079,29.8223],[-96.1054,29.8229],[-96.099,29.8274],[-96.0978,29.8258],[-96.0987,29.8203],[-96.1033,29.8124],[-96.1025,29.8097],[-96.0928,29.8086],[-96.0823,29.8047],[-96.0743,29.8051],[-96.0699,29.807],[-96.0646,29.8069],[-96.0608,29.8046],[-96.059,29.8004],[-96.0563,29.7997],[-96.0536,29.8024],[-96.0489,29.803],[-96.0422,29.7953],[-96.0414,29.7924],[-96.043,29.7791],[-96.0374,29.7737],[-96.0296,29.7547],[-96.0299,29.7483],[-96.0321,29.745],[-96.0397,29.7397],[-96.0371,29.7336],[-96.0344,29.7319],[-96.0327,29.7279],[-96.0334,29.7196],[-96.0313,29.7171],[-96.025,29.7171],[-96.016,29.7196],[-96.0116,29.7198],[-96.0077,29.7177],[-96.0046,29.7086],[-96.006,29.7039],[-96.0142,29.7029],[-96.0198,29.7053],[-96.0226,29.705],[-96.0224,29.7021],[-96.0162,29.6966],[-96.0145,29.6936],[-96.0141,29.6887],[-96.015,29.6827],[-96.0166,29.6801],[-96.0214,29.6789],[-96.024,29.6844],[-96.0312,29.6885],[-96.0406,29.6875],[-96.0479,29.6846],[-96.0552,29.6829],[-96.0596,29.6793],[-96.06,29.676],[-96.0575,29.6727],[-96.054,29.6719],[-96.0487,29.6666],[-96.0438,29.6658],[-96.0337,29.6742],[-96.0297,29.6752],[-96.025,29.6724],[-96.0185,29.6698],[-96.016,29.6637],[-96.0182,29.6603],[-96.0239,29.6583],[-96.0305,29.6604],[-96.0331,29.6582],[-96.0318,29.6556],[-96.025,29.65],[-96.0175,29.6455],[-96.0148,29.6417],[-96.0151,29.6393],[-96.0193,29.6355],[-96.0164,29.6271],[-96.0189,29.6246],[-96.0227,29.6244],[-96.0248,29.6176],[-96.0248,29.6029],[-96.0889,29.6017],[-96.0937,29.604],[-96.0933,29.6075],[-96.0951,29.6126],[-96.0984,29.6132],[-96.1064,29.6185],[-96.1096,29.6225],[-96.1162,29.6233],[-96.1191,29.6193],[-96.1222,29.6183],[-96.1308,29.6229],[-96.1359,29.6199],[-96.1418,29.6196],[-96.1484,29.6254],[-96.1552,29.6292],[-96.1583,29.6295],[-96.1654,29.6265],[-96.1703,29.6292],[-96.1776,29.6354],[-96.1808,29.6409],[-96.1878,29.6426],[-96.19,29.6476],[-96.1932,29.6496],[-96.1956,29.6535],[-96.1995,29.6565],[-96.2089,29.6564],[-96.2133,29.6608],[-96.2186,29.6619],[-96.2247,29.6649],[-96.2347,29.6607],[-96.2391,29.6578],[-96.2416,29.6587],[-96.2451,29.6632],[-96.2513,29.6661],[-96.2567,29.6671],[-96.2598,29.6693],[-96.2626,29.6746],[-96.2619,29.6788],[-96.2651,29.6831],[-96.2663,29.687],[-96.271,29.69],[-96.2731,29.6967],[-96.2772,29.6989],[-96.2772,29.7014],[-96.2705,29.7058],[-96.2719,29.7108],[-96.2701,29.7166],[-96.2755,29.7189],[-96.2805,29.7262],[-96.2839,29.7277],[-96.2901,29.7274],[-96.292,29.73],[-96.29,29.7321],[-96.2913,29.735],[-96.2983,29.7372],[-96.2963,29.7438],[-96.2972,29.7497],[-96.3,29.7516],[-96.3079,29.7539],[-96.3117,29.7562],[-96.314,29.7628],[-96.3141,29.7712],[-96.3194,29.7743],[-96.3193,29.7763],[-96.315,29.7795],[-96.3147,29.7855],[-96.3181,29.7912],[-96.3214,29.7921],[-96.3286,29.7986],[-96.3313,29.7977],[-96.3364,29.8032],[-96.3327,29.8028],[-96.3309,29.8144],[-96.3349,29.8173],[-96.3374,29.8212],[-96.3423,29.8246],[-96.3427,29.829],[-96.3445,29.8301],[-96.3522,29.8273],[-96.3579,29.8191],[-96.3637,29.8189],[-96.37,29.8237],[-96.3793,29.8253],[-96.3888,29.8215],[-96.3933,29.8217],[-96.3936,29.8241],[-96.3966,29.8226],[-96.4051,29.8255],[-96.4075,29.8239],[-96.4127,29.8247],[-96.4158,29.8281],[-96.4222,29.8309],[-96.4217,29.834],[-96.4282,29.8409],[-96.4347,29.8419],[-96.4347,29.8479],[-96.4398,29.8506],[-96.4408,29.8536],[-96.45,29.8564],[-96.4547,29.8549],[-96.4605,29.8547],[-96.4651,29.8608],[-96.469,29.8615],[-96.4731,29.8665],[-96.4786,29.8691],[-96.4851,29.8673],[-96.5037,29.8824],[-96.5357,29.9073],[-96.5698,29.9615],[-96.5957,30.0028],[-96.622,30.0443],[-96.5941,30.071],[-96.5859,30.0647],[-96.5188,30.0652],[-96.5045,30.0673],[-96.3752,30.0848],[-96.3572,30.0866],[-96.3341,30.0906],[-96.2928,30.0962],[-96.2857,30.0964],[-96.2818,30.0933],[-96.2762,30.0924],[-96.2725,30.0944],[-96.2675,30.0839],[-96.2642,30.0808],[-96.2638,30.0783],[-96.2609,30.0781],[-96.2593,30.0757],[-96.2539,30.0758],[-96.2509,30.0741],[-96.2474,30.0753],[-96.2438,30.0724],[-96.2409,30.073],[-96.2396,30.0756],[-96.2339,30.0763],[-96.2286,30.0756],[-96.225,30.0724],[-96.2198,30.0726],[-96.2187,30.0708],[-96.2138,30.069],[-96.2141,30.0664],[-96.2092,30.0622],[-96.2068,30.067],[-96.2006,30.0666],[-96.197,30.0647],[-96.1925,30.0652],[-96.1858,30.0624],[-96.1798,30.062],[-96.1779,30.0596],[-96.1688,30.0544],[-96.1628,30.0529],[-96.1573,30.0559],[-96.1557,30.0588],[-96.1574,30.0606],[-96.153,30.0672],[-96.1461,30.0702],[-96.1441,30.0669]]]}},{"type":"Feature","properties":{"id":"48407","name":"San Jacinto Co."},"geometry":{"type":"Polygon","coordinates":[[[-94.8426,30.4875],[-94.9474,30.4404],[-94.959,30.435],[-95.0066,30.414],[-95.0325,30.4041],[-95.0815,30.3813],[-95.0982,30.3746],[-95.132,30.3597],[-95.1384,30.3566],[-95.1659,30.345],[-95.1985,30.3305],[-95.2256,30.3195],[-95.2276,30.326],[-95.222,30.3323],[-95.2208,30.3371],[-95.2114,30.3386],[-95.2089,30.3436],[-95.2033,30.3479],[-95.2038,30.352],[-95.2111,30.3543],[-95.2128,30.3532],[-95.218,30.3562],[-95.2207,30.3616],[-95.227,30.3637],[-95.2269,30.3666],[-95.2332,30.3736],[-95.2368,30.3796],[-95.2424,30.3805],[-95.2501,30.3835],[-95.2607,30.3834],[-95.2686,30.3864],[-95.2712,30.3895],[-95.2749,30.3909],[-95.277,30.3935],[-95.2819,30.3952],[-95.2876,30.3953],[-95.2998,30.4024],[-95.3033,30.4024],[-95.308,30.4055],[-95.3108,30.4104],[-95.3141,30.4124],[-95.317,30.4194],[-95.3295,30.4332],[-95.331,30.4379],[-95.3303,30.4431],[-95.336,30.4495],[-95.3401,30.4589],[-95.3414,30.4645],[-95.3457,30.4688],[-95.3481,30.4738],[-95.3507,30.4761],[-95.3502,30.4795],[-95.3525,30.4843],[-95.3536,30.4904],[-95.3529,30.4936],[-95.3549,30.4983],[-95.3592,30.5044],[-95.3465,30.6252],[-95.3437,30.668],[-95.3386,30.7378],[-95.3373,30.7502],[-95.3275,30.8595],[-95.3241,30.8619],[-95.3214,30.8678],[-95.3172,30.8695],[-95.3139,30.8731],[-95.3167,30.8788],[-95.3163,30.8807],[-95.3113,30.8858],[-95.3109,30.8907],[-95.3143,30.8954],[-95.3129,30.8979],[-95.3074,30.9005],[-95.3008,30.9023],[-95.2892,30.9028],[-95.2802,30.9013],[-95.2723,30.9039],[-95.2524,30.9067],[-95.2463,30.904],[-95.238,30.8939],[-95.2308,30.887],[-95.2395,30.8709],[-95.2431,30.8669],[-95.2363,30.8584],[-95.2359,30.8547],[-95.2333,30.8457],[-95.231,30.8411],[-95.2229,30.8363],[-95.2166,30.8337],[-95.2076,30.8324],[-95.2046,30.8302],[-95.2011,30.8254],[-95.193,30.8238],[-95.1892,30.8188],[-95.1804,30.8184],[-95.1792,30.814],[-95.174,30.8076],[-95.1676,30.803],[-95.1563,30.8001],[-95.1489,30.7925],[-95.1409,30.7889],[-95.1383,30.7847],[-95.133,30.7838],[-95.1312,30.7817],[-95.1394,30.7762],[-95.1391,30.7737],[-95.1352,30.7685],[-95.1313,30.7594],[-95.1341,30.7502],[-95.1369,30.747],[-95.1448,30.744],[-95.146,30.7406],[-95.1427,30.732],[-95.1435,30.7253],[-95.1462,30.7224],[-95.1471,30.7174],[-95.1454,30.7138],[-95.1386,30.7072],[-95.1353,30.6992],[-95.1354,30.6938],[-95.1327,30.6934],[-95.1252,30.6958],[-95.1193,30.6966],[-95.1107,30.6949],[-95.1095,30.6927],[-95.115,30.6883],[-95.1195,30.6773],[-95.1189,30.6756],[-95.1119,30.6738],[-95.1113,30.67],[-95.1162,30.6644],[-95.115,30.661],[-95.109,30.6581],[-95.1048,30.6579],[-95.0955,30.6607],[-95.0916,30.6642],[-95.0909,30.6708],[-95.0884,30.6721],[-95.0798,30.6693],[-95.0739,30.6726],[-95.0675,30.6735],[-95.0606,30.6784],[-95.0546,30.6802],[-95.0534,30.6774],[-95.0551,30.6731],[-95.0536,30.6712],[-95.0466,30.6715],[-95.0386,30.6758],[-95.0342,30.6742],[-95.0327,30.6718],[-95.0386,30.6682],[-95.0415,30.6644],[-95.039,30.6629],[-95.0244,30.6605],[-95.0199,30.6545],[-95.0131,30.6582],[-95.0091,30.6546],[-95.0094,30.6523],[-95.0132,30.6485],[-95.0163,30.6484],[-95.0213,30.6509],[-95.0247,30.6498],[-95.021,30.6365],[-95.0163,30.6343],[-95.0159,30.6271],[-95.0089,30.6277],[-95.0091,30.62],[-95.0083,30.6112],[-95.0069,30.6091],[-95.0085,30.6061],[-95.0128,30.6053],[-95.016,30.601],[-95.0225,30.6003],[-95.025,30.5973],[-95.0311,30.5981],[-95.0294,30.5907],[-95.0354,30.5883],[-95.0355,30.5856],[-95.0286,30.5785],[-95.0226,30.5773],[-95.0138,30.5776],[-95.005,30.5801],[-94.9947,30.5791],[-94.9854,30.5761],[-94.9703,30.5769],[-94.9657,30.5766],[-94.9575,30.5721],[-94.9501,30.5709],[-94.9452,30.5659],[-94.9403,30.5595],[-94.9343,30.5576],[-94.9273,30.558],[-94.9105,30.5615],[-94.9067,30.5607],[-94.901,30.5575],[-94.8896,30.5564],[-94.8856,30.553],[-94.878,30.5497],[-94.8752,30.5461],[-94.8574,30.5466],[-94.8519,30.5443],[-94.8429,30.5462],[-94.8304,30.5416],[-94.8297,30.5395],[-94.8334,30.5305],[-94.8379,30.5286],[-94.8526,30.5244],[-94.8547,30.5229],[-94.8566,30.5181],[-94.8638,30.514],[-94.8674,30.5108],[-94.8659,30.496],[-94.8607,30.4941],[-94.8535,30.495],[-94.8494,30.4936],[-94.8426,30.4875]]]}},{"type":"Feature","properties":{"id":"48201","name":"Harris Co."},"geometry":{"type":"MultiPolygon","coordinates":[[[[-94.9779,29.6812],[-94.9774,29.6852],[-94.9738,29.6861],[-94.9686,29.6825],[-94.9761,29.6783],[-94.9779,29.6812]]],[[[-94.9856,29.6985],[-94.9802,29.696],[-94.9793,29.6939],[-94.976,29.6944],[-94.9733,29.6914],[-94.9752,29.6879],[-94.9796,29.6883],[-94.9846,29.6913],[-94.9921,29.6984],[-94.9856,29.6985]]],[[[-95.7886,30.0921],[-95.7893,30.0945],[-95.7859,30.094],[-95.7827,30.0909],[-95.7774,30.0897],[-95.7745,30.0912],[-95.7711,30.0875],[-95.7648,30.0884],[-95.7609,30.0864],[-95.7594,30.0902],[-95.7496,30.0954],[-95.7408,30.0961],[-95.7345,30.0935],[-95.7276,30.0959],[-95.723,30.0998],[-95.7173,30.0994],[-95.7151,30.1023],[-95.7055,30.1024],[-95.7013,30.0985],[-95.6964,30.0993],[-95.6908,30.0988],[-95.6876,30.1006],[-95.6881,30.1036],[-95.6857,30.1069],[-95.6796,30.1059],[-95.6761,30.103],[-95.6711,30.1012],[-95.6676,30.1023],[-95.6673,30.1056],[-95.6623,30.1082],[-95.6616,30.1114],[-95.6591,30.1123],[-95.6554,30.109],[-95.6526,30.1137],[-95.6462,30.119],[-95.6392,30.1223],[-95.637,30.1263],[-95.6287,30.1278],[-95.6235,30.1272],[-95.6259,30.1287],[-95.6232,30.1356],[-95.6135,30.1354],[-95.6026,30.1328],[-95.5975,30.1335],[-95.5881,30.1378],[-95.5855,30.142],[-95.5842,30.1466],[-95.5806,30.1499],[-95.5775,30.1501],[-95.5699,30.1537],[-95.5699,30.1574],[-95.5652,30.1607],[-95.5602,30.1583],[-95.5578,30.1605],[-95.5593,30.1631],[-95.558,30.1655],[-95.5514,30.1706],[-95.5448,30.1691],[-95.5429,30.1705],[-95.537,30.1692],[-95.5317,30.1651],[-95.5295,30.1658],[-95.5239,30.1614],[-95.5244,30.1587],[-95.5185,30.1522],[-95.5172,30.154],[-95.5152,30.1512],[-95.5093,30.1482],[-95.5069,30.1457],[-95.5035,30.1451],[-95.4998,30.1425],[-95.498,30.1353],[-95.4958,30.1318],[-95.4977,30.1258],[-95.4964,30.1199],[-95.4918,30.1149],[-95.4913,30.1108],[-95.4879,30.1078],[-95.4843,30.1079],[-95.4747,30.1032],[-95.4694,30.1046],[-95.4606,30.1056],[-95.4538,30.1046],[-95.4519,30.1082],[-95.4472,30.1098],[-95.4419,30.109],[-95.4369,30.1102],[-95.4356,30.1127],[-95.4242,30.1155],[-95.422,30.1097],[-95.4188,30.1085],[-95.4191,30.105],[-95.4117,30.1008],[-95.4106,30.0979],[-95.4128,30.0952],[-95.4094,30.0926],[-95.4022,30.0917],[-95.3999,30.0899],[-95.3985,30.0858],[-95.3916,30.0827],[-95.3895,30.0852],[-95.3849,30.0858],[-95.3848,30.0878],[-95.375,30.0864],[-95.3737,30.0803],[-95.3652,30.0766],[-95.3621,30.0784],[-95.3597,30.0767],[-95.3555,30.0772],[-95.3495,30.0764],[-95.3494,30.0736],[-95.346,30.0726],[-95.3431,30.0683],[-95.3381,30.0661],[-95.3363,30.0628],[-95.3293,30.0625],[-95.327,30.058],[-95.3198,30.0527],[-95.316,30.0538],[-95.3095,30.0456],[-95.3115,30.0419],[-95.3128,30.036],[-95.311,30.0329],[-95.3056,30.0298],[-95.3029,30.032],[-95.2972,30.0314],[-95.293,30.0279],[-95.2831,30.0306],[-95.271,30.0324],[-95.2641,30.0321],[-95.239,30.0521],[-95.2119,30.0742],[-95.204,30.0802],[-95.1957,30.0873],[-95.1316,30.1386],[-95.0967,30.1672],[-95.0733,30.1037],[-95.0726,30.1031],[-95.0496,30.0415],[-95.0451,30.0292],[-95.0312,29.9933],[-95.0268,29.9967],[-95.0219,29.9969],[-94.9998,29.9913],[-94.9953,29.9794],[-94.9954,29.9778],[-94.9883,29.9747],[-94.9855,29.9725],[-94.9848,29.968],[-94.9821,29.9648],[-94.9812,29.9556],[-94.9877,29.9528],[-94.992,29.9408],[-94.9947,29.9373],[-94.9961,29.9301],[-94.9929,29.9278],[-94.9987,29.9198],[-94.9964,29.9181],[-94.9879,29.9047],[-94.9845,29.8943],[-94.986,29.8905],[-94.9815,29.8843],[-94.9763,29.877],[-94.9759,29.873],[-94.9771,29.8682],[-94.9727,29.8632],[-94.9659,29.8581],[-94.9526,29.855],[-94.9476,29.8508],[-94.9459,29.8458],[-94.9346,29.8343],[-94.9267,29.8337],[-94.9117,29.8288],[-94.9086,29.8255],[-94.9111,29.8182],[-94.9085,29.8149],[-94.9132,29.8129],[-94.9124,29.8088],[-94.9162,29.8065],[-94.9169,29.8033],[-94.9229,29.8024],[-94.9225,29.7966],[-94.9238,29.7947],[-94.9194,29.7937],[-94.9211,29.7919],[-94.9178,29.789],[-94.9171,29.7862],[-94.92,29.781],[-94.9201,29.7754],[-94.9163,29.7737],[-94.9196,29.7713],[-94.9143,29.7691],[-94.9138,29.7663],[-94.917,29.7668],[-94.9192,29.7646],[-94.9178,29.761],[-94.9184,29.7561],[-94.9234,29.7553],[-94.9298,29.75],[-94.93,29.7466],[-94.9283,29.7388],[-94.9323,29.7339],[-94.9348,29.7326],[-94.9415,29.7247],[-94.9423,29.7209],[-94.9454,29.7162],[-94.9415,29.7132],[-94.935,29.7152],[-94.9325,29.7136],[-94.9346,29.7104],[-94.933,29.7052],[-94.9253,29.7037],[-94.9265,29.7009],[-94.9303,29.6992],[-94.9299,29.6974],[-94.9254,29.6968],[-94.9239,29.6992],[-94.9158,29.6984],[-94.9163,29.6962],[-94.9216,29.6932],[-94.9197,29.6885],[-94.9224,29.6839],[-94.9277,29.6807],[-94.9307,29.6737],[-94.9337,29.6786],[-94.9366,29.6804],[-94.9361,29.6927],[-94.9427,29.6978],[-94.9467,29.6991],[-94.9508,29.6987],[-94.966,29.7003],[-94.974,29.7026],[-94.9784,29.709],[-94.9882,29.7091],[-94.9898,29.7134],[-94.9927,29.7135],[-94.995,29.7097],[-94.9976,29.7089],[-95.0035,29.7122],[-95.0135,29.7062],[-95.0165,29.7069],[-95.0197,29.7044],[-95.019,29.7011],[-95.0136,29.699],[-95.0007,29.6968],[-94.9902,29.6858],[-94.9877,29.6814],[-94.9828,29.6819],[-94.9822,29.6769],[-95.001,29.6647],[-95.0054,29.6594],[-95.0117,29.6498],[-95.0156,29.6395],[-95.0152,29.6325],[-95.0135,29.6292],[-95.0086,29.6236],[-95.0019,29.6188],[-94.9982,29.6205],[-94.9991,29.6169],[-94.989,29.6096],[-94.9827,29.6013],[-94.9871,29.597],[-94.9879,29.594],[-94.9935,29.5905],[-94.9939,29.5884],[-95.0041,29.5796],[-95.0115,29.5686],[-95.0183,29.5549],[-95.0212,29.5538],[-95.021,29.5515],[-95.0171,29.5487],[-95.0231,29.5494],[-95.0287,29.5477],[-95.0296,29.5522],[-95.0329,29.5522],[-95.0419,29.5546],[-95.0499,29.5585],[-95.0643,29.5588],[-95.0683,29.5575],[-95.0711,29.5507],[-95.0738,29.5483],[-95.0809,29.5457],[-95.0792,29.5432],[-95.0804,29.541],[-95.0787,29.5378],[-95.0792,29.5347],[-95.0861,29.5347],[-95.0896,29.5311],[-95.094,29.5354],[-95.097,29.5341],[-95.0936,29.5258],[-95.0981,29.5183],[-95.1026,29.5213],[-95.1036,29.5179],[-95.1061,29.5169],[-95.1039,29.5113],[-95.108,29.5096],[-95.1131,29.5108],[-95.1185,29.507],[-95.122,29.5104],[-95.1286,29.5084],[-95.1295,29.5051],[-95.1339,29.5064],[-95.1417,29.5064],[-95.1489,29.4987],[-95.1528,29.5004],[-95.1567,29.4982],[-95.1639,29.4981],[-95.1629,29.5013],[-95.1664,29.5021],[-95.1672,29.5057],[-95.1703,29.5069],[-95.1711,29.51],[-95.1675,29.5125],[-95.1697,29.5149],[-95.1743,29.5152],[-95.175,29.5183],[-95.1776,29.5169],[-95.1793,29.5199],[-95.1827,29.5188],[-95.1848,29.5232],[-95.1878,29.5243],[-95.1868,29.5271],[-95.1906,29.5307],[-95.1875,29.534],[-95.1883,29.5354],[-95.194,29.5366],[-95.1923,29.5405],[-95.1951,29.5436],[-95.1972,29.542],[-95.1995,29.5445],[-95.1974,29.5494],[-95.2,29.5523],[-95.1977,29.5573],[-95.1948,29.5561],[-95.1932,29.5595],[-95.1993,29.559],[-95.2006,29.5616],[-95.2056,29.5578],[-95.207,29.5592],[-95.2128,29.5579],[-95.2132,29.5558],[-95.2163,29.5558],[-95.2148,29.5571],[-95.2182,29.5594],[-95.2213,29.557],[-95.2236,29.5591],[-95.2286,29.56],[-95.2337,29.5571],[-95.2377,29.5614],[-95.2416,29.5597],[-95.242,29.5563],[-95.2474,29.5531],[-95.2482,29.5557],[-95.254,29.5539],[-95.2549,29.5573],[-95.2525,29.5608],[-95.255,29.5639],[-95.2554,29.5672],[-95.2597,29.5744],[-95.259,29.5782],[-95.2612,29.5811],[-95.2603,29.5841],[-95.2621,29.5871],[-95.2603,29.5899],[-95.2616,29.5932],[-95.2663,29.5946],[-95.2802,29.5955],[-95.2828,29.5977],[-95.288,29.5983],[-95.2963,29.5962],[-95.2986,29.597],[-95.3039,29.5952],[-95.3097,29.595],[-95.3147,29.598],[-95.3197,29.5982],[-95.3224,29.5967],[-95.3323,29.5989],[-95.3406,29.5927],[-95.3464,29.5855],[-95.3491,29.5865],[-95.3529,29.5855],[-95.3568,29.5868],[-95.3607,29.5849],[-95.364,29.5859],[-95.3682,29.5847],[-95.3762,29.5883],[-95.3881,29.5857],[-95.3933,29.5817],[-95.3964,29.5827],[-95.4039,29.5818],[-95.4084,29.5829],[-95.4171,29.5833],[-95.4243,29.5803],[-95.465,29.5996],[-95.6055,29.6645],[-95.6232,29.6743],[-95.6522,29.6908],[-95.6701,29.7006],[-95.7304,29.7343],[-95.772,29.7583],[-95.826,29.7886],[-95.84,29.8283],[-95.8569,29.8746],[-95.869,29.9088],[-95.8893,29.9651],[-95.8922,29.9756],[-95.9023,30.0022],[-95.9211,30.0536],[-95.9215,30.064],[-95.9251,30.0639],[-95.9252,30.0687],[-95.9269,30.0694],[-95.9366,30.096],[-95.9607,30.1634],[-95.9558,30.1613],[-95.9518,30.1564],[-95.9471,30.1545],[-95.9446,30.1483],[-95.9406,30.1457],[-95.9323,30.1433],[-95.9291,30.1442],[-95.922,30.1367],[-95.9155,30.1309],[-95.9127,30.1311],[-95.9111,30.1281],[-95.9054,30.1275],[-95.9023,30.1232],[-95.897,30.1227],[-95.8908,30.119],[-95.8866,30.1209],[-95.8831,30.1198],[-95.8807,30.1232],[-95.8787,30.1204],[-95.8739,30.1222],[-95.8723,30.118],[-95.8683,30.1174],[-95.8625,30.1107],[-95.8631,30.107],[-95.8572,30.1042],[-95.8569,30.1018],[-95.8506,30.1021],[-95.8466,30.1005],[-95.8461,30.0975],[-95.8427,30.0948],[-95.8447,30.0889],[-95.8439,30.0872],[-95.8374,30.0832],[-95.8338,30.0849],[-95.8301,30.0839],[-95.8285,30.0817],[-95.8193,30.0831],[-95.817,30.0818],[-95.8158,30.0853],[-95.8096,30.0853],[-95.8095,30.0882],[-95.8033,30.0901],[-95.7886,30.0921]]]]}},{"type":"Feature","properties":{"id":"48291","name":"Liberty Co."},"geometry":{"type":"Polygon","coordinates":[[[-95.1384,30.3566],[-95.132,30.3597],[-95.0982,30.3746],[-95.0815,30.3813],[-95.0325,30.4041],[-95.0066,30.414],[-94.959,30.435],[-94.9474,30.4404],[-94.8426,30.4875],[-94.8494,30.4936],[-94.7753,30.489],[-94.7327,30.4901],[-94.7145,30.4398],[-94.6753,30.3312],[-94.6293,30.203],[-94.6249,30.1914],[-94.5963,30.1121],[-94.5399,30.1119],[-94.4449,30.113],[-94.4451,30.112],[-94.4444,30.0324],[-94.4422,29.8895],[-94.4915,29.8895],[-94.5002,29.8899],[-94.5346,29.8895],[-94.6384,29.8884],[-94.6958,29.8877],[-94.7878,29.8866],[-94.8355,29.886],[-94.9196,29.8851],[-94.9815,29.8843],[-94.986,29.8905],[-94.9845,29.8943],[-94.9879,29.9047],[-94.9964,29.9181],[-94.9987,29.9198],[-94.9929,29.9278],[-94.9961,29.9301],[-94.9947,29.9373],[-94.992,29.9408],[-94.9877,29.9528],[-94.9812,29.9556],[-94.9821,29.9648],[-94.9848,29.968],[-94.9855,29.9725],[-94.9883,29.9747],[-94.9954,29.9778],[-94.9953,29.9794],[-94.9998,29.9913],[-95.0219,29.9969],[-95.0268,29.9967],[-95.0312,29.9933],[-95.0451,30.0292],[-95.0496,30.0415],[-95.0726,30.1031],[-95.0733,30.1037],[-95.0967,30.1672],[-95.104,30.1865],[-95.1256,30.2419],[-95.1294,30.2505],[-95.1369,30.2706],[-95.1659,30.345],[-95.1384,30.3566]]]}},{"type":"Feature","properties":{"id":"48473","name":"Waller Co."},"geometry":{"type":"Polygon","coordinates":[[[-95.8039,30.1787],[-95.8038,30.1325],[-95.8033,30.0901],[-95.8095,30.0882],[-95.8096,30.0853],[-95.8158,30.0853],[-95.817,30.0818],[-95.8193,30.0831],[-95.8285,30.0817],[-95.8301,30.0839],[-95.8338,30.0849],[-95.8374,30.0832],[-95.8439,30.0872],[-95.8447,30.0889],[-95.8427,30.0948],[-95.8461,30.0975],[-95.8466,30.1005],[-95.8506,30.1021],[-95.8569,30.1018],[-95.8572,30.1042],[-95.8631,30.107],[-95.8625,30.1107],[-95.8683,30.1174],[-95.8723,30.118],[-95.8739,30.1222],[-95.8787,30.1204],[-95.8807,30.1232],[-95.8831,30.1198],[-95.8866,30.1209],[-95.8908,30.119],[-95.897,30.1227],[-95.9023,30.1232],[-95.9054,30.1275],[-95.9111,30.1281],[-95.9127,30.1311],[-95.9155,30.1309],[-95.922,30.1367],[-95.9291,30.1442],[-95.9323,30.1433],[-95.9406,30.1457],[-95.9446,30.1483],[-95.9471,30.1545],[-95.9518,30.1564],[-95.9558,30.1613],[-95.9607,30.1634],[-95.9366,30.096],[-95.9269,30.0694],[-95.9252,30.0687],[-95.9251,30.0639],[-95.9215,30.064],[-95.9211,30.0536],[-95.9023,30.0022],[-95.8922,29.9756],[-95.8893,29.9651],[-95.869,29.9088],[-95.8569,29.8746],[-95.84,29.8283],[-95.826,29.7886],[-95.8262,29.7883],[-95.8849,29.7658],[-95.9015,29.7599],[-95.9509,29.7408],[-95.9713,29.7405],[-95.9709,29.7286],[-96.0327,29.7279],[-96.0344,29.7319],[-96.0371,29.7336],[-96.0397,29.7397],[-96.0321,29.745],[-96.0299,29.7483],[-96.0296,29.7547],[-96.0374,29.7737],[-96.043,29.7791],[-96.0414,29.7924],[-96.0422,29.7953],[-96.0489,29.803],[-96.0536,29.8024],[-96.0563,29.7997],[-96.059,29.8004],[-96.0608,29.8046],[-96.0646,29.8069],[-96.0699,29.807],[-96.0743,29.8051],[-96.0823,29.8047],[-96.0928,29.8086],[-96.1025,29.8097],[-96.1033,29.8124],[-96.0987,29.8203],[-96.0978,29.8258],[-96.099,29.8274],[-96.1054,29.8229],[-96.1079,29.8223],[-96.1199,29.8338],[-96.1221,29.8394],[-96.1213,29.842],[-96.1162,29.8475],[-96.1105,29.85],[-96.1045,29.8505],[-96.1009,29.8525],[-96.1017,29.854],[-96.1102,29.8587],[-96.1121,29.8657],[-96.1122,29.8726],[-96.1103,29.8738],[-96.1019,29.8747],[-96.0958,29.8767],[-96.0929,29.8794],[-96.0927,29.8828],[-96.0947,29.8841],[-96.1043,29.8826],[-96.1093,29.8889],[-96.1173,29.8909],[-96.1241,29.895],[-96.1263,29.8989],[-96.1261,29.9032],[-96.1238,29.9071],[-96.1151,29.9116],[-96.1133,29.9153],[-96.1197,29.9285],[-96.1286,29.9315],[-96.1312,29.9337],[-96.1306,29.9396],[-96.1255,29.9449],[-96.1243,29.948],[-96.1215,29.9492],[-96.1156,29.9465],[-96.1131,29.9431],[-96.1084,29.9406],[-96.1031,29.9404],[-96.1008,29.9435],[-96.1035,29.9466],[-96.1038,29.9524],[-96.1064,29.9555],[-96.1093,29.9559],[-96.1195,29.955],[-96.1241,29.959],[-96.126,29.965],[-96.1242,29.9681],[-96.1201,29.9671],[-96.1144,29.9625],[-96.1053,29.9592],[-96.1035,29.9614],[-96.0949,29.9598],[-96.0928,29.9615],[-96.0947,29.9643],[-96.1011,29.9662],[-96.1029,29.9678],[-96.096,29.9767],[-96.0957,29.9781],[-96.1003,29.9838],[-96.103,29.9896],[-96.1045,29.9964],[-96.1015,30.0037],[-96.0984,30.004],[-96.0916,29.9982],[-96.0863,29.9999],[-96.0845,30.0051],[-96.0905,30.014],[-96.0947,30.0254],[-96.0999,30.0282],[-96.103,30.0257],[-96.1083,30.0249],[-96.1132,30.027],[-96.1128,30.0295],[-96.1087,30.032],[-96.1075,30.0386],[-96.112,30.0463],[-96.1172,30.0501],[-96.1218,30.0509],[-96.1267,30.0533],[-96.1347,30.0554],[-96.1406,30.0582],[-96.1464,30.0645],[-96.1441,30.0669],[-96.1461,30.0702],[-96.15,30.0717],[-96.1519,30.0752],[-96.1491,30.0766],[-96.1429,30.0709],[-96.137,30.067],[-96.1347,30.0675],[-96.1338,30.071],[-96.1354,30.0732],[-96.1409,30.0768],[-96.1416,30.0832],[-96.1435,30.085],[-96.1505,30.0847],[-96.1543,30.0865],[-96.1584,30.0917],[-96.159,30.097],[-96.1526,30.1025],[-96.1533,30.1072],[-96.155,30.1085],[-96.1603,30.1081],[-96.1643,30.1012],[-96.1681,30.099],[-96.1728,30.0993],[-96.1747,30.1027],[-96.1714,30.1081],[-96.175,30.1124],[-96.1835,30.1092],[-96.1887,30.1105],[-96.1917,30.1152],[-96.1912,30.1176],[-96.1874,30.1186],[-96.183,30.1171],[-96.1789,30.1184],[-96.1799,30.123],[-96.1864,30.1281],[-96.1883,30.132],[-96.1914,30.1347],[-96.1918,30.1384],[-96.1878,30.1417],[-96.1818,30.1409],[-96.1759,30.1377],[-96.1726,30.1386],[-96.1719,30.1412],[-96.1782,30.145],[-96.1832,30.1507],[-96.1807,30.1557],[-96.1763,30.1548],[-96.1726,30.1516],[-96.1645,30.1466],[-96.1606,30.1431],[-96.156,30.1413],[-96.1535,30.142],[-96.1511,30.1469],[-96.1501,30.1554],[-96.1534,30.1595],[-96.16,30.1618],[-96.162,30.1649],[-96.1609,30.1686],[-96.1552,30.1732],[-96.1546,30.1771],[-96.1592,30.1804],[-96.1598,30.1832],[-96.1571,30.1905],[-96.1591,30.1959],[-96.1583,30.1992],[-96.159,30.2066],[-96.1499,30.213],[-96.1474,30.218],[-96.1451,30.2186],[-96.1402,30.2122],[-96.1363,30.2108],[-96.1282,30.2116],[-96.118,30.2242],[-96.1172,30.2273],[-96.1137,30.2272],[-96.1094,30.2199],[-96.0989,30.2145],[-96.0967,30.2149],[-96.0931,30.2204],[-96.0932,30.2252],[-96.0889,30.2287],[-96.0693,30.23],[-96.0048,30.2337],[-95.9538,30.237],[-95.9386,30.2375],[-95.9231,30.2373],[-95.8229,30.2446],[-95.8043,30.2456],[-95.8039,30.1787]]]}}]}