{"type":"FeatureCollection","features":[{"type":"Feature","properties":{"id":"19077","name":"Guthrie Co."},"geometry":{"type":"Polygon","coordinates":[[[-94.2807,41.7766],[-94.2805,41.6883],[-94.2799,41.6457],[-94.2801,41.6013],[-94.2414,41.601],[-94.2414,41.5218],[-94.2416,41.5037],[-94.328,41.5037],[-94.3376,41.5036],[-94.5141,41.5038],[-94.5286,41.5036],[-94.5859,41.5039],[-94.7006,41.5041],[-94.7008,41.569],[-94.7007,41.6022],[-94.7442,41.6022],[-94.7443,41.6382],[-94.7441,41.6673],[-94.7443,41.7032],[-94.744,41.7466],[-94.7442,41.8055],[-94.7449,41.8624],[-94.6287,41.8628],[-94.513,41.8633],[-94.4157,41.8632],[-94.3576,41.863],[-94.2803,41.863],[-94.2807,41.7766]]]}},{"type":"Feature","properties":{"id":"19121","name":"Madison Co."},"geometry":{"type":"Polygon","coordinates":[[[-94.1948,41.5037],[-94.194,41.5035],[-94.1252,41.5031],[-93.9403,41.5033],[-93.8971,41.5031],[-93.8739,41.5051],[-93.7906,41.5119],[-93.7906,41.4542],[-93.7905,41.3665],[-93.7901,41.3372],[-93.7896,41.2569],[-93.7892,41.2277],[-93.7894,41.2241],[-93.7892,41.162],[-93.8084,41.1612],[-93.8638,41.158],[-93.8752,41.1578],[-93.8988,41.1566],[-93.9177,41.1565],[-93.9754,41.1567],[-94.1471,41.1568],[-94.166,41.1571],[-94.1817,41.1567],[-94.1849,41.157],[-94.2416,41.1571],[-94.2417,41.2437],[-94.2415,41.3882],[-94.2413,41.4113],[-94.2415,41.4268],[-94.2414,41.4605],[-94.2416,41.5037],[-94.1948,41.5037]]]}},{"type":"Feature","properties":{"id":"19099","name":"Jasper Co."},"geometry":{"type":"Polygon","coordinates":[[[-93.2523,41.8627],[-93.0482,41.8626],[-92.9998,41.8625],[-92.8832,41.8624],[-92.766,41.8624],[-92.7665,41.8558],[-92.766,41.8413],[-92.766,41.7905],[-92.7664,41.7172],[-92.7666,41.6377],[-92.7668,41.6014],[-92.7571,41.6014],[-92.7565,41.5088],[-92.7954,41.5087],[-92.9676,41.5082],[-93.025,41.5084],[-93.1107,41.5083],[-93.1397,41.5081],[-93.1879,41.508],[-93.2917,41.5081],[-93.3286,41.5078],[-93.3289,41.5343],[-93.3289,41.5843],[-93.3287,41.6011],[-93.3487,41.601],[-93.3485,41.666],[-93.3485,41.7173],[-93.3482,41.7203],[-93.3483,41.7465],[-93.3479,41.8631],[-93.2523,41.8627]]]}},{"type":"Feature","properties":{"id":"19153","name":"Polk Co."},"geometry":{"type":"Polygon","coordinates":[[[-93.7762,41.8635],[-93.6783,41.8634],[-93.62,41.8632],[-93.483,41.8631],[-93.4634,41.8632],[-93.3479,41.8631],[-93.3483,41.7465],[-93.3482,41.7203],[-93.3485,41.7173],[-93.3485,41.666],[-93.3487,41.601],[-93.3287,41.6011],[-93.3289,41.5843],[-93.3289,41.5343],[-93.3286,41.5078],[-93.3284,41.4908],[-93.3351,41.4874],[-93.3393,41.4827],[-93.3438,41.4818],[-93.3469,41.4828],[-93.3517,41.4934],[-93.3525,41.4969],[-93.356,41.4982],[-93.3591,41.4963],[-93.3584,41.4898],[-93.3635,41.4866],[-93.372,41.4861],[-93.3748,41.4933],[-93.3793,41.4947],[-93.3878,41.4938],[-93.3924,41.4884],[-93.3972,41.4864],[-93.4047,41.4867],[-93.4059,41.4884],[-93.4036,41.491],[-93.3976,41.4938],[-93.3965,41.4981],[-93.4001,41.502],[-93.4045,41.5016],[-93.4098,41.495],[-93.4143,41.4924],[-93.4206,41.4925],[-93.4226,41.495],[-93.4154,41.5003],[-93.4134,41.5041],[-93.4138,41.5074],[-93.4249,41.5075],[-93.4277,41.5051],[-93.4312,41.5049],[-93.4367,41.5023],[-93.4402,41.5026],[-93.4421,41.5046],[-93.4413,41.5076],[-93.4622,41.5081],[-93.5482,41.5113],[-93.6256,41.5121],[-93.7073,41.5121],[-93.7906,41.5119],[-93.7905,41.5637],[-93.7906,41.6004],[-93.8143,41.6005],[-93.8145,41.6657],[-93.8144,41.7185],[-93.8148,41.7503],[-93.8154,41.8457],[-93.8157,41.8634],[-93.7762,41.8635]]]}},{"type":"Feature","properties":{"id":"19049","name":"Dallas Co."},"geometry":{"type":"Polygon","coordinates":[[[-94.2026,41.8633],[-94.1206,41.8632],[-93.9942,41.8631],[-93.8927,41.8633],[-93.8157,41.8634],[-93.8154,41.8457],[-93.8148,41.7503],[-93.8144,41.7185],[-93.8145,41.6657],[-93.8143,41.6005],[-93.7906,41.6004],[-93.7905,41.5637],[-93.7906,41.5119],[-93.8739,41.5051],[-93.8971,41.5031],[-93.9403,41.5033],[-94.1252,41.5031],[-94.194,41.5035],[-94.1948,41.5037],[-94.2416,41.5037],[-94.2414,41.5218],[-94.2414,41.601],[-94.2801,41.6013],[-94.2799,41.6457],[-94.2805,41.6883],[-94.2807,41.7766],[-94.2803,41.863],[-94.2026,41.8633]]]}},{"type":"Feature","properties":{"id":"19181","name":"Warren Co."},"geometry":{"type":"Polygon","coordinates":[[[-93.7073,41.5121],[-93.6256,41.5121],[-93.5482,41.5113],[-93.4622,41.5081],[-93.4413,41.5076],[-93.4421,41.5046],[-93.4402,41.5026],[-93.4367,41.5023],[-93.4312,41.5049],[-93.4277,41.5051],[-93.4249,41.5075],[-93.4138,41.5074],[-93.4134,41.5041],[-93.4154,41.5003],[-93.4226,41.495],[-93.4206,41.4925],[-93.4143,41.4924],[-93.4098,41.495],[-93.4045,41.5016],[-93.4001,41.502],[-93.3965,41.4981],[-93.3976,41.4938],[-93.4036,41.491],[-93.4059,41.4884],[-93.4047,41.4867],[-93.3972,41.4864],[-93.3924,41.4884],[-93.3878,41.4938],[-93.3793,41.4947],[-93.3748,41.4933],[-93.372,41.4861],[-93.3635,41.4866],[-93.3584,41.4898],[-93.3591,41.4963],[-93.356,41.4982],[-93.3525,41.4969],[-93.3517,41.4934],[-93.3469,41.4828],[-93.3438,41.4818],[-93.3393,41.4827],[-93.3351,41.4874],[-93.3284,41.4908],[-93.3285,41.4793],[-93.3282,41.4363],[-93.3281,41.3824],[-93.3284,41.3278],[-93.3283,41.248],[-93.3281,41.2332],[-93.3279,41.1607],[-93.3403,41.1606],[-93.4663,41.1607],[-93.5964,41.1615],[-93.6733,41.1618],[-93.6802,41.1617],[-93.7842,41.1621],[-93.7892,41.162],[-93.7894,41.2241],[-93.7892,41.2277],[-93.7896,41.2569],[-93.7901,41.3372],[-93.7905,41.3665],[-93.7906,41.4542],[-93.7906,41.5119],[-93.7073,41.5121]]]}}]}