{"type":"FeatureCollection","features":[{"type":"Feature","properties":{"id":"29037","name":"Cass Co., MO"},"geometry":{"type":"Polygon","coordinates":[[[-94.6076,38.8276],[-94.608,38.8472],[-94.5646,38.8452],[-94.5091,38.8423],[-94.4369,38.8398],[-94.39,38.8385],[-94.2876,38.8351],[-94.2121,38.8349],[-94.1654,38.8346],[-94.1191,38.8332],[-94.1196,38.8329],[-94.1214,38.8034],[-94.122,38.7739],[-94.1228,38.7579],[-94.1251,38.7443],[-94.1294,38.6559],[-94.1164,38.6555],[-94.1182,38.6038],[-94.1197,38.5687],[-94.1012,38.5681],[-94.0643,38.5674],[-94.0669,38.499],[-94.0678,38.466],[-94.065,38.4658],[-94.0657,38.4471],[-94.0709,38.4468],[-94.0781,38.4481],[-94.0767,38.4518],[-94.0822,38.4506],[-94.0826,38.4529],[-94.0864,38.4559],[-94.09,38.4527],[-94.0909,38.4559],[-94.0942,38.4584],[-94.0958,38.4553],[-94.1016,38.4546],[-94.1025,38.4556],[-94.1092,38.4558],[-94.11,38.4527],[-94.1183,38.4518],[-94.1328,38.4538],[-94.1383,38.4534],[-94.143,38.4512],[-94.1491,38.4509],[-94.1528,38.4532],[-94.1523,38.4499],[-94.1583,38.4488],[-94.1591,38.4507],[-94.1644,38.4492],[-94.1681,38.4502],[-94.1676,38.4476],[-94.1738,38.4498],[-94.171,38.446],[-94.1795,38.4456],[-94.186,38.4468],[-94.1867,38.4494],[-94.19,38.4473],[-94.1932,38.4476],[-94.2005,38.4454],[-94.2037,38.4479],[-94.2062,38.4471],[-94.2075,38.4508],[-94.2162,38.4468],[-94.2174,38.4498],[-94.2233,38.4483],[-94.2229,38.4529],[-94.2259,38.451],[-94.2295,38.453],[-94.225,38.4574],[-94.2315,38.4584],[-94.2398,38.4565],[-94.2375,38.4592],[-94.2398,38.4601],[-94.2449,38.4556],[-94.2509,38.4556],[-94.2524,38.453],[-94.2572,38.4501],[-94.2598,38.4529],[-94.2671,38.4505],[-94.2652,38.4533],[-94.2752,38.4589],[-94.2768,38.4567],[-94.2818,38.4589],[-94.2848,38.4626],[-94.2868,38.4611],[-94.2884,38.4643],[-94.2917,38.4653],[-94.2899,38.46],[-94.2935,38.4606],[-94.2929,38.4577],[-94.2975,38.4589],[-94.3063,38.4654],[-94.3103,38.4653],[-94.3109,38.4688],[-94.3139,38.4694],[-94.3121,38.4714],[-94.3634,38.4727],[-94.3691,38.4727],[-94.5022,38.4754],[-94.5112,38.4757],[-94.5847,38.4767],[-94.6129,38.4776],[-94.6127,38.4832],[-94.6122,38.5765],[-94.6119,38.5801],[-94.6119,38.6205],[-94.6095,38.7381],[-94.6076,38.8276]]]}},{"type":"Feature","properties":{"id":"29025","name":"Caldwell Co., MO"},"geometry":{"type":"Polygon","coordinates":[[[-94.2054,39.7608],[-94.2059,39.7672],[-94.2058,39.789],[-94.1611,39.7879],[-94.1305,39.7869],[-94.0932,39.7859],[-94.0263,39.7856],[-94.0122,39.7859],[-93.9836,39.7858],[-93.932,39.7863],[-93.9157,39.7863],[-93.89,39.7867],[-93.8705,39.7868],[-93.759,39.7847],[-93.7589,39.6983],[-93.7585,39.6628],[-93.7583,39.6621],[-93.7584,39.6114],[-93.7592,39.5246],[-93.7781,39.5249],[-93.8702,39.5259],[-93.9271,39.5248],[-93.9846,39.5244],[-94.0404,39.5251],[-94.0967,39.5259],[-94.1561,39.5262],[-94.2084,39.5272],[-94.2077,39.5416],[-94.2072,39.5923],[-94.2065,39.6261],[-94.2064,39.6624],[-94.2058,39.702],[-94.206,39.7458],[-94.2054,39.7608]]]}},{"type":"Feature","properties":{"id":"29013","name":"Bates Co., MO"},"geometry":{"type":"Polygon","coordinates":[[[-94.6134,38.4034],[-94.6129,38.4776],[-94.5847,38.4767],[-94.5112,38.4757],[-94.5022,38.4754],[-94.3691,38.4727],[-94.3634,38.4727],[-94.3121,38.4714],[-94.3139,38.4694],[-94.3109,38.4688],[-94.3103,38.4653],[-94.3063,38.4654],[-94.2975,38.4589],[-94.2929,38.4577],[-94.2935,38.4606],[-94.2899,38.46],[-94.2917,38.4653],[-94.2884,38.4643],[-94.2868,38.4611],[-94.2848,38.4626],[-94.2818,38.4589],[-94.2768,38.4567],[-94.2752,38.4589],[-94.2652,38.4533],[-94.2671,38.4505],[-94.2598,38.4529],[-94.2572,38.4501],[-94.2524,38.453],[-94.2509,38.4556],[-94.2449,38.4556],[-94.2398,38.4601],[-94.2375,38.4592],[-94.2398,38.4565],[-94.2315,38.4584],[-94.225,38.4574],[-94.2295,38.453],[-94.2259,38.451],[-94.2229,38.4529],[-94.2233,38.4483],[-94.2174,38.4498],[-94.2162,38.4468],[-94.2075,38.4508],[-94.2062,38.4471],[-94.2037,38.4479],[-94.2005,38.4454],[-94.1932,38.4476],[-94.19,38.4473],[-94.1867,38.4494],[-94.186,38.4468],[-94.1795,38.4456],[-94.171,38.446],[-94.1738,38.4498],[-94.1676,38.4476],[-94.1681,38.4502],[-94.1644,38.4492],[-94.1591,38.4507],[-94.1583,38.4488],[-94.1523,38.4499],[-94.1528,38.4532],[-94.1491,38.4509],[-94.143,38.4512],[-94.1383,38.4534],[-94.1328,38.4538],[-94.1183,38.4518],[-94.11,38.4527],[-94.1092,38.4558],[-94.1025,38.4556],[-94.1016,38.4546],[-94.0958,38.4553],[-94.0942,38.4584],[-94.0909,38.4559],[-94.09,38.4527],[-94.0864,38.4559],[-94.0826,38.4529],[-94.0822,38.4506],[-94.0767,38.4518],[-94.0781,38.4481],[-94.0709,38.4468],[-94.0657,38.4471],[-94.0679,38.3885],[-94.0737,38.2581],[-94.0752,38.2145],[-94.0499,38.214],[-94.0516,38.1767],[-94.0545,38.1187],[-94.0583,38.0366],[-94.0613,38.0316],[-94.0652,38.0319],[-94.0662,38.0359],[-94.0714,38.0364],[-94.0742,38.0337],[-94.0807,38.0316],[-94.0852,38.0325],[-94.0886,38.0359],[-94.0864,38.0404],[-94.0881,38.0417],[-94.0922,38.0395],[-94.0954,38.0407],[-94.0989,38.0468],[-94.104,38.0476],[-94.1049,38.0451],[-94.1039,38.0406],[-94.1056,38.0378],[-94.1099,38.0373],[-94.1134,38.0403],[-94.1188,38.0422],[-94.1189,38.0445],[-94.1154,38.0461],[-94.1155,38.0484],[-94.1211,38.0488],[-94.1265,38.0519],[-94.129,38.0567],[-94.1352,38.0581],[-94.1449,38.0559],[-94.1501,38.0539],[-94.1554,38.0571],[-94.1602,38.0558],[-94.1649,38.0512],[-94.1757,38.0474],[-94.184,38.0452],[-94.1895,38.0455],[-94.1936,38.0433],[-94.1951,38.0403],[-94.1944,38.0351],[-94.1961,38.0338],[-94.1986,38.0367],[-94.1979,38.0402],[-94.2007,38.0465],[-94.1991,38.0494],[-94.1953,38.0507],[-94.1954,38.0537],[-94.201,38.0546],[-94.2095,38.0522],[-94.2114,38.0493],[-94.2099,38.0454],[-94.2106,38.0426],[-94.214,38.0397],[-94.2146,38.035],[-94.2168,38.0334],[-94.2192,38.0383],[-94.2222,38.0404],[-94.2264,38.0381],[-94.227,38.0345],[-94.2252,38.027],[-94.2366,38.026],[-94.2443,38.0277],[-94.2444,38.0317],[-94.2423,38.0326],[-94.2348,38.0315],[-94.2337,38.0338],[-94.2366,38.0345],[-94.2404,38.038],[-94.2398,38.0409],[-94.2324,38.0426],[-94.2305,38.0458],[-94.2344,38.0471],[-94.2377,38.0438],[-94.2406,38.0508],[-94.2804,38.052],[-94.3898,38.0549],[-94.4447,38.0563],[-94.4989,38.0575],[-94.5166,38.058],[-94.6141,38.0601],[-94.6139,38.1498],[-94.6134,38.1679],[-94.6127,38.2176],[-94.6127,38.2704],[-94.6128,38.2899],[-94.6127,38.3148],[-94.6133,38.3644],[-94.6133,38.3887],[-94.6134,38.4034]]]}},{"type":"Feature","properties":{"id":"29095","name":"Jackson Co., MO"},"geometry":{"type":"Polygon","coordinates":[[[-94.6072,39.0657],[-94.6074,39.1134],[-94.6039,39.1109],[-94.5957,39.11],[-94.5799,39.1167],[-94.5658,39.1233],[-94.5583,39.1258],[-94.5496,39.1309],[-94.5392,39.1427],[-94.5308,39.1471],[-94.5209,39.1492],[-94.5064,39.1509],[-94.4954,39.1504],[-94.4846,39.1455],[-94.4763,39.137],[-94.4693,39.1307],[-94.4675,39.1248],[-94.4616,39.1204],[-94.4554,39.1231],[-94.4406,39.1308],[-94.4304,39.138],[-94.4235,39.1441],[-94.418,39.1511],[-94.4056,39.1626],[-94.4023,39.1648],[-94.3999,39.1748],[-94.4026,39.1812],[-94.409,39.1921],[-94.4072,39.1953],[-94.4021,39.197],[-94.395,39.1963],[-94.3897,39.1935],[-94.3848,39.1872],[-94.3801,39.1735],[-94.3785,39.1704],[-94.3694,39.1637],[-94.3636,39.1637],[-94.3541,39.1705],[-94.3462,39.1739],[-94.3377,39.1807],[-94.3282,39.1912],[-94.3223,39.1986],[-94.3194,39.2046],[-94.3176,39.2135],[-94.314,39.2213],[-94.3046,39.2314],[-94.3009,39.2334],[-94.2899,39.2371],[-94.2674,39.2354],[-94.2554,39.2362],[-94.2433,39.232],[-94.2384,39.2282],[-94.2325,39.2184],[-94.2296,39.2154],[-94.2213,39.2101],[-94.2125,39.2071],[-94.2073,39.2063],[-94.1996,39.2082],[-94.1889,39.2135],[-94.1847,39.2143],[-94.1735,39.2138],[-94.1694,39.2106],[-94.1702,39.2045],[-94.1753,39.1972],[-94.184,39.1904],[-94.1872,39.1838],[-94.1858,39.181],[-94.1768,39.1781],[-94.1691,39.1778],[-94.1472,39.1752],[-94.1369,39.1726],[-94.1299,39.1689],[-94.1243,39.1633],[-94.1222,39.1593],[-94.114,39.1497],[-94.1048,39.1435],[-94.1056,39.1266],[-94.1068,39.0917],[-94.1081,39.0623],[-94.11,39.0143],[-94.1107,38.9879],[-94.1115,38.9829],[-94.1129,38.9609],[-94.1143,38.9285],[-94.1142,38.9173],[-94.1136,38.917],[-94.116,38.871],[-94.1165,38.8696],[-94.1172,38.8536],[-94.1191,38.8332],[-94.1654,38.8346],[-94.2121,38.8349],[-94.2876,38.8351],[-94.39,38.8385],[-94.4369,38.8398],[-94.5091,38.8423],[-94.5646,38.8452],[-94.608,38.8472],[-94.608,38.9369],[-94.6083,38.9818],[-94.6075,39.0441],[-94.6072,39.0657]]]}},{"type":"Feature","properties":{"id":"20121","name":"Miami Co., KS"},"geometry":{"type":"Polygon","coordinates":[[[-95.0193,38.7384],[-94.9651,38.7386],[-94.9456,38.7383],[-94.8716,38.7383],[-94.8656,38.7385],[-94.7603,38.7382],[-94.7232,38.7384],[-94.7047,38.7381],[-94.6095,38.7381],[-94.6119,38.6205],[-94.6119,38.5801],[-94.6122,38.5765],[-94.6127,38.4832],[-94.6129,38.4776],[-94.6134,38.4034],[-94.6133,38.3887],[-94.6503,38.3889],[-94.6874,38.3888],[-94.7331,38.389],[-94.7704,38.389],[-94.8512,38.3888],[-94.8533,38.3889],[-95.0105,38.3895],[-95.0658,38.3899],[-95.0659,38.4033],[-95.0657,38.4478],[-95.0654,38.4498],[-95.0656,38.4772],[-95.0655,38.5166],[-95.0651,38.5571],[-95.0653,38.6152],[-95.0649,38.625],[-95.0658,38.6949],[-95.0567,38.6949],[-95.0564,38.7112],[-95.0564,38.7386],[-95.0193,38.7384]]]}},{"type":"Feature","properties":{"id":"20107","name":"Linn Co., KS"},"geometry":{"type":"Polygon","coordinates":[[[-95.0105,38.3895],[-94.8533,38.3889],[-94.8512,38.3888],[-94.7704,38.389],[-94.7331,38.389],[-94.6874,38.3888],[-94.6503,38.3889],[-94.6133,38.3887],[-94.6133,38.3644],[-94.6127,38.3148],[-94.6128,38.2899],[-94.6127,38.2704],[-94.6127,38.2176],[-94.6134,38.1679],[-94.6139,38.1498],[-94.6141,38.0601],[-94.614,38.0371],[-94.6415,38.0368],[-94.7136,38.0371],[-94.732,38.0374],[-94.7504,38.0371],[-94.786,38.0376],[-94.8974,38.0373],[-94.9152,38.0375],[-94.9524,38.0371],[-94.9698,38.0376],[-95.0779,38.0377],[-95.0771,38.0959],[-95.0768,38.0964],[-95.0767,38.1683],[-95.0768,38.1827],[-95.0753,38.2515],[-95.0755,38.2587],[-95.0651,38.2586],[-95.0653,38.2732],[-95.0658,38.3462],[-95.0658,38.3899],[-95.0105,38.3895]]]}},{"type":"Feature","properties":{"id":"20091","name":"Johnson Co., KS"},"geometry":{"type":"Polygon","coordinates":[[[-95.0499,38.978],[-95.0407,38.9742],[-95.0351,38.9749],[-95.0282,38.9786],[-95.0245,38.9841],[-95.0236,38.9882],[-95.026,38.9923],[-95.0218,38.9996],[-95.0114,39.0008],[-95.0036,38.9989],[-94.9958,38.9957],[-94.9804,38.9924],[-94.9776,38.9909],[-94.9716,38.9852],[-94.9649,38.9821],[-94.9565,38.982],[-94.9483,38.9842],[-94.9405,38.99],[-94.9389,38.9947],[-94.9319,39.0011],[-94.9233,39.0026],[-94.917,38.9989],[-94.9163,38.9952],[-94.9209,38.9887],[-94.9217,38.9858],[-94.9194,38.9835],[-94.9138,38.9865],[-94.9088,38.9914],[-94.8948,39.0073],[-94.8884,39.0161],[-94.8884,39.0202],[-94.8911,39.0269],[-94.8911,39.0307],[-94.886,39.0415],[-94.8836,39.0507],[-94.8764,39.0571],[-94.8717,39.0593],[-94.8628,39.0609],[-94.8453,39.0613],[-94.8393,39.0599],[-94.8293,39.0554],[-94.8205,39.0502],[-94.8033,39.0435],[-94.7883,39.0438],[-94.7587,39.0437],[-94.7285,39.044],[-94.6075,39.0441],[-94.6083,38.9818],[-94.608,38.9369],[-94.608,38.8472],[-94.6076,38.8276],[-94.6095,38.7381],[-94.7047,38.7381],[-94.7232,38.7384],[-94.7603,38.7382],[-94.8656,38.7385],[-94.8716,38.7383],[-94.9456,38.7383],[-94.9651,38.7386],[-95.0193,38.7384],[-95.0564,38.7386],[-95.0561,38.8696],[-95.0559,38.8987],[-95.0562,38.9429],[-95.0565,38.9573],[-95.0563,38.9821],[-95.0499,38.978]]]}},{"type":"Feature","properties":{"id":"20209","name":"Wyandotte Co., KS"},"geometry":{"type":"Polygon","coordinates":[[[-94.7703,39.19],[-94.7631,39.1799],[-94.7523,39.1732],[-94.7365,39.1692],[-94.7236,39.169],[-94.7141,39.1704],[-94.6963,39.1786],[-94.6872,39.1835],[-94.6803,39.1843],[-94.6691,39.182],[-94.6638,39.1791],[-94.6592,39.1741],[-94.6614,39.1627],[-94.6592,39.1578],[-94.6507,39.1541],[-94.6398,39.1537],[-94.6239,39.1566],[-94.6158,39.16],[-94.6087,39.161],[-94.6017,39.1596],[-94.596,39.1577],[-94.5907,39.1548],[-94.5884,39.1499],[-94.5899,39.139],[-94.6004,39.1285],[-94.6083,39.1179],[-94.6074,39.1134],[-94.6072,39.0657],[-94.6075,39.0441],[-94.7285,39.044],[-94.7587,39.0437],[-94.7883,39.0438],[-94.8033,39.0435],[-94.8205,39.0502],[-94.8293,39.0554],[-94.8393,39.0599],[-94.8453,39.0613],[-94.8628,39.0609],[-94.8717,39.0593],[-94.8764,39.0571],[-94.8836,39.0507],[-94.886,39.0415],[-94.8911,39.0307],[-94.8911,39.0269],[-94.8884,39.0202],[-94.8884,39.0161],[-94.8948,39.0073],[-94.9088,38.9914],[-94.9088,39.041],[-94.9087,39.0902],[-94.9083,39.1287],[-94.9014,39.1287],[-94.9009,39.1432],[-94.9005,39.2015],[-94.9002,39.2029],[-94.8631,39.2023],[-94.7772,39.201],[-94.7755,39.2006],[-94.7703,39.19]]]}},{"type":"Feature","properties":{"id":"29165","name":"Platte Co., MO"},"geometry":{"type":"Polygon","coordinates":[[[-94.6012,39.4921],[-94.6008,39.4562],[-94.6007,39.4172],[-94.601,39.3837],[-94.6007,39.3544],[-94.6009,39.3256],[-94.6004,39.2968],[-94.601,39.2464],[-94.6011,39.1959],[-94.6017,39.1596],[-94.6087,39.161],[-94.6158,39.16],[-94.6239,39.1566],[-94.6398,39.1537],[-94.6507,39.1541],[-94.6592,39.1578],[-94.6614,39.1627],[-94.6592,39.1741],[-94.6638,39.1791],[-94.6691,39.182],[-94.6803,39.1843],[-94.6872,39.1835],[-94.6963,39.1786],[-94.7141,39.1704],[-94.7236,39.169],[-94.7365,39.1692],[-94.7523,39.1732],[-94.7631,39.1799],[-94.7703,39.19],[-94.7755,39.2006],[-94.7815,39.2061],[-94.7873,39.2077],[-94.7997,39.206],[-94.8117,39.2066],[-94.8238,39.2099],[-94.8317,39.2159],[-94.8351,39.2207],[-94.8349,39.2238],[-94.8278,39.234],[-94.8257,39.2417],[-94.8275,39.2499],[-94.8315,39.2563],[-94.8379,39.2624],[-94.8463,39.2685],[-94.8571,39.2738],[-94.8676,39.2778],[-94.8783,39.2811],[-94.8871,39.2865],[-94.8952,39.2942],[-94.9,39.3002],[-94.9053,39.312],[-94.9081,39.3237],[-94.9106,39.3483],[-94.9094,39.3543],[-94.9025,39.3604],[-94.8968,39.3631],[-94.8909,39.364],[-94.8852,39.3669],[-94.8814,39.3704],[-94.8791,39.3757],[-94.881,39.3839],[-94.885,39.3898],[-94.889,39.3924],[-94.895,39.3936],[-94.9018,39.3928],[-94.9096,39.3889],[-94.9192,39.3852],[-94.9231,39.3845],[-94.9337,39.3855],[-94.942,39.3895],[-94.9456,39.3939],[-94.9467,39.3997],[-94.9463,39.4056],[-94.9479,39.4086],[-94.9548,39.4138],[-94.9661,39.4173],[-94.9688,39.4191],[-94.973,39.4217],[-94.9766,39.4267],[-94.9788,39.4362],[-94.9821,39.4406],[-94.9902,39.4462],[-94.9958,39.4482],[-95.0158,39.4528],[-95.0334,39.4609],[-95.0408,39.4664],[-95.0471,39.475],[-95.0484,39.4804],[-95.0498,39.4944],[-95.0522,39.5],[-95.0595,39.5061],[-95.0774,39.5136],[-95.0827,39.5167],[-95.0927,39.5242],[-95.1029,39.5333],[-95.1014,39.5333],[-94.994,39.5331],[-94.8815,39.5324],[-94.7601,39.5315],[-94.6012,39.5302],[-94.6012,39.4921]]]}},{"type":"Feature","properties":{"id":"20103","name":"Leavenworth Co., KS"},"geometry":{"type":"Polygon","coordinates":[[[-94.9661,39.4173],[-94.9548,39.4138],[-94.9479,39.4086],[-94.9463,39.4056],[-94.9467,39.3997],[-94.9456,39.3939],[-94.942,39.3895],[-94.9337,39.3855],[-94.9231,39.3845],[-94.9192,39.3852],[-94.9096,39.3889],[-94.9018,39.3928],[-94.895,39.3936],[-94.889,39.3924],[-94.885,39.3898],[-94.881,39.3839],[-94.8791,39.3757],[-94.8814,39.3704],[-94.8852,39.3669],[-94.8909,39.364],[-94.8968,39.3631],[-94.9025,39.3604],[-94.9094,39.3543],[-94.9106,39.3483],[-94.9081,39.3237],[-94.9053,39.312],[-94.9,39.3002],[-94.8952,39.2942],[-94.8871,39.2865],[-94.8783,39.2811],[-94.8676,39.2778],[-94.8571,39.2738],[-94.8463,39.2685],[-94.8379,39.2624],[-94.8315,39.2563],[-94.8275,39.2499],[-94.8257,39.2417],[-94.8278,39.234],[-94.8349,39.2238],[-94.8351,39.2207],[-94.8317,39.2159],[-94.8238,39.2099],[-94.8117,39.2066],[-94.7997,39.206],[-94.7873,39.2077],[-94.7815,39.2061],[-94.7755,39.2006],[-94.7772,39.201],[-94.8631,39.2023],[-94.9002,39.2029],[-94.9005,39.2015],[-94.9009,39.1432],[-94.9014,39.1287],[-94.9083,39.1287],[-94.9087,39.0902],[-94.9088,39.041],[-94.9088,38.9914],[-94.9138,38.9865],[-94.9194,38.9835],[-94.9217,38.9858],[-94.9209,38.9887],[-94.9163,38.9952],[-94.917,38.9989],[-94.9233,39.0026],[-94.9319,39.0011],[-94.9389,38.9947],[-94.9405,38.99],[-94.9483,38.9842],[-94.9565,38.982],[-94.9649,38.9821],[-94.9716,38.9852],[-94.9776,38.9909],[-94.9804,38.9924],[-94.9958,38.9957],[-95.0036,38.9989],[-95.0114,39.0008],[-95.0218,38.9996],[-95.026,38.9923],[-95.0236,38.9882],[-95.0245,38.9841],[-95.0282,38.9786],[-95.0351,38.9749],[-95.0407,38.9742],[-95.0499,38.978],[-95.0563,38.9821],[-95.0607,38.9856],[-95.0688,38.9871],[-95.08,38.9842],[-95.0848,38.9824],[-95.0867,38.9802],[-95.0868,38.9743],[-95.0767,38.967],[-95.0745,38.9644],[-95.0764,38.9598],[-95.0852,38.9538],[-95.0965,38.9563],[-95.1009,38.9562],[-95.1045,38.9591],[-95.1075,38.9667],[-95.1109,38.9693],[-95.1219,38.9699],[-95.125,38.9679],[-95.1397,38.9694],[-95.1464,38.9724],[-95.157,38.9789],[-95.1641,38.9816],[-95.1665,38.9759],[-95.1649,38.9715],[-95.1695,38.9665],[-95.1737,38.9651],[-95.1862,38.9645],[-95.1866,38.9932],[-95.1874,39.0708],[-95.1876,39.0731],[-95.188,39.1289],[-95.1801,39.1289],[-95.1803,39.1435],[-95.1804,39.2016],[-95.1802,39.2815],[-95.1799,39.3179],[-95.1802,39.3756],[-95.1799,39.4047],[-95.1809,39.4192],[-95.1513,39.4191],[-94.9715,39.4188],[-94.9688,39.4191],[-94.9661,39.4173]]]}},{"type":"Feature","properties":{"id":"29049","name":"Clinton Co., MO"},"geometry":{"type":"Polygon","coordinates":[[[-94.2058,39.702],[-94.2064,39.6624],[-94.2065,39.6261],[-94.2072,39.5923],[-94.2077,39.5416],[-94.2084,39.5272],[-94.2097,39.4928],[-94.2109,39.4555],[-94.2106,39.4547],[-94.2576,39.4552],[-94.3265,39.4556],[-94.378,39.4555],[-94.4252,39.4557],[-94.4352,39.4554],[-94.5197,39.4557],[-94.5657,39.4559],[-94.5979,39.4558],[-94.6008,39.4562],[-94.6012,39.4921],[-94.6012,39.5302],[-94.6013,39.6031],[-94.6021,39.6168],[-94.6022,39.6456],[-94.6022,39.6891],[-94.6023,39.7039],[-94.6023,39.7472],[-94.5716,39.7471],[-94.5445,39.7473],[-94.5443,39.7477],[-94.4515,39.7477],[-94.4325,39.7475],[-94.3655,39.7474],[-94.3378,39.7471],[-94.3186,39.7475],[-94.2623,39.7464],[-94.2203,39.7462],[-94.206,39.7458],[-94.2058,39.702]]]}},{"type":"Feature","properties":{"id":"29177","name":"Ray Co., MO"},"geometry":{"type":"Polygon","coordinates":[[[-94.2109,39.4555],[-94.2097,39.4928],[-94.2084,39.5272],[-94.1561,39.5262],[-94.0967,39.5259],[-94.0404,39.5251],[-93.9846,39.5244],[-93.9271,39.5248],[-93.8702,39.5259],[-93.7781,39.5249],[-93.7592,39.5246],[-93.759,39.4519],[-93.759,39.3133],[-93.7589,39.2498],[-93.7585,39.207],[-93.7785,39.2006],[-93.7885,39.201],[-93.7998,39.2052],[-93.8025,39.2073],[-93.8185,39.2137],[-93.8242,39.2149],[-93.8401,39.2155],[-93.849,39.2145],[-93.8612,39.2107],[-93.8752,39.2041],[-93.8994,39.1845],[-93.9091,39.1825],[-93.9252,39.1843],[-93.9323,39.1838],[-93.94,39.1797],[-93.9415,39.175],[-93.9444,39.1702],[-93.9441,39.1619],[-93.9424,39.1581],[-93.9505,39.1508],[-93.9612,39.1436],[-93.9687,39.1423],[-93.9791,39.1455],[-93.9847,39.149],[-93.9889,39.1528],[-93.9867,39.1558],[-93.9863,39.1613],[-93.9834,39.1685],[-93.9753,39.1727],[-93.9679,39.1781],[-93.9624,39.1834],[-93.9618,39.1921],[-93.9668,39.1983],[-93.9774,39.2055],[-93.9801,39.2059],[-93.9887,39.2016],[-94.0154,39.1952],[-94.0288,39.1916],[-94.0345,39.1879],[-94.036,39.185],[-94.0355,39.1775],[-94.0257,39.165],[-94.0242,39.1545],[-94.0368,39.1473],[-94.0456,39.1408],[-94.0566,39.1355],[-94.0625,39.1343],[-94.0786,39.1342],[-94.0871,39.1355],[-94.0968,39.1392],[-94.1048,39.1435],[-94.114,39.1497],[-94.1222,39.1593],[-94.1243,39.1633],[-94.1299,39.1689],[-94.1369,39.1726],[-94.1472,39.1752],[-94.1691,39.1778],[-94.1768,39.1781],[-94.1858,39.181],[-94.1872,39.1838],[-94.184,39.1904],[-94.1753,39.1972],[-94.1702,39.2045],[-94.1694,39.2106],[-94.1735,39.2138],[-94.1847,39.2143],[-94.1889,39.2135],[-94.1996,39.2082],[-94.2073,39.2063],[-94.2125,39.2071],[-94.2121,39.2544],[-94.2123,39.2946],[-94.212,39.3405],[-94.2116,39.3858],[-94.2108,39.4257],[-94.2106,39.4547],[-94.2109,39.4555]]]}},{"type":"Feature","properties":{"id":"29107","name":"Lafayette Co., MO"},"geometry":{"type":"Polygon","coordinates":[[[-94.0968,39.1392],[-94.0871,39.1355],[-94.0786,39.1342],[-94.0625,39.1343],[-94.0566,39.1355],[-94.0456,39.1408],[-94.0368,39.1473],[-94.0242,39.1545],[-94.0257,39.165],[-94.0355,39.1775],[-94.036,39.185],[-94.0345,39.1879],[-94.0288,39.1916],[-94.0154,39.1952],[-93.9887,39.2016],[-93.9801,39.2059],[-93.9774,39.2055],[-93.9668,39.1983],[-93.9618,39.1921],[-93.9624,39.1834],[-93.9679,39.1781],[-93.9753,39.1727],[-93.9834,39.1685],[-93.9863,39.1613],[-93.9867,39.1558],[-93.9889,39.1528],[-93.9847,39.149],[-93.9791,39.1455],[-93.9687,39.1423],[-93.9612,39.1436],[-93.9505,39.1508],[-93.9424,39.1581],[-93.9441,39.1619],[-93.9444,39.1702],[-93.9415,39.175],[-93.94,39.1797],[-93.9323,39.1838],[-93.9252,39.1843],[-93.9091,39.1825],[-93.8994,39.1845],[-93.8752,39.2041],[-93.8612,39.2107],[-93.849,39.2145],[-93.8401,39.2155],[-93.8242,39.2149],[-93.8185,39.2137],[-93.8025,39.2073],[-93.7998,39.2052],[-93.7885,39.201],[-93.7785,39.2006],[-93.7585,39.207],[-93.746,39.2095],[-93.739,39.2097],[-93.7289,39.2084],[-93.7192,39.2064],[-93.7112,39.2063],[-93.7001,39.2097],[-93.6939,39.2159],[-93.6894,39.2247],[-93.6816,39.2312],[-93.6743,39.234],[-93.6619,39.2358],[-93.6561,39.2412],[-93.6572,39.2459],[-93.6505,39.2482],[-93.6434,39.2454],[-93.6406,39.2473],[-93.6364,39.2472],[-93.6284,39.2432],[-93.6134,39.2425],[-93.6052,39.2408],[-93.5959,39.2421],[-93.585,39.2404],[-93.5781,39.2361],[-93.5677,39.2272],[-93.5658,39.2225],[-93.5632,39.22],[-93.5515,39.217],[-93.544,39.2158],[-93.5296,39.215],[-93.5161,39.2153],[-93.5002,39.218],[-93.492,39.2235],[-93.4879,39.2289],[-93.4866,39.2339],[-93.4876,39.2383],[-93.4942,39.2557],[-93.4962,39.2649],[-93.4954,39.2755],[-93.4933,39.2807],[-93.4899,39.2851],[-93.484,39.29],[-93.4772,39.2928],[-93.481,39.2322],[-93.4815,39.2195],[-93.4849,39.1612],[-93.4875,39.1077],[-93.4878,39.0988],[-93.4894,39.0739],[-93.4913,39.0302],[-93.4942,38.9848],[-93.4973,38.9284],[-93.6114,38.9321],[-93.6304,38.9321],[-93.6761,38.9335],[-93.7359,38.9347],[-93.779,38.9358],[-93.8347,38.9379],[-93.8363,38.9087],[-93.85,38.9091],[-93.9116,38.9112],[-93.9287,38.9121],[-94.0359,38.9151],[-94.1102,38.9176],[-94.1142,38.9173],[-94.1143,38.9285],[-94.1129,38.9609],[-94.1115,38.9829],[-94.1107,38.9879],[-94.11,39.0143],[-94.1081,39.0623],[-94.1068,39.0917],[-94.1056,39.1266],[-94.1048,39.1435],[-94.0968,39.1392]]]}},{"type":"Feature","properties":{"id":"29047","name":"Clay Co., MO"},"geometry":{"type":"Polygon","coordinates":[[[-94.6011,39.1959],[-94.601,39.2464],[-94.6004,39.2968],[-94.6009,39.3256],[-94.6007,39.3544],[-94.601,39.3837],[-94.6007,39.4172],[-94.6008,39.4562],[-94.5979,39.4558],[-94.5657,39.4559],[-94.5197,39.4557],[-94.4352,39.4554],[-94.4252,39.4557],[-94.378,39.4555],[-94.3265,39.4556],[-94.2576,39.4552],[-94.2106,39.4547],[-94.2108,39.4257],[-94.2116,39.3858],[-94.212,39.3405],[-94.2123,39.2946],[-94.2121,39.2544],[-94.2125,39.2071],[-94.2213,39.2101],[-94.2296,39.2154],[-94.2325,39.2184],[-94.2384,39.2282],[-94.2433,39.232],[-94.2554,39.2362],[-94.2674,39.2354],[-94.2899,39.2371],[-94.3009,39.2334],[-94.3046,39.2314],[-94.314,39.2213],[-94.3176,39.2135],[-94.3194,39.2046],[-94.3223,39.1986],[-94.3282,39.1912],[-94.3377,39.1807],[-94.3462,39.1739],[-94.3541,39.1705],[-94.3636,39.1637],[-94.3694,39.1637],[-94.3785,39.1704],[-94.3801,39.1735],[-94.3848,39.1872],[-94.3897,39.1935],[-94.395,39.1963],[-94.4021,39.197],[-94.4072,39.1953],[-94.409,39.1921],[-94.4026,39.1812],[-94.3999,39.1748],[-94.4023,39.1648],[-94.4056,39.1626],[-94.418,39.1511],[-94.4235,39.1441],[-94.4304,39.138],[-94.4406,39.1308],[-94.4554,39.1231],[-94.4616,39.1204],[-94.4675,39.1248],[-94.4693,39.1307],[-94.4763,39.137],[-94.4846,39.1455],[-94.4954,39.1504],[-94.5064,39.1509],[-94.5209,39.1492],[-94.5308,39.1471],[-94.5392,39.1427],[-94.5496,39.1309],[-94.5583,39.1258],[-94.5658,39.1233],[-94.5799,39.1167],[-94.5957,39.11],[-94.6039,39.1109],[-94.6074,39.1134],[-94.6083,39.1179],[-94.6004,39.1285],[-94.5899,39.139],[-94.5884,39.1499],[-94.5907,39.1548],[-94.596,39.1577],[-94.6017,39.1596],[-94.6011,39.1959]]]}}]}