{"type":"FeatureCollection","features":[{"type":"Feature","properties":{"id":"32003","name":"Clark Co."},"geometry":{"type":"Polygon","coordinates":[[[-115.7407,36.8419],[-115.7408,36.8531],[-114.9561,36.8534],[-114.8041,36.8533],[-114.7625,36.8535],[-114.7623,36.8439],[-114.1688,36.8434],[-114.1005,36.8434],[-114.0506,36.8431],[-114.0494,36.6889],[-114.0482,36.6396],[-114.0449,36.4961],[-114.0431,36.4697],[-114.0428,36.4383],[-114.0432,36.3794],[-114.0448,36.3317],[-114.0441,36.3154],[-114.0455,36.2917],[-114.0455,36.2733],[-114.044,36.247],[-114.0439,36.1934],[-114.0578,36.1886],[-114.0682,36.1777],[-114.0812,36.1502],[-114.0917,36.1373],[-114.0928,36.1324],[-114.097,36.1208],[-114.0992,36.1197],[-114.1074,36.1194],[-114.117,36.1148],[-114.1213,36.1095],[-114.121,36.1039],[-114.1152,36.0999],[-114.1119,36.0958],[-114.1196,36.0858],[-114.124,36.0756],[-114.1312,36.0658],[-114.1362,36.0532],[-114.1348,36.0439],[-114.1383,36.0372],[-114.1447,36.0343],[-114.1459,36.0272],[-114.1514,36.0231],[-114.1644,36.0269],[-114.1733,36.0268],[-114.1912,36.02],[-114.2119,36.0148],[-114.2215,36.0142],[-114.2265,36.0146],[-114.2334,36.0128],[-114.2421,36.0152],[-114.2614,36.0255],[-114.265,36.0288],[-114.2692,36.0368],[-114.2689,36.0409],[-114.2709,36.0455],[-114.2782,36.0458],[-114.2909,36.0505],[-114.2934,36.0545],[-114.2998,36.0574],[-114.3085,36.057],[-114.3119,36.0577],[-114.3144,36.0605],[-114.3124,36.0661],[-114.3075,36.0697],[-114.3042,36.0756],[-114.3069,36.0825],[-114.3288,36.1055],[-114.3346,36.1068],[-114.3373,36.1104],[-114.345,36.1185],[-114.359,36.1278],[-114.3702,36.1426],[-114.3745,36.1437],[-114.3815,36.1413],[-114.3984,36.1458],[-114.4091,36.147],[-114.4153,36.1451],[-114.4231,36.1374],[-114.4437,36.1256],[-114.4471,36.126],[-114.4521,36.131],[-114.4565,36.138],[-114.4636,36.1397],[-114.4687,36.1389],[-114.4838,36.1297],[-114.4988,36.1266],[-114.5047,36.1272],[-114.5085,36.1299],[-114.5092,36.1332],[-114.5072,36.1363],[-114.5003,36.1407],[-114.501,36.1445],[-114.5081,36.1497],[-114.5143,36.1508],[-114.5288,36.1478],[-114.5392,36.1518],[-114.5487,36.1507],[-114.5554,36.1524],[-114.5612,36.1509],[-114.5711,36.1511],[-114.5771,36.1488],[-114.5796,36.1467],[-114.5965,36.1415],[-114.6106,36.1316],[-114.6155,36.1297],[-114.6206,36.1318],[-114.6238,36.1371],[-114.6285,36.1418],[-114.6305,36.1422],[-114.6369,36.1356],[-114.6401,36.1351],[-114.6581,36.1241],[-114.6621,36.1177],[-114.6643,36.1163],[-114.6719,36.116],[-114.6798,36.1099],[-114.6827,36.1091],[-114.6881,36.1115],[-114.6937,36.1125],[-114.6965,36.1105],[-114.7037,36.1083],[-114.7173,36.1077],[-114.7362,36.1044],[-114.7471,36.097],[-114.7532,36.0895],[-114.7548,36.0847],[-114.7511,36.079],[-114.7433,36.0705],[-114.7363,36.0585],[-114.7357,36.0534],[-114.7404,36.0493],[-114.7425,36.0456],[-114.7421,36.0398],[-114.74,36.0375],[-114.7325,36.0374],[-114.7276,36.0331],[-114.7237,36.0312],[-114.7229,36.0272],[-114.7291,36.0213],[-114.7405,36.0133],[-114.7432,36.0065],[-114.7399,35.9921],[-114.7438,35.9851],[-114.7406,35.9757],[-114.7299,35.9622],[-114.7296,35.9596],[-114.7125,35.9319],[-114.7075,35.9281],[-114.7085,35.9123],[-114.7003,35.9018],[-114.678,35.8847],[-114.672,35.878],[-114.6672,35.8748],[-114.6632,35.8737],[-114.6626,35.8692],[-114.6697,35.8651],[-114.682,35.8633],[-114.6915,35.8587],[-114.6944,35.8545],[-114.7036,35.8526],[-114.7065,35.849],[-114.7023,35.8408],[-114.6952,35.8323],[-114.6962,35.8287],[-114.7037,35.8146],[-114.7099,35.8102],[-114.7121,35.8062],[-114.6989,35.7902],[-114.7014,35.7691],[-114.6957,35.756],[-114.6973,35.7337],[-114.7054,35.7118],[-114.7054,35.7083],[-114.7014,35.7011],[-114.6961,35.6965],[-114.6827,35.6886],[-114.6806,35.684],[-114.6822,35.6782],[-114.6902,35.6652],[-114.689,35.6503],[-114.6776,35.6418],[-114.6686,35.6281],[-114.6661,35.6224],[-114.6595,35.6196],[-114.6534,35.6108],[-114.6543,35.5976],[-114.6592,35.5875],[-114.6642,35.5859],[-114.675,35.5807],[-114.6749,35.5784],[-114.6684,35.5743],[-114.6632,35.5652],[-114.6605,35.541],[-114.6574,35.5364],[-114.6572,35.5323],[-114.664,35.5222],[-114.6712,35.5195],[-114.6772,35.5129],[-114.6787,35.4988],[-114.6758,35.4885],[-114.6719,35.4821],[-114.6732,35.4748],[-114.666,35.468],[-114.6669,35.4595],[-114.6639,35.4547],[-114.6635,35.4478],[-114.654,35.4359],[-114.6528,35.4308],[-114.6268,35.4096],[-114.6209,35.3969],[-114.6177,35.3801],[-114.6112,35.3701],[-114.6057,35.3585],[-114.5952,35.3242],[-114.5975,35.297],[-114.5871,35.2624],[-114.5829,35.2321],[-114.5803,35.2201],[-114.58,35.2096],[-114.5748,35.2059],[-114.5721,35.2006],[-114.5692,35.1835],[-114.5695,35.1623],[-114.5739,35.1439],[-114.5726,35.1396],[-114.5783,35.1288],[-114.5853,35.125],[-114.5978,35.1217],[-114.6214,35.1211],[-114.6323,35.1171],[-114.6444,35.1059],[-114.6468,35.1019],[-114.6428,35.0965],[-114.6225,35.0887],[-114.6131,35.0831],[-114.6047,35.0748],[-114.6029,35.0686],[-114.6036,35.0642],[-114.6067,35.0589],[-114.6271,35.0447],[-114.6324,35.0376],[-114.6369,35.0284],[-114.638,35.0206],[-114.6367,35.0088],[-114.6335,35.0019],[-114.7175,35.07],[-114.7879,35.1273],[-114.8278,35.1592],[-114.9255,35.2371],[-114.9947,35.2925],[-115.0433,35.3306],[-115.084,35.3634],[-115.1033,35.3775],[-115.1599,35.4231],[-115.1649,35.4279],[-115.2713,35.5127],[-115.3915,35.6073],[-115.4061,35.6186],[-115.4129,35.625],[-115.5008,35.6934],[-115.6258,35.792],[-115.6274,35.7938],[-115.6477,35.8094],[-115.669,35.8265],[-115.6893,35.842],[-115.7508,35.8893],[-115.846,35.9642],[-115.8458,36.0956],[-115.8458,36.1708],[-115.8958,36.1722],[-115.8951,36.4211],[-115.8954,36.5798],[-115.8957,36.684],[-115.8969,36.8421],[-115.7407,36.8419]]]}}]}