{"type":"FeatureCollection","features":[{"type":"Feature","properties":{"id":"40027","name":"Cleveland Co."},"geometry":{"type":"Polygon","coordinates":[[[-97.5301,35.3771],[-97.477,35.3773],[-97.3355,35.3772],[-97.265,35.3774],[-97.1951,35.3771],[-97.1598,35.3771],[-97.1421,35.3769],[-97.1418,35.2897],[-97.142,35.2681],[-97.1417,35.203],[-97.1421,35.1889],[-97.1421,35.1017],[-97.1423,35.0219],[-97.1423,34.9282],[-97.1546,34.9314],[-97.1666,34.9308],[-97.1764,34.9287],[-97.1782,34.9295],[-97.1873,34.9297],[-97.1962,34.9283],[-97.197,34.9317],[-97.1957,34.936],[-97.1984,34.9398],[-97.2053,34.94],[-97.2125,34.9433],[-97.2179,34.9443],[-97.224,34.941],[-97.2259,34.9346],[-97.2279,34.9321],[-97.2301,34.9363],[-97.2331,34.9375],[-97.2327,34.9419],[-97.2394,34.9457],[-97.2399,34.9471],[-97.2462,34.9492],[-97.2504,34.9489],[-97.2536,34.9454],[-97.2616,34.9454],[-97.2667,34.9507],[-97.2723,34.9618],[-97.2739,34.963],[-97.2814,34.9608],[-97.2996,34.9646],[-97.3028,34.9607],[-97.3044,34.9564],[-97.3077,34.954],[-97.3217,34.9542],[-97.3259,34.9551],[-97.3338,34.9589],[-97.3415,34.964],[-97.3433,34.9744],[-97.3479,34.9792],[-97.3482,34.9854],[-97.3419,34.9903],[-97.3422,34.9954],[-97.3465,34.9985],[-97.3458,35.0046],[-97.3485,35.006],[-97.3508,35.0143],[-97.3528,35.0189],[-97.3551,35.0287],[-97.3567,35.0289],[-97.358,35.0337],[-97.3558,35.0405],[-97.3526,35.0454],[-97.3505,35.0512],[-97.3499,35.057],[-97.3544,35.0653],[-97.3542,35.0704],[-97.3527,35.0723],[-97.3542,35.0767],[-97.3603,35.0827],[-97.3641,35.0846],[-97.3734,35.085],[-97.3855,35.0822],[-97.3917,35.0826],[-97.4021,35.0864],[-97.4031,35.0878],[-97.4002,35.0915],[-97.4016,35.1019],[-97.4052,35.1089],[-97.4027,35.1171],[-97.4013,35.1249],[-97.404,35.1262],[-97.4046,35.1321],[-97.4071,35.1381],[-97.4181,35.1417],[-97.424,35.1407],[-97.4331,35.1438],[-97.4383,35.147],[-97.4404,35.1553],[-97.4427,35.1604],[-97.4475,35.1612],[-97.4534,35.1637],[-97.4587,35.1702],[-97.4804,35.183],[-97.4881,35.1878],[-97.5128,35.2014],[-97.521,35.2063],[-97.5294,35.2127],[-97.5415,35.2142],[-97.5548,35.2243],[-97.555,35.2274],[-97.5594,35.2309],[-97.5622,35.2346],[-97.5566,35.2389],[-97.5584,35.2421],[-97.5634,35.2434],[-97.5665,35.2474],[-97.5648,35.2487],[-97.5589,35.2481],[-97.5582,35.2498],[-97.5639,35.2501],[-97.5636,35.254],[-97.5577,35.2585],[-97.5548,35.262],[-97.557,35.2884],[-97.5607,35.2921],[-97.5766,35.3009],[-97.5814,35.3025],[-97.6029,35.3035],[-97.6178,35.3052],[-97.6274,35.3146],[-97.6381,35.3211],[-97.6424,35.326],[-97.6525,35.3334],[-97.663,35.3366],[-97.6714,35.3375],[-97.6714,35.3772],[-97.5301,35.3771]]]}},{"type":"Feature","properties":{"id":"40087","name":"McClain Co."},"geometry":{"type":"Polygon","coordinates":[[[-97.663,35.3366],[-97.6525,35.3334],[-97.6424,35.326],[-97.6381,35.3211],[-97.6274,35.3146],[-97.6178,35.3052],[-97.6029,35.3035],[-97.5814,35.3025],[-97.5766,35.3009],[-97.5607,35.2921],[-97.557,35.2884],[-97.5548,35.262],[-97.5577,35.2585],[-97.5636,35.254],[-97.5639,35.2501],[-97.5582,35.2498],[-97.5589,35.2481],[-97.5648,35.2487],[-97.5665,35.2474],[-97.5634,35.2434],[-97.5584,35.2421],[-97.5566,35.2389],[-97.5622,35.2346],[-97.5594,35.2309],[-97.555,35.2274],[-97.5548,35.2243],[-97.5415,35.2142],[-97.5294,35.2127],[-97.521,35.2063],[-97.5128,35.2014],[-97.4881,35.1878],[-97.4804,35.183],[-97.4587,35.1702],[-97.4534,35.1637],[-97.4475,35.1612],[-97.4427,35.1604],[-97.4404,35.1553],[-97.4383,35.147],[-97.4331,35.1438],[-97.424,35.1407],[-97.4181,35.1417],[-97.4071,35.1381],[-97.4046,35.1321],[-97.404,35.1262],[-97.4013,35.1249],[-97.4027,35.1171],[-97.4052,35.1089],[-97.4016,35.1019],[-97.4002,35.0915],[-97.4031,35.0878],[-97.4021,35.0864],[-97.3917,35.0826],[-97.3855,35.0822],[-97.3734,35.085],[-97.3641,35.0846],[-97.3603,35.0827],[-97.3542,35.0767],[-97.3527,35.0723],[-97.3542,35.0704],[-97.3544,35.0653],[-97.3499,35.057],[-97.3505,35.0512],[-97.3526,35.0454],[-97.3558,35.0405],[-97.358,35.0337],[-97.3567,35.0289],[-97.3551,35.0287],[-97.3528,35.0189],[-97.3508,35.0143],[-97.3485,35.006],[-97.3458,35.0046],[-97.3465,34.9985],[-97.3422,34.9954],[-97.3419,34.9903],[-97.3482,34.9854],[-97.3479,34.9792],[-97.3433,34.9744],[-97.3415,34.964],[-97.3338,34.9589],[-97.3259,34.9551],[-97.3217,34.9542],[-97.3077,34.954],[-97.3044,34.9564],[-97.3028,34.9607],[-97.2996,34.9646],[-97.2814,34.9608],[-97.2739,34.963],[-97.2723,34.9618],[-97.2667,34.9507],[-97.2616,34.9454],[-97.2536,34.9454],[-97.2504,34.9489],[-97.2462,34.9492],[-97.2399,34.9471],[-97.2394,34.9457],[-97.2327,34.9419],[-97.2331,34.9375],[-97.2301,34.9363],[-97.2279,34.9321],[-97.2259,34.9346],[-97.224,34.941],[-97.2179,34.9443],[-97.2125,34.9433],[-97.2053,34.94],[-97.1984,34.9398],[-97.1957,34.936],[-97.197,34.9317],[-97.1962,34.9283],[-97.1873,34.9297],[-97.1782,34.9295],[-97.1764,34.9287],[-97.1666,34.9308],[-97.1546,34.9314],[-97.1423,34.9282],[-97.1358,34.9244],[-97.1324,34.9262],[-97.1349,34.9326],[-97.1329,34.9346],[-97.124,34.9341],[-97.1168,34.9352],[-97.106,34.9329],[-97.1004,34.9296],[-97.0968,34.9309],[-97.0876,34.9315],[-97.0797,34.9289],[-97.0753,34.9224],[-97.0718,34.9199],[-97.0606,34.9213],[-97.0525,34.9213],[-97.0495,34.9183],[-97.0432,34.9152],[-97.0358,34.9129],[-97.0259,34.9123],[-97.0159,34.9073],[-97.0005,34.9143],[-96.9959,34.9149],[-96.9893,34.9183],[-96.9878,34.9203],[-96.9833,34.9215],[-96.9779,34.9256],[-96.9751,34.9301],[-96.9762,34.9321],[-96.9727,34.9354],[-96.9673,34.9347],[-96.9658,34.9391],[-96.9589,34.9459],[-96.957,34.951],[-96.9465,34.9585],[-96.937,34.9626],[-96.9306,34.9644],[-96.9307,34.9508],[-96.9309,34.8546],[-97.1951,34.8552],[-97.3002,34.8552],[-97.424,34.8553],[-97.494,34.8553],[-97.4948,34.8551],[-97.564,34.8553],[-97.6681,34.8552],[-97.6704,34.8552],[-97.6706,34.8697],[-97.6706,34.935],[-97.6705,35.0805],[-97.6706,35.1446],[-97.6704,35.2038],[-97.6709,35.2038],[-97.6708,35.3324],[-97.6714,35.3359],[-97.6714,35.3375],[-97.663,35.3366]]]}},{"type":"Feature","properties":{"id":"40109","name":"Oklahoma Co."},"geometry":{"type":"Polygon","coordinates":[[[-97.5497,35.7258],[-97.4784,35.7254],[-97.4194,35.7253],[-97.3552,35.7254],[-97.1411,35.7244],[-97.141,35.7062],[-97.1413,35.6593],[-97.1412,35.5795],[-97.1409,35.5742],[-97.1409,35.5511],[-97.1414,35.5502],[-97.1413,35.4925],[-97.1417,35.4718],[-97.1415,35.464],[-97.1421,35.3769],[-97.1598,35.3771],[-97.1951,35.3771],[-97.265,35.3774],[-97.3355,35.3772],[-97.477,35.3773],[-97.5301,35.3771],[-97.6714,35.3772],[-97.6715,35.4714],[-97.6714,35.5511],[-97.674,35.5511],[-97.6739,35.653],[-97.674,35.726],[-97.5497,35.7258]]]}},{"type":"Feature","properties":{"id":"40081","name":"Lincoln Co."},"geometry":{"type":"Polygon","coordinates":[[[-97.1411,35.7892],[-97.1409,35.8038],[-97.1415,35.8691],[-97.1414,35.8985],[-97.1405,35.8985],[-97.1406,35.942],[-97.1207,35.9422],[-97.0164,35.9421],[-96.9663,35.9419],[-96.9627,35.9422],[-96.927,35.942],[-96.9095,35.9415],[-96.8794,35.9418],[-96.8738,35.9421],[-96.8203,35.9423],[-96.7673,35.9421],[-96.6779,35.9421],[-96.6601,35.9417],[-96.6425,35.9419],[-96.6197,35.9416],[-96.6204,35.9304],[-96.62,35.9116],[-96.6195,35.8643],[-96.6196,35.8202],[-96.6196,35.7844],[-96.6204,35.7098],[-96.6201,35.7019],[-96.6208,35.6554],[-96.6208,35.639],[-96.6217,35.5518],[-96.6247,35.4627],[-96.6745,35.4627],[-96.7358,35.4629],[-96.8416,35.4634],[-96.9652,35.4636],[-97.027,35.4635],[-97.1089,35.4635],[-97.1155,35.4641],[-97.1415,35.464],[-97.1417,35.4718],[-97.1413,35.4925],[-97.1414,35.5502],[-97.1409,35.5511],[-97.1409,35.5742],[-97.1412,35.5795],[-97.1413,35.6593],[-97.141,35.7062],[-97.1411,35.7244],[-97.1411,35.7892]]]}},{"type":"Feature","properties":{"id":"40051","name":"Grady Co."},"geometry":{"type":"Polygon","coordinates":[[[-98.0235,35.3778],[-98.0175,35.3779],[-98.0161,35.3744],[-98.0117,35.3714],[-98.0089,35.3668],[-98.0121,35.3637],[-98.0108,35.3608],[-98.0064,35.3604],[-98.0015,35.3644],[-97.9992,35.3625],[-97.9859,35.3586],[-97.9814,35.3563],[-97.9739,35.3571],[-97.9695,35.3515],[-97.9645,35.3502],[-97.9601,35.3459],[-97.9552,35.3461],[-97.9525,35.3478],[-97.9523,35.3506],[-97.949,35.3527],[-97.9468,35.3564],[-97.946,35.3625],[-97.9472,35.3749],[-97.9434,35.3772],[-97.9348,35.3754],[-97.9323,35.3734],[-97.9303,35.3678],[-97.9305,35.3641],[-97.9279,35.3605],[-97.9245,35.3586],[-97.9208,35.3535],[-97.9146,35.3524],[-97.907,35.3559],[-97.9031,35.3556],[-97.9016,35.3534],[-97.9035,35.3491],[-97.9031,35.3454],[-97.8997,35.3441],[-97.8941,35.347],[-97.8871,35.3474],[-97.8841,35.349],[-97.885,35.3558],[-97.8767,35.3555],[-97.8733,35.3568],[-97.8732,35.3609],[-97.8699,35.3625],[-97.8628,35.3618],[-97.8578,35.3563],[-97.8568,35.345],[-97.8537,35.3411],[-97.8484,35.3377],[-97.8413,35.3345],[-97.8337,35.3354],[-97.825,35.3337],[-97.8198,35.3353],[-97.8121,35.3338],[-97.8121,35.3383],[-97.8072,35.3408],[-97.7967,35.3391],[-97.792,35.3327],[-97.7896,35.3333],[-97.7883,35.3366],[-97.7812,35.3361],[-97.7747,35.3394],[-97.7724,35.3456],[-97.7678,35.3451],[-97.7639,35.3408],[-97.7566,35.3388],[-97.752,35.3343],[-97.7487,35.3294],[-97.7373,35.3238],[-97.7247,35.3258],[-97.72,35.3285],[-97.7138,35.3279],[-97.7131,35.3255],[-97.7063,35.325],[-97.6965,35.3274],[-97.6897,35.3322],[-97.6851,35.3343],[-97.6714,35.3359],[-97.6708,35.3324],[-97.6709,35.2038],[-97.6704,35.2038],[-97.6706,35.1446],[-97.6705,35.0805],[-97.6706,34.935],[-97.6706,34.8697],[-97.6704,34.8552],[-97.6681,34.8552],[-97.6685,34.6813],[-97.7212,34.6814],[-97.8443,34.6815],[-97.9971,34.6818],[-98.0891,34.6812],[-98.0891,34.8114],[-98.089,34.8407],[-98.0896,34.8549],[-98.0931,34.855],[-98.093,34.9544],[-98.0931,35.0288],[-98.0929,35.0869],[-98.0911,35.0892],[-98.0913,35.2037],[-98.095,35.2037],[-98.095,35.2473],[-98.0954,35.3052],[-98.096,35.3778],[-98.0235,35.3778]]]}},{"type":"Feature","properties":{"id":"40083","name":"Logan Co."},"geometry":{"type":"Polygon","coordinates":[[[-97.1405,35.8985],[-97.1414,35.8985],[-97.1415,35.8691],[-97.1409,35.8038],[-97.1411,35.7892],[-97.1411,35.7244],[-97.3552,35.7254],[-97.4194,35.7253],[-97.4784,35.7254],[-97.5497,35.7258],[-97.674,35.726],[-97.6741,35.8057],[-97.6745,35.8712],[-97.6745,35.8985],[-97.6754,35.8985],[-97.6757,35.9566],[-97.6757,36.0438],[-97.6755,36.0728],[-97.6757,36.1499],[-97.6756,36.1647],[-97.5861,36.1647],[-97.5324,36.1646],[-97.3539,36.1643],[-97.3541,36.1591],[-97.3538,36.1164],[-97.354,36.058],[-97.3539,35.9849],[-97.3471,35.9884],[-97.3397,35.9937],[-97.334,36.0047],[-97.3283,36.0069],[-97.3236,36.0109],[-97.3168,36.0113],[-97.3119,36.0103],[-97.3086,36.011],[-97.3005,36.0093],[-97.2946,36.0056],[-97.2875,35.9967],[-97.2854,35.9918],[-97.2845,35.9854],[-97.2859,35.9805],[-97.2776,35.9738],[-97.2654,35.9728],[-97.2636,35.9734],[-97.2432,35.9722],[-97.2343,35.9696],[-97.232,35.968],[-97.2212,35.9646],[-97.2095,35.9514],[-97.2081,35.9478],[-97.2036,35.9448],[-97.1896,35.9412],[-97.1806,35.9407],[-97.1724,35.941],[-97.1582,35.9452],[-97.1514,35.9484],[-97.1429,35.9542],[-97.1405,35.9591],[-97.1406,35.942],[-97.1405,35.8985]]]}},{"type":"Feature","properties":{"id":"40017","name":"Canadian Co."},"geometry":{"type":"Polygon","coordinates":[[[-97.6739,35.653],[-97.674,35.5511],[-97.6714,35.5511],[-97.6715,35.4714],[-97.6714,35.3772],[-97.6714,35.3375],[-97.6714,35.3359],[-97.6851,35.3343],[-97.6897,35.3322],[-97.6965,35.3274],[-97.7063,35.325],[-97.7131,35.3255],[-97.7138,35.3279],[-97.72,35.3285],[-97.7247,35.3258],[-97.7373,35.3238],[-97.7487,35.3294],[-97.752,35.3343],[-97.7566,35.3388],[-97.7639,35.3408],[-97.7678,35.3451],[-97.7724,35.3456],[-97.7747,35.3394],[-97.7812,35.3361],[-97.7883,35.3366],[-97.7896,35.3333],[-97.792,35.3327],[-97.7967,35.3391],[-97.8072,35.3408],[-97.8121,35.3383],[-97.8121,35.3338],[-97.8198,35.3353],[-97.825,35.3337],[-97.8337,35.3354],[-97.8413,35.3345],[-97.8484,35.3377],[-97.8537,35.3411],[-97.8568,35.345],[-97.8578,35.3563],[-97.8628,35.3618],[-97.8699,35.3625],[-97.8732,35.3609],[-97.8733,35.3568],[-97.8767,35.3555],[-97.885,35.3558],[-97.8841,35.349],[-97.8871,35.3474],[-97.8941,35.347],[-97.8997,35.3441],[-97.9031,35.3454],[-97.9035,35.3491],[-97.9016,35.3534],[-97.9031,35.3556],[-97.907,35.3559],[-97.9146,35.3524],[-97.9208,35.3535],[-97.9245,35.3586],[-97.9279,35.3605],[-97.9305,35.3641],[-97.9303,35.3678],[-97.9323,35.3734],[-97.9348,35.3754],[-97.9434,35.3772],[-97.9472,35.3749],[-97.946,35.3625],[-97.9468,35.3564],[-97.949,35.3527],[-97.9523,35.3506],[-97.9525,35.3478],[-97.9552,35.3461],[-97.9601,35.3459],[-97.9645,35.3502],[-97.9695,35.3515],[-97.9739,35.3571],[-97.9814,35.3563],[-97.9859,35.3586],[-97.9992,35.3625],[-98.0015,35.3644],[-98.0064,35.3604],[-98.0108,35.3608],[-98.0121,35.3637],[-98.0089,35.3668],[-98.0117,35.3714],[-98.0161,35.3744],[-98.0175,35.3779],[-98.0235,35.3778],[-98.096,35.3778],[-98.1313,35.3774],[-98.1709,35.3773],[-98.21,35.3768],[-98.2555,35.3768],[-98.2898,35.3773],[-98.3063,35.3772],[-98.3064,35.4205],[-98.3062,35.4711],[-98.3063,35.5145],[-98.3065,35.5362],[-98.3084,35.5448],[-98.3084,35.5513],[-98.3133,35.5515],[-98.3133,35.6134],[-98.3132,35.7247],[-98.2071,35.7252],[-98.1625,35.7251],[-98.1184,35.7253],[-97.9862,35.7256],[-97.959,35.7261],[-97.8698,35.726],[-97.7896,35.7257],[-97.674,35.726],[-97.6739,35.653]]]}}]}