{"type":"FeatureCollection","features":[{"type":"Feature","properties":{"id":"06039","name":"Madera Co."},"geometry":{"type":"Polygon","coordinates":[[[-120.4767,37.0964],[-120.4725,37.0941],[-120.4698,37.0943],[-120.4655,37.0978],[-120.4561,37.1003],[-120.4529,37.0989],[-120.4442,37.1031],[-120.4278,37.1063],[-120.4207,37.1098],[-120.417,37.1082],[-120.4148,37.1109],[-120.4063,37.1112],[-120.4041,37.1157],[-120.4008,37.1178],[-120.3954,37.1191],[-120.3936,37.1213],[-120.3888,37.121],[-120.3849,37.1246],[-120.379,37.1243],[-120.3722,37.1211],[-120.3633,37.1197],[-120.359,37.1204],[-120.3541,37.1234],[-120.3412,37.1246],[-120.331,37.1306],[-120.3283,37.1311],[-120.3286,37.1339],[-120.3245,37.1364],[-120.3136,37.1388],[-120.3109,37.1411],[-120.3054,37.1409],[-120.2964,37.1493],[-120.2905,37.1524],[-120.2833,37.153],[-120.2741,37.1521],[-120.2723,37.1533],[-120.2647,37.1539],[-120.2479,37.158],[-120.2439,37.157],[-120.2323,37.1599],[-120.2273,37.1634],[-120.223,37.164],[-120.2195,37.1622],[-120.2137,37.1643],[-120.2087,37.1645],[-120.2021,37.1627],[-120.1948,37.1632],[-120.1876,37.1603],[-120.1855,37.1617],[-120.1765,37.1623],[-120.1756,37.1651],[-120.1702,37.166],[-120.1646,37.1627],[-120.1571,37.1655],[-120.153,37.166],[-120.1465,37.1639],[-120.1426,37.1641],[-120.1339,37.1663],[-120.1328,37.1674],[-120.1201,37.1655],[-120.1145,37.1667],[-120.1033,37.1677],[-120.0997,37.1708],[-120.0947,37.1726],[-120.0852,37.1734],[-120.0767,37.1765],[-120.0647,37.1778],[-120.0521,37.1831],[-119.8763,37.3253],[-119.8754,37.326],[-119.7796,37.4029],[-119.7618,37.4171],[-119.7471,37.4177],[-119.6512,37.4178],[-119.6512,37.4614],[-119.6155,37.4615],[-119.6151,37.4947],[-119.5842,37.4947],[-119.5836,37.5603],[-119.4512,37.6657],[-119.309,37.778],[-119.3083,37.7757],[-119.2934,37.7679],[-119.2941,37.7597],[-119.2891,37.755],[-119.2907,37.7493],[-119.2884,37.745],[-119.2821,37.7438],[-119.2718,37.7392],[-119.269,37.7392],[-119.2655,37.7361],[-119.2641,37.7329],[-119.2612,37.7327],[-119.2601,37.7266],[-119.2579,37.7246],[-119.2552,37.7253],[-119.251,37.7301],[-119.2393,37.7275],[-119.238,37.725],[-119.2303,37.7206],[-119.23,37.7174],[-119.2222,37.7151],[-119.2163,37.7141],[-119.2107,37.722],[-119.2073,37.7241],[-119.1985,37.7367],[-119.1915,37.7378],[-119.1857,37.7367],[-119.184,37.7394],[-119.1825,37.7371],[-119.1771,37.7348],[-119.1728,37.7357],[-119.171,37.7381],[-119.1674,37.7382],[-119.1641,37.7361],[-119.1573,37.7365],[-119.1554,37.7347],[-119.1479,37.7328],[-119.1448,37.7342],[-119.1408,37.7333],[-119.138,37.7361],[-119.1327,37.7339],[-119.1243,37.7339],[-119.1216,37.7311],[-119.118,37.7303],[-119.1097,37.7247],[-119.1068,37.7193],[-119.1018,37.7162],[-119.1016,37.7136],[-119.0931,37.7036],[-119.0881,37.7027],[-119.0854,37.699],[-119.0807,37.6955],[-119.0734,37.6929],[-119.0735,37.6912],[-119.0688,37.6865],[-119.0652,37.6846],[-119.062,37.6765],[-119.0624,37.6711],[-119.0595,37.6654],[-119.0614,37.6578],[-119.0543,37.6512],[-119.0546,37.6451],[-119.0493,37.6416],[-119.0453,37.637],[-119.0383,37.6328],[-119.0326,37.6305],[-119.0312,37.6274],[-119.0309,37.6209],[-119.032,37.6138],[-119.0345,37.606],[-119.0344,37.6035],[-119.027,37.5957],[-119.0252,37.5901],[-119.0224,37.5857],[-119.2867,37.3749],[-119.3009,37.3627],[-119.307,37.3561],[-119.3122,37.3527],[-119.3154,37.3458],[-119.3115,37.3429],[-119.3122,37.3397],[-119.3168,37.3378],[-119.3244,37.3371],[-119.3245,37.3325],[-119.3174,37.3289],[-119.3156,37.3258],[-119.3186,37.3212],[-119.3243,37.3208],[-119.3323,37.3151],[-119.3353,37.3118],[-119.334,37.3039],[-119.3309,37.3022],[-119.3271,37.2927],[-119.3282,37.2872],[-119.3309,37.283],[-119.332,37.2736],[-119.3274,37.2708],[-119.3246,37.2655],[-119.3245,37.2586],[-119.3222,37.2538],[-119.3221,37.2474],[-119.3232,37.245],[-119.3288,37.2425],[-119.3315,37.2398],[-119.334,37.2235],[-119.3376,37.2199],[-119.3354,37.2166],[-119.331,37.2155],[-119.3294,37.21],[-119.3306,37.2058],[-119.3372,37.2005],[-119.3412,37.1909],[-119.3478,37.1868],[-119.3536,37.1859],[-119.3606,37.1805],[-119.3604,37.1703],[-119.365,37.1657],[-119.3746,37.1643],[-119.3757,37.1633],[-119.375,37.1579],[-119.3791,37.1551],[-119.385,37.1533],[-119.3865,37.1495],[-119.3998,37.1498],[-119.4036,37.1565],[-119.4087,37.1612],[-119.4182,37.1641],[-119.4258,37.1643],[-119.4331,37.1615],[-119.4329,37.1548],[-119.4349,37.147],[-119.4427,37.1441],[-119.4514,37.1448],[-119.4546,37.144],[-119.4589,37.1452],[-119.4626,37.1442],[-119.4639,37.1384],[-119.4686,37.1284],[-119.4688,37.1245],[-119.4663,37.1196],[-119.4706,37.1106],[-119.4816,37.1095],[-119.4841,37.1108],[-119.4864,37.1149],[-119.4913,37.1197],[-119.4931,37.1238],[-119.4912,37.132],[-119.4891,37.1346],[-119.4901,37.1386],[-119.4963,37.144],[-119.4993,37.1445],[-119.5067,37.1506],[-119.5093,37.1505],[-119.5134,37.1478],[-119.517,37.1471],[-119.5199,37.1386],[-119.5223,37.1354],[-119.5235,37.1293],[-119.5276,37.1287],[-119.5331,37.133],[-119.5388,37.1344],[-119.5479,37.1436],[-119.5522,37.1452],[-119.5594,37.1436],[-119.5638,37.1383],[-119.5634,37.1283],[-119.5667,37.1212],[-119.569,37.1183],[-119.5672,37.1159],[-119.5544,37.1157],[-119.548,37.1164],[-119.5381,37.1068],[-119.5377,37.104],[-119.5394,37.099],[-119.5423,37.0954],[-119.5472,37.0949],[-119.5532,37.0926],[-119.559,37.0881],[-119.5615,37.0781],[-119.5633,37.0744],[-119.5606,37.07],[-119.563,37.0641],[-119.5684,37.0636],[-119.5807,37.0661],[-119.5894,37.0666],[-119.5945,37.0702],[-119.6001,37.0716],[-119.6049,37.071],[-119.6097,37.0647],[-119.6106,37.0578],[-119.6134,37.0508],[-119.6104,37.0457],[-119.6149,37.0388],[-119.6169,37.0334],[-119.6207,37.0271],[-119.626,37.0252],[-119.6322,37.021],[-119.6362,37.0237],[-119.629,37.0346],[-119.6393,37.0433],[-119.6475,37.0438],[-119.6516,37.043],[-119.6594,37.0389],[-119.6571,37.0189],[-119.6586,37.0133],[-119.6709,37.0093],[-119.6774,37.0091],[-119.6908,37.012],[-119.6981,37.0087],[-119.7007,37.0033],[-119.705,37.0007],[-119.7138,36.9909],[-119.7316,36.9794],[-119.7405,36.9702],[-119.7424,36.9537],[-119.7367,36.9536],[-119.7338,36.9464],[-119.7373,36.944],[-119.7416,36.9439],[-119.7457,36.939],[-119.7525,36.9352],[-119.7504,36.9278],[-119.7527,36.9244],[-119.7587,36.9202],[-119.7661,36.9188],[-119.7727,36.9186],[-119.7757,36.9091],[-119.7893,36.8967],[-119.7884,36.8902],[-119.785,36.8847],[-119.7861,36.8789],[-119.7892,36.8761],[-119.7925,36.8763],[-119.7976,36.8744],[-119.8022,36.8667],[-119.8096,36.8626],[-119.8138,36.8502],[-119.8187,36.8481],[-119.8237,36.8486],[-119.8373,36.8541],[-119.8407,36.8612],[-119.8478,36.8602],[-119.8481,36.8572],[-119.8511,36.8529],[-119.8538,36.8513],[-119.8609,36.8545],[-119.8648,36.8515],[-119.8706,36.8522],[-119.8849,36.8585],[-119.8903,36.8515],[-119.8953,36.8526],[-119.9029,36.8518],[-119.906,36.8501],[-119.9091,36.8462],[-119.9195,36.8451],[-119.9214,36.8469],[-119.9278,36.8485],[-119.9326,36.8445],[-119.9345,36.838],[-119.937,36.8362],[-119.9435,36.834],[-119.9585,36.8355],[-119.9666,36.8325],[-119.977,36.835],[-119.9797,36.8397],[-119.9847,36.8408],[-119.9899,36.8382],[-119.9914,36.8355],[-119.9907,36.8306],[-119.9924,36.8289],[-119.9981,36.8275],[-120.0133,36.8282],[-120.0198,36.8252],[-120.0216,36.8195],[-120.025,36.8157],[-120.0281,36.8145],[-120.0355,36.8159],[-120.0423,36.8155],[-120.0509,36.8219],[-120.0591,36.8226],[-120.0661,36.8193],[-120.0707,36.8186],[-120.0737,36.8202],[-120.0758,36.8244],[-120.0795,36.8253],[-120.0916,36.8212],[-120.0982,36.8151],[-120.1096,36.8126],[-120.1143,36.814],[-120.1291,36.8118],[-120.1314,36.81],[-120.1366,36.8093],[-120.1405,36.8063],[-120.1484,36.8033],[-120.1553,36.7988],[-120.16,36.798],[-120.1687,36.8035],[-120.1732,36.8025],[-120.1745,36.7961],[-120.1798,36.7914],[-120.182,36.7881],[-120.1815,36.7833],[-120.1888,36.7764],[-120.1926,36.7765],[-120.1949,36.7796],[-120.1997,36.7807],[-120.2018,36.7829],[-120.2022,36.79],[-120.2071,36.7909],[-120.2084,36.789],[-120.2175,36.7887],[-120.2213,36.7866],[-120.2227,36.7828],[-120.2307,36.7826],[-120.2333,36.7811],[-120.2295,36.7693],[-120.234,36.7683],[-120.2457,36.7713],[-120.2488,36.7751],[-120.2528,36.7737],[-120.2548,36.77],[-120.2575,36.7696],[-120.2606,36.7723],[-120.2703,36.7716],[-120.2727,36.7741],[-120.2758,36.7729],[-120.2763,36.7702],[-120.2809,36.7667],[-120.2822,36.7673],[-120.2812,36.7721],[-120.2883,36.7726],[-120.2897,36.7696],[-120.2879,36.7648],[-120.2906,36.763],[-120.2942,36.7668],[-120.2921,36.7708],[-120.2977,36.7723],[-120.3019,36.7699],[-120.3061,36.7703],[-120.3053,36.7736],[-120.3002,36.7742],[-120.2998,36.7768],[-120.3029,36.7788],[-120.3138,36.7819],[-120.3145,36.7792],[-120.3217,36.7777],[-120.3243,36.7799],[-120.3224,36.7851],[-120.3242,36.7863],[-120.3293,36.7852],[-120.3322,36.7832],[-120.3356,36.7842],[-120.3342,36.791],[-120.3369,36.7924],[-120.343,36.7909],[-120.3451,36.7926],[-120.3466,36.7977],[-120.3507,36.7975],[-120.3509,36.7954],[-120.3475,36.7892],[-120.3443,36.7864],[-120.3465,36.7846],[-120.3531,36.7869],[-120.3581,36.7872],[-120.3691,36.7848],[-120.3729,36.7889],[-120.3698,36.796],[-120.3741,36.8003],[-120.3728,36.8037],[-120.3683,36.8067],[-120.3696,36.8104],[-120.3747,36.8085],[-120.3775,36.8091],[-120.3791,36.8172],[-120.389,36.8244],[-120.3977,36.8223],[-120.4007,36.8224],[-120.4042,36.8259],[-120.4044,36.8298],[-120.4091,36.8358],[-120.4104,36.84],[-120.4133,36.8367],[-120.4171,36.8356],[-120.4222,36.8401],[-120.4266,36.8401],[-120.4339,36.8506],[-120.4405,36.8502],[-120.4385,36.8545],[-120.4418,36.8564],[-120.4461,36.8562],[-120.449,36.8603],[-120.4541,36.8602],[-120.4562,36.8629],[-120.4502,36.8685],[-120.4503,36.8712],[-120.4574,36.873],[-120.4593,36.8749],[-120.4577,36.8783],[-120.4537,36.8808],[-120.4565,36.8838],[-120.4643,36.8866],[-120.4668,36.8922],[-120.4645,36.895],[-120.4609,36.9027],[-120.4634,36.9056],[-120.456,36.9054],[-120.4503,36.9112],[-120.4534,36.9147],[-120.4591,36.9153],[-120.4619,36.9169],[-120.462,36.9194],[-120.457,36.9223],[-120.4572,36.9239],[-120.4623,36.9275],[-120.468,36.9375],[-120.4752,36.9393],[-120.479,36.9488],[-120.4777,36.9532],[-120.4807,36.9592],[-120.4847,36.9632],[-120.4878,36.9645],[-120.4887,36.9678],[-120.4838,36.971],[-120.4912,36.9758],[-120.4948,36.9758],[-120.4961,36.9797],[-120.4995,36.982],[-120.4998,36.9871],[-120.5014,36.9932],[-120.5012,36.9967],[-120.5042,36.9982],[-120.5028,37.0004],[-120.5085,37.0008],[-120.509,37.0076],[-120.5138,37.011],[-120.5202,37.0113],[-120.5233,37.0141],[-120.5298,37.0125],[-120.5307,37.0202],[-120.5377,37.0199],[-120.5378,37.0239],[-120.5446,37.0261],[-120.5455,37.0276],[-120.5378,37.0341],[-120.5371,37.0398],[-120.5417,37.0445],[-120.4767,37.0964]]]}},{"type":"Feature","properties":{"id":"06019","name":"Fresno Co."},"geometry":{"type":"Polygon","coordinates":[[[-119.0205,37.5834],[-119.0154,37.5822],[-119.0064,37.5761],[-119.0023,37.5711],[-118.9906,37.5671],[-118.9849,37.5673],[-118.9786,37.5612],[-118.977,37.5568],[-118.9725,37.5594],[-118.9641,37.5581],[-118.9598,37.5631],[-118.9564,37.5627],[-118.9527,37.5658],[-118.947,37.565],[-118.9427,37.5621],[-118.939,37.5544],[-118.9344,37.5533],[-118.9297,37.5489],[-118.9261,37.5486],[-118.9221,37.5502],[-118.9172,37.5503],[-118.9098,37.5393],[-118.9068,37.5378],[-118.9012,37.5312],[-118.9019,37.526],[-118.8988,37.5253],[-118.8926,37.5261],[-118.8875,37.521],[-118.8837,37.5201],[-118.8813,37.5147],[-118.8817,37.5103],[-118.8757,37.5079],[-118.8675,37.5071],[-118.8608,37.5015],[-118.8585,37.4943],[-118.8597,37.4911],[-118.8571,37.4834],[-118.8554,37.4814],[-118.8572,37.4795],[-118.8505,37.4758],[-118.8419,37.4809],[-118.836,37.4825],[-118.8328,37.4802],[-118.8249,37.4827],[-118.8241,37.4846],[-118.8155,37.4878],[-118.8103,37.486],[-118.8043,37.4889],[-118.7958,37.4884],[-118.7919,37.4846],[-118.7897,37.4809],[-118.786,37.4787],[-118.7851,37.4739],[-118.7779,37.4694],[-118.7777,37.4665],[-118.7733,37.4595],[-118.7685,37.4567],[-118.7633,37.4565],[-118.7637,37.4542],[-118.7619,37.4488],[-118.7589,37.4445],[-118.7596,37.4356],[-118.7615,37.4319],[-118.7651,37.4297],[-118.7675,37.4236],[-118.7713,37.4224],[-118.773,37.4246],[-118.7772,37.424],[-118.7798,37.4217],[-118.7836,37.4133],[-118.7818,37.4085],[-118.786,37.4022],[-118.7867,37.3985],[-118.79,37.394],[-118.7859,37.3891],[-118.7826,37.3827],[-118.7795,37.3816],[-118.7794,37.3778],[-118.7775,37.3752],[-118.7733,37.3749],[-118.7697,37.3688],[-118.7701,37.3662],[-118.7681,37.3612],[-118.7702,37.3589],[-118.7782,37.3583],[-118.7815,37.3564],[-118.7842,37.3524],[-118.7867,37.3434],[-118.7815,37.3387],[-118.7788,37.3343],[-118.7744,37.3348],[-118.7667,37.3311],[-118.7648,37.3315],[-118.7579,37.3288],[-118.7501,37.3225],[-118.7472,37.3222],[-118.74,37.3152],[-118.733,37.3179],[-118.7288,37.323],[-118.716,37.3282],[-118.7096,37.3219],[-118.7093,37.3191],[-118.7062,37.3141],[-118.6979,37.305],[-118.6947,37.3054],[-118.6949,37.3018],[-118.6907,37.2965],[-118.6902,37.2943],[-118.6852,37.2905],[-118.6851,37.287],[-118.6826,37.2839],[-118.6821,37.2805],[-118.6765,37.2755],[-118.6755,37.2712],[-118.6718,37.2692],[-118.6711,37.2667],[-118.6652,37.261],[-118.6675,37.2593],[-118.6753,37.2488],[-118.678,37.2489],[-118.6846,37.2428],[-118.6846,37.2376],[-118.6822,37.234],[-118.6864,37.2276],[-118.6842,37.2242],[-118.6808,37.2229],[-118.6787,37.2189],[-118.6791,37.2145],[-118.6756,37.2138],[-118.6816,37.2052],[-118.6797,37.2016],[-118.6713,37.194],[-118.6694,37.1904],[-118.6668,37.19],[-118.666,37.1861],[-118.6671,37.1824],[-118.6642,37.1781],[-118.6669,37.1728],[-118.6723,37.1685],[-118.6691,37.1634],[-118.6665,37.1614],[-118.6674,37.1554],[-118.6618,37.1509],[-118.6609,37.1484],[-118.6567,37.1472],[-118.6546,37.1418],[-118.6511,37.1402],[-118.6465,37.1408],[-118.6435,37.138],[-118.6399,37.1372],[-118.6333,37.1389],[-118.6295,37.1374],[-118.6259,37.1399],[-118.6137,37.143],[-118.6104,37.1404],[-118.6074,37.1404],[-118.6001,37.1366],[-118.5927,37.1381],[-118.5898,37.1348],[-118.5861,37.1249],[-118.5831,37.1224],[-118.5763,37.1237],[-118.569,37.1226],[-118.5677,37.118],[-118.5684,37.1153],[-118.5641,37.1132],[-118.5606,37.1143],[-118.551,37.1139],[-118.5462,37.1154],[-118.5444,37.1137],[-118.538,37.1136],[-118.5323,37.1095],[-118.5298,37.1051],[-118.5271,37.1047],[-118.5221,37.0984],[-118.5176,37.0973],[-118.5151,37.0942],[-118.5119,37.0928],[-118.5072,37.0949],[-118.5031,37.0952],[-118.5009,37.0922],[-118.498,37.092],[-118.4952,37.0881],[-118.4917,37.0864],[-118.4904,37.0822],[-118.4866,37.0774],[-118.4791,37.0742],[-118.4752,37.0743],[-118.4711,37.0727],[-118.4673,37.0667],[-118.4531,37.0673],[-118.4479,37.0687],[-118.4457,37.0658],[-118.4413,37.0639],[-118.436,37.0573],[-118.4382,37.0559],[-118.435,37.0497],[-118.4417,37.0457],[-118.4394,37.0428],[-118.4398,37.0403],[-118.4326,37.0345],[-118.4295,37.0339],[-118.4282,37.0308],[-118.4228,37.0258],[-118.4231,37.0169],[-118.428,37.012],[-118.4243,37.008],[-118.4211,37.0076],[-118.4176,37.0043],[-118.4166,37.0014],[-118.4122,36.9984],[-118.4189,36.9948],[-118.4201,36.9894],[-118.4171,36.9854],[-118.4111,36.9829],[-118.4091,36.9805],[-118.4095,36.9752],[-118.4044,36.972],[-118.4048,36.968],[-118.4034,36.9655],[-118.4033,36.9595],[-118.4047,36.9575],[-118.3966,36.9573],[-118.3884,36.9455],[-118.383,36.9346],[-118.3815,36.9259],[-118.3773,36.9185],[-118.3744,36.9152],[-118.371,36.9086],[-118.3674,36.907],[-118.3698,36.9004],[-118.365,36.8906],[-118.3608,36.8877],[-118.3624,36.8836],[-118.3671,36.8814],[-118.3699,36.8701],[-118.3662,36.8689],[-118.3664,36.8636],[-118.3622,36.8614],[-118.363,36.8498],[-118.3615,36.8453],[-118.3633,36.8425],[-118.3715,36.8361],[-118.3759,36.8345],[-118.3858,36.835],[-118.3898,36.8345],[-118.3937,36.8309],[-118.3909,36.8256],[-118.3923,36.8235],[-118.3901,36.8199],[-118.3847,36.8153],[-118.3839,36.8102],[-118.3796,36.8089],[-118.3782,36.8042],[-118.3742,36.8005],[-118.3728,36.7945],[-118.3759,36.7915],[-118.3768,36.7855],[-118.3802,36.7822],[-118.376,36.7785],[-118.3764,36.7721],[-118.372,36.767],[-118.3747,36.7641],[-118.3717,36.7612],[-118.3697,36.7555],[-118.3693,36.7503],[-118.3661,36.7477],[-118.3619,36.7474],[-118.3606,36.7448],[-118.4079,36.7448],[-118.5555,36.7447],[-118.555,36.7391],[-118.7509,36.7394],[-118.9289,36.7412],[-118.9824,36.7416],[-118.9848,36.6571],[-119.0144,36.6574],[-119.0717,36.6583],[-119.0884,36.6575],[-119.1065,36.6577],[-119.1227,36.6584],[-119.1618,36.6589],[-119.1748,36.6589],[-119.2144,36.6598],[-119.2324,36.6607],[-119.3046,36.6606],[-119.3049,36.5983],[-119.3051,36.5737],[-119.4129,36.5752],[-119.4311,36.5751],[-119.4663,36.5752],[-119.4748,36.5683],[-119.4899,36.5567],[-119.501,36.5468],[-119.5189,36.5323],[-119.5372,36.5182],[-119.5461,36.5106],[-119.5535,36.5049],[-119.5637,36.496],[-119.6362,36.4414],[-119.6663,36.419],[-119.6677,36.4225],[-119.6728,36.4266],[-119.6703,36.4295],[-119.6715,36.4311],[-119.6813,36.4296],[-119.6869,36.4258],[-119.6936,36.4245],[-119.6996,36.4249],[-119.7042,36.427],[-119.7085,36.4253],[-119.7123,36.4194],[-119.7214,36.4179],[-119.7276,36.4203],[-119.731,36.4206],[-119.7335,36.4168],[-119.7371,36.4175],[-119.747,36.4164],[-119.7524,36.409],[-119.7514,36.4043],[-119.7539,36.402],[-119.8871,36.402],[-119.8872,36.4017],[-119.9141,36.4016],[-119.9592,36.401],[-119.9592,36.3863],[-119.96,36.3791],[-119.9589,36.2991],[-119.9591,36.1823],[-119.9589,36.1814],[-119.9773,36.168],[-119.9953,36.1533],[-120.001,36.1495],[-120.1245,36.0543],[-120.126,36.0534],[-120.196,36.0],[-120.1999,35.9968],[-120.3151,35.9072],[-120.3187,35.9069],[-120.3243,35.9088],[-120.326,35.9131],[-120.3299,35.9135],[-120.3323,35.9155],[-120.3321,35.9188],[-120.3364,35.9231],[-120.3351,35.9284],[-120.3371,35.9317],[-120.3359,35.9371],[-120.3402,35.939],[-120.3458,35.9449],[-120.3496,35.9441],[-120.3565,35.9481],[-120.3575,35.9555],[-120.3593,35.9583],[-120.3625,35.9594],[-120.3604,35.9644],[-120.3683,35.9665],[-120.3717,35.9663],[-120.3889,35.9693],[-120.394,35.9679],[-120.3966,35.9704],[-120.4072,35.9744],[-120.4085,35.976],[-120.4133,35.9746],[-120.4228,35.9737],[-120.4331,35.9689],[-120.4361,35.9707],[-120.4371,35.9762],[-120.4397,35.9796],[-120.4436,35.9809],[-120.4491,35.9851],[-120.4497,35.9884],[-120.4611,35.9937],[-120.4637,35.9928],[-120.4686,35.9943],[-120.4729,35.9988],[-120.4774,36.0008],[-120.4804,36.0059],[-120.4787,36.0102],[-120.483,36.0121],[-120.4862,36.0112],[-120.4881,36.0146],[-120.5023,36.0222],[-120.5025,36.0206],[-120.5104,36.022],[-120.5132,36.0257],[-120.5194,36.0272],[-120.52,36.0209],[-120.5226,36.0232],[-120.5262,36.0228],[-120.5298,36.0243],[-120.5298,36.029],[-120.527,36.0357],[-120.5355,36.0351],[-120.5404,36.0367],[-120.543,36.0398],[-120.5431,36.0433],[-120.5454,36.0461],[-120.5507,36.0476],[-120.5518,36.0495],[-120.5592,36.05],[-120.5666,36.0529],[-120.5726,36.0569],[-120.5765,36.0607],[-120.5813,36.0629],[-120.5846,36.0662],[-120.5876,36.0666],[-120.5883,36.069],[-120.592,36.0713],[-120.5923,36.0737],[-120.596,36.0778],[-120.5949,36.0832],[-120.5928,36.0856],[-120.5932,36.0885],[-120.5898,36.0896],[-120.5923,36.0918],[-120.5981,36.0997],[-120.6006,36.1016],[-120.608,36.1027],[-120.6082,36.1002],[-120.6124,36.0991],[-120.6123,36.0952],[-120.6238,36.098],[-120.626,36.0971],[-120.6336,36.1033],[-120.6354,36.101],[-120.6419,36.1013],[-120.6488,36.108],[-120.6462,36.1108],[-120.6454,36.1162],[-120.6532,36.1188],[-120.6542,36.1227],[-120.6525,36.125],[-120.6557,36.1318],[-120.6627,36.1367],[-120.6676,36.1381],[-120.6648,36.1403],[-120.6647,36.1473],[-120.6676,36.156],[-120.668,36.1606],[-120.6719,36.1625],[-120.6719,36.1643],[-120.6642,36.1657],[-120.6631,36.1712],[-120.6546,36.1677],[-120.649,36.1693],[-120.6524,36.1729],[-120.6489,36.1794],[-120.6446,36.1794],[-120.6449,36.1837],[-120.6424,36.1859],[-120.6411,36.192],[-120.6381,36.1975],[-120.6328,36.1987],[-120.6269,36.2032],[-120.6294,36.2074],[-120.6346,36.2125],[-120.6388,36.215],[-120.6413,36.2201],[-120.645,36.221],[-120.6493,36.224],[-120.6514,36.2302],[-120.6564,36.2335],[-120.6669,36.236],[-120.672,36.2427],[-120.6797,36.2467],[-120.6818,36.2514],[-120.6781,36.2553],[-120.6746,36.2555],[-120.673,36.2577],[-120.6754,36.2623],[-120.6799,36.2653],[-120.6742,36.2727],[-120.6762,36.2755],[-120.6726,36.2805],[-120.6738,36.2824],[-120.6829,36.2868],[-120.6804,36.2907],[-120.6827,36.2944],[-120.6781,36.2985],[-120.6756,36.3029],[-120.6701,36.3058],[-120.6664,36.3114],[-120.6631,36.3144],[-120.6588,36.3162],[-120.6458,36.3173],[-120.6427,36.319],[-120.6327,36.3182],[-120.63,36.3169],[-120.6199,36.3199],[-120.6179,36.3188],[-120.612,36.3216],[-120.6125,36.3244],[-120.6054,36.3243],[-120.6002,36.3283],[-120.5966,36.3285],[-120.597,36.3555],[-120.5971,36.3913],[-120.5974,36.4152],[-120.5971,36.4345],[-120.5972,36.4882],[-120.6037,36.4882],[-120.617,36.4988],[-120.7494,36.6053],[-120.751,36.6062],[-120.873,36.7033],[-120.876,36.7056],[-120.9187,36.7404],[-120.9072,36.75],[-120.876,36.7746],[-120.8738,36.7768],[-120.7103,36.9092],[-120.6559,36.9528],[-120.5906,36.9526],[-120.5905,36.9816],[-120.5881,36.9816],[-120.5881,36.9853],[-120.586,36.9853],[-120.5854,36.9912],[-120.59,36.9922],[-120.5928,36.9968],[-120.5986,36.9986],[-120.5954,37.0015],[-120.5417,37.0445],[-120.5371,37.0398],[-120.5378,37.0341],[-120.5455,37.0276],[-120.5446,37.0261],[-120.5378,37.0239],[-120.5377,37.0199],[-120.5307,37.0202],[-120.5298,37.0125],[-120.5233,37.0141],[-120.5202,37.0113],[-120.5138,37.011],[-120.509,37.0076],[-120.5085,37.0008],[-120.5028,37.0004],[-120.5042,36.9982],[-120.5012,36.9967],[-120.5014,36.9932],[-120.4998,36.9871],[-120.4995,36.982],[-120.4961,36.9797],[-120.4948,36.9758],[-120.4912,36.9758],[-120.4838,36.971],[-120.4887,36.9678],[-120.4878,36.9645],[-120.4847,36.9632],[-120.4807,36.9592],[-120.4777,36.9532],[-120.479,36.9488],[-120.4752,36.9393],[-120.468,36.9375],[-120.4623,36.9275],[-120.4572,36.9239],[-120.457,36.9223],[-120.462,36.9194],[-120.4619,36.9169],[-120.4591,36.9153],[-120.4534,36.9147],[-120.4503,36.9112],[-120.456,36.9054],[-120.4634,36.9056],[-120.4609,36.9027],[-120.4645,36.895],[-120.4668,36.8922],[-120.4643,36.8866],[-120.4565,36.8838],[-120.4537,36.8808],[-120.4577,36.8783],[-120.4593,36.8749],[-120.4574,36.873],[-120.4503,36.8712],[-120.4502,36.8685],[-120.4562,36.8629],[-120.4541,36.8602],[-120.449,36.8603],[-120.4461,36.8562],[-120.4418,36.8564],[-120.4385,36.8545],[-120.4405,36.8502],[-120.4339,36.8506],[-120.4266,36.8401],[-120.4222,36.8401],[-120.4171,36.8356],[-120.4133,36.8367],[-120.4104,36.84],[-120.4091,36.8358],[-120.4044,36.8298],[-120.4042,36.8259],[-120.4007,36.8224],[-120.3977,36.8223],[-120.389,36.8244],[-120.3791,36.8172],[-120.3775,36.8091],[-120.3747,36.8085],[-120.3696,36.8104],[-120.3683,36.8067],[-120.3728,36.8037],[-120.3741,36.8003],[-120.3698,36.796],[-120.3729,36.7889],[-120.3691,36.7848],[-120.3581,36.7872],[-120.3531,36.7869],[-120.3465,36.7846],[-120.3443,36.7864],[-120.3475,36.7892],[-120.3509,36.7954],[-120.3507,36.7975],[-120.3466,36.7977],[-120.3451,36.7926],[-120.343,36.7909],[-120.3369,36.7924],[-120.3342,36.791],[-120.3356,36.7842],[-120.3322,36.7832],[-120.3293,36.7852],[-120.3242,36.7863],[-120.3224,36.7851],[-120.3243,36.7799],[-120.3217,36.7777],[-120.3145,36.7792],[-120.3138,36.7819],[-120.3029,36.7788],[-120.2998,36.7768],[-120.3002,36.7742],[-120.3053,36.7736],[-120.3061,36.7703],[-120.3019,36.7699],[-120.2977,36.7723],[-120.2921,36.7708],[-120.2942,36.7668],[-120.2906,36.763],[-120.2879,36.7648],[-120.2897,36.7696],[-120.2883,36.7726],[-120.2812,36.7721],[-120.2822,36.7673],[-120.2809,36.7667],[-120.2763,36.7702],[-120.2758,36.7729],[-120.2727,36.7741],[-120.2703,36.7716],[-120.2606,36.7723],[-120.2575,36.7696],[-120.2548,36.77],[-120.2528,36.7737],[-120.2488,36.7751],[-120.2457,36.7713],[-120.234,36.7683],[-120.2295,36.7693],[-120.2333,36.7811],[-120.2307,36.7826],[-120.2227,36.7828],[-120.2213,36.7866],[-120.2175,36.7887],[-120.2084,36.789],[-120.2071,36.7909],[-120.2022,36.79],[-120.2018,36.7829],[-120.1997,36.7807],[-120.1949,36.7796],[-120.1926,36.7765],[-120.1888,36.7764],[-120.1815,36.7833],[-120.182,36.7881],[-120.1798,36.7914],[-120.1745,36.7961],[-120.1732,36.8025],[-120.1687,36.8035],[-120.16,36.798],[-120.1553,36.7988],[-120.1484,36.8033],[-120.1405,36.8063],[-120.1366,36.8093],[-120.1314,36.81],[-120.1291,36.8118],[-120.1143,36.814],[-120.1096,36.8126],[-120.0982,36.8151],[-120.0916,36.8212],[-120.0795,36.8253],[-120.0758,36.8244],[-120.0737,36.8202],[-120.0707,36.8186],[-120.0661,36.8193],[-120.0591,36.8226],[-120.0509,36.8219],[-120.0423,36.8155],[-120.0355,36.8159],[-120.0281,36.8145],[-120.025,36.8157],[-120.0216,36.8195],[-120.0198,36.8252],[-120.0133,36.8282],[-119.9981,36.8275],[-119.9924,36.8289],[-119.9907,36.8306],[-119.9914,36.8355],[-119.9899,36.8382],[-119.9847,36.8408],[-119.9797,36.8397],[-119.977,36.835],[-119.9666,36.8325],[-119.9585,36.8355],[-119.9435,36.834],[-119.937,36.8362],[-119.9345,36.838],[-119.9326,36.8445],[-119.9278,36.8485],[-119.9214,36.8469],[-119.9195,36.8451],[-119.9091,36.8462],[-119.906,36.8501],[-119.9029,36.8518],[-119.8953,36.8526],[-119.8903,36.8515],[-119.8849,36.8585],[-119.8706,36.8522],[-119.8648,36.8515],[-119.8609,36.8545],[-119.8538,36.8513],[-119.8511,36.8529],[-119.8481,36.8572],[-119.8478,36.8602],[-119.8407,36.8612],[-119.8373,36.8541],[-119.8237,36.8486],[-119.8187,36.8481],[-119.8138,36.8502],[-119.8096,36.8626],[-119.8022,36.8667],[-119.7976,36.8744],[-119.7925,36.8763],[-119.7892,36.8761],[-119.7861,36.8789],[-119.785,36.8847],[-119.7884,36.8902],[-119.7893,36.8967],[-119.7757,36.9091],[-119.7727,36.9186],[-119.7661,36.9188],[-119.7587,36.9202],[-119.7527,36.9244],[-119.7504,36.9278],[-119.7525,36.9352],[-119.7457,36.939],[-119.7416,36.9439],[-119.7373,36.944],[-119.7338,36.9464],[-119.7367,36.9536],[-119.7424,36.9537],[-119.7405,36.9702],[-119.7316,36.9794],[-119.7138,36.9909],[-119.705,37.0007],[-119.7007,37.0033],[-119.6981,37.0087],[-119.6908,37.012],[-119.6774,37.0091],[-119.6709,37.0093],[-119.6586,37.0133],[-119.6571,37.0189],[-119.6594,37.0389],[-119.6516,37.043],[-119.6475,37.0438],[-119.6393,37.0433],[-119.629,37.0346],[-119.6362,37.0237],[-119.6322,37.021],[-119.626,37.0252],[-119.6207,37.0271],[-119.6169,37.0334],[-119.6149,37.0388],[-119.6104,37.0457],[-119.6134,37.0508],[-119.6106,37.0578],[-119.6097,37.0647],[-119.6049,37.071],[-119.6001,37.0716],[-119.5945,37.0702],[-119.5894,37.0666],[-119.5807,37.0661],[-119.5684,37.0636],[-119.563,37.0641],[-119.5606,37.07],[-119.5633,37.0744],[-119.5615,37.0781],[-119.559,37.0881],[-119.5532,37.0926],[-119.5472,37.0949],[-119.5423,37.0954],[-119.5394,37.099],[-119.5377,37.104],[-119.5381,37.1068],[-119.548,37.1164],[-119.5544,37.1157],[-119.5672,37.1159],[-119.569,37.1183],[-119.5667,37.1212],[-119.5634,37.1283],[-119.5638,37.1383],[-119.5594,37.1436],[-119.5522,37.1452],[-119.5479,37.1436],[-119.5388,37.1344],[-119.5331,37.133],[-119.5276,37.1287],[-119.5235,37.1293],[-119.5223,37.1354],[-119.5199,37.1386],[-119.517,37.1471],[-119.5134,37.1478],[-119.5093,37.1505],[-119.5067,37.1506],[-119.4993,37.1445],[-119.4963,37.144],[-119.4901,37.1386],[-119.4891,37.1346],[-119.4912,37.132],[-119.4931,37.1238],[-119.4913,37.1197],[-119.4864,37.1149],[-119.4841,37.1108],[-119.4816,37.1095],[-119.4706,37.1106],[-119.4663,37.1196],[-119.4688,37.1245],[-119.4686,37.1284],[-119.4639,37.1384],[-119.4626,37.1442],[-119.4589,37.1452],[-119.4546,37.144],[-119.4514,37.1448],[-119.4427,37.1441],[-119.4349,37.147],[-119.4329,37.1548],[-119.4331,37.1615],[-119.4258,37.1643],[-119.4182,37.1641],[-119.4087,37.1612],[-119.4036,37.1565],[-119.3998,37.1498],[-119.3865,37.1495],[-119.385,37.1533],[-119.3791,37.1551],[-119.375,37.1579],[-119.3757,37.1633],[-119.3746,37.1643],[-119.365,37.1657],[-119.3604,37.1703],[-119.3606,37.1805],[-119.3536,37.1859],[-119.3478,37.1868],[-119.3412,37.1909],[-119.3372,37.2005],[-119.3306,37.2058],[-119.3294,37.21],[-119.331,37.2155],[-119.3354,37.2166],[-119.3376,37.2199],[-119.334,37.2235],[-119.3315,37.2398],[-119.3288,37.2425],[-119.3232,37.245],[-119.3221,37.2474],[-119.3222,37.2538],[-119.3245,37.2586],[-119.3246,37.2655],[-119.3274,37.2708],[-119.332,37.2736],[-119.3309,37.283],[-119.3282,37.2872],[-119.3271,37.2927],[-119.3309,37.3022],[-119.334,37.3039],[-119.3353,37.3118],[-119.3323,37.3151],[-119.3243,37.3208],[-119.3186,37.3212],[-119.3156,37.3258],[-119.3174,37.3289],[-119.3245,37.3325],[-119.3244,37.3371],[-119.3168,37.3378],[-119.3122,37.3397],[-119.3115,37.3429],[-119.3154,37.3458],[-119.3122,37.3527],[-119.307,37.3561],[-119.3009,37.3627],[-119.2867,37.3749],[-119.0224,37.5857],[-119.0205,37.5834]]]}}]}