{"type":"FeatureCollection","features":[{"type":"Feature","properties":{"id":"12101","name":"Pasco Co."},"geometry":{"type":"MultiPolygon","coordinates":[[[[-82.64,28.4338],[-82.6006,28.4339],[-82.4852,28.4337],[-82.3708,28.4341],[-82.3203,28.4348],[-82.2534,28.4348],[-82.2533,28.4785],[-82.2519,28.4788],[-82.1984,28.4785],[-82.1528,28.4784],[-82.0547,28.4784],[-82.0558,28.3128],[-82.0555,28.2946],[-82.0555,28.2589],[-82.0756,28.2592],[-82.1062,28.2592],[-82.1062,28.2242],[-82.1059,28.1973],[-82.1059,28.1717],[-82.1248,28.1721],[-82.1393,28.1717],[-82.1841,28.1717],[-82.212,28.1719],[-82.2543,28.1715],[-82.2865,28.1715],[-82.3836,28.1712],[-82.4282,28.1713],[-82.4492,28.1718],[-82.474,28.1719],[-82.5165,28.1727],[-82.536,28.1726],[-82.6208,28.1733],[-82.6512,28.1733],[-82.7293,28.1732],[-82.7837,28.1729],[-82.7928,28.173],[-82.7947,28.1755],[-82.7904,28.1747],[-82.7889,28.1763],[-82.7974,28.1817],[-82.7991,28.1853],[-82.7978,28.1878],[-82.7872,28.193],[-82.7825,28.2075],[-82.7781,28.2089],[-82.7743,28.207],[-82.7701,28.2077],[-82.7626,28.219],[-82.7645,28.2201],[-82.756,28.2281],[-82.7573,28.2297],[-82.7645,28.2321],[-82.7622,28.2421],[-82.756,28.2408],[-82.7484,28.2468],[-82.7509,28.2522],[-82.7531,28.2516],[-82.7581,28.2539],[-82.7567,28.2559],[-82.7492,28.2559],[-82.7431,28.2679],[-82.7431,28.2737],[-82.737,28.2745],[-82.737,28.2764],[-82.7435,28.2787],[-82.7403,28.2823],[-82.7358,28.2808],[-82.7326,28.282],[-82.7323,28.2875],[-82.7271,28.2882],[-82.726,28.2918],[-82.7328,28.2919],[-82.7353,28.2994],[-82.7323,28.3028],[-82.7352,28.3067],[-82.7317,28.3137],[-82.7336,28.3151],[-82.7315,28.325],[-82.7158,28.3455],[-82.7154,28.3486],[-82.7118,28.349],[-82.7115,28.3535],[-82.7175,28.3535],[-82.7181,28.3573],[-82.7131,28.3594],[-82.7099,28.3643],[-82.7059,28.3684],[-82.7086,28.3699],[-82.7037,28.372],[-82.7013,28.3748],[-82.7054,28.3782],[-82.704,28.3805],[-82.7069,28.3862],[-82.7057,28.391],[-82.7068,28.3923],[-82.7045,28.3993],[-82.7068,28.4021],[-82.7027,28.4032],[-82.6878,28.4087],[-82.6875,28.4123],[-82.6896,28.4133],[-82.6929,28.4118],[-82.6995,28.4119],[-82.6945,28.4152],[-82.6945,28.4179],[-82.6974,28.4195],[-82.6945,28.4228],[-82.6857,28.4209],[-82.6826,28.4262],[-82.6779,28.4279],[-82.6773,28.4306],[-82.6744,28.4305],[-82.6699,28.4336],[-82.64,28.4338]]],[[[-82.7983,28.1749],[-82.8001,28.1732],[-82.8007,28.175],[-82.7983,28.1749]]],[[[-82.8025,28.1759],[-82.8043,28.1764],[-82.8035,28.1779],[-82.8025,28.1759]]],[[[-82.8041,28.1731],[-82.8061,28.173],[-82.8061,28.1741],[-82.8041,28.1731]]],[[[-82.848,28.1717],[-82.8499,28.1798],[-82.8524,28.2102],[-82.8495,28.2134],[-82.8404,28.212],[-82.8428,28.2069],[-82.8461,28.2082],[-82.8484,28.2045],[-82.8449,28.1991],[-82.8458,28.1949],[-82.8431,28.1905],[-82.8471,28.1873],[-82.847,28.1818],[-82.843,28.1717],[-82.848,28.1717]]]]}},{"type":"Feature","properties":{"id":"12057","name":"Hillsborough Co."},"geometry":{"type":"MultiPolygon","coordinates":[[[[-82.406,27.85],[-82.4056,27.848],[-82.417,27.8458],[-82.4199,27.8436],[-82.4206,27.8465],[-82.406,27.85]]],[[[-82.4245,27.884],[-82.4243,27.8682],[-82.4298,27.8632],[-82.4374,27.8643],[-82.4354,27.8842],[-82.4245,27.884]]],[[[-82.4386,27.8396],[-82.4312,27.8386],[-82.4322,27.8223],[-82.4386,27.8223],[-82.4417,27.8235],[-82.441,27.836],[-82.4386,27.8396]]],[[[-82.5726,27.6369],[-82.5767,27.6351],[-82.5764,27.6378],[-82.5726,27.6369]]],[[[-82.6208,28.1733],[-82.536,28.1726],[-82.5165,28.1727],[-82.474,28.1719],[-82.4492,28.1718],[-82.4282,28.1713],[-82.3836,28.1712],[-82.2865,28.1715],[-82.2543,28.1715],[-82.212,28.1719],[-82.1841,28.1717],[-82.1393,28.1717],[-82.1248,28.1721],[-82.1059,28.1717],[-82.0563,28.1716],[-82.0563,28.1311],[-82.0566,28.1057],[-82.0562,28.0476],[-82.0557,28.0251],[-82.0555,27.9928],[-82.0559,27.9895],[-82.0554,27.9504],[-82.0553,27.9273],[-82.0549,27.9072],[-82.0552,27.8653],[-82.054,27.8546],[-82.0543,27.6464],[-82.0564,27.6462],[-82.2682,27.6464],[-82.2829,27.6467],[-82.3364,27.6465],[-82.3449,27.6463],[-82.3849,27.6464],[-82.4523,27.6459],[-82.4985,27.6455],[-82.5495,27.6456],[-82.5541,27.6458],[-82.5371,27.6729],[-82.5286,27.6845],[-82.5242,27.6887],[-82.517,27.698],[-82.517,27.7017],[-82.5143,27.7056],[-82.4949,27.719],[-82.4824,27.7199],[-82.4767,27.7237],[-82.4781,27.7257],[-82.4762,27.7288],[-82.4771,27.7352],[-82.4814,27.7434],[-82.4783,27.7463],[-82.4705,27.7486],[-82.4681,27.7478],[-82.4632,27.7507],[-82.4604,27.7476],[-82.4575,27.7526],[-82.4526,27.7536],[-82.4516,27.7553],[-82.4452,27.7582],[-82.4426,27.7575],[-82.4324,27.7663],[-82.4328,27.7685],[-82.4295,27.7714],[-82.4285,27.7746],[-82.4322,27.7731],[-82.4358,27.7754],[-82.4192,27.7924],[-82.414,27.7925],[-82.4118,27.794],[-82.4119,27.8059],[-82.4105,27.8107],[-82.4029,27.8121],[-82.3985,27.8142],[-82.3937,27.8141],[-82.392,27.8172],[-82.3859,27.8197],[-82.3869,27.824],[-82.3919,27.8239],[-82.3947,27.833],[-82.3934,27.8375],[-82.3947,27.8422],[-82.3924,27.8461],[-82.3969,27.8455],[-82.3978,27.8538],[-82.4023,27.854],[-82.4044,27.8578],[-82.4013,27.8608],[-82.4033,27.874],[-82.4016,27.8764],[-82.4026,27.8826],[-82.4153,27.9004],[-82.4297,27.9003],[-82.4329,27.8988],[-82.4424,27.9153],[-82.4446,27.9156],[-82.4456,27.91],[-82.449,27.9071],[-82.4537,27.9085],[-82.4605,27.9084],[-82.4618,27.9097],[-82.4623,27.9202],[-82.4603,27.937],[-82.4619,27.9386],[-82.4664,27.9362],[-82.4676,27.9332],[-82.4731,27.932],[-82.4904,27.9198],[-82.4917,27.9147],[-82.4881,27.8953],[-82.4807,27.8893],[-82.4821,27.8787],[-82.4873,27.8744],[-82.4894,27.8691],[-82.4885,27.8632],[-82.4801,27.8532],[-82.4716,27.8473],[-82.4688,27.8433],[-82.4724,27.8226],[-82.4753,27.821],[-82.4898,27.8226],[-82.5112,27.828],[-82.5285,27.8366],[-82.5339,27.8329],[-82.5375,27.8357],[-82.5346,27.8399],[-82.5367,27.8408],[-82.55,27.8518],[-82.553,27.8474],[-82.5547,27.8503],[-82.5518,27.8565],[-82.5529,27.8627],[-82.5386,27.8649],[-82.5316,27.8717],[-82.5299,27.8775],[-82.5318,27.8792],[-82.5309,27.8862],[-82.5389,27.8856],[-82.5415,27.8844],[-82.5409,27.8895],[-82.542,27.8936],[-82.5348,27.8936],[-82.5319,27.8982],[-82.5353,27.8987],[-82.5355,27.9032],[-82.5313,27.9039],[-82.532,27.916],[-82.5348,27.9166],[-82.5351,27.922],[-82.5309,27.9264],[-82.5334,27.9297],[-82.5333,27.9347],[-82.5316,27.9364],[-82.5334,27.9385],[-82.5367,27.9385],[-82.5383,27.9407],[-82.5439,27.9406],[-82.5447,27.9437],[-82.5405,27.947],[-82.5412,27.949],[-82.5456,27.9503],[-82.5437,27.953],[-82.5442,27.9562],[-82.5539,27.967],[-82.5655,27.9671],[-82.5689,27.9614],[-82.5734,27.963],[-82.5703,27.9704],[-82.5663,27.9725],[-82.5686,27.9755],[-82.5728,27.975],[-82.5836,27.979],[-82.5964,27.9798],[-82.6024,27.9823],[-82.6144,27.9905],[-82.6206,27.9955],[-82.6226,28.0001],[-82.6308,28.0027],[-82.6365,28.0059],[-82.6394,28.0098],[-82.6405,28.0168],[-82.6485,28.0181],[-82.6484,28.0562],[-82.6489,28.0635],[-82.6491,28.0989],[-82.6506,28.1449],[-82.6512,28.1733],[-82.6208,28.1733]]],[[[-82.7626,27.6031],[-82.7588,27.6005],[-82.7587,27.597],[-82.7606,27.5856],[-82.759,27.5799],[-82.7561,27.5761],[-82.7589,27.5771],[-82.7633,27.5821],[-82.7642,27.5913],[-82.7626,27.6031]]]]}},{"type":"Feature","properties":{"id":"12053","name":"Hernando Co."},"geometry":{"type":"Polygon","coordinates":[[[-82.672,28.4361],[-82.6709,28.4406],[-82.6672,28.4422],[-82.6678,28.4486],[-82.6645,28.4496],[-82.6646,28.452],[-82.6687,28.4538],[-82.6681,28.4559],[-82.6742,28.4573],[-82.6751,28.4593],[-82.6805,28.4608],[-82.6812,28.4642],[-82.6797,28.4663],[-82.6736,28.4683],[-82.67,28.4683],[-82.6667,28.4756],[-82.6679,28.478],[-82.6651,28.4844],[-82.6645,28.4888],[-82.667,28.4897],[-82.6689,28.4939],[-82.6664,28.4973],[-82.6701,28.5008],[-82.6782,28.4993],[-82.6689,28.5077],[-82.6697,28.5112],[-82.6694,28.5199],[-82.668,28.5282],[-82.6637,28.5302],[-82.6549,28.5327],[-82.6528,28.5378],[-82.6567,28.5448],[-82.6631,28.5508],[-82.6616,28.5541],[-82.6568,28.554],[-82.6523,28.5522],[-82.6511,28.557],[-82.6567,28.5687],[-82.6562,28.5754],[-82.6459,28.5805],[-82.6443,28.5842],[-82.6492,28.5876],[-82.6481,28.5907],[-82.6554,28.5923],[-82.6563,28.6005],[-82.6554,28.6044],[-82.6627,28.605],[-82.6635,28.6067],[-82.6539,28.6135],[-82.6533,28.6163],[-82.6599,28.6222],[-82.6658,28.6231],[-82.666,28.6264],[-82.671,28.6287],[-82.6729,28.6412],[-82.6692,28.644],[-82.668,28.6475],[-82.6777,28.6548],[-82.6753,28.661],[-82.6713,28.6613],[-82.668,28.6632],[-82.6694,28.6692],[-82.662,28.6673],[-82.6551,28.6749],[-82.6551,28.6805],[-82.6601,28.6826],[-82.668,28.6833],[-82.6693,28.6854],[-82.6663,28.6888],[-82.6673,28.6917],[-82.6746,28.6941],[-82.5526,28.6946],[-82.4184,28.6949],[-82.4178,28.6659],[-82.3599,28.666],[-82.3227,28.6669],[-82.2684,28.6669],[-82.2631,28.6676],[-82.2678,28.6628],[-82.2677,28.6601],[-82.274,28.6607],[-82.2748,28.6562],[-82.2705,28.6502],[-82.267,28.6481],[-82.2609,28.647],[-82.2568,28.6488],[-82.2567,28.6456],[-82.2596,28.6426],[-82.2607,28.6367],[-82.2584,28.6335],[-82.2555,28.6327],[-82.2521,28.6291],[-82.2484,28.6299],[-82.2458,28.6247],[-82.2463,28.6201],[-82.2429,28.6192],[-82.2433,28.616],[-82.2342,28.6087],[-82.2346,28.6056],[-82.2327,28.6003],[-82.2287,28.6007],[-82.2216,28.5932],[-82.2223,28.5918],[-82.2193,28.5827],[-82.2137,28.5754],[-82.2082,28.5721],[-82.1989,28.5731],[-82.1965,28.5757],[-82.192,28.5748],[-82.187,28.5724],[-82.1866,28.5686],[-82.1773,28.5684],[-82.1721,28.5658],[-82.1682,28.567],[-82.1652,28.5641],[-82.1624,28.568],[-82.1575,28.5701],[-82.1562,28.5734],[-82.1517,28.5706],[-82.1504,28.5713],[-82.1436,28.5659],[-82.138,28.5655],[-82.1355,28.5602],[-82.1353,28.5563],[-82.1308,28.5464],[-82.1191,28.5407],[-82.1169,28.5407],[-82.1122,28.5441],[-82.1094,28.5438],[-82.1047,28.5347],[-82.0985,28.5289],[-82.0966,28.5247],[-82.0919,28.5233],[-82.0869,28.5246],[-82.0858,28.5271],[-82.0806,28.5281],[-82.0725,28.5315],[-82.0678,28.5314],[-82.0584,28.5254],[-82.0545,28.5214],[-82.0547,28.4784],[-82.1528,28.4784],[-82.1984,28.4785],[-82.2519,28.4788],[-82.2533,28.4785],[-82.2534,28.4348],[-82.3203,28.4348],[-82.3708,28.4341],[-82.4852,28.4337],[-82.6006,28.4339],[-82.64,28.4338],[-82.6699,28.4336],[-82.672,28.4361]]]}},{"type":"Feature","properties":{"id":"12103","name":"Pinellas Co."},"geometry":{"type":"MultiPolygon","coordinates":[[[[-82.6939,27.6687],[-82.6879,27.668],[-82.6856,27.6647],[-82.6872,27.6626],[-82.6951,27.6616],[-82.6955,27.6655],[-82.6939,27.6687]]],[[[-82.8422,28.1254],[-82.8381,28.1294],[-82.8338,28.1303],[-82.8322,28.1291],[-82.8378,28.124],[-82.8398,28.1193],[-82.8384,28.1135],[-82.8327,28.1099],[-82.8324,28.1067],[-82.8427,28.1112],[-82.8434,28.1195],[-82.8422,28.1254]]],[[[-82.8404,28.1669],[-82.8427,28.1638],[-82.8466,28.1653],[-82.848,28.1717],[-82.843,28.1717],[-82.8404,28.1669]]],[[[-82.7837,28.1729],[-82.7293,28.1732],[-82.6512,28.1733],[-82.6506,28.1449],[-82.6491,28.0989],[-82.6489,28.0635],[-82.6484,28.0562],[-82.6485,28.0181],[-82.6551,28.0168],[-82.6574,28.0137],[-82.6573,28.0103],[-82.6549,28.0094],[-82.6579,28.0002],[-82.6636,27.9999],[-82.665,28.0013],[-82.6637,28.0055],[-82.6641,28.0093],[-82.6676,28.0163],[-82.6658,28.0191],[-82.6654,28.0281],[-82.677,28.0329],[-82.6867,28.0302],[-82.6901,28.0275],[-82.6851,28.0207],[-82.6829,28.014],[-82.6768,28.0092],[-82.6756,28.0054],[-82.6877,27.9895],[-82.6927,27.9838],[-82.6937,27.9761],[-82.6887,27.973],[-82.6916,27.971],[-82.6961,27.9633],[-82.7001,27.9603],[-82.7065,27.9605],[-82.7106,27.957],[-82.7165,27.9584],[-82.7218,27.9546],[-82.7238,27.9513],[-82.7249,27.9458],[-82.7215,27.9457],[-82.72,27.941],[-82.7248,27.9384],[-82.7259,27.9362],[-82.7206,27.9362],[-82.703,27.9239],[-82.6932,27.9227],[-82.6915,27.9253],[-82.6889,27.9244],[-82.6883,27.9191],[-82.6843,27.9158],[-82.6767,27.9138],[-82.6668,27.9124],[-82.6515,27.9065],[-82.6475,27.9059],[-82.6443,27.9101],[-82.6384,27.9046],[-82.6315,27.9084],[-82.6297,27.907],[-82.6341,27.9034],[-82.6382,27.8981],[-82.6383,27.8929],[-82.6321,27.8911],[-82.6165,27.8808],[-82.6033,27.8652],[-82.5964,27.8641],[-82.5966,27.8589],[-82.5984,27.8576],[-82.5948,27.8434],[-82.5893,27.8357],[-82.5887,27.8304],[-82.5915,27.8267],[-82.5944,27.8252],[-82.5931,27.8216],[-82.5876,27.819],[-82.5885,27.8154],[-82.5916,27.813],[-82.5972,27.8137],[-82.6023,27.8059],[-82.6058,27.8031],[-82.6074,27.7989],[-82.6057,27.7965],[-82.6071,27.7929],[-82.6116,27.7903],[-82.6224,27.7892],[-82.6257,27.7809],[-82.6216,27.774],[-82.6234,27.7689],[-82.624,27.7604],[-82.628,27.7584],[-82.6305,27.7539],[-82.6293,27.7493],[-82.6246,27.7484],[-82.6232,27.7446],[-82.6272,27.7411],[-82.625,27.7327],[-82.6257,27.727],[-82.6336,27.7106],[-82.6398,27.7039],[-82.6525,27.7003],[-82.6629,27.7023],[-82.6716,27.7059],[-82.6773,27.7062],[-82.6772,27.6951],[-82.6798,27.6949],[-82.6803,27.7058],[-82.6848,27.7037],[-82.6891,27.6995],[-82.6977,27.702],[-82.6986,27.7081],[-82.7115,27.7054],[-82.7134,27.7037],[-82.7136,27.6987],[-82.7188,27.692],[-82.7165,27.6887],[-82.7191,27.686],[-82.7196,27.6741],[-82.7243,27.6733],[-82.7242,27.6687],[-82.7211,27.6644],[-82.7237,27.6624],[-82.7181,27.6578],[-82.7163,27.6514],[-82.7126,27.6466],[-82.7148,27.6429],[-82.7111,27.6418],[-82.708,27.6301],[-82.7043,27.6304],[-82.7002,27.638],[-82.6982,27.6378],[-82.7025,27.6279],[-82.705,27.6253],[-82.7306,27.6143],[-82.7347,27.6119],[-82.737,27.6126],[-82.7358,27.6249],[-82.7376,27.6328],[-82.74,27.6372],[-82.7442,27.6483],[-82.7453,27.6538],[-82.743,27.6706],[-82.7419,27.6755],[-82.7384,27.6837],[-82.738,27.7068],[-82.7403,27.7182],[-82.7466,27.7302],[-82.7537,27.7363],[-82.7609,27.7452],[-82.7705,27.7663],[-82.78,27.7748],[-82.7843,27.7831],[-82.7905,27.791],[-82.8204,27.8137],[-82.8286,27.8223],[-82.8421,27.844],[-82.8465,27.8543],[-82.8491,27.8632],[-82.8511,27.8742],[-82.8522,27.886],[-82.8478,27.9102],[-82.8429,27.9339],[-82.8351,27.9498],[-82.8315,27.9645],[-82.832,27.9702],[-82.8298,27.9826],[-82.8291,28.0046],[-82.8282,28.0201],[-82.8185,28.0487],[-82.8165,28.0457],[-82.8137,28.0313],[-82.8158,28.0208],[-82.8163,28.0119],[-82.8091,28.0065],[-82.8156,28.0015],[-82.8177,27.9966],[-82.8132,27.9855],[-82.8108,27.9826],[-82.8099,27.9769],[-82.8108,27.9696],[-82.8049,27.966],[-82.8027,27.9746],[-82.7999,27.9824],[-82.7994,27.988],[-82.7975,27.9897],[-82.793,28.0065],[-82.7942,28.0122],[-82.7918,28.0193],[-82.7908,28.034],[-82.7885,28.0365],[-82.7888,28.0415],[-82.7861,28.0479],[-82.7894,28.0487],[-82.7992,28.0485],[-82.8056,28.052],[-82.8151,28.055],[-82.8223,28.0541],[-82.8341,28.0638],[-82.8386,28.0795],[-82.8362,28.0919],[-82.8271,28.083],[-82.8253,28.0787],[-82.8246,28.0726],[-82.8256,28.0637],[-82.8212,28.0602],[-82.8177,28.0623],[-82.8125,28.0618],[-82.8004,28.0526],[-82.7904,28.0531],[-82.7835,28.0526],[-82.7835,28.0606],[-82.7866,28.0652],[-82.7792,28.0728],[-82.7789,28.0764],[-82.7837,28.0799],[-82.7838,28.0822],[-82.7803,28.0971],[-82.7836,28.1054],[-82.7821,28.1079],[-82.7836,28.11],[-82.7812,28.1125],[-82.7815,28.1175],[-82.779,28.1182],[-82.7783,28.1216],[-82.7839,28.1241],[-82.7813,28.1276],[-82.7838,28.1375],[-82.7874,28.1392],[-82.7852,28.1424],[-82.7881,28.1499],[-82.7919,28.1556],[-82.794,28.1609],[-82.7985,28.1625],[-82.7943,28.1656],[-82.7966,28.1691],[-82.8009,28.1709],[-82.7928,28.173],[-82.7837,28.1729]]]]}}]}