{"type":"FeatureCollection","features":[{"type":"Feature","properties":{"id":"39035","name":"Cuyahoga Co."},"geometry":{"type":"Polygon","coordinates":[[[-81.9581,41.4984],[-81.9523,41.4953],[-81.9445,41.4924],[-81.9275,41.4898],[-81.9173,41.4894],[-81.9056,41.4876],[-81.9013,41.4863],[-81.8969,41.4864],[-81.877,41.4832],[-81.8636,41.4827],[-81.8514,41.4856],[-81.8386,41.4902],[-81.8351,41.4896],[-81.8313,41.491],[-81.8123,41.4953],[-81.8003,41.4957],[-81.7981,41.4973],[-81.7904,41.4952],[-81.782,41.4957],[-81.7775,41.4934],[-81.7673,41.4911],[-81.7448,41.4872],[-81.7388,41.4885],[-81.7396,41.4911],[-81.734,41.4932],[-81.7326,41.4912],[-81.7207,41.4979],[-81.7181,41.4972],[-81.7155,41.4993],[-81.7092,41.5012],[-81.6954,41.5099],[-81.6914,41.5106],[-81.6932,41.5144],[-81.6877,41.5169],[-81.6889,41.5182],[-81.6651,41.5316],[-81.6624,41.5288],[-81.6682,41.5254],[-81.6675,41.5227],[-81.6555,41.5288],[-81.6553,41.5308],[-81.6463,41.5349],[-81.6381,41.5405],[-81.6329,41.542],[-81.6378,41.5432],[-81.6349,41.5471],[-81.6315,41.5481],[-81.6273,41.5441],[-81.5997,41.5606],[-81.5918,41.5662],[-81.589,41.5706],[-81.5842,41.5743],[-81.5816,41.5738],[-81.5725,41.5806],[-81.5662,41.5862],[-81.5638,41.5869],[-81.5548,41.595],[-81.5423,41.6057],[-81.5297,41.6139],[-81.5243,41.6161],[-81.5154,41.6177],[-81.5071,41.621],[-81.498,41.6257],[-81.4886,41.6313],[-81.4885,41.6058],[-81.4881,41.5963],[-81.4878,41.5701],[-81.4199,41.57],[-81.391,41.5697],[-81.3907,41.5347],[-81.3911,41.4671],[-81.3915,41.4452],[-81.375,41.4453],[-81.3748,41.4244],[-81.3918,41.4243],[-81.3919,41.3978],[-81.3917,41.3483],[-81.3996,41.3486],[-81.4613,41.3493],[-81.4688,41.3496],[-81.5189,41.3502],[-81.5266,41.3505],[-81.5981,41.3512],[-81.5972,41.3493],[-81.5933,41.3496],[-81.5968,41.3472],[-81.5947,41.3435],[-81.5881,41.3427],[-81.5879,41.3363],[-81.5912,41.3313],[-81.5915,41.3279],[-81.5873,41.3237],[-81.5877,41.3198],[-81.5836,41.3157],[-81.5836,41.3115],[-81.5854,41.3089],[-81.5816,41.3058],[-81.5786,41.3058],[-81.573,41.3027],[-81.572,41.2939],[-81.5709,41.2908],[-81.5665,41.29],[-81.5651,41.2879],[-81.5681,41.286],[-81.5648,41.2842],[-81.5624,41.2804],[-81.5651,41.2778],[-81.5905,41.2776],[-81.6361,41.2775],[-81.6849,41.2771],[-81.7047,41.2772],[-81.7851,41.2764],[-81.8227,41.2758],[-81.8781,41.275],[-81.8776,41.3124],[-81.877,41.3507],[-81.9223,41.3509],[-81.9713,41.3513],[-81.9705,41.3847],[-81.97,41.4169],[-81.9695,41.478],[-81.9692,41.4927],[-81.9683,41.505],[-81.9581,41.4984]]]}},{"type":"Feature","properties":{"id":"39055","name":"Geauga Co."},"geometry":{"type":"Polygon","coordinates":[[[-81.3488,41.5701],[-81.2959,41.57],[-81.2952,41.5962],[-81.2947,41.6409],[-81.1912,41.6413],[-81.1014,41.6415],[-81.1021,41.6872],[-81.1023,41.7143],[-81.0402,41.7145],[-81.0029,41.7149],[-81.0028,41.642],[-81.0029,41.6071],[-81.0028,41.5717],[-81.0031,41.5015],[-81.0033,41.4588],[-81.0032,41.4255],[-81.0032,41.3479],[-81.0536,41.3478],[-81.0791,41.3475],[-81.1137,41.3474],[-81.1914,41.3476],[-81.2986,41.3473],[-81.3917,41.3483],[-81.3919,41.3978],[-81.3918,41.4243],[-81.3748,41.4244],[-81.375,41.4453],[-81.3915,41.4452],[-81.3911,41.4671],[-81.3907,41.5347],[-81.391,41.5697],[-81.3488,41.5701]]]}},{"type":"Feature","properties":{"id":"39085","name":"Lake Co."},"geometry":{"type":"Polygon","coordinates":[[[-81.4798,41.6372],[-81.4684,41.6478],[-81.4672,41.648],[-81.4422,41.6731],[-81.4361,41.6767],[-81.4342,41.679],[-81.4253,41.6829],[-81.4138,41.6906],[-81.4097,41.6942],[-81.4068,41.6949],[-81.3885,41.7073],[-81.3831,41.7094],[-81.3655,41.7198],[-81.3579,41.7227],[-81.3536,41.7267],[-81.347,41.7283],[-81.338,41.7338],[-81.3352,41.7346],[-81.3256,41.7407],[-81.3014,41.7501],[-81.2863,41.7597],[-81.2838,41.7621],[-81.2814,41.759],[-81.2678,41.758],[-81.2627,41.7581],[-81.2411,41.7624],[-81.2313,41.7674],[-81.2285,41.7669],[-81.2232,41.7683],[-81.2018,41.7794],[-81.1997,41.7792],[-81.184,41.7867],[-81.1809,41.7872],[-81.1696,41.7923],[-81.1631,41.7964],[-81.1607,41.7965],[-81.1507,41.801],[-81.1478,41.8031],[-81.1332,41.808],[-81.1285,41.8111],[-81.1177,41.8143],[-81.112,41.8171],[-81.1056,41.8178],[-81.0993,41.8208],[-81.0894,41.8229],[-81.0695,41.8309],[-81.0589,41.8327],[-81.0467,41.8388],[-81.0428,41.8388],[-81.0341,41.8423],[-81.0282,41.8429],[-81.0187,41.8454],[-81.0022,41.8531],[-81.0025,41.7994],[-81.0028,41.7636],[-81.0029,41.7149],[-81.0402,41.7145],[-81.1023,41.7143],[-81.1021,41.6872],[-81.1014,41.6415],[-81.1912,41.6413],[-81.2947,41.6409],[-81.2952,41.5962],[-81.2959,41.57],[-81.3488,41.5701],[-81.391,41.5697],[-81.4199,41.57],[-81.4878,41.5701],[-81.4881,41.5963],[-81.4885,41.6058],[-81.4886,41.6313],[-81.4798,41.6372]]]}},{"type":"Feature","properties":{"id":"39007","name":"Ashtabula Co."},"geometry":{"type":"Polygon","coordinates":[[[-81.0028,41.7636],[-81.0025,41.7994],[-81.0022,41.8531],[-80.9947,41.8539],[-80.9747,41.8577],[-80.9575,41.8597],[-80.9521,41.8619],[-80.9393,41.8619],[-80.931,41.8633],[-80.928,41.8647],[-80.9121,41.8662],[-80.9006,41.8686],[-80.8874,41.8739],[-80.8802,41.8758],[-80.8696,41.8803],[-80.8615,41.8818],[-80.8513,41.8852],[-80.844,41.8894],[-80.8352,41.8912],[-80.828,41.8937],[-80.8253,41.8934],[-80.8155,41.8973],[-80.8087,41.9016],[-80.8041,41.9061],[-80.8015,41.9065],[-80.8006,41.9096],[-80.7971,41.9109],[-80.7898,41.9102],[-80.7896,41.9115],[-80.7827,41.9116],[-80.7828,41.9074],[-80.7731,41.9082],[-80.7579,41.9134],[-80.7537,41.9155],[-80.7482,41.9166],[-80.7313,41.9179],[-80.7208,41.9196],[-80.7113,41.9219],[-80.7015,41.926],[-80.6984,41.9257],[-80.6831,41.9309],[-80.6773,41.9317],[-80.6679,41.9346],[-80.654,41.9405],[-80.6498,41.9405],[-80.6466,41.9421],[-80.6386,41.9423],[-80.6306,41.9436],[-80.6125,41.9487],[-80.5951,41.9544],[-80.5815,41.9573],[-80.5595,41.9653],[-80.5519,41.9693],[-80.5514,41.9715],[-80.5458,41.9708],[-80.5348,41.9728],[-80.5194,41.9772],[-80.5192,41.7651],[-80.5194,41.7394],[-80.5193,41.5393],[-80.5192,41.4993],[-80.6185,41.4984],[-80.7132,41.4997],[-80.8104,41.5006],[-80.9045,41.5011],[-81.0031,41.5015],[-81.0028,41.5717],[-81.0029,41.6071],[-81.0028,41.642],[-81.0029,41.7149],[-81.0028,41.7636]]]}},{"type":"Feature","properties":{"id":"39103","name":"Medina Co."},"geometry":{"type":"Polygon","coordinates":[[[-82.1699,41.1371],[-82.0743,41.1365],[-82.0725,41.1999],[-81.9739,41.1998],[-81.9742,41.2089],[-81.9733,41.2377],[-81.9725,41.2748],[-81.927,41.2748],[-81.9204,41.2754],[-81.9062,41.2754],[-81.8979,41.2749],[-81.8781,41.275],[-81.8227,41.2758],[-81.7851,41.2764],[-81.7047,41.2772],[-81.6849,41.2771],[-81.6856,41.2021],[-81.687,41.136],[-81.6873,41.1105],[-81.6878,41.0257],[-81.6885,40.9886],[-81.7594,40.9882],[-81.8289,40.9883],[-81.8852,40.9891],[-82.0307,40.9904],[-82.1293,40.9918],[-82.1734,40.9921],[-82.1715,41.0635],[-82.1699,41.1371]]]}},{"type":"Feature","properties":{"id":"39093","name":"Lorain Co."},"geometry":{"type":"Polygon","coordinates":[[[-81.9692,41.4927],[-81.9695,41.478],[-81.97,41.4169],[-81.9705,41.3847],[-81.9713,41.3513],[-81.9223,41.3509],[-81.877,41.3507],[-81.8776,41.3124],[-81.8781,41.275],[-81.8979,41.2749],[-81.9062,41.2754],[-81.9204,41.2754],[-81.927,41.2748],[-81.9725,41.2748],[-81.9733,41.2377],[-81.9742,41.2089],[-81.9739,41.1998],[-82.0725,41.1999],[-82.0743,41.1365],[-82.1699,41.1371],[-82.1715,41.0635],[-82.2583,41.0647],[-82.2899,41.0655],[-82.3268,41.066],[-82.3365,41.0658],[-82.338,41.1158],[-82.3403,41.1295],[-82.3406,41.1379],[-82.3413,41.1879],[-82.3404,41.2007],[-82.3403,41.2113],[-82.3423,41.2842],[-82.3469,41.4022],[-82.3481,41.4283],[-82.344,41.4297],[-82.3321,41.4305],[-82.323,41.4304],[-82.2916,41.4284],[-82.2685,41.4308],[-82.2547,41.4343],[-82.2508,41.437],[-82.2444,41.4388],[-82.2256,41.448],[-82.213,41.4552],[-82.1897,41.4663],[-82.1891,41.4699],[-82.1808,41.4726],[-82.1778,41.4715],[-82.1737,41.4741],[-82.1715,41.473],[-82.1521,41.478],[-82.1338,41.4843],[-82.1195,41.4885],[-82.0615,41.5028],[-82.0449,41.507],[-82.0271,41.5123],[-82.0124,41.5155],[-81.9984,41.5138],[-81.9952,41.5145],[-81.9683,41.505],[-81.9692,41.4927]]]}}]}