{"type":"FeatureCollection","features":[{"type":"Feature","properties":{"id":"05007","name":"Benton Co."},"geometry":{"type":"Polygon","coordinates":[[[-93.869,36.3074],[-93.8693,36.2943],[-93.8699,36.2348],[-93.8879,36.2351],[-93.9046,36.2357],[-93.9443,36.2361],[-93.9429,36.2321],[-93.9486,36.2317],[-93.9552,36.233],[-93.9569,36.2302],[-93.9576,36.222],[-93.9642,36.2236],[-93.9678,36.2272],[-93.9721,36.2285],[-93.9754,36.2249],[-93.9755,36.2158],[-93.9734,36.2086],[-93.9737,36.2042],[-93.9779,36.2047],[-93.9809,36.2107],[-93.9828,36.2118],[-93.9953,36.2097],[-93.999,36.212],[-94.0019,36.2166],[-94.007,36.215],[-94.0098,36.2167],[-94.0099,36.221],[-94.0048,36.2235],[-93.9982,36.2235],[-93.9971,36.2271],[-93.9993,36.2297],[-94.0072,36.2302],[-94.0131,36.2287],[-94.0243,36.2238],[-94.0266,36.218],[-94.0226,36.2148],[-94.0179,36.2166],[-94.0143,36.216],[-94.0137,36.2126],[-94.0175,36.2081],[-94.0308,36.208],[-94.0574,36.2089],[-94.1199,36.2101],[-94.1379,36.2103],[-94.1738,36.2114],[-94.2131,36.2123],[-94.2442,36.2127],[-94.3336,36.2147],[-94.3351,36.1707],[-94.3362,36.142],[-94.3898,36.1427],[-94.3911,36.0994],[-94.4611,36.1005],[-94.4807,36.1011],[-94.5522,36.1021],[-94.5612,36.1521],[-94.5713,36.2109],[-94.576,36.2401],[-94.5779,36.2501],[-94.5862,36.3],[-94.5934,36.3457],[-94.602,36.4021],[-94.6054,36.4219],[-94.6138,36.4762],[-94.6179,36.4994],[-94.5593,36.4995],[-94.5195,36.4992],[-94.3612,36.4996],[-94.1115,36.4986],[-94.0771,36.4987],[-93.9061,36.4987],[-93.8667,36.4988],[-93.8668,36.4293],[-93.8671,36.3942],[-93.8691,36.3886],[-93.8668,36.3861],[-93.8729,36.3855],[-93.8713,36.3874],[-93.8739,36.3896],[-93.8727,36.3937],[-93.8819,36.3942],[-93.8843,36.3921],[-93.8813,36.3914],[-93.8788,36.3882],[-93.8834,36.3906],[-93.8823,36.3855],[-93.8863,36.383],[-93.8901,36.3779],[-93.8871,36.3779],[-93.889,36.3751],[-93.886,36.3723],[-93.884,36.3729],[-93.8798,36.3791],[-93.8783,36.3776],[-93.8754,36.3792],[-93.881,36.3724],[-93.8777,36.3683],[-93.8755,36.3731],[-93.8734,36.3702],[-93.8679,36.3738],[-93.8694,36.3773],[-93.867,36.3766],[-93.8673,36.3574],[-93.8657,36.3561],[-93.867,36.3486],[-93.8646,36.3448],[-93.8678,36.3433],[-93.8647,36.342],[-93.8681,36.336],[-93.8637,36.3392],[-93.861,36.3389],[-93.8607,36.3363],[-93.8557,36.3368],[-93.8525,36.3335],[-93.8549,36.3243],[-93.8518,36.3294],[-93.8493,36.3306],[-93.8458,36.3267],[-93.8418,36.3246],[-93.8329,36.3229],[-93.8326,36.313],[-93.8274,36.3122],[-93.8217,36.309],[-93.8198,36.3123],[-93.8149,36.3129],[-93.8151,36.3066],[-93.869,36.3074]]]}},{"type":"Feature","properties":{"id":"05143","name":"Washington Co."},"geometry":{"type":"Polygon","coordinates":[[[-94.4807,36.1011],[-94.4611,36.1005],[-94.3911,36.0994],[-94.3898,36.1427],[-94.3362,36.142],[-94.3351,36.1707],[-94.3336,36.2147],[-94.2442,36.2127],[-94.2131,36.2123],[-94.1738,36.2114],[-94.1379,36.2103],[-94.1199,36.2101],[-94.0574,36.2089],[-94.0308,36.208],[-94.0175,36.2081],[-94.0137,36.2126],[-94.0143,36.216],[-94.0179,36.2166],[-94.0226,36.2148],[-94.0266,36.218],[-94.0243,36.2238],[-94.0131,36.2287],[-94.0072,36.2302],[-93.9993,36.2297],[-93.9971,36.2271],[-93.9982,36.2235],[-94.0048,36.2235],[-94.0099,36.221],[-94.0098,36.2167],[-94.007,36.215],[-94.0019,36.2166],[-93.999,36.212],[-93.9953,36.2097],[-93.9828,36.2118],[-93.9809,36.2107],[-93.9779,36.2047],[-93.9737,36.2042],[-93.9734,36.2086],[-93.9755,36.2158],[-93.9754,36.2249],[-93.9721,36.2285],[-93.9678,36.2272],[-93.9642,36.2236],[-93.9576,36.222],[-93.9569,36.2302],[-93.9552,36.233],[-93.9486,36.2317],[-93.9429,36.2321],[-93.9443,36.2361],[-93.9046,36.2357],[-93.8879,36.2351],[-93.9032,36.1955],[-93.9441,36.0911],[-93.9458,36.0339],[-93.9468,35.9927],[-93.9491,35.9237],[-93.95,35.8894],[-93.9519,35.8331],[-93.9606,35.8333],[-93.9615,35.8039],[-93.9631,35.761],[-94.0177,35.762],[-94.0532,35.7632],[-94.1243,35.7648],[-94.1249,35.7503],[-94.2207,35.7532],[-94.2836,35.7548],[-94.3388,35.7557],[-94.3388,35.7565],[-94.3874,35.7573],[-94.4929,35.7592],[-94.4996,35.7969],[-94.5076,35.8459],[-94.5176,35.9019],[-94.5227,35.9343],[-94.5336,35.9968],[-94.5349,36.0027],[-94.5477,36.0773],[-94.5522,36.1021],[-94.4807,36.1011]]]}},{"type":"Feature","properties":{"id":"05087","name":"Madison Co."},"geometry":{"type":"Polygon","coordinates":[[[-93.8699,36.2348],[-93.8693,36.2943],[-93.869,36.3074],[-93.8151,36.3066],[-93.762,36.3046],[-93.7263,36.3042],[-93.6911,36.3041],[-93.6911,36.3034],[-93.6713,36.3035],[-93.6576,36.303],[-93.6548,36.2992],[-93.6554,36.2974],[-93.6602,36.2945],[-93.6567,36.2877],[-93.658,36.2854],[-93.6641,36.2836],[-93.6626,36.2749],[-93.6516,36.2772],[-93.651,36.2808],[-93.6469,36.2825],[-93.6431,36.278],[-93.6411,36.2829],[-93.6357,36.2793],[-93.631,36.2779],[-93.6366,36.2719],[-93.6418,36.2677],[-93.6367,36.2677],[-93.63,36.261],[-93.6258,36.2592],[-93.6183,36.2589],[-93.6201,36.2012],[-93.6112,36.2011],[-93.6117,36.1866],[-93.5849,36.1857],[-93.5855,36.1557],[-93.5508,36.155],[-93.5511,36.1263],[-93.5244,36.1257],[-93.4795,36.1251],[-93.4803,36.0816],[-93.4457,36.0808],[-93.4482,36.0535],[-93.4487,36.0254],[-93.4495,35.9962],[-93.4508,35.9675],[-93.4681,35.9676],[-93.4684,35.9532],[-93.4862,35.9534],[-93.4869,35.9243],[-93.5049,35.9251],[-93.5048,35.9106],[-93.506,35.881],[-93.5236,35.8815],[-93.5261,35.8236],[-93.5171,35.8233],[-93.5192,35.7635],[-93.6959,35.7686],[-93.8002,35.772],[-93.9106,35.7743],[-93.9108,35.7598],[-93.9631,35.761],[-93.9615,35.8039],[-93.9606,35.8333],[-93.9519,35.8331],[-93.95,35.8894],[-93.9491,35.9237],[-93.9468,35.9927],[-93.9458,36.0339],[-93.9441,36.0911],[-93.9032,36.1955],[-93.8879,36.2351],[-93.8699,36.2348]]]}}]}