{"type":"FeatureCollection","features":[{"type":"Feature","properties":{"id":"45077","name":"Pickens Co."},"geometry":{"type":"MultiPolygon","coordinates":[[[[-82.844,34.6195],[-82.843,34.621],[-82.842,34.6215],[-82.844,34.6195]]],[[[-82.8555,34.6091],[-82.8578,34.6088],[-82.8619,34.6112],[-82.8598,34.6121],[-82.8648,34.613],[-82.867,34.6172],[-82.8647,34.6185],[-82.8617,34.6167],[-82.8622,34.6195],[-82.8591,34.6215],[-82.8599,34.6184],[-82.8568,34.619],[-82.8529,34.6148],[-82.8528,34.6187],[-82.8509,34.6178],[-82.8451,34.6185],[-82.8555,34.6091]]],[[[-82.7629,35.0633],[-82.7599,35.0577],[-82.7558,35.053],[-82.7497,35.0476],[-82.7459,35.0483],[-82.7379,35.0472],[-82.7363,35.0516],[-82.7306,35.0512],[-82.7294,35.0549],[-82.7245,35.0553],[-82.7231,35.053],[-82.7191,35.0528],[-82.716,35.0545],[-82.715,35.059],[-82.7095,35.0604],[-82.7082,35.0621],[-82.7041,35.0609],[-82.6892,35.0629],[-82.682,35.0618],[-82.6751,35.0649],[-82.6692,35.0624],[-82.6656,35.065],[-82.6571,35.066],[-82.6556,35.0618],[-82.6538,35.0636],[-82.6501,35.0629],[-82.6506,35.0608],[-82.6414,35.0601],[-82.6372,35.0643],[-82.6256,35.0647],[-82.6194,35.0674],[-82.6132,35.0674],[-82.6114,35.0723],[-82.6066,35.0704],[-82.6039,35.0713],[-82.5897,35.0738],[-82.5758,35.0738],[-82.5716,35.0746],[-82.5729,35.0723],[-82.5704,35.0703],[-82.5743,35.0646],[-82.5794,35.0653],[-82.5793,35.064],[-82.5851,35.0644],[-82.5924,35.0628],[-82.5925,35.06],[-82.5977,35.0543],[-82.5958,35.0493],[-82.5981,35.0462],[-82.5982,35.0385],[-82.5903,35.0442],[-82.5899,35.0392],[-82.5871,35.0362],[-82.5888,35.0354],[-82.5857,35.0324],[-82.5893,35.0306],[-82.5924,35.0268],[-82.5898,35.0253],[-82.5915,35.0222],[-82.5883,35.021],[-82.5913,35.0175],[-82.5944,35.016],[-82.5959,35.0128],[-82.5939,35.0079],[-82.5775,35.0094],[-82.5741,35.0133],[-82.5688,35.0117],[-82.5597,35.0128],[-82.5599,35.0138],[-82.5486,35.015],[-82.5465,35.0145],[-82.5379,35.0155],[-82.5379,35.0132],[-82.5432,35.0046],[-82.5423,35.0011],[-82.5384,34.9979],[-82.534,34.9869],[-82.5341,34.9838],[-82.5385,34.9819],[-82.5412,34.9823],[-82.5481,34.9787],[-82.5445,34.9746],[-82.5427,34.9769],[-82.5363,34.9718],[-82.5324,34.9722],[-82.5329,34.9664],[-82.5274,34.9659],[-82.5303,34.9625],[-82.5269,34.9611],[-82.5285,34.9539],[-82.5237,34.9521],[-82.5246,34.9468],[-82.519,34.944],[-82.5206,34.9426],[-82.5259,34.9433],[-82.5254,34.9395],[-82.5175,34.934],[-82.5211,34.9274],[-82.5193,34.9253],[-82.5159,34.926],[-82.5182,34.921],[-82.5174,34.9192],[-82.5109,34.918],[-82.509,34.9115],[-82.5075,34.9128],[-82.501,34.9104],[-82.503,34.9076],[-82.5028,34.9037],[-82.4986,34.8988],[-82.4948,34.8972],[-82.4943,34.8931],[-82.4974,34.8913],[-82.4965,34.8876],[-82.4934,34.886],[-82.4877,34.8851],[-82.4915,34.8784],[-82.4879,34.8758],[-82.4871,34.8664],[-82.489,34.8614],[-82.483,34.8579],[-82.485,34.8543],[-82.4856,34.8481],[-82.4847,34.8444],[-82.4891,34.8411],[-82.4841,34.8403],[-82.4808,34.8425],[-82.4806,34.8396],[-82.4867,34.8368],[-82.487,34.8306],[-82.4805,34.8303],[-82.4764,34.8279],[-82.4786,34.8245],[-82.4828,34.8237],[-82.487,34.819],[-82.7231,34.7042],[-82.7876,34.6727],[-82.84,34.6233],[-82.8471,34.6202],[-82.8466,34.6259],[-82.8502,34.6216],[-82.851,34.6265],[-82.8532,34.6246],[-82.8553,34.6262],[-82.8526,34.6282],[-82.8522,34.6339],[-82.8501,34.6333],[-82.848,34.6371],[-82.8441,34.6338],[-82.8425,34.6363],[-82.8367,34.6366],[-82.8366,34.6327],[-82.8349,34.6375],[-82.8274,34.6424],[-82.8332,34.6414],[-82.8373,34.6393],[-82.8396,34.6451],[-82.8325,34.6438],[-82.8376,34.6468],[-82.836,34.6485],[-82.8326,34.6471],[-82.8294,34.6526],[-82.8229,34.6545],[-82.8304,34.6543],[-82.8368,34.6512],[-82.8401,34.6525],[-82.8389,34.6572],[-82.8356,34.6574],[-82.84,34.6603],[-82.8361,34.6624],[-82.8422,34.6618],[-82.8451,34.6641],[-82.8445,34.6669],[-82.8512,34.6685],[-82.8536,34.6778],[-82.8555,34.6784],[-82.8486,34.6831],[-82.8533,34.6845],[-82.8538,34.6899],[-82.8494,34.6959],[-82.8567,34.698],[-82.8599,34.698],[-82.8656,34.7022],[-82.865,34.7038],[-82.86,34.7061],[-82.8597,34.7114],[-82.857,34.7132],[-82.8564,34.716],[-82.859,34.717],[-82.8557,34.7208],[-82.8556,34.7253],[-82.8603,34.7314],[-82.8633,34.7322],[-82.8685,34.7311],[-82.873,34.7366],[-82.8793,34.7377],[-82.8866,34.7358],[-82.8964,34.7366],[-82.9003,34.7424],[-82.8958,34.7454],[-82.894,34.7484],[-82.8941,34.7545],[-82.889,34.7608],[-82.89,34.763],[-82.8933,34.7629],[-82.8932,34.7654],[-82.8871,34.7687],[-82.8882,34.7713],[-82.8873,34.7753],[-82.8803,34.7817],[-82.8819,34.7846],[-82.8789,34.7886],[-82.8754,34.788],[-82.873,34.79],[-82.8749,34.7912],[-82.8826,34.7904],[-82.8885,34.7973],[-82.887,34.8036],[-82.8881,34.8077],[-82.8918,34.8061],[-82.8957,34.8025],[-82.8972,34.8052],[-82.8959,34.8156],[-82.9011,34.8232],[-82.8978,34.8247],[-82.8992,34.8319],[-82.8961,34.8369],[-82.9003,34.8434],[-82.9013,34.8468],[-82.9,34.8534],[-82.9012,34.857],[-82.9047,34.8596],[-82.9021,34.865],[-82.9047,34.8684],[-82.9047,34.8739],[-82.9067,34.8863],[-82.9093,34.8947],[-82.9081,34.8958],[-82.901,34.8954],[-82.9028,34.8979],[-82.9003,34.9024],[-82.9062,34.9065],[-82.9054,34.9104],[-82.9014,34.9146],[-82.9084,34.9189],[-82.9089,34.9213],[-82.9039,34.9262],[-82.9066,34.9302],[-82.9033,34.935],[-82.9052,34.9379],[-82.9113,34.9422],[-82.9157,34.9471],[-82.9151,34.949],[-82.9092,34.9528],[-82.9107,34.9559],[-82.9192,34.9599],[-82.9185,34.9676],[-82.9159,34.9724],[-82.9246,34.9745],[-82.9296,34.977],[-82.9341,34.9766],[-82.9386,34.9809],[-82.9372,34.9856],[-82.9419,34.986],[-82.9434,34.9885],[-82.9401,34.9885],[-82.9379,34.9958],[-82.934,34.9979],[-82.9347,35.0007],[-82.9318,35.0055],[-82.929,35.0062],[-82.9303,35.0093],[-82.9265,35.0093],[-82.9184,35.0061],[-82.9121,35.0095],[-82.9132,35.0128],[-82.9204,35.0151],[-82.9176,35.0171],[-82.9214,35.0204],[-82.918,35.022],[-82.9162,35.0261],[-82.9181,35.0294],[-82.9138,35.0295],[-82.9183,35.0361],[-82.9141,35.0379],[-82.9098,35.0415],[-82.905,35.0421],[-82.9032,35.045],[-82.9058,35.0479],[-82.9035,35.0496],[-82.8991,35.0493],[-82.8976,35.056],[-82.8098,35.0787],[-82.7879,35.085],[-82.7833,35.0856],[-82.7764,35.0813],[-82.7774,35.0769],[-82.782,35.0668],[-82.7774,35.0641],[-82.77,35.0655],[-82.7641,35.0682],[-82.7629,35.0633]]]]}},{"type":"Feature","properties":{"id":"45007","name":"Anderson Co."},"geometry":{"type":"Polygon","coordinates":[[[-82.8451,34.6185],[-82.844,34.6195],[-82.842,34.6215],[-82.84,34.6233],[-82.7876,34.6727],[-82.7231,34.7042],[-82.487,34.819],[-82.4751,34.8104],[-82.4738,34.8071],[-82.4767,34.8033],[-82.4753,34.802],[-82.4721,34.8041],[-82.4681,34.8019],[-82.4693,34.7981],[-82.4609,34.7967],[-82.4622,34.793],[-82.4589,34.7883],[-82.4597,34.7816],[-82.4584,34.7792],[-82.4521,34.7764],[-82.4515,34.7688],[-82.4571,34.7616],[-82.4555,34.7577],[-82.4584,34.7556],[-82.4551,34.7507],[-82.4601,34.7459],[-82.4634,34.7449],[-82.4597,34.7389],[-82.4635,34.7368],[-82.4644,34.7248],[-82.4655,34.7212],[-82.4649,34.7171],[-82.4574,34.7142],[-82.457,34.7108],[-82.4597,34.7087],[-82.4645,34.7103],[-82.4653,34.7054],[-82.463,34.7016],[-82.4569,34.6995],[-82.4619,34.6961],[-82.4631,34.6934],[-82.4587,34.6909],[-82.459,34.6887],[-82.4639,34.6856],[-82.4574,34.6823],[-82.4567,34.6803],[-82.4588,34.6727],[-82.4677,34.6671],[-82.464,34.6644],[-82.463,34.6604],[-82.465,34.6583],[-82.4619,34.6555],[-82.4559,34.6573],[-82.4573,34.6507],[-82.4548,34.6485],[-82.4543,34.6433],[-82.4496,34.64],[-82.4496,34.6368],[-82.4535,34.6364],[-82.4521,34.6308],[-82.4538,34.6267],[-82.4529,34.6238],[-82.4467,34.6234],[-82.4498,34.6193],[-82.4477,34.6163],[-82.4439,34.6152],[-82.439,34.6099],[-82.4443,34.6084],[-82.4424,34.6062],[-82.4359,34.6051],[-82.4283,34.5989],[-82.43,34.5951],[-82.4274,34.5913],[-82.4272,34.5884],[-82.4234,34.5872],[-82.424,34.5846],[-82.4216,34.5771],[-82.4259,34.574],[-82.4195,34.5687],[-82.4183,34.5633],[-82.4202,34.5609],[-82.4196,34.5571],[-82.4126,34.5485],[-82.4056,34.545],[-82.3923,34.5437],[-82.3863,34.5393],[-82.3839,34.5349],[-82.3767,34.5293],[-82.3758,34.5265],[-82.3722,34.5253],[-82.3705,34.5218],[-82.3653,34.5199],[-82.3642,34.5154],[-82.3574,34.5131],[-82.3547,34.5132],[-82.3494,34.5094],[-82.3473,34.5123],[-82.344,34.5122],[-82.3452,34.508],[-82.3438,34.5],[-82.3389,34.5018],[-82.3332,34.4997],[-82.3316,34.4975],[-82.3273,34.4957],[-82.3259,34.4907],[-82.3194,34.4901],[-82.3187,34.4856],[-82.3139,34.4843],[-82.3768,34.4434],[-82.5091,34.3577],[-82.6034,34.2974],[-82.62,34.2869],[-82.6838,34.248],[-82.742,34.2117],[-82.7405,34.22],[-82.7444,34.2259],[-82.7421,34.229],[-82.7447,34.2463],[-82.743,34.2514],[-82.7456,34.2541],[-82.7458,34.2584],[-82.7485,34.2641],[-82.7467,34.2664],[-82.7539,34.2755],[-82.7623,34.282],[-82.7661,34.2821],[-82.7717,34.2863],[-82.7818,34.2979],[-82.7818,34.3024],[-82.7872,34.3108],[-82.7902,34.3221],[-82.7921,34.3268],[-82.7912,34.331],[-82.7947,34.3406],[-82.7987,34.3419],[-82.8249,34.3604],[-82.8333,34.364],[-82.8348,34.3663],[-82.836,34.3809],[-82.8414,34.3901],[-82.8414,34.399],[-82.8474,34.412],[-82.848,34.4183],[-82.8469,34.4194],[-82.8496,34.4257],[-82.854,34.4288],[-82.8555,34.4417],[-82.8568,34.4434],[-82.8601,34.4528],[-82.8588,34.4552],[-82.8653,34.4603],[-82.8718,34.4612],[-82.8739,34.4645],[-82.8812,34.4695],[-82.8808,34.4719],[-82.8874,34.481],[-82.8926,34.4812],[-82.9016,34.4868],[-82.9177,34.4842],[-82.9207,34.4823],[-82.9262,34.4817],[-82.9308,34.4856],[-82.9372,34.4864],[-82.944,34.4855],[-82.9482,34.4805],[-82.9557,34.4789],[-82.9585,34.4796],[-82.9632,34.4844],[-82.9664,34.4824],[-82.9749,34.4793],[-82.9797,34.4829],[-82.9922,34.4792],[-82.9813,34.4897],[-82.9274,34.5408],[-82.8553,34.6089],[-82.8555,34.6091],[-82.8451,34.6185]]]}},{"type":"Feature","properties":{"id":"45059","name":"Laurens Co."},"geometry":{"type":"Polygon","coordinates":[[[-82.2655,34.5159],[-82.2361,34.5353],[-82.2348,34.5888],[-82.1974,34.677],[-82.1931,34.6864],[-82.1737,34.7274],[-82.1456,34.7852],[-82.1406,34.7815],[-82.1393,34.7832],[-82.1382,34.7796],[-82.1355,34.7782],[-82.1319,34.7788],[-82.1353,34.7731],[-82.1304,34.7724],[-82.1233,34.7591],[-82.1206,34.7577],[-82.1152,34.7489],[-82.1106,34.7506],[-82.1116,34.7538],[-82.1103,34.7562],[-82.1038,34.7493],[-82.1041,34.7465],[-82.1011,34.744],[-82.0968,34.7456],[-82.0839,34.7448],[-82.0856,34.744],[-82.0858,34.7397],[-82.0807,34.7305],[-82.083,34.7282],[-82.0776,34.7276],[-82.0788,34.7194],[-82.07,34.7198],[-82.0666,34.7152],[-82.0678,34.7078],[-82.0714,34.7038],[-82.0667,34.701],[-82.0587,34.7017],[-82.0571,34.6952],[-82.048,34.6929],[-82.047,34.69],[-82.0418,34.6883],[-82.0405,34.6837],[-82.0345,34.6803],[-82.0291,34.6814],[-82.0283,34.6784],[-82.0231,34.6763],[-82.0222,34.6741],[-82.0183,34.6729],[-82.017,34.6694],[-82.0085,34.6669],[-82.0046,34.6623],[-81.9988,34.6615],[-81.9958,34.6632],[-81.9908,34.6617],[-81.9883,34.6594],[-81.9822,34.6573],[-81.979,34.6607],[-81.9767,34.6588],[-81.9714,34.6585],[-81.9699,34.6566],[-81.9707,34.6504],[-81.9669,34.6491],[-81.9652,34.6504],[-81.9573,34.6489],[-81.9545,34.6506],[-81.9519,34.6495],[-81.9484,34.6456],[-81.9439,34.6435],[-81.9415,34.6338],[-81.9379,34.636],[-81.9306,34.6266],[-81.9277,34.6248],[-81.9265,34.6182],[-81.9198,34.612],[-81.9148,34.6109],[-81.9107,34.6078],[-81.9103,34.603],[-81.8998,34.599],[-81.8953,34.6018],[-81.8934,34.6013],[-81.894,34.5974],[-81.8901,34.5956],[-81.8903,34.5901],[-81.8871,34.5935],[-81.8802,34.5967],[-81.878,34.5932],[-81.8712,34.5929],[-81.8695,34.5874],[-81.8645,34.5808],[-81.8618,34.5816],[-81.8622,34.5861],[-81.8588,34.5922],[-81.8544,34.5946],[-81.8465,34.5959],[-81.8428,34.6006],[-81.8392,34.5976],[-81.8393,34.5932],[-81.8361,34.5934],[-81.8317,34.5915],[-81.8295,34.5941],[-81.8259,34.5881],[-81.8182,34.5882],[-81.8136,34.5802],[-81.8104,34.5781],[-81.8087,34.581],[-81.8023,34.5808],[-81.8003,34.5748],[-81.7868,34.5741],[-81.7799,34.57],[-81.7754,34.5709],[-81.768,34.5704],[-81.7675,34.5665],[-81.7624,34.5683],[-81.7599,34.566],[-81.7544,34.5664],[-81.7525,34.5636],[-81.7496,34.5683],[-81.7433,34.5651],[-81.743,34.5627],[-81.7379,34.5593],[-81.7336,34.5609],[-81.7274,34.5566],[-81.7229,34.5561],[-81.7162,34.5514],[-81.7135,34.5556],[-81.7116,34.5549],[-81.7011,34.5594],[-81.7004,34.5557],[-81.6965,34.5569],[-81.6928,34.5557],[-81.6908,34.5527],[-81.6826,34.5573],[-81.6773,34.558],[-81.6763,34.5568],[-81.6792,34.5534],[-81.6776,34.5508],[-81.6748,34.5525],[-81.6694,34.5512],[-81.6675,34.5483],[-81.6609,34.5487],[-81.658,34.5406],[-81.6554,34.5411],[-81.6483,34.5328],[-81.6436,34.5337],[-81.6458,34.5273],[-81.6496,34.5204],[-81.6497,34.5177],[-81.654,34.5144],[-81.6577,34.5133],[-81.6612,34.5074],[-81.6647,34.5053],[-81.7022,34.456],[-81.7035,34.4534],[-81.709,34.4525],[-81.7145,34.4493],[-81.7225,34.4497],[-81.7247,34.4454],[-81.7282,34.4434],[-81.7345,34.4377],[-81.7341,34.4353],[-81.7382,34.4291],[-81.7475,34.4196],[-81.7462,34.4142],[-81.7544,34.4079],[-81.7549,34.4035],[-81.7579,34.3986],[-81.7622,34.3981],[-81.7659,34.3914],[-81.7746,34.3839],[-81.7784,34.3789],[-81.7809,34.3732],[-81.7806,34.3677],[-81.7826,34.3651],[-81.7973,34.3572],[-81.8065,34.3506],[-81.813,34.3476],[-81.8235,34.3469],[-81.8322,34.3449],[-81.8369,34.3428],[-81.8447,34.3351],[-81.8498,34.333],[-81.8506,34.3291],[-81.8485,34.3235],[-81.8552,34.3207],[-81.8613,34.3155],[-81.8676,34.3164],[-81.8713,34.3124],[-81.8831,34.312],[-81.8881,34.3048],[-81.893,34.3029],[-81.8953,34.3005],[-81.8958,34.2958],[-81.8997,34.2849],[-81.9017,34.2765],[-81.9035,34.2735],[-81.9032,34.2633],[-81.9092,34.2556],[-81.9114,34.2463],[-81.9238,34.2309],[-81.9257,34.2258],[-81.9267,34.2197],[-81.9347,34.2154],[-81.9386,34.2108],[-81.942,34.2086],[-81.945,34.2031],[-81.9507,34.2068],[-81.9527,34.211],[-81.9607,34.2185],[-81.9711,34.2222],[-81.9727,34.2265],[-81.9772,34.2295],[-81.9792,34.2324],[-81.9784,34.2381],[-81.985,34.2387],[-81.9905,34.2418],[-81.9963,34.2431],[-81.9992,34.242],[-82.0072,34.2415],[-82.019,34.2491],[-82.0256,34.2584],[-82.0311,34.2624],[-82.0425,34.2645],[-82.0508,34.2687],[-82.0516,34.2742],[-82.063,34.2817],[-82.0658,34.2852],[-82.0727,34.2885],[-82.0759,34.2934],[-82.0805,34.2957],[-82.0837,34.2992],[-82.0897,34.3016],[-82.0945,34.3013],[-82.1011,34.305],[-82.1107,34.3081],[-82.12,34.3038],[-82.123,34.3045],[-82.1261,34.3108],[-82.1259,34.3165],[-82.1319,34.3204],[-82.134,34.3238],[-82.1437,34.3258],[-82.1507,34.33],[-82.155,34.3317],[-82.1661,34.3296],[-82.1693,34.3307],[-82.1701,34.3402],[-82.1732,34.3508],[-82.178,34.3581],[-82.1812,34.3595],[-82.1849,34.365],[-82.192,34.3704],[-82.1969,34.3694],[-82.1985,34.3712],[-82.1969,34.375],[-82.2008,34.3769],[-82.2092,34.3758],[-82.221,34.3854],[-82.2208,34.3903],[-82.2236,34.3917],[-82.2284,34.3911],[-82.2315,34.3937],[-82.2277,34.4017],[-82.2308,34.4031],[-82.2446,34.4034],[-82.2453,34.4081],[-82.2486,34.4126],[-82.2529,34.4142],[-82.2544,34.4202],[-82.2595,34.4195],[-82.2622,34.4226],[-82.2603,34.4259],[-82.265,34.4305],[-82.2661,34.4332],[-82.2731,34.4338],[-82.2778,34.4367],[-82.279,34.4414],[-82.2815,34.4445],[-82.2848,34.4457],[-82.2832,34.4483],[-82.2879,34.4536],[-82.2939,34.4552],[-82.305,34.4613],[-82.3114,34.4676],[-82.3145,34.4696],[-82.3147,34.4726],[-82.3125,34.4763],[-82.3139,34.4843],[-82.2655,34.5159]]]}},{"type":"Feature","properties":{"id":"45045","name":"Greenville Co."},"geometry":{"type":"Polygon","coordinates":[[[-82.7577,35.068],[-82.7542,35.0696],[-82.7513,35.0735],[-82.7518,35.0799],[-82.7489,35.0811],[-82.7433,35.0787],[-82.7384,35.0795],[-82.734,35.0855],[-82.7301,35.0883],[-82.727,35.0941],[-82.7153,35.0929],[-82.7022,35.0991],[-82.7005,35.1008],[-82.6977,35.0957],[-82.6865,35.1082],[-82.6873,35.1107],[-82.6907,35.1115],[-82.6946,35.1147],[-82.6924,35.1187],[-82.6876,35.1193],[-82.6871,35.1251],[-82.6814,35.1279],[-82.6746,35.1264],[-82.6733,35.1234],[-82.6745,35.1185],[-82.6733,35.1175],[-82.669,35.1206],[-82.668,35.1188],[-82.6624,35.1181],[-82.6579,35.1194],[-82.6518,35.1234],[-82.6522,35.126],[-82.6453,35.1268],[-82.641,35.1323],[-82.6402,35.13],[-82.6365,35.1304],[-82.6362,35.1255],[-82.629,35.1262],[-82.6264,35.1279],[-82.6212,35.1346],[-82.618,35.1353],[-82.6097,35.139],[-82.6024,35.139],[-82.5981,35.1377],[-82.5924,35.139],[-82.5882,35.1429],[-82.5807,35.1417],[-82.5699,35.1453],[-82.5638,35.1516],[-82.5586,35.1509],[-82.5533,35.1535],[-82.5562,35.1578],[-82.5533,35.1617],[-82.5499,35.1616],[-82.5464,35.1637],[-82.5367,35.1601],[-82.5365,35.1548],[-82.53,35.1556],[-82.5199,35.1591],[-82.5189,35.1622],[-82.516,35.1634],[-82.5079,35.1624],[-82.5037,35.1659],[-82.4985,35.163],[-82.495,35.1645],[-82.4874,35.1725],[-82.4761,35.1755],[-82.468,35.1746],[-82.4601,35.1781],[-82.4543,35.1774],[-82.4516,35.1727],[-82.4576,35.1668],[-82.4571,35.164],[-82.4505,35.1661],[-82.4481,35.1652],[-82.4396,35.1659],[-82.4347,35.1683],[-82.4352,35.1699],[-82.4319,35.1727],[-82.4307,35.1783],[-82.4268,35.1789],[-82.4258,35.1821],[-82.428,35.1832],[-82.4245,35.1931],[-82.4197,35.1986],[-82.4113,35.2025],[-82.4033,35.2045],[-82.3957,35.2132],[-82.3904,35.2154],[-82.384,35.2105],[-82.3838,35.2076],[-82.3787,35.1981],[-82.3826,35.1925],[-82.3822,35.1896],[-82.3768,35.1844],[-82.3713,35.1814],[-82.3643,35.1847],[-82.3633,35.1896],[-82.3615,35.1908],[-82.3501,35.1929],[-82.3446,35.1931],[-82.3401,35.1892],[-82.3339,35.1907],[-82.3308,35.189],[-82.3305,35.1868],[-82.3233,35.1848],[-82.3179,35.1879],[-82.3159,35.1907],[-82.3072,35.193],[-82.2954,35.195],[-82.2885,35.1986],[-82.2825,35.1999],[-82.2749,35.2001],[-82.2309,35.1968],[-82.2159,35.196],[-82.2176,35.116],[-82.2182,35.0918],[-82.2204,35.0132],[-82.222,34.948],[-82.2227,34.928],[-82.2255,34.8711],[-82.2261,34.8566],[-82.2247,34.8555],[-82.2259,34.8501],[-82.2221,34.8539],[-82.2194,34.8534],[-82.2179,34.8504],[-82.211,34.8451],[-82.2107,34.8428],[-82.2029,34.8377],[-82.1997,34.8376],[-82.1958,34.835],[-82.1905,34.8281],[-82.1815,34.8199],[-82.1747,34.812],[-82.1734,34.806],[-82.1713,34.8054],[-82.1652,34.8069],[-82.1625,34.8026],[-82.1702,34.8026],[-82.1688,34.7971],[-82.1663,34.7979],[-82.1595,34.7903],[-82.153,34.7875],[-82.1535,34.782],[-82.1513,34.7818],[-82.1478,34.7861],[-82.1456,34.7852],[-82.1737,34.7274],[-82.1931,34.6864],[-82.1974,34.677],[-82.2348,34.5888],[-82.2361,34.5353],[-82.2655,34.5159],[-82.3139,34.4843],[-82.3187,34.4856],[-82.3194,34.4901],[-82.3259,34.4907],[-82.3273,34.4957],[-82.3316,34.4975],[-82.3332,34.4997],[-82.3389,34.5018],[-82.3438,34.5],[-82.3452,34.508],[-82.344,34.5122],[-82.3473,34.5123],[-82.3494,34.5094],[-82.3547,34.5132],[-82.3574,34.5131],[-82.3642,34.5154],[-82.3653,34.5199],[-82.3705,34.5218],[-82.3722,34.5253],[-82.3758,34.5265],[-82.3767,34.5293],[-82.3839,34.5349],[-82.3863,34.5393],[-82.3923,34.5437],[-82.4056,34.545],[-82.4126,34.5485],[-82.4196,34.5571],[-82.4202,34.5609],[-82.4183,34.5633],[-82.4195,34.5687],[-82.4259,34.574],[-82.4216,34.5771],[-82.424,34.5846],[-82.4234,34.5872],[-82.4272,34.5884],[-82.4274,34.5913],[-82.43,34.5951],[-82.4283,34.5989],[-82.4359,34.6051],[-82.4424,34.6062],[-82.4443,34.6084],[-82.439,34.6099],[-82.4439,34.6152],[-82.4477,34.6163],[-82.4498,34.6193],[-82.4467,34.6234],[-82.4529,34.6238],[-82.4538,34.6267],[-82.4521,34.6308],[-82.4535,34.6364],[-82.4496,34.6368],[-82.4496,34.64],[-82.4543,34.6433],[-82.4548,34.6485],[-82.4573,34.6507],[-82.4559,34.6573],[-82.4619,34.6555],[-82.465,34.6583],[-82.463,34.6604],[-82.464,34.6644],[-82.4677,34.6671],[-82.4588,34.6727],[-82.4567,34.6803],[-82.4574,34.6823],[-82.4639,34.6856],[-82.459,34.6887],[-82.4587,34.6909],[-82.4631,34.6934],[-82.4619,34.6961],[-82.4569,34.6995],[-82.463,34.7016],[-82.4653,34.7054],[-82.4645,34.7103],[-82.4597,34.7087],[-82.457,34.7108],[-82.4574,34.7142],[-82.4649,34.7171],[-82.4655,34.7212],[-82.4644,34.7248],[-82.4635,34.7368],[-82.4597,34.7389],[-82.4634,34.7449],[-82.4601,34.7459],[-82.4551,34.7507],[-82.4584,34.7556],[-82.4555,34.7577],[-82.4571,34.7616],[-82.4515,34.7688],[-82.4521,34.7764],[-82.4584,34.7792],[-82.4597,34.7816],[-82.4589,34.7883],[-82.4622,34.793],[-82.4609,34.7967],[-82.4693,34.7981],[-82.4681,34.8019],[-82.4721,34.8041],[-82.4753,34.802],[-82.4767,34.8033],[-82.4738,34.8071],[-82.4751,34.8104],[-82.487,34.819],[-82.4828,34.8237],[-82.4786,34.8245],[-82.4764,34.8279],[-82.4805,34.8303],[-82.487,34.8306],[-82.4867,34.8368],[-82.4806,34.8396],[-82.4808,34.8425],[-82.4841,34.8403],[-82.4891,34.8411],[-82.4847,34.8444],[-82.4856,34.8481],[-82.485,34.8543],[-82.483,34.8579],[-82.489,34.8614],[-82.4871,34.8664],[-82.4879,34.8758],[-82.4915,34.8784],[-82.4877,34.8851],[-82.4934,34.886],[-82.4965,34.8876],[-82.4974,34.8913],[-82.4943,34.8931],[-82.4948,34.8972],[-82.4986,34.8988],[-82.5028,34.9037],[-82.503,34.9076],[-82.501,34.9104],[-82.5075,34.9128],[-82.509,34.9115],[-82.5109,34.918],[-82.5174,34.9192],[-82.5182,34.921],[-82.5159,34.926],[-82.5193,34.9253],[-82.5211,34.9274],[-82.5175,34.934],[-82.5254,34.9395],[-82.5259,34.9433],[-82.5206,34.9426],[-82.519,34.944],[-82.5246,34.9468],[-82.5237,34.9521],[-82.5285,34.9539],[-82.5269,34.9611],[-82.5303,34.9625],[-82.5274,34.9659],[-82.5329,34.9664],[-82.5324,34.9722],[-82.5363,34.9718],[-82.5427,34.9769],[-82.5445,34.9746],[-82.5481,34.9787],[-82.5412,34.9823],[-82.5385,34.9819],[-82.5341,34.9838],[-82.534,34.9869],[-82.5384,34.9979],[-82.5423,35.0011],[-82.5432,35.0046],[-82.5379,35.0132],[-82.5379,35.0155],[-82.5465,35.0145],[-82.5486,35.015],[-82.5599,35.0138],[-82.5597,35.0128],[-82.5688,35.0117],[-82.5741,35.0133],[-82.5775,35.0094],[-82.5939,35.0079],[-82.5959,35.0128],[-82.5944,35.016],[-82.5913,35.0175],[-82.5883,35.021],[-82.5915,35.0222],[-82.5898,35.0253],[-82.5924,35.0268],[-82.5893,35.0306],[-82.5857,35.0324],[-82.5888,35.0354],[-82.5871,35.0362],[-82.5899,35.0392],[-82.5903,35.0442],[-82.5982,35.0385],[-82.5981,35.0462],[-82.5958,35.0493],[-82.5977,35.0543],[-82.5925,35.06],[-82.5924,35.0628],[-82.5851,35.0644],[-82.5793,35.064],[-82.5794,35.0653],[-82.5743,35.0646],[-82.5704,35.0703],[-82.5729,35.0723],[-82.5716,35.0746],[-82.5758,35.0738],[-82.5897,35.0738],[-82.6039,35.0713],[-82.6066,35.0704],[-82.6114,35.0723],[-82.6132,35.0674],[-82.6194,35.0674],[-82.6256,35.0647],[-82.6372,35.0643],[-82.6414,35.0601],[-82.6506,35.0608],[-82.6501,35.0629],[-82.6538,35.0636],[-82.6556,35.0618],[-82.6571,35.066],[-82.6656,35.065],[-82.6692,35.0624],[-82.6751,35.0649],[-82.682,35.0618],[-82.6892,35.0629],[-82.7041,35.0609],[-82.7082,35.0621],[-82.7095,35.0604],[-82.715,35.059],[-82.716,35.0545],[-82.7191,35.0528],[-82.7231,35.053],[-82.7245,35.0553],[-82.7294,35.0549],[-82.7306,35.0512],[-82.7363,35.0516],[-82.7379,35.0472],[-82.7459,35.0483],[-82.7497,35.0476],[-82.7558,35.053],[-82.7599,35.0577],[-82.7629,35.0633],[-82.7641,35.0682],[-82.7577,35.068]]]}}]}