{"type":"FeatureCollection","features":[{"type":"Feature","properties":{"id":"01117","name":"Shelby Co."},"geometry":{"type":"Polygon","coordinates":[[[-86.9829,33.246],[-86.9827,33.253],[-86.9785,33.2529],[-86.9784,33.2562],[-86.9742,33.2566],[-86.9741,33.2601],[-86.9696,33.2602],[-86.9696,33.2675],[-86.9478,33.2671],[-86.9478,33.2744],[-86.9347,33.2747],[-86.9346,33.2782],[-86.9262,33.2782],[-86.9261,33.2965],[-86.922,33.2965],[-86.9219,33.3003],[-86.9173,33.3007],[-86.9173,33.3038],[-86.9085,33.304],[-86.9065,33.3077],[-86.9001,33.3078],[-86.8998,33.3151],[-86.8965,33.3151],[-86.8955,33.3187],[-86.8914,33.3187],[-86.8913,33.3258],[-86.8826,33.3256],[-86.8825,33.333],[-86.8307,33.332],[-86.8304,33.3608],[-86.8134,33.3605],[-86.8133,33.3635],[-86.8046,33.3634],[-86.8044,33.3675],[-86.7786,33.3669],[-86.7784,33.3886],[-86.761,33.3883],[-86.7613,33.3952],[-86.7569,33.396],[-86.7566,33.3991],[-86.7524,33.399],[-86.7523,33.416],[-86.7515,33.4172],[-86.7179,33.4163],[-86.7177,33.4308],[-86.7004,33.4306],[-86.7006,33.4411],[-86.6963,33.4411],[-86.6963,33.4447],[-86.6921,33.4446],[-86.692,33.452],[-86.6744,33.4517],[-86.6744,33.4665],[-86.6046,33.4671],[-86.6046,33.4742],[-86.5958,33.4743],[-86.5958,33.4815],[-86.587,33.4816],[-86.587,33.4961],[-86.5779,33.4961],[-86.5781,33.4995],[-86.574,33.4995],[-86.5741,33.5033],[-86.5696,33.5034],[-86.5695,33.5106],[-86.5607,33.5106],[-86.5606,33.5175],[-86.5433,33.5173],[-86.5431,33.5246],[-86.5172,33.5241],[-86.5168,33.546],[-86.4815,33.5461],[-86.4819,33.5025],[-86.4414,33.5023],[-86.3782,33.5024],[-86.3782,33.4183],[-86.3787,33.391],[-86.3785,33.3872],[-86.3735,33.383],[-86.3599,33.3772],[-86.3529,33.3725],[-86.3415,33.3555],[-86.3412,33.3518],[-86.3449,33.3485],[-86.3502,33.3472],[-86.3551,33.3477],[-86.3622,33.3469],[-86.3667,33.3442],[-86.3683,33.3401],[-86.3679,33.3364],[-86.3644,33.3302],[-86.3642,33.3277],[-86.3674,33.3205],[-86.3664,33.3157],[-86.3623,33.3107],[-86.3576,33.2985],[-86.3576,33.2956],[-86.3609,33.2924],[-86.379,33.2861],[-86.3933,33.2754],[-86.4045,33.2728],[-86.4103,33.2729],[-86.4179,33.275],[-86.4218,33.277],[-86.4286,33.2827],[-86.4335,33.2826],[-86.4349,33.2795],[-86.4341,33.2755],[-86.4272,33.2667],[-86.4244,33.2606],[-86.4285,33.2501],[-86.4326,33.2443],[-86.4355,33.242],[-86.4421,33.2412],[-86.4529,33.2439],[-86.458,33.2414],[-86.4646,33.231],[-86.4665,33.2245],[-86.4648,33.2167],[-86.4617,33.2107],[-86.461,33.2029],[-86.4647,33.1971],[-86.4676,33.1959],[-86.472,33.1964],[-86.4809,33.2016],[-86.4861,33.2019],[-86.4915,33.1993],[-86.4933,33.197],[-86.5031,33.1791],[-86.5027,33.174],[-86.5,33.1723],[-86.4914,33.17],[-86.4877,33.167],[-86.4835,33.1595],[-86.483,33.1483],[-86.4782,33.1418],[-86.4668,33.1363],[-86.4618,33.131],[-86.4599,33.1251],[-86.4613,33.122],[-86.4661,33.119],[-86.4803,33.1153],[-86.4841,33.1132],[-86.4883,33.1085],[-86.4935,33.0992],[-86.509,33.0909],[-86.5121,33.0859],[-86.5107,33.0778],[-86.507,33.0718],[-86.506,33.0677],[-86.508,33.0644],[-86.5201,33.057],[-86.5207,33.0546],[-86.5188,33.0462],[-86.5164,33.0422],[-86.5173,33.0206],[-86.523,33.0231],[-86.5369,33.0244],[-86.5505,33.0188],[-86.5633,33.0195],[-86.5675,33.0274],[-86.5805,33.0346],[-86.5854,33.0407],[-86.5936,33.0436],[-86.5983,33.0462],[-86.6009,33.0501],[-86.6012,33.0534],[-86.604,33.0551],[-86.6164,33.0539],[-86.6185,33.0588],[-86.6182,33.0614],[-86.6149,33.0643],[-86.6091,33.0664],[-86.6101,33.07],[-86.6798,33.0695],[-86.7504,33.0693],[-86.7963,33.069],[-86.8248,33.0685],[-86.8249,33.0699],[-86.8635,33.0718],[-86.8816,33.0719],[-86.8812,33.0499],[-86.8985,33.0498],[-86.8986,33.0571],[-86.9162,33.0571],[-86.9163,33.061],[-86.92,33.061],[-86.9201,33.0643],[-86.934,33.0641],[-86.934,33.0788],[-86.9517,33.0787],[-86.9509,33.0986],[-86.9693,33.0984],[-86.9696,33.1581],[-86.9745,33.1582],[-86.9744,33.1617],[-87.0039,33.162],[-87.0038,33.1658],[-87.0256,33.1658],[-87.0256,33.1914],[-87.0213,33.1914],[-87.0214,33.2098],[-87.0257,33.2097],[-87.026,33.2316],[-87.0268,33.2465],[-86.9829,33.246]]]}},{"type":"Feature","properties":{"id":"01009","name":"Blount Co."},"geometry":{"type":"Polygon","coordinates":[[[-86.9594,33.8593],[-86.9629,33.8676],[-86.9565,33.8655],[-86.9501,33.8613],[-86.9477,33.8619],[-86.9523,33.8671],[-86.9514,33.8715],[-86.9457,33.8671],[-86.9431,33.8666],[-86.9323,33.8673],[-86.9266,33.871],[-86.9205,33.8724],[-86.9242,33.8765],[-86.9198,33.8846],[-86.9212,33.8949],[-86.9274,33.8978],[-86.9262,33.9059],[-86.9244,33.9092],[-86.921,33.9111],[-86.9169,33.9154],[-86.9149,33.9159],[-86.9077,33.9128],[-86.9001,33.9152],[-86.8866,33.9169],[-86.8832,33.9247],[-86.8861,33.9335],[-86.8774,33.9364],[-86.8698,33.9336],[-86.8624,33.9293],[-86.8594,33.9292],[-86.8605,33.9344],[-86.8553,33.9397],[-86.8485,33.9441],[-86.8433,33.9485],[-86.8362,33.9506],[-86.8343,33.95],[-86.8274,33.9442],[-86.8206,33.9414],[-86.8185,33.9436],[-86.8241,33.9527],[-86.8216,33.9571],[-86.8113,33.9536],[-86.8037,33.9548],[-86.7971,33.9525],[-86.792,33.9524],[-86.7877,33.9575],[-86.7918,33.9604],[-86.7917,33.9636],[-86.7851,33.9662],[-86.7826,33.9692],[-86.7733,33.9655],[-86.7712,33.9691],[-86.7762,33.9704],[-86.7749,33.9733],[-86.764,33.9742],[-86.7624,33.9762],[-86.7625,33.985],[-86.7574,33.9901],[-86.7613,33.9954],[-86.7511,33.9978],[-86.7418,33.9988],[-86.7406,34.0033],[-86.7442,34.0071],[-86.7427,34.0092],[-86.7324,34.0139],[-86.7229,34.0197],[-86.7248,34.0247],[-86.7203,34.0324],[-86.7179,34.0328],[-86.7097,34.029],[-86.7069,34.0301],[-86.7017,34.0356],[-86.7015,34.0396],[-86.7074,34.0438],[-86.7095,34.0474],[-86.7043,34.0581],[-86.6996,34.0611],[-86.696,34.0616],[-86.6957,34.0577],[-86.6877,34.052],[-86.6843,34.0545],[-86.6854,34.0591],[-86.6917,34.0651],[-86.6933,34.0682],[-86.7009,34.0778],[-86.7045,34.0811],[-86.6953,34.0871],[-86.6925,34.0924],[-86.6883,34.0926],[-86.6887,34.0863],[-86.6877,34.0807],[-86.6856,34.0796],[-86.6829,34.0824],[-86.6755,34.0854],[-86.6727,34.0884],[-86.6686,34.0838],[-86.6568,34.0916],[-86.6545,34.0989],[-86.6534,34.1072],[-86.6512,34.1084],[-86.6447,34.1086],[-86.6419,34.1067],[-86.6384,34.1085],[-86.6402,34.1126],[-86.6372,34.1151],[-86.6307,34.1178],[-86.6241,34.1222],[-86.6208,34.1222],[-86.6161,34.118],[-86.6138,34.1137],[-86.6109,34.1138],[-86.6061,34.118],[-86.6011,34.119],[-86.5998,34.1217],[-86.6043,34.1252],[-86.599,34.1333],[-86.5947,34.1354],[-86.5877,34.1374],[-86.5906,34.1459],[-86.5892,34.1471],[-86.5852,34.1454],[-86.5841,34.1505],[-86.58,34.1558],[-86.5756,34.1577],[-86.5735,34.163],[-86.574,34.1654],[-86.567,34.1708],[-86.5638,34.1705],[-86.557,34.1788],[-86.55,34.1813],[-86.5452,34.1873],[-86.5508,34.1866],[-86.5549,34.1879],[-86.5567,34.1931],[-86.5497,34.1982],[-86.5491,34.2002],[-86.5543,34.2052],[-86.5503,34.2056],[-86.5434,34.2108],[-86.5426,34.213],[-86.5472,34.2161],[-86.5419,34.2175],[-86.5382,34.2238],[-86.5401,34.2258],[-86.5353,34.2258],[-86.5341,34.2242],[-86.5292,34.225],[-86.5273,34.227],[-86.524,34.2261],[-86.5226,34.2341],[-86.5254,34.2384],[-86.523,34.2442],[-86.5195,34.2484],[-86.5196,34.2518],[-86.5149,34.2544],[-86.511,34.2549],[-86.5031,34.2529],[-86.4997,34.249],[-86.4918,34.2549],[-86.4918,34.2574],[-86.4871,34.2602],[-86.4441,34.2591],[-86.4448,34.2501],[-86.4368,34.2394],[-86.409,34.205],[-86.3783,34.1738],[-86.3608,34.1565],[-86.3227,34.1174],[-86.3213,34.1153],[-86.3153,34.113],[-86.3083,34.1039],[-86.3035,34.0991],[-86.3227,34.0722],[-86.3324,34.0465],[-86.3323,34.0214],[-86.3327,34.0001],[-86.3327,33.9861],[-86.3357,33.9838],[-86.3371,33.977],[-86.3417,33.9771],[-86.3393,33.9715],[-86.3447,33.9675],[-86.3446,33.9645],[-86.3515,33.9601],[-86.3495,33.9573],[-86.354,33.9538],[-86.3586,33.9529],[-86.3611,33.9469],[-86.3702,33.9398],[-86.3256,33.9401],[-86.3276,33.9373],[-86.3223,33.9322],[-86.3242,33.9295],[-86.3279,33.9296],[-86.3318,33.923],[-86.3355,33.9198],[-86.3399,33.921],[-86.3462,33.9156],[-86.3495,33.907],[-86.348,33.9014],[-86.3446,33.8973],[-86.3393,33.8948],[-86.3427,33.8865],[-86.3481,33.8809],[-86.3536,33.8792],[-86.3568,33.8759],[-86.366,33.8729],[-86.3703,33.8667],[-86.381,33.8588],[-86.3915,33.8527],[-86.3915,33.8494],[-86.3985,33.842],[-86.4035,33.8395],[-86.406,33.8359],[-86.4216,33.8264],[-86.4284,33.8229],[-86.4302,33.8195],[-86.4336,33.8208],[-86.4377,33.82],[-86.4431,33.8233],[-86.445,33.8259],[-86.4514,33.8229],[-86.4563,33.8231],[-86.4703,33.8208],[-86.4773,33.8176],[-86.4803,33.8152],[-86.4843,33.8158],[-86.4864,33.8134],[-86.4982,33.8128],[-86.505,33.8086],[-86.5061,33.8107],[-86.5127,33.8106],[-86.5218,33.8019],[-86.5775,33.802],[-86.5778,33.7653],[-86.6145,33.7652],[-86.633,33.7657],[-86.6392,33.7694],[-86.639,33.7658],[-86.6478,33.7659],[-86.6479,33.773],[-86.6453,33.773],[-86.7208,33.8178],[-86.7496,33.8347],[-86.7591,33.8406],[-86.803,33.8413],[-86.8839,33.8432],[-86.9149,33.827],[-86.9365,33.8153],[-86.9537,33.8153],[-86.9536,33.8302],[-86.9543,33.8449],[-86.963,33.8449],[-86.9634,33.8582],[-86.9594,33.8593]]]}},{"type":"Feature","properties":{"id":"01073","name":"Jefferson Co."},"geometry":{"type":"Polygon","coordinates":[[[-87.2733,33.5167],[-87.2755,33.5208],[-87.2735,33.5274],[-87.2702,33.5303],[-87.2644,33.5291],[-87.2619,33.5261],[-87.259,33.5178],[-87.2561,33.5148],[-87.2495,33.5146],[-87.2434,33.5215],[-87.2396,33.5286],[-87.2392,33.5361],[-87.2358,33.5391],[-87.2326,33.5394],[-87.2194,33.5362],[-87.2139,33.5364],[-87.21,33.5387],[-87.2003,33.5489],[-87.1977,33.5502],[-87.1876,33.5515],[-87.1858,33.5559],[-87.1883,33.5582],[-87.1934,33.5599],[-87.1969,33.5624],[-87.2041,33.5725],[-87.2046,33.5788],[-87.1978,33.5893],[-87.1969,33.5993],[-87.1796,33.5993],[-87.1794,33.6138],[-87.1444,33.6134],[-87.1445,33.6282],[-87.0927,33.6279],[-87.0927,33.6569],[-87.0578,33.6564],[-87.0573,33.6855],[-87.0398,33.6854],[-87.0406,33.729],[-87.0316,33.729],[-87.0317,33.7437],[-87.0234,33.7436],[-87.0233,33.7727],[-87.0059,33.7726],[-87.006,33.7872],[-86.9709,33.7865],[-86.9712,33.8012],[-86.9537,33.8008],[-86.9537,33.8153],[-86.9365,33.8153],[-86.9149,33.827],[-86.8839,33.8432],[-86.803,33.8413],[-86.7591,33.8406],[-86.7496,33.8347],[-86.7208,33.8178],[-86.6453,33.773],[-86.6479,33.773],[-86.6478,33.7659],[-86.639,33.7658],[-86.6392,33.7694],[-86.633,33.7657],[-86.6145,33.7652],[-86.5778,33.7653],[-86.5428,33.7652],[-86.5426,33.7356],[-86.5338,33.7355],[-86.5339,33.7213],[-86.5251,33.7212],[-86.5254,33.6993],[-86.5254,33.6636],[-86.5251,33.6487],[-86.5338,33.6489],[-86.5337,33.6344],[-86.5428,33.6344],[-86.5428,33.6198],[-86.5513,33.62],[-86.5514,33.6009],[-86.552,33.561],[-86.5431,33.5612],[-86.543,33.554],[-86.5167,33.5534],[-86.5168,33.546],[-86.5172,33.5241],[-86.5431,33.5246],[-86.5433,33.5173],[-86.5606,33.5175],[-86.5607,33.5106],[-86.5695,33.5106],[-86.5696,33.5034],[-86.5741,33.5033],[-86.574,33.4995],[-86.5781,33.4995],[-86.5779,33.4961],[-86.587,33.4961],[-86.587,33.4816],[-86.5958,33.4815],[-86.5958,33.4743],[-86.6046,33.4742],[-86.6046,33.4671],[-86.6744,33.4665],[-86.6744,33.4517],[-86.692,33.452],[-86.6921,33.4446],[-86.6963,33.4447],[-86.6963,33.4411],[-86.7006,33.4411],[-86.7004,33.4306],[-86.7177,33.4308],[-86.7179,33.4163],[-86.7515,33.4172],[-86.7523,33.416],[-86.7524,33.399],[-86.7566,33.3991],[-86.7569,33.396],[-86.7613,33.3952],[-86.761,33.3883],[-86.7784,33.3886],[-86.7786,33.3669],[-86.8044,33.3675],[-86.8046,33.3634],[-86.8133,33.3635],[-86.8134,33.3605],[-86.8304,33.3608],[-86.8307,33.332],[-86.8825,33.333],[-86.8826,33.3256],[-86.8913,33.3258],[-86.8914,33.3187],[-86.8955,33.3187],[-86.8965,33.3151],[-86.8998,33.3151],[-86.9001,33.3078],[-86.9065,33.3077],[-86.9085,33.304],[-86.9173,33.3038],[-86.9173,33.3007],[-86.9219,33.3003],[-86.922,33.2965],[-86.9261,33.2965],[-86.9262,33.2782],[-86.9346,33.2782],[-86.9347,33.2747],[-86.9478,33.2744],[-86.9478,33.2671],[-86.9696,33.2675],[-86.9696,33.2602],[-86.9741,33.2601],[-86.9742,33.2566],[-86.9784,33.2562],[-86.9785,33.2529],[-86.9827,33.253],[-86.9829,33.246],[-87.0268,33.2465],[-87.0657,33.2469],[-87.0658,33.2759],[-87.0746,33.276],[-87.0746,33.2797],[-87.0875,33.2797],[-87.0875,33.2907],[-87.1268,33.2908],[-87.1271,33.306],[-87.1458,33.3061],[-87.162,33.3066],[-87.1622,33.321],[-87.1796,33.3211],[-87.18,33.343],[-87.1974,33.3431],[-87.1976,33.3581],[-87.2149,33.3583],[-87.2148,33.3658],[-87.232,33.3659],[-87.232,33.3951],[-87.2493,33.3956],[-87.2487,33.4104],[-87.2538,33.4103],[-87.2538,33.4178],[-87.267,33.4179],[-87.2668,33.4247],[-87.2843,33.4257],[-87.2844,33.4406],[-87.3144,33.4417],[-87.3141,33.4557],[-87.3356,33.4563],[-87.3355,33.4704],[-87.3417,33.4705],[-87.3372,33.4754],[-87.3317,33.4855],[-87.3312,33.4909],[-87.3271,33.4931],[-87.3222,33.4921],[-87.3146,33.4872],[-87.3084,33.4897],[-87.3035,33.4899],[-87.3014,33.4883],[-87.2988,33.4817],[-87.2961,33.4794],[-87.2885,33.4794],[-87.2854,33.4815],[-87.285,33.4858],[-87.2886,33.495],[-87.2884,33.5001],[-87.2854,33.5023],[-87.2772,33.5016],[-87.2721,33.4981],[-87.2683,33.4971],[-87.2636,33.4983],[-87.2605,33.5037],[-87.2613,33.5065],[-87.2669,33.5129],[-87.2733,33.5167]]]}},{"type":"Feature","properties":{"id":"01115","name":"St. Clair Co."},"geometry":{"type":"Polygon","coordinates":[[[-86.3262,33.9428],[-86.3219,33.9496],[-86.319,33.9523],[-86.3189,33.9553],[-86.3136,33.9567],[-86.308,33.962],[-86.3022,33.9688],[-86.2962,33.977],[-86.29,33.9837],[-86.2822,33.9837],[-86.2778,33.9893],[-86.2744,33.9886],[-86.2713,33.9846],[-86.2714,33.9817],[-86.2684,33.9789],[-86.2679,33.9755],[-86.2636,33.9722],[-86.2563,33.9705],[-86.2517,33.9657],[-86.2467,33.9715],[-86.2395,33.9752],[-86.2302,33.9828],[-86.228,33.9821],[-86.2232,33.9835],[-86.2211,33.986],[-86.2123,33.9877],[-86.2067,33.9866],[-86.1988,33.9888],[-86.1973,33.9857],[-86.1898,33.9835],[-86.1899,33.9773],[-86.1927,33.9737],[-86.1886,33.9728],[-86.1873,33.9705],[-86.1847,33.9725],[-86.1793,33.9708],[-86.1757,33.9663],[-86.1681,33.9652],[-86.1663,33.9573],[-86.1671,33.9518],[-86.1652,33.9474],[-86.1676,33.9419],[-86.1649,33.9382],[-86.1671,33.9334],[-86.1667,33.9282],[-86.1598,33.9225],[-86.154,33.9204],[-86.1492,33.9206],[-86.1461,33.9171],[-86.1455,33.9132],[-86.1426,33.9076],[-86.1427,33.8994],[-86.1329,33.8969],[-86.1298,33.9025],[-86.1263,33.9027],[-86.1241,33.9003],[-86.1191,33.9001],[-86.1125,33.904],[-86.1087,33.9021],[-86.1082,33.8996],[-86.1105,33.894],[-86.1096,33.8873],[-86.1116,33.8865],[-86.1089,33.8812],[-86.1024,33.8769],[-86.1,33.8731],[-86.1007,33.8689],[-86.0974,33.8614],[-86.0901,33.8629],[-86.0804,33.8623],[-86.0731,33.8658],[-86.0681,33.8657],[-86.0629,33.8632],[-86.057,33.8578],[-86.0547,33.8505],[-86.0547,33.8458],[-86.0626,33.8435],[-86.0664,33.8411],[-86.0659,33.8379],[-86.0597,33.8359],[-86.056,33.8333],[-86.0517,33.8271],[-86.0514,33.8241],[-86.0534,33.8212],[-86.0613,33.8141],[-86.0649,33.8089],[-86.0644,33.7978],[-86.0583,33.7887],[-86.0543,33.7856],[-86.0487,33.7787],[-86.0449,33.7719],[-86.044,33.7636],[-86.0473,33.762],[-86.0535,33.7625],[-86.0626,33.7599],[-86.0706,33.7552],[-86.0762,33.7501],[-86.0816,33.743],[-86.0856,33.7407],[-86.0992,33.7364],[-86.1166,33.7238],[-86.1188,33.7203],[-86.1193,33.7134],[-86.1239,33.7108],[-86.1296,33.7121],[-86.133,33.7153],[-86.1374,33.7154],[-86.1437,33.7091],[-86.1462,33.7022],[-86.1441,33.6895],[-86.1442,33.6831],[-86.1472,33.6765],[-86.1517,33.6729],[-86.1551,33.6716],[-86.1629,33.6728],[-86.1692,33.6763],[-86.1709,33.6793],[-86.172,33.6896],[-86.1761,33.6961],[-86.1806,33.699],[-86.1866,33.6995],[-86.1937,33.6979],[-86.2006,33.6947],[-86.205,33.6895],[-86.2054,33.6838],[-86.2037,33.6797],[-86.2008,33.6768],[-86.1934,33.6728],[-86.1809,33.6673],[-86.1743,33.6623],[-86.1724,33.6598],[-86.1714,33.6532],[-86.1663,33.6408],[-86.1646,33.6343],[-86.1653,33.6302],[-86.1695,33.6192],[-86.1721,33.6163],[-86.1791,33.6145],[-86.1926,33.6146],[-86.1988,33.6128],[-86.2004,33.6074],[-86.1955,33.6031],[-86.1858,33.5987],[-86.1837,33.595],[-86.1867,33.5916],[-86.1941,33.5922],[-86.209,33.5944],[-86.2155,33.5939],[-86.2195,33.591],[-86.221,33.5872],[-86.2198,33.5828],[-86.213,33.5758],[-86.2114,33.5715],[-86.2126,33.565],[-86.2086,33.5599],[-86.2023,33.557],[-86.1955,33.5551],[-86.1927,33.5531],[-86.1898,33.5472],[-86.1905,33.5437],[-86.1959,33.5387],[-86.2069,33.5343],[-86.2211,33.5253],[-86.2266,33.5206],[-86.2312,33.5084],[-86.2304,33.4997],[-86.2353,33.4945],[-86.25,33.4902],[-86.2566,33.489],[-86.2619,33.4913],[-86.2656,33.4964],[-86.2655,33.5013],[-86.2628,33.5059],[-86.2629,33.5118],[-86.2666,33.5146],[-86.2741,33.5137],[-86.2809,33.5108],[-86.2863,33.5045],[-86.2878,33.4956],[-86.2863,33.4902],[-86.2873,33.4873],[-86.2948,33.4834],[-86.3006,33.4741],[-86.3033,33.4672],[-86.3031,33.4607],[-86.3085,33.4536],[-86.3142,33.4507],[-86.3231,33.4445],[-86.3257,33.4407],[-86.3293,33.4318],[-86.3371,33.424],[-86.344,33.413],[-86.3478,33.4097],[-86.3563,33.4073],[-86.3644,33.4062],[-86.3683,33.4014],[-86.375,33.3959],[-86.3787,33.391],[-86.3782,33.4183],[-86.3782,33.5024],[-86.4414,33.5023],[-86.4819,33.5025],[-86.4815,33.5461],[-86.5168,33.546],[-86.5167,33.5534],[-86.543,33.554],[-86.5431,33.5612],[-86.552,33.561],[-86.5514,33.6009],[-86.5513,33.62],[-86.5428,33.6198],[-86.5428,33.6344],[-86.5337,33.6344],[-86.5338,33.6489],[-86.5251,33.6487],[-86.5254,33.6636],[-86.5254,33.6993],[-86.5251,33.7212],[-86.5339,33.7213],[-86.5338,33.7355],[-86.5426,33.7356],[-86.5428,33.7652],[-86.5778,33.7653],[-86.5775,33.802],[-86.5218,33.8019],[-86.5127,33.8106],[-86.5061,33.8107],[-86.505,33.8086],[-86.4982,33.8128],[-86.4864,33.8134],[-86.4843,33.8158],[-86.4803,33.8152],[-86.4773,33.8176],[-86.4703,33.8208],[-86.4563,33.8231],[-86.4514,33.8229],[-86.445,33.8259],[-86.4431,33.8233],[-86.4377,33.82],[-86.4336,33.8208],[-86.4302,33.8195],[-86.4284,33.8229],[-86.4216,33.8264],[-86.406,33.8359],[-86.4035,33.8395],[-86.3985,33.842],[-86.3915,33.8494],[-86.3915,33.8527],[-86.381,33.8588],[-86.3703,33.8667],[-86.366,33.8729],[-86.3568,33.8759],[-86.3536,33.8792],[-86.3481,33.8809],[-86.3427,33.8865],[-86.3393,33.8948],[-86.3446,33.8973],[-86.348,33.9014],[-86.3495,33.907],[-86.3462,33.9156],[-86.3399,33.921],[-86.3355,33.9198],[-86.3318,33.923],[-86.3279,33.9296],[-86.3242,33.9295],[-86.3223,33.9322],[-86.3276,33.9373],[-86.3256,33.9401],[-86.3262,33.9428]]]}},{"type":"Feature","properties":{"id":"01127","name":"Walker Co."},"geometry":{"type":"Polygon","coordinates":[[[-86.963,33.8449],[-86.9543,33.8449],[-86.9536,33.8302],[-86.9537,33.8153],[-86.9537,33.8008],[-86.9712,33.8012],[-86.9709,33.7865],[-87.006,33.7872],[-87.0059,33.7726],[-87.0233,33.7727],[-87.0234,33.7436],[-87.0317,33.7437],[-87.0316,33.729],[-87.0406,33.729],[-87.0398,33.6854],[-87.0573,33.6855],[-87.0578,33.6564],[-87.0927,33.6569],[-87.0927,33.6279],[-87.1445,33.6282],[-87.1444,33.6134],[-87.1794,33.6138],[-87.1796,33.5993],[-87.1969,33.5993],[-87.1978,33.5893],[-87.2046,33.5788],[-87.2041,33.5725],[-87.1969,33.5624],[-87.1934,33.5599],[-87.1883,33.5582],[-87.1858,33.5559],[-87.1876,33.5515],[-87.1977,33.5502],[-87.2003,33.5489],[-87.21,33.5387],[-87.2139,33.5364],[-87.2194,33.5362],[-87.2326,33.5394],[-87.2358,33.5391],[-87.2392,33.5361],[-87.2396,33.5286],[-87.2434,33.5215],[-87.2495,33.5146],[-87.2561,33.5148],[-87.259,33.5178],[-87.2619,33.5261],[-87.2644,33.5291],[-87.2702,33.5303],[-87.2735,33.5274],[-87.2755,33.5208],[-87.2733,33.5167],[-87.2669,33.5129],[-87.3182,33.5142],[-87.3185,33.5874],[-87.371,33.5871],[-87.3711,33.6017],[-87.4056,33.6016],[-87.4237,33.6021],[-87.4238,33.6891],[-87.5,33.6916],[-87.5283,33.692],[-87.5293,33.723],[-87.5299,33.7617],[-87.5306,33.7912],[-87.5316,33.8676],[-87.5611,33.8687],[-87.5644,33.8686],[-87.636,33.872],[-87.636,33.9322],[-87.6361,34.0022],[-87.574,34.0005],[-87.5,33.9966],[-87.4794,33.9967],[-87.418,33.9956],[-87.3679,33.9958],[-87.2726,33.9946],[-87.2455,33.9946],[-87.2167,33.9939],[-87.2073,33.9891],[-87.2055,33.9861],[-87.1996,33.985],[-87.1972,33.9919],[-87.1896,34.003],[-87.1849,34.0037],[-87.1804,34.0027],[-87.1725,34.0053],[-87.1689,34.0051],[-87.1593,33.999],[-87.1561,33.998],[-87.1524,33.9941],[-87.1474,33.9906],[-87.1437,33.9864],[-87.1413,33.9811],[-87.1382,33.9776],[-87.1391,33.9716],[-87.1369,33.9666],[-87.1341,33.9651],[-87.1227,33.9643],[-87.1193,33.9618],[-87.1124,33.9595],[-87.1106,33.9565],[-87.1118,33.9508],[-87.1058,33.9447],[-87.1052,33.936],[-87.0928,33.9282],[-87.0856,33.9192],[-87.082,33.9064],[-87.0928,33.902],[-87.0983,33.9014],[-87.1006,33.898],[-87.0903,33.8925],[-87.0918,33.8901],[-87.0071,33.8889],[-87.0067,33.8666],[-87.0014,33.87],[-86.9963,33.8684],[-86.994,33.8609],[-86.9922,33.8596],[-86.9794,33.8592],[-86.9747,33.8605],[-86.9634,33.8582],[-86.963,33.8449]]]}},{"type":"Feature","properties":{"id":"01007","name":"Bibb Co."},"geometry":{"type":"Polygon","coordinates":[[[-87.0268,33.2465],[-87.026,33.2316],[-87.0257,33.2097],[-87.0214,33.2098],[-87.0213,33.1914],[-87.0256,33.1914],[-87.0256,33.1658],[-87.0038,33.1658],[-87.0039,33.162],[-86.9744,33.1617],[-86.9745,33.1582],[-86.9696,33.1581],[-86.9693,33.0984],[-86.9509,33.0986],[-86.9517,33.0787],[-86.934,33.0788],[-86.934,33.0641],[-86.9201,33.0643],[-86.92,33.061],[-86.9163,33.061],[-86.9162,33.0571],[-86.8986,33.0571],[-86.8985,33.0498],[-86.8812,33.0499],[-86.8769,33.0499],[-86.8764,33.0001],[-86.8761,32.8363],[-86.95,32.8377],[-86.9811,32.8373],[-87.0,32.8374],[-87.0192,32.837],[-87.1553,32.8353],[-87.172,32.8358],[-87.1968,32.8352],[-87.2237,32.8351],[-87.2333,32.8322],[-87.2496,32.8317],[-87.3192,32.8315],[-87.3195,32.8751],[-87.4212,32.8745],[-87.4206,32.8906],[-87.4212,32.9949],[-87.4219,33.0034],[-87.3185,33.0062],[-87.318,33.0227],[-87.3116,33.0939],[-87.2819,33.1331],[-87.2298,33.1312],[-87.1993,33.1307],[-87.1991,33.1826],[-87.1992,33.1966],[-87.1521,33.2325],[-87.1435,33.2325],[-87.1433,33.2362],[-87.1219,33.2358],[-87.1215,33.2217],[-87.1041,33.2215],[-87.0766,33.2468],[-87.0657,33.2469],[-87.0268,33.2465]]]}},{"type":"Feature","properties":{"id":"01021","name":"Chilton Co."},"geometry":{"type":"Polygon","coordinates":[[[-87.0,32.8374],[-86.9811,32.8373],[-86.95,32.8377],[-86.8761,32.8363],[-86.8764,33.0001],[-86.8769,33.0499],[-86.8812,33.0499],[-86.8816,33.0719],[-86.8635,33.0718],[-86.8249,33.0699],[-86.8248,33.0685],[-86.7963,33.069],[-86.7504,33.0693],[-86.6798,33.0695],[-86.6101,33.07],[-86.6091,33.0664],[-86.6149,33.0643],[-86.6182,33.0614],[-86.6185,33.0588],[-86.6164,33.0539],[-86.604,33.0551],[-86.6012,33.0534],[-86.6009,33.0501],[-86.5983,33.0462],[-86.5936,33.0436],[-86.5854,33.0407],[-86.5805,33.0346],[-86.5675,33.0274],[-86.5633,33.0195],[-86.5505,33.0188],[-86.5369,33.0244],[-86.523,33.0231],[-86.5173,33.0206],[-86.5223,33.0044],[-86.5205,33.0001],[-86.5124,32.9898],[-86.5106,32.9854],[-86.5106,32.9815],[-86.5122,32.9769],[-86.5166,32.9734],[-86.5182,32.9705],[-86.5172,32.9625],[-86.5152,32.9537],[-86.5162,32.9432],[-86.5141,32.9356],[-86.516,32.9294],[-86.5117,32.9223],[-86.5072,32.9177],[-86.5069,32.9146],[-86.504,32.9123],[-86.4984,32.9117],[-86.4935,32.9089],[-86.4905,32.9056],[-86.4887,32.8958],[-86.4826,32.8839],[-86.4802,32.8744],[-86.4749,32.8707],[-86.4582,32.8683],[-86.4515,32.8637],[-86.4469,32.854],[-86.4478,32.851],[-86.4544,32.8467],[-86.4574,32.8428],[-86.4607,32.8335],[-86.4587,32.8188],[-86.457,32.8139],[-86.445,32.8133],[-86.4413,32.8105],[-86.4447,32.807],[-86.4438,32.8045],[-86.4328,32.797],[-86.4272,32.7917],[-86.4188,32.791],[-86.4134,32.7882],[-86.4087,32.7767],[-86.4059,32.773],[-86.3994,32.7681],[-86.3967,32.7629],[-86.388,32.7575],[-86.375,32.7536],[-86.3712,32.7506],[-86.4133,32.7506],[-86.4131,32.7074],[-86.4396,32.7082],[-86.5247,32.7071],[-86.5547,32.7069],[-86.6206,32.7063],[-86.625,32.7064],[-86.7142,32.7057],[-86.7134,32.6617],[-86.7715,32.6607],[-86.8166,32.6601],[-86.9146,32.6644],[-87.0177,32.6633],[-87.0178,32.7295],[-87.0177,32.7501],[-87.0192,32.837],[-87.0,32.8374]]]}}]}