{"type":"FeatureCollection","features":[{"type":"Feature","properties":{"id":"55025","name":"Dane Co."},"geometry":{"type":"Polygon","coordinates":[[[-89.824,43.2205],[-89.8179,43.2249],[-89.813,43.2332],[-89.8054,43.2389],[-89.8021,43.2394],[-89.7828,43.2388],[-89.7742,43.2393],[-89.7707,43.2413],[-89.7622,43.2406],[-89.7544,43.243],[-89.7522,43.2473],[-89.7431,43.2478],[-89.7332,43.2513],[-89.7302,43.2539],[-89.7295,43.2569],[-89.7251,43.2601],[-89.724,43.2636],[-89.7267,43.2649],[-89.7227,43.267],[-89.7176,43.2726],[-89.7133,43.2821],[-89.7169,43.2894],[-89.7205,43.2931],[-89.6009,43.2931],[-89.4816,43.2941],[-89.4176,43.2942],[-89.3632,43.294],[-89.3631,43.2813],[-89.3445,43.2812],[-89.2554,43.2818],[-89.2362,43.2823],[-89.1568,43.2827],[-89.1272,43.2825],[-89.0491,43.2833],[-89.0091,43.2848],[-89.0088,43.1977],[-89.0096,43.1687],[-89.0115,43.1179],[-89.0121,43.1107],[-89.0113,43.0742],[-89.0126,43.0027],[-89.0125,43.0],[-89.0133,42.9201],[-89.0132,42.8728],[-89.0136,42.8476],[-89.0479,42.8476],[-89.132,42.8471],[-89.1816,42.8464],[-89.2503,42.8459],[-89.3042,42.8458],[-89.3497,42.8454],[-89.3691,42.845],[-89.3691,42.8565],[-89.3887,42.8562],[-89.4858,42.8564],[-89.5382,42.8566],[-89.6249,42.8575],[-89.7199,42.8577],[-89.7849,42.8573],[-89.8382,42.8574],[-89.838,42.8843],[-89.8382,42.9155],[-89.8386,42.9447],[-89.8385,42.9844],[-89.8383,43.0317],[-89.8382,43.0832],[-89.838,43.1186],[-89.8381,43.2061],[-89.824,43.2205]]]}},{"type":"Feature","properties":{"id":"55049","name":"Iowa Co."},"geometry":{"type":"Polygon","coordinates":[[[-89.838,43.1186],[-89.8382,43.0832],[-89.8383,43.0317],[-89.8385,42.9844],[-89.8386,42.9447],[-89.8382,42.9155],[-89.838,42.8843],[-89.8382,42.8574],[-89.8384,42.8138],[-89.8751,42.8133],[-89.9511,42.8134],[-90.0105,42.814],[-90.0352,42.8137],[-90.0511,42.814],[-90.0908,42.8139],[-90.1177,42.8142],[-90.1962,42.8148],[-90.2496,42.8147],[-90.3751,42.8133],[-90.4269,42.8129],[-90.4274,42.8464],[-90.4274,42.8927],[-90.4284,42.9515],[-90.4286,42.977],[-90.4284,43.0025],[-90.4286,43.0314],[-90.4299,43.1183],[-90.4295,43.176],[-90.4298,43.2009],[-90.4204,43.2018],[-90.4098,43.2001],[-90.3942,43.2031],[-90.3871,43.2033],[-90.3709,43.2065],[-90.356,43.2084],[-90.3527,43.2096],[-90.3355,43.2097],[-90.3216,43.2072],[-90.3109,43.2066],[-90.2998,43.2083],[-90.2925,43.2069],[-90.286,43.201],[-90.2846,43.1962],[-90.2784,43.1941],[-90.269,43.1968],[-90.2607,43.1978],[-90.2553,43.1953],[-90.2515,43.1924],[-90.242,43.1892],[-90.2262,43.1773],[-90.2184,43.1732],[-90.2129,43.172],[-90.2074,43.1692],[-90.199,43.1669],[-90.1873,43.1619],[-90.1833,43.1571],[-90.1786,43.1579],[-90.1658,43.1648],[-90.159,43.1668],[-90.1492,43.1667],[-90.1351,43.1657],[-90.1228,43.1618],[-90.1133,43.1604],[-90.0982,43.1603],[-90.0879,43.1624],[-90.0824,43.1611],[-90.0754,43.1548],[-90.0696,43.1519],[-90.0621,43.146],[-90.0587,43.1453],[-90.0534,43.1467],[-90.0518,43.1493],[-90.0526,43.1544],[-90.0489,43.1597],[-90.0498,43.165],[-90.0486,43.1669],[-90.0355,43.1725],[-90.0293,43.1775],[-90.0249,43.1833],[-90.0075,43.1916],[-90.0001,43.1946],[-89.9899,43.1957],[-89.9827,43.1956],[-89.9772,43.1939],[-89.9662,43.1924],[-89.9597,43.1922],[-89.9498,43.1934],[-89.9405,43.1916],[-89.9316,43.1912],[-89.9218,43.1891],[-89.9039,43.1881],[-89.8937,43.1904],[-89.8823,43.1953],[-89.8764,43.1965],[-89.8701,43.1962],[-89.8661,43.1947],[-89.8589,43.1956],[-89.842,43.2025],[-89.8381,43.2061],[-89.838,43.1186]]]}},{"type":"Feature","properties":{"id":"55021","name":"Columbia Co."},"geometry":{"type":"Polygon","coordinates":[[[-89.727,43.3003],[-89.7236,43.3145],[-89.7197,43.3197],[-89.707,43.3274],[-89.7038,43.3303],[-89.6964,43.3422],[-89.6851,43.3548],[-89.6776,43.3612],[-89.6703,43.3618],[-89.6623,43.36],[-89.6558,43.3598],[-89.6488,43.361],[-89.627,43.3667],[-89.6122,43.3731],[-89.6007,43.3807],[-89.6009,43.4349],[-89.6004,43.5059],[-89.5994,43.5579],[-89.6058,43.5626],[-89.6123,43.5649],[-89.6177,43.5654],[-89.6334,43.5632],[-89.6422,43.5632],[-89.6564,43.5659],[-89.6623,43.5686],[-89.6732,43.5694],[-89.6881,43.5664],[-89.6941,43.5659],[-89.7072,43.5668],[-89.7278,43.5695],[-89.7322,43.5718],[-89.7347,43.5775],[-89.733,43.581],[-89.7235,43.588],[-89.7179,43.5952],[-89.7184,43.5985],[-89.7228,43.5999],[-89.7299,43.5986],[-89.7403,43.5982],[-89.7485,43.6021],[-89.7527,43.6057],[-89.7562,43.606],[-89.7589,43.6038],[-89.7633,43.6039],[-89.7683,43.6071],[-89.7697,43.61],[-89.7754,43.6138],[-89.773,43.619],[-89.7749,43.6216],[-89.7824,43.6256],[-89.7761,43.6302],[-89.7858,43.641],[-89.7187,43.6432],[-89.6597,43.6428],[-89.585,43.6426],[-89.561,43.6429],[-89.5606,43.6426],[-89.5034,43.6426],[-89.4993,43.6425],[-89.3849,43.6427],[-89.3409,43.6423],[-89.3278,43.6428],[-89.2263,43.6432],[-89.1689,43.6433],[-89.1269,43.6437],[-89.1272,43.6317],[-89.0927,43.6319],[-89.0368,43.633],[-89.0068,43.633],[-89.0072,43.5565],[-89.0062,43.4957],[-89.0061,43.4588],[-89.0051,43.4036],[-89.0045,43.375],[-89.0047,43.3717],[-89.0088,43.3715],[-89.0095,43.3235],[-89.0091,43.2848],[-89.0491,43.2833],[-89.1272,43.2825],[-89.1568,43.2827],[-89.2362,43.2823],[-89.2554,43.2818],[-89.3445,43.2812],[-89.3631,43.2813],[-89.3632,43.294],[-89.4176,43.2942],[-89.4816,43.2941],[-89.6009,43.2931],[-89.7205,43.2931],[-89.727,43.3003]]]}},{"type":"Feature","properties":{"id":"55045","name":"Green Co."},"geometry":{"type":"Polygon","coordinates":[[[-89.8382,42.8574],[-89.7849,42.8573],[-89.7199,42.8577],[-89.6249,42.8575],[-89.5382,42.8566],[-89.4858,42.8564],[-89.3887,42.8562],[-89.3691,42.8565],[-89.3691,42.845],[-89.3691,42.7702],[-89.3676,42.6836],[-89.3671,42.6407],[-89.3658,42.5003],[-89.4014,42.5004],[-89.5225,42.5019],[-89.5644,42.5026],[-89.6134,42.5039],[-89.6676,42.505],[-89.7424,42.5054],[-89.7696,42.5053],[-89.8376,42.5055],[-89.8376,42.6154],[-89.8378,42.618],[-89.8372,42.6832],[-89.8381,42.7557],[-89.8386,42.7703],[-89.8384,42.8138],[-89.8382,42.8574]]]}}]}