{"type":"FeatureCollection","features":[{"type":"Feature","properties":{"id":"12009","name":"Brevard Co."},"geometry":{"type":"Polygon","coordinates":[[[-80.9742,28.6127],[-80.9645,28.613],[-80.9646,28.6143],[-80.9679,28.7902],[-80.8808,28.7911],[-80.8059,28.7912],[-80.7329,28.7912],[-80.7097,28.7567],[-80.6473,28.6779],[-80.6434,28.6736],[-80.6168,28.6346],[-80.5953,28.6095],[-80.5839,28.5977],[-80.5742,28.5853],[-80.5703,28.5737],[-80.5674,28.5624],[-80.5641,28.5431],[-80.561,28.5307],[-80.5542,28.5138],[-80.5457,28.4988],[-80.5361,28.4786],[-80.5251,28.4595],[-80.5252,28.455],[-80.529,28.4497],[-80.5359,28.447],[-80.5392,28.4469],[-80.5576,28.4391],[-80.5638,28.4358],[-80.5781,28.4231],[-80.5827,28.4169],[-80.5847,28.4118],[-80.589,28.4079],[-80.5941,28.3953],[-80.5975,28.3855],[-80.602,28.368],[-80.6043,28.3548],[-80.6062,28.339],[-80.6068,28.3271],[-80.6068,28.2964],[-80.6034,28.2559],[-80.6033,28.2526],[-80.5982,28.2219],[-80.5942,28.1959],[-80.59,28.178],[-80.572,28.1116],[-80.5634,28.086],[-80.5579,28.0718],[-80.5477,28.0488],[-80.531,28.0137],[-80.514,27.9809],[-80.5089,27.9705],[-80.4928,27.9405],[-80.467,27.8965],[-80.4578,27.8799],[-80.447,27.862],[-80.4471,27.8608],[-80.4549,27.8546],[-80.4911,27.8546],[-80.4944,27.8519],[-80.4944,27.8459],[-80.4969,27.8384],[-80.5053,27.8288],[-80.5073,27.828],[-80.5091,27.8221],[-80.6071,27.8224],[-80.7416,27.823],[-80.7701,27.8237],[-80.8275,27.8229],[-80.8689,27.8225],[-80.8696,27.9479],[-80.8696,27.9779],[-80.87,27.9826],[-80.8695,28.0485],[-80.8701,28.0571],[-80.8693,28.0651],[-80.8693,28.0847],[-80.8629,28.0847],[-80.8616,28.2466],[-80.8628,28.3472],[-80.8687,28.3525],[-80.8739,28.3616],[-80.8728,28.3696],[-80.8753,28.3732],[-80.8793,28.3724],[-80.8796,28.3804],[-80.8814,28.3806],[-80.8855,28.3848],[-80.8884,28.3855],[-80.8878,28.388],[-80.8896,28.3931],[-80.8847,28.3959],[-80.8867,28.4],[-80.8864,28.4038],[-80.883,28.4082],[-80.8879,28.4128],[-80.8882,28.4158],[-80.8924,28.4185],[-80.8965,28.4187],[-80.8955,28.4207],[-80.8994,28.4335],[-80.8955,28.4363],[-80.8939,28.4439],[-80.8902,28.4453],[-80.892,28.4491],[-80.8957,28.4512],[-80.8983,28.4551],[-80.8941,28.458],[-80.8958,28.4632],[-80.8933,28.4634],[-80.8944,28.4671],[-80.8908,28.4684],[-80.8896,28.4666],[-80.8867,28.4696],[-80.8817,28.4704],[-80.8808,28.4683],[-80.8758,28.4708],[-80.8751,28.4688],[-80.8709,28.4717],[-80.8742,28.4763],[-80.8734,28.4822],[-80.8756,28.4858],[-80.878,28.4864],[-80.8753,28.4887],[-80.8826,28.4915],[-80.8841,28.4949],[-80.8799,28.4976],[-80.8813,28.504],[-80.8833,28.5043],[-80.8857,28.5103],[-80.8903,28.5118],[-80.8986,28.5097],[-80.8999,28.5114],[-80.9046,28.5105],[-80.9071,28.5138],[-80.9054,28.5166],[-80.908,28.5181],[-80.907,28.5204],[-80.9125,28.5226],[-80.9114,28.5246],[-80.9163,28.5228],[-80.9206,28.5252],[-80.9211,28.5288],[-80.9234,28.5327],[-80.9287,28.5329],[-80.9318,28.5354],[-80.9337,28.5334],[-80.9358,28.5366],[-80.9395,28.5353],[-80.939,28.542],[-80.9331,28.5411],[-80.9342,28.5448],[-80.9326,28.5516],[-80.9338,28.555],[-80.9317,28.5559],[-80.9341,28.5593],[-80.9316,28.5599],[-80.93,28.5632],[-80.932,28.5647],[-80.9363,28.5714],[-80.9403,28.5743],[-80.9404,28.5781],[-80.9442,28.58],[-80.9447,28.5838],[-80.9471,28.585],[-80.9439,28.5905],[-80.9433,28.5937],[-80.9466,28.5972],[-80.9531,28.6011],[-80.9522,28.6042],[-80.9565,28.6038],[-80.957,28.6019],[-80.9615,28.6055],[-80.9652,28.6044],[-80.9695,28.6052],[-80.971,28.6112],[-80.9731,28.6113],[-80.9756,28.6078],[-80.9837,28.6102],[-80.9872,28.613],[-80.9742,28.6127]]]}}]}