{"type":"FeatureCollection","features":[{"type":"Feature","properties":{"zcta":"32780","d":307},"geometry":{"type":"Polygon","coordinates":[[[-80.90251,28.54371],[-80.89994,28.54404],[-80.89648,28.54571],[-80.89133,28.55002],[-80.88715,28.55089],[-80.85524,28.55069],[-80.8552,28.55373],[-80.85172,28.5561],[-80.85154,28.58338],[-80.85154,28.58558],[-80.84701,28.58556],[-80.8469,28.59155],[-80.84461,28.59589],[-80.8308,28.60651],[-80.8261,28.60785],[-80.8241,28.60767],[-80.80674,28.60803],[-80.80678,28.60396],[-80.80563,28.60083],[-80.7923,28.60073],[-80.78978,28.59158],[-80.77352,28.55363],[-80.76286,28.53675],[-80.75901,28.52755],[-80.73858,28.52716],[-80.72865,28.52757],[-80.72971,28.53008],[-80.7278,28.5343],[-80.72808,28.53822],[-80.7271,28.53957],[-80.72756,28.54297],[-80.72635,28.54425],[-80.72674,28.54643],[-80.72542,28.54768],[-80.7256,28.5503],[-80.7226,28.55292],[-80.71993,28.55672],[-80.71874,28.56057],[-80.71535,28.56059],[-80.71634,28.56562],[-80.71505,28.56797],[-80.71308,28.56786],[-80.71215,28.57047],[-80.71196,28.57452],[-80.71014,28.57705],[-80.71015,28.5797],[-80.71312,28.58278],[-80.71167,28.58463],[-80.70833,28.58546],[-80.71019,28.58716],[-80.71256,28.587],[-80.71693,28.58932],[-80.72328,28.59035],[-80.72157,28.58546],[-80.71993,28.58643],[-80.72064,28.5838],[-80.72365,28.58888],[-80.72675,28.60074],[-80.72657,28.60502],[-80.7288,28.60817],[-80.72838,28.61087],[-80.72856,28.62469],[-80.72755,28.62583],[-80.72398,28.62422],[-80.72388,28.62222],[-80.72091,28.61753],[-80.72025,28.61319],[-80.71792,28.61206],[-80.71302,28.61299],[-80.71255,28.61499],[-80.71249,28.62904],[-80.71279,28.6436],[-80.69683,28.64351],[-80.69208,28.6364],[-80.66969,28.60133],[-80.66004,28.59128],[-80.65655,28.58603],[-80.65572,28.58382],[-80.65547,28.56091],[-80.65563,28.55973],[-80.66405,28.52618],[-80.6641,28.52599],[-80.69291,28.52594],[-80.69273,28.5211],[-80.69574,28.52152],[-80.69819,28.51387],[-80.69955,28.50722],[-80.70099,28.50744],[-80.72464,28.50787],[-80.72454,28.5154],[-80.75781,28.51555],[-80.75758,28.49118],[-80.7838,28.49082],[-80.7849,28.49385],[-80.78579,28.50113],[-80.78506,28.50827],[-80.78605,28.51246],[-80.7874,28.51244],[-80.78736,28.51012],[-80.79155,28.50961],[-80.79163,28.50679],[-80.79441,28.505],[-80.79504,28.50184],[-80.79847,28.50184],[-80.79871,28.50534],[-80.80524,28.50572],[-80.80541,28.5082],[-80.8081,28.51249],[-80.81392,28.51206],[-80.81319,28.50736],[-80.80462,28.49434],[-80.81219,28.49368],[-80.82052,28.49362],[-80.82878,28.49406],[-80.83261,28.49386],[-80.83876,28.50149],[-80.87082,28.45437],[-80.87473,28.45211],[-80.87897,28.45232],[-80.88357,28.45283],[-80.89723,28.45285],[-80.89835,28.45508],[-80.89757,28.45776],[-80.89646,28.4567],[-80.8941,28.45802],[-80.89584,28.4632],[-80.8933,28.46341],[-80.89452,28.46704],[-80.89081,28.46838],[-80.88957,28.4666],[-80.88666,28.46961],[-80.88475,28.46872],[-80.88168,28.47038],[-80.88083,28.46833],[-80.87581,28.47081],[-80.87514,28.46884],[-80.87266,28.47116],[-80.8708,28.47136],[-80.87419,28.47635],[-80.87315,28.47855],[-80.8734,28.48223],[-80.87519,28.48339],[-80.87584,28.48603],[-80.87796,28.48645],[-80.87527,28.4887],[-80.87587,28.49007],[-80.87795,28.48977],[-80.88259,28.49149],[-80.88408,28.49487],[-80.88335,28.49616],[-80.87991,28.4976],[-80.88015,28.50117],[-80.88132,28.50398],[-80.88331,28.50429],[-80.88574,28.51031],[-80.89033,28.51185],[-80.89354,28.51172],[-80.89488,28.50998],[-80.89865,28.50969],[-80.89994,28.51144],[-80.90405,28.51048],[-80.90663,28.51161],[-80.90713,28.51378],[-80.90544,28.51658],[-80.90797,28.5181],[-80.90703,28.52036],[-80.90989,28.52185],[-80.91199,28.52162],[-80.91141,28.52457],[-80.91631,28.52277],[-80.92064,28.5252],[-80.92107,28.52881],[-80.92338,28.53273],[-80.92871,28.53291],[-80.93182,28.53539],[-80.93365,28.53335],[-80.93548,28.53475],[-80.93577,28.53658],[-80.93772,28.53474],[-80.93931,28.53502],[-80.93897,28.54202],[-80.93543,28.54157],[-80.9342,28.54049],[-80.93257,28.54151],[-80.93293,28.54379],[-80.90251,28.54371]]]}},{"type":"Feature","properties":{"zcta":"32909","d":483},"geometry":{"type":"Polygon","coordinates":[[[-80.68848,27.91029],[-80.67179,27.91026],[-80.67191,27.91146],[-80.67187,27.97009],[-80.67168,27.9971],[-80.67184,27.99903],[-80.65715,27.99872],[-80.65711,27.99637],[-80.65528,27.99636],[-80.65528,27.99869],[-80.64854,27.99878],[-80.63455,27.99852],[-80.63431,27.99595],[-80.62887,27.99521],[-80.6267,27.99136],[-80.62218,27.99126],[-80.6219,27.99729],[-80.614,27.99833],[-80.61433,27.99106],[-80.61615,27.99117],[-80.61619,27.98748],[-80.61825,27.98751],[-80.6183,27.98391],[-80.62027,27.98395],[-80.622,27.98638],[-80.62245,27.97919],[-80.62255,27.96946],[-80.6139,27.96929],[-80.60986,27.95359],[-80.60956,27.95359],[-80.6037,27.93071],[-80.59287,27.88857],[-80.59132,27.88148],[-80.59146,27.87368],[-80.62235,27.87405],[-80.62271,27.87392],[-80.62314,27.84496],[-80.65177,27.84548],[-80.65207,27.83589],[-80.65753,27.83593],[-80.65781,27.82458],[-80.65706,27.82415],[-80.70725,27.82421],[-80.70822,27.82519],[-80.70802,27.84292],[-80.71218,27.8433],[-80.7121,27.85203],[-80.70738,27.8593],[-80.70729,27.86603],[-80.7084,27.86732],[-80.7219,27.86749],[-80.72166,27.88574],[-80.72582,27.88586],[-80.72565,27.89304],[-80.72151,27.893],[-80.72078,27.91057],[-80.68848,27.91029]]]}},{"type":"Feature","properties":{"zcta":"32949","d":97},"geometry":{"type":"Polygon","coordinates":[[[-80.59343,27.93081],[-80.59339,27.93174],[-80.58396,27.93172],[-80.58401,27.94637],[-80.55744,27.94664],[-80.54108,27.9486],[-80.53673,27.94852],[-80.54201,27.95955],[-80.54537,27.96382],[-80.53216,27.96356],[-80.51502,27.93029],[-80.49766,27.89497],[-80.49847,27.89498],[-80.51388,27.89516],[-80.51392,27.89156],[-80.51702,27.89161],[-80.51699,27.8952],[-80.53363,27.89537],[-80.53359,27.8918],[-80.53959,27.89173],[-80.54074,27.89538],[-80.55782,27.89547],[-80.57421,27.89534],[-80.58225,27.89558],[-80.58243,27.8884],[-80.59287,27.88857],[-80.6037,27.93071],[-80.59343,27.93081]]]}},{"type":"Feature","properties":{"zcta":"32922","d":1204},"geometry":{"type":"Polygon","coordinates":[[[-80.72638,28.37588],[-80.7182,28.35633],[-80.71538,28.34948],[-80.75496,28.34927],[-80.75502,28.35663],[-80.75811,28.35659],[-80.75809,28.35896],[-80.75554,28.36028],[-80.76161,28.36019],[-80.76383,28.37095],[-80.76847,28.37114],[-80.76902,28.37294],[-80.77148,28.37292],[-80.7715,28.38211],[-80.76493,28.38214],[-80.76118,28.38134],[-80.7613,28.37882],[-80.75513,28.37892],[-80.75523,28.3999],[-80.73468,28.40255],[-80.72638,28.37588]]]}},{"type":"Feature","properties":{"zcta":"32925","d":187},"geometry":{"type":"Polygon","coordinates":[[[-80.60477,28.27199],[-80.60342,28.25591],[-80.60334,28.25256],[-80.59815,28.22188],[-80.59674,28.21264],[-80.59782,28.21279],[-80.61789,28.21267],[-80.63364,28.20923],[-80.63442,28.21252],[-80.64717,28.24589],[-80.64897,28.27179],[-80.60477,28.27199]]]}},{"type":"Feature","properties":{"zcta":"32908","d":431},"geometry":{"type":"Polygon","coordinates":[[[-80.68826,27.99903],[-80.68828,27.99532],[-80.68468,27.99534],[-80.68469,27.99883],[-80.67998,27.99886],[-80.67998,27.99529],[-80.67202,27.9954],[-80.6727,27.99904],[-80.67184,27.99903],[-80.67168,27.9971],[-80.67187,27.97009],[-80.67191,27.91146],[-80.67179,27.91026],[-80.68848,27.91029],[-80.72078,27.91057],[-80.72071,27.9378],[-80.72102,27.94262],[-80.72102,27.96562],[-80.72059,27.96567],[-80.72055,27.97675],[-80.7291,27.97674],[-80.72909,27.97951],[-80.73333,27.97951],[-80.73331,27.98413],[-80.73722,27.98413],[-80.7372,27.99154],[-80.72899,27.99154],[-80.72895,27.99896],[-80.68826,27.99903]]]}},{"type":"Feature","properties":{"zcta":"32901","d":915},"geometry":{"type":"Polygon","coordinates":[[[-80.65458,28.10697],[-80.6546,28.11004],[-80.6465,28.10984],[-80.63673,28.11048],[-80.63409,28.11206],[-80.62911,28.10714],[-80.60398,28.10709],[-80.59154,28.08397],[-80.58938,28.07649],[-80.58188,28.0637],[-80.59853,28.0638],[-80.59477,28.05649],[-80.6049,28.05662],[-80.60522,28.04209],[-80.62369,28.04235],[-80.62383,28.0351],[-80.6278,28.03513],[-80.62773,28.03875],[-80.63812,28.03895],[-80.63821,28.04972],[-80.63799,28.06472],[-80.63698,28.0647],[-80.63586,28.06781],[-80.63795,28.0715],[-80.63796,28.0824],[-80.64937,28.08418],[-80.64969,28.08546],[-80.65457,28.0855],[-80.65474,28.09706],[-80.65566,28.0979],[-80.67134,28.09783],[-80.67145,28.10709],[-80.65458,28.10697]],[[-80.63827,28.08452],[-80.63976,28.08444],[-80.63831,28.08287],[-80.63827,28.08452]]]}},{"type":"Feature","properties":{"zcta":"32934","d":395},"geometry":{"type":"Polygon","coordinates":[[[-80.73963,28.17181],[-80.73649,28.17116],[-80.72475,28.17158],[-80.70575,28.17181],[-80.70592,28.18604],[-80.70431,28.18633],[-80.67204,28.18665],[-80.67202,28.18471],[-80.67212,28.17722],[-80.67463,28.17721],[-80.67458,28.17202],[-80.67197,28.17206],[-80.67193,28.16836],[-80.67298,28.16769],[-80.67299,28.16477],[-80.67198,28.16476],[-80.67192,28.15958],[-80.67306,28.15757],[-80.677,28.15755],[-80.67694,28.15554],[-80.67901,28.15552],[-80.67898,28.15332],[-80.67189,28.15356],[-80.67179,28.14673],[-80.67288,28.14671],[-80.67282,28.14334],[-80.67174,28.14335],[-80.67179,28.13131],[-80.67421,28.13092],[-80.67371,28.12857],[-80.68259,28.12823],[-80.68803,28.12635],[-80.69223,28.12229],[-80.69388,28.12143],[-80.6758,28.12138],[-80.67581,28.11864],[-80.67352,28.11885],[-80.67373,28.11658],[-80.67565,28.11651],[-80.67461,28.11409],[-80.67456,28.11047],[-80.6766,28.10801],[-80.67972,28.10785],[-80.67973,28.10668],[-80.68778,28.10636],[-80.68904,28.10747],[-80.69491,28.10753],[-80.69491,28.10633],[-80.69741,28.10608],[-80.70022,28.10744],[-80.70022,28.10078],[-80.70433,28.10073],[-80.70425,28.09898],[-80.7124,28.09887],[-80.71235,28.09199],[-80.72058,28.09194],[-80.7205,28.08509],[-80.72102,28.07882],[-80.7372,28.07879],[-80.74172,28.07958],[-80.74487,28.08084],[-80.75143,28.08498],[-80.75126,28.08844],[-80.74986,28.09085],[-80.74887,28.09865],[-80.74635,28.10377],[-80.74957,28.10572],[-80.74688,28.10931],[-80.74772,28.11376],[-80.7452,28.11851],[-80.74665,28.11869],[-80.74657,28.12135],[-80.74831,28.12319],[-80.74517,28.12436],[-80.74386,28.15121],[-80.74474,28.15544],[-80.74353,28.15993],[-80.74437,28.16401],[-80.7445,28.17158],[-80.73963,28.17181]]]}},{"type":"Feature","properties":{"zcta":"32926","d":228},"geometry":{"type":"Polygon","coordinates":[[[-80.88357,28.45283],[-80.87897,28.45232],[-80.87467,28.45075],[-80.86956,28.44681],[-80.85342,28.42904],[-80.8534,28.43149],[-80.82048,28.43181],[-80.78827,28.4319],[-80.78842,28.44393],[-80.78978,28.44606],[-80.78795,28.44663],[-80.78793,28.44208],[-80.7796,28.44214],[-80.77958,28.44307],[-80.77133,28.44308],[-80.77119,28.43714],[-80.77193,28.43281],[-80.77118,28.43208],[-80.7665,28.43224],[-80.76863,28.43761],[-80.76548,28.43757],[-80.76445,28.43304],[-80.76268,28.43225],[-80.75581,28.43217],[-80.74505,28.4328],[-80.74318,28.43487],[-80.73468,28.40255],[-80.75523,28.3999],[-80.75513,28.37892],[-80.7613,28.37882],[-80.76118,28.38134],[-80.76493,28.38214],[-80.7715,28.38211],[-80.77148,28.37292],[-80.76902,28.37294],[-80.76847,28.37114],[-80.76383,28.37095],[-80.76161,28.36019],[-80.75554,28.36028],[-80.75809,28.35896],[-80.75811,28.35659],[-80.75502,28.35663],[-80.75496,28.34927],[-80.75496,28.34548],[-80.76475,28.34548],[-80.76326,28.34313],[-80.76336,28.33048],[-80.76743,28.33077],[-80.76741,28.3346],[-80.7715,28.3347],[-80.77146,28.33058],[-80.77474,28.32976],[-80.77409,28.32835],[-80.77714,28.32797],[-80.78223,28.32631],[-80.78827,28.32747],[-80.79011,28.32729],[-80.79497,28.33006],[-80.81466,28.33116],[-80.82452,28.3331],[-80.83689,28.33928],[-80.84739,28.34569],[-80.86281,28.34722],[-80.86865,28.35247],[-80.87179,28.35723],[-80.87391,28.36158],[-80.8738,28.36421],[-80.87254,28.36684],[-80.87279,28.36961],[-80.87531,28.37321],[-80.87929,28.3724],[-80.88008,28.37492],[-80.88186,28.37548],[-80.87978,28.37681],[-80.8796,28.38042],[-80.88144,28.38062],[-80.88554,28.38477],[-80.88839,28.38547],[-80.88785,28.38801],[-80.88956,28.39309],[-80.88708,28.39463],[-80.88688,28.39645],[-80.88473,28.39589],[-80.88467,28.39843],[-80.88667,28.40004],[-80.8855,28.4024],[-80.8864,28.40381],[-80.88503,28.40629],[-80.8832,28.40645],[-80.88299,28.40816],[-80.88475,28.40867],[-80.88502,28.41085],[-80.88791,28.41285],[-80.88824,28.41582],[-80.89107,28.41619],[-80.89236,28.4185],[-80.89654,28.41875],[-80.89555,28.42069],[-80.89706,28.42641],[-80.89689,28.42815],[-80.89833,28.43175],[-80.90012,28.43149],[-80.90118,28.43316],[-80.89935,28.43352],[-80.89549,28.43633],[-80.89401,28.44103],[-80.89387,28.4439],[-80.89017,28.44529],[-80.89195,28.44911],[-80.89572,28.45116],[-80.89723,28.45285],[-80.88357,28.45283]]]}},{"type":"Feature","properties":{"zcta":"32931","d":1413},"geometry":{"type":"Polygon","coordinates":[[[-80.6114,28.37066],[-80.60563,28.37046],[-80.6056,28.37893],[-80.59911,28.37931],[-80.60202,28.36803],[-80.60428,28.35485],[-80.6062,28.33901],[-80.60679,28.32706],[-80.60668,28.31451],[-80.60682,28.2964],[-80.60477,28.27199],[-80.64897,28.27179],[-80.65047,28.28889],[-80.65057,28.29815],[-80.64978,28.32739],[-80.64799,28.35756],[-80.64897,28.37048],[-80.6114,28.37066]]]}},{"type":"Feature","properties":{"zcta":"32903","d":1932},"geometry":{"type":"Polygon","coordinates":[[[-80.60107,28.13729],[-80.60069,28.1365],[-80.59291,28.13662],[-80.5902,28.13726],[-80.58898,28.13557],[-80.58901,28.13825],[-80.58509,28.13774],[-80.58497,28.13602],[-80.58038,28.13593],[-80.58099,28.13849],[-80.57932,28.13863],[-80.57199,28.11159],[-80.567,28.09626],[-80.56025,28.078],[-80.57273,28.07826],[-80.57225,28.07653],[-80.58938,28.07649],[-80.59154,28.08397],[-80.60398,28.10709],[-80.61217,28.1226],[-80.61337,28.13377],[-80.60107,28.13729]]]}},{"type":"Feature","properties":{"zcta":"32905","d":1316},"geometry":{"type":"Polygon","coordinates":[[[-80.63819,28.03519],[-80.63812,28.03895],[-80.62773,28.03875],[-80.6278,28.03513],[-80.62383,28.0351],[-80.62369,28.04235],[-80.60522,28.04209],[-80.6049,28.05662],[-80.59477,28.05649],[-80.59853,28.0638],[-80.58188,28.0637],[-80.57259,28.04827],[-80.57028,28.0439],[-80.55487,28.01716],[-80.55279,28.01246],[-80.57024,28.01233],[-80.60155,28.01279],[-80.60327,28.01274],[-80.64086,28.01337],[-80.65649,28.03535],[-80.63819,28.03519]]]}},{"type":"Feature","properties":{"zcta":"32940","d":199},"geometry":{"type":"Polygon","coordinates":[[[-80.85421,28.2467],[-80.84742,28.24613],[-80.8451,28.24391],[-80.84177,28.2473],[-80.81624,28.24699],[-80.80405,28.24899],[-80.80408,28.25731],[-80.80049,28.25863],[-80.7546,28.25851],[-80.75459,28.26131],[-80.75039,28.26138],[-80.74772,28.26241],[-80.7433,28.26541],[-80.7397,28.26659],[-80.73659,28.26679],[-80.72278,28.2663],[-80.71808,28.26541],[-80.70389,28.26493],[-80.698,28.26259],[-80.69278,28.26229],[-80.68841,28.26145],[-80.67227,28.21921],[-80.66885,28.21924],[-80.67294,28.22949],[-80.67078,28.2301],[-80.67161,28.22759],[-80.67096,28.22552],[-80.66838,28.22328],[-80.66843,28.22194],[-80.66613,28.22006],[-80.66668,28.21705],[-80.66473,28.21632],[-80.66498,28.21429],[-80.66282,28.21139],[-80.66325,28.20957],[-80.66088,28.20603],[-80.65675,28.20554],[-80.65123,28.20632],[-80.65115,28.20615],[-80.65809,28.20488],[-80.66028,28.20281],[-80.65972,28.19829],[-80.65664,28.18997],[-80.66128,28.19042],[-80.65858,28.18377],[-80.65681,28.18104],[-80.6592,28.18101],[-80.66134,28.18483],[-80.67202,28.18471],[-80.67204,28.18665],[-80.70431,28.18633],[-80.70592,28.18604],[-80.70575,28.17181],[-80.72475,28.17158],[-80.73649,28.17116],[-80.73963,28.17181],[-80.7445,28.17158],[-80.74806,28.17176],[-80.753,28.17048],[-80.75645,28.16823],[-80.76438,28.16621],[-80.77071,28.16635],[-80.77357,28.1681],[-80.77476,28.16988],[-80.78101,28.17036],[-80.78177,28.17259],[-80.78672,28.17483],[-80.78832,28.17652],[-80.79659,28.17724],[-80.79899,28.1778],[-80.80075,28.18019],[-80.80356,28.18177],[-80.80442,28.18091],[-80.80789,28.18322],[-80.80962,28.186],[-80.81244,28.18859],[-80.81239,28.18957],[-80.81719,28.19565],[-80.81942,28.1958],[-80.8232,28.19766],[-80.82712,28.19877],[-80.83006,28.20133],[-80.83065,28.20375],[-80.83229,28.20529],[-80.83731,28.20756],[-80.84824,28.20942],[-80.85158,28.21366],[-80.85538,28.21612],[-80.85812,28.21971],[-80.85811,28.22089],[-80.85541,28.22621],[-80.8598,28.2326],[-80.86019,28.2392],[-80.86164,28.23867],[-80.86158,28.24656],[-80.85421,28.2467]]]}},{"type":"Feature","properties":{"zcta":"32950","d":136},"geometry":{"type":"Polygon","coordinates":[[[-80.60986,27.99835],[-80.6098,28.00194],[-80.60166,28.00184],[-80.60155,28.01279],[-80.57024,28.01233],[-80.55279,28.01246],[-80.54005,27.99089],[-80.53479,27.96863],[-80.53216,27.96356],[-80.54537,27.96382],[-80.54201,27.95955],[-80.53673,27.94852],[-80.54108,27.9486],[-80.55744,27.94664],[-80.58401,27.94637],[-80.58396,27.93172],[-80.59339,27.93174],[-80.59343,27.93081],[-80.6037,27.93071],[-80.60956,27.95359],[-80.60986,27.95359],[-80.6139,27.96929],[-80.62255,27.96946],[-80.62245,27.97919],[-80.622,27.98638],[-80.62027,27.98395],[-80.6183,27.98391],[-80.61825,27.98751],[-80.61619,27.98748],[-80.61615,27.99117],[-80.61433,27.99106],[-80.614,27.99833],[-80.60986,27.99835]]]}},{"type":"Feature","properties":{"zcta":"32754","d":44},"geometry":{"type":"Polygon","coordinates":[[[-80.84363,28.65915],[-80.84443,28.65862],[-80.84447,28.65371],[-80.84732,28.65313],[-80.84732,28.65181],[-80.86363,28.65177],[-80.86956,28.66623],[-80.87278,28.66621],[-80.87169,28.66341],[-80.87494,28.66153],[-80.87748,28.66234],[-80.87719,28.65489],[-80.88009,28.65501],[-80.87989,28.65149],[-80.88072,28.64949],[-80.87789,28.64948],[-80.87648,28.6471],[-80.87619,28.64059],[-80.87663,28.63902],[-80.87469,28.63879],[-80.87649,28.63294],[-80.87988,28.62778],[-80.87214,28.6275],[-80.87026,28.60476],[-80.87015,28.59808],[-80.86847,28.59637],[-80.86846,28.5896],[-80.87078,28.58958],[-80.87088,28.58594],[-80.8685,28.58598],[-80.86851,28.58346],[-80.86343,28.58344],[-80.86344,28.57987],[-80.87164,28.57984],[-80.87165,28.57805],[-80.86326,28.57803],[-80.86326,28.57612],[-80.8592,28.57612],[-80.85921,28.57261],[-80.85516,28.57259],[-80.85516,28.57434],[-80.85718,28.57434],[-80.85717,28.57612],[-80.85516,28.57612],[-80.85508,28.58335],[-80.85154,28.58338],[-80.85172,28.5561],[-80.8552,28.55373],[-80.85524,28.55069],[-80.88715,28.55089],[-80.89133,28.55002],[-80.89648,28.54571],[-80.89994,28.54404],[-80.90251,28.54371],[-80.93293,28.54379],[-80.9342,28.54485],[-80.93414,28.54766],[-80.93262,28.5516],[-80.93366,28.55207],[-80.93383,28.55499],[-80.93174,28.55588],[-80.93409,28.55933],[-80.93156,28.55994],[-80.93218,28.5618],[-80.93004,28.56322],[-80.93203,28.56471],[-80.932,28.56646],[-80.93372,28.56762],[-80.93632,28.57145],[-80.93734,28.57093],[-80.9403,28.57429],[-80.94044,28.57809],[-80.94416,28.58003],[-80.94474,28.58383],[-80.94715,28.58497],[-80.94572,28.58644],[-80.94388,28.5905],[-80.94508,28.59228],[-80.94334,28.59367],[-80.94634,28.5957],[-80.94657,28.5972],[-80.9531,28.60106],[-80.95222,28.60424],[-80.9543,28.60479],[-80.9565,28.60382],[-80.95695,28.60191],[-80.95996,28.60292],[-80.96148,28.60549],[-80.96519,28.60439],[-80.96953,28.60519],[-80.96949,28.60838],[-80.97065,28.60858],[-80.97099,28.61116],[-80.97312,28.61132],[-80.97559,28.60784],[-80.98087,28.60981],[-80.9806,28.61095],[-80.98374,28.61017],[-80.98988,28.61393],[-80.99001,28.61712],[-80.98694,28.6183],[-80.98964,28.62477],[-80.99422,28.62165],[-80.9985,28.62606],[-80.99967,28.6281],[-80.99818,28.63058],[-81.00244,28.6314],[-81.0071,28.63633],[-81.00511,28.63889],[-81.00123,28.64105],[-81.00329,28.64496],[-81.00309,28.64813],[-81.00582,28.65181],[-81.00827,28.65875],[-81.00723,28.66345],[-81.01104,28.66808],[-81.01407,28.67035],[-81.02048,28.67322],[-81.02129,28.67425],[-81.02162,28.68289],[-81.01997,28.68855],[-81.01702,28.69009],[-81.01665,28.69304],[-81.02045,28.69781],[-81.02145,28.70114],[-81.03335,28.70807],[-81.03474,28.70939],[-81.03553,28.71222],[-81.03385,28.71671],[-81.03434,28.71908],[-81.03755,28.72022],[-81.03883,28.72159],[-81.03639,28.72253],[-81.03722,28.72543],[-81.04144,28.72666],[-81.04084,28.73071],[-81.03931,28.72771],[-81.03981,28.7313],[-81.03904,28.73925],[-81.03783,28.74562],[-81.03604,28.74477],[-81.03342,28.74525],[-81.03336,28.74661],[-81.02881,28.7491],[-81.02894,28.7505],[-81.02672,28.75308],[-81.02411,28.75375],[-81.02078,28.75686],[-81.01864,28.75978],[-80.98052,28.76055],[-80.9793,28.76635],[-80.97787,28.76954],[-80.9673,28.76454],[-80.96789,28.7902],[-80.8993,28.79097],[-80.88273,28.7912],[-80.84292,28.79115],[-80.83961,28.77896],[-80.83542,28.76149],[-80.83399,28.75267],[-80.83123,28.75027],[-80.81491,28.68777],[-80.816,28.68777],[-80.81324,28.67795],[-80.80716,28.66273],[-80.80648,28.65973],[-80.84363,28.65915]],[[-80.87544,28.76603],[-80.87619,28.76852],[-80.87797,28.76804],[-80.8772,28.76557],[-80.87544,28.76603]]]}},{"type":"Feature","properties":{"zcta":"32904","d":977},"geometry":{"type":"MultiPolygon","coordinates":[[[[-80.63976,28.08444],[-80.63827,28.08452],[-80.63831,28.08287],[-80.63976,28.08444]]],[[[-80.86019,28.2392],[-80.8598,28.2326],[-80.85541,28.22621],[-80.85811,28.22089],[-80.85812,28.21971],[-80.85538,28.21612],[-80.85158,28.21366],[-80.84824,28.20942],[-80.83731,28.20756],[-80.83229,28.20529],[-80.83065,28.20375],[-80.83006,28.20133],[-80.82712,28.19877],[-80.8232,28.19766],[-80.81942,28.1958],[-80.81719,28.19565],[-80.81239,28.18957],[-80.81244,28.18859],[-80.80962,28.186],[-80.80789,28.18322],[-80.80442,28.18091],[-80.80356,28.18177],[-80.80075,28.18019],[-80.79899,28.1778],[-80.79659,28.17724],[-80.78832,28.17652],[-80.78672,28.17483],[-80.78177,28.17259],[-80.78101,28.17036],[-80.77476,28.16988],[-80.77357,28.1681],[-80.77071,28.16635],[-80.76438,28.16621],[-80.75645,28.16823],[-80.753,28.17048],[-80.74806,28.17176],[-80.7445,28.17158],[-80.74437,28.16401],[-80.74353,28.15993],[-80.74474,28.15544],[-80.74386,28.15121],[-80.74517,28.12436],[-80.74831,28.12319],[-80.74657,28.12135],[-80.74665,28.11869],[-80.7452,28.11851],[-80.74772,28.11376],[-80.74688,28.10931],[-80.74957,28.10572],[-80.74635,28.10377],[-80.74887,28.09865],[-80.74986,28.09085],[-80.75126,28.08844],[-80.75143,28.08498],[-80.74487,28.08084],[-80.74172,28.07958],[-80.7372,28.07879],[-80.72102,28.07882],[-80.7205,28.08509],[-80.72058,28.09194],[-80.71235,28.09199],[-80.7124,28.09887],[-80.70425,28.09898],[-80.70433,28.10073],[-80.70022,28.10078],[-80.70022,28.10744],[-80.69741,28.10608],[-80.69491,28.10633],[-80.69491,28.10753],[-80.68904,28.10747],[-80.68778,28.10636],[-80.67973,28.10668],[-80.67972,28.10785],[-80.6766,28.10801],[-80.67279,28.10831],[-80.67145,28.10709],[-80.67134,28.09783],[-80.65566,28.0979],[-80.65474,28.09706],[-80.65457,28.0855],[-80.64969,28.08546],[-80.64937,28.08418],[-80.63796,28.0824],[-80.63795,28.0715],[-80.63586,28.06781],[-80.63698,28.0647],[-80.63799,28.06472],[-80.63821,28.04972],[-80.63812,28.03895],[-80.63819,28.03519],[-80.65649,28.03535],[-80.67148,28.03561],[-80.67142,28.0374],[-80.67352,28.03736],[-80.67355,28.03558],[-80.68766,28.03537],[-80.68749,28.04262],[-80.72833,28.04241],[-80.72896,28.01439],[-80.72885,28.01344],[-80.7453,28.01342],[-80.74547,27.99891],[-80.72895,27.99896],[-80.72899,27.99154],[-80.7372,27.99154],[-80.73722,27.98413],[-80.73331,27.98413],[-80.73333,27.97951],[-80.72909,27.97951],[-80.7291,27.97674],[-80.72055,27.97675],[-80.72059,27.96567],[-80.72102,27.96562],[-80.72102,27.94262],[-80.72071,27.9378],[-80.72078,27.91057],[-80.72151,27.893],[-80.72565,27.89304],[-80.72582,27.88586],[-80.72166,27.88574],[-80.7219,27.86749],[-80.7084,27.86732],[-80.70729,27.86603],[-80.71227,27.86704],[-80.72508,27.86632],[-80.7698,27.86702],[-80.77009,27.86466],[-80.76997,27.84493],[-80.76947,27.83732],[-80.76965,27.82548],[-80.76703,27.82365],[-80.77011,27.82367],[-80.82751,27.82292],[-80.86888,27.82252],[-80.86957,27.94501],[-80.8694,27.96395],[-80.8696,27.97791],[-80.86997,27.98257],[-80.86953,28.04849],[-80.87014,28.05708],[-80.86928,28.0651],[-80.86931,28.08473],[-80.86288,28.08475],[-80.86164,28.23867],[-80.86019,28.2392]]]]}},{"type":"Feature","properties":{"zcta":"32955","d":934},"geometry":{"type":"Polygon","coordinates":[[[-80.84739,28.34569],[-80.83689,28.33928],[-80.82452,28.3331],[-80.81466,28.33116],[-80.79497,28.33006],[-80.79011,28.32729],[-80.78827,28.32747],[-80.78223,28.32631],[-80.77714,28.32797],[-80.77409,28.32835],[-80.77474,28.32976],[-80.77146,28.33058],[-80.7715,28.3347],[-80.76741,28.3346],[-80.76743,28.33077],[-80.76336,28.33048],[-80.76326,28.34313],[-80.76475,28.34548],[-80.75496,28.34548],[-80.75496,28.34927],[-80.71538,28.34948],[-80.70778,28.33229],[-80.6941,28.30297],[-80.67328,28.25289],[-80.65123,28.20632],[-80.65675,28.20554],[-80.66088,28.20603],[-80.66325,28.20957],[-80.66282,28.21139],[-80.66498,28.21429],[-80.66473,28.21632],[-80.66668,28.21705],[-80.66613,28.22006],[-80.66843,28.22194],[-80.66838,28.22328],[-80.67096,28.22552],[-80.67161,28.22759],[-80.67078,28.2301],[-80.67294,28.22949],[-80.66885,28.21924],[-80.67227,28.21921],[-80.68841,28.26145],[-80.69278,28.26229],[-80.698,28.26259],[-80.70389,28.26493],[-80.71808,28.26541],[-80.72278,28.2663],[-80.73659,28.26679],[-80.7397,28.26659],[-80.7433,28.26541],[-80.74772,28.26241],[-80.75039,28.26138],[-80.75459,28.26131],[-80.7546,28.25851],[-80.80049,28.25863],[-80.80408,28.25731],[-80.80405,28.24899],[-80.81624,28.24699],[-80.84177,28.2473],[-80.8451,28.24391],[-80.84742,28.24613],[-80.85421,28.2467],[-80.86158,28.24656],[-80.8614,28.25218],[-80.86281,28.34722],[-80.84739,28.34569]]]}},{"type":"Feature","properties":{"zcta":"32937","d":2059},"geometry":{"type":"Polygon","coordinates":[[[-80.64366,28.20735],[-80.6399,28.20701],[-80.62979,28.18908],[-80.62438,28.17763],[-80.60468,28.14388],[-80.60734,28.14881],[-80.60587,28.14927],[-80.6157,28.17212],[-80.62477,28.18969],[-80.63419,28.20823],[-80.63364,28.20923],[-80.61789,28.21267],[-80.59782,28.21279],[-80.59674,28.21264],[-80.59416,28.19586],[-80.58997,28.17799],[-80.57932,28.13863],[-80.58099,28.13849],[-80.58038,28.13593],[-80.58497,28.13602],[-80.58509,28.13774],[-80.58901,28.13825],[-80.58898,28.13557],[-80.5902,28.13726],[-80.59291,28.13662],[-80.60069,28.1365],[-80.60107,28.13729],[-80.61337,28.13377],[-80.61768,28.13268],[-80.61808,28.13329],[-80.63928,28.18069],[-80.65115,28.20615],[-80.65123,28.20632],[-80.64366,28.20735]]]}},{"type":"Feature","properties":{"zcta":"32927","d":612},"geometry":{"type":"Polygon","coordinates":[[[-80.75268,28.47098],[-80.75147,28.46221],[-80.74977,28.45768],[-80.74318,28.43487],[-80.74505,28.4328],[-80.75581,28.43217],[-80.76268,28.43225],[-80.76445,28.43304],[-80.76548,28.43757],[-80.76863,28.43761],[-80.7665,28.43224],[-80.77118,28.43208],[-80.77193,28.43281],[-80.77119,28.43714],[-80.77133,28.44308],[-80.77958,28.44307],[-80.7796,28.44214],[-80.78793,28.44208],[-80.78795,28.44663],[-80.78978,28.44606],[-80.78842,28.44393],[-80.78827,28.4319],[-80.82048,28.43181],[-80.8534,28.43149],[-80.85342,28.42904],[-80.86956,28.44681],[-80.87467,28.45075],[-80.87897,28.45232],[-80.87473,28.45211],[-80.87082,28.45437],[-80.83876,28.50149],[-80.83261,28.49386],[-80.82878,28.49406],[-80.82052,28.49362],[-80.81219,28.49368],[-80.80462,28.49434],[-80.81319,28.50736],[-80.81392,28.51206],[-80.8081,28.51249],[-80.80541,28.5082],[-80.80524,28.50572],[-80.79871,28.50534],[-80.79847,28.50184],[-80.79504,28.50184],[-80.79441,28.505],[-80.79163,28.50679],[-80.79155,28.50961],[-80.78736,28.51012],[-80.7874,28.51244],[-80.78605,28.51246],[-80.78506,28.50827],[-80.78579,28.50113],[-80.7849,28.49385],[-80.7838,28.49082],[-80.75758,28.49118],[-80.75268,28.47098]],[[-80.76301,28.44345],[-80.76296,28.44677],[-80.76444,28.44677],[-80.76446,28.44347],[-80.76301,28.44345]]]}},{"type":"Feature","properties":{"zcta":"32976","d":178},"geometry":{"type":"Polygon","coordinates":[[[-80.58243,27.8884],[-80.58225,27.89558],[-80.57421,27.89534],[-80.55782,27.89547],[-80.54074,27.89538],[-80.53959,27.89173],[-80.53359,27.8918],[-80.53363,27.89537],[-80.51699,27.8952],[-80.51702,27.89161],[-80.51392,27.89156],[-80.51388,27.89516],[-80.49847,27.89498],[-80.49112,27.8848],[-80.48743,27.87369],[-80.48568,27.87025],[-80.48187,27.86027],[-80.47864,27.85462],[-80.49108,27.8546],[-80.49442,27.85191],[-80.49439,27.84593],[-80.4969,27.83839],[-80.49976,27.83465],[-80.50534,27.82881],[-80.50733,27.82799],[-80.50907,27.82206],[-80.55446,27.82219],[-80.58941,27.8603],[-80.59153,27.86453],[-80.59146,27.87368],[-80.59132,27.88148],[-80.59287,27.88857],[-80.58243,27.8884]]]}},{"type":"Feature","properties":{"zcta":"32951","d":710},"geometry":{"type":"Polygon","coordinates":[[[-80.57225,28.07653],[-80.57273,28.07826],[-80.56025,28.078],[-80.55785,28.07183],[-80.54767,28.0488],[-80.53096,28.01366],[-80.51403,27.9809],[-80.50887,27.97048],[-80.49283,27.94053],[-80.46698,27.89648],[-80.45777,27.87989],[-80.44697,27.86195],[-80.45138,27.8568],[-80.4549,27.85464],[-80.47864,27.85462],[-80.48187,27.86027],[-80.48568,27.87025],[-80.48743,27.87369],[-80.49112,27.8848],[-80.49847,27.89498],[-80.49766,27.89497],[-80.51502,27.93029],[-80.53216,27.96356],[-80.53479,27.96863],[-80.54005,27.99089],[-80.55279,28.01246],[-80.55487,28.01716],[-80.57028,28.0439],[-80.57259,28.04827],[-80.58188,28.0637],[-80.58938,28.07649],[-80.57225,28.07653]]]}},{"type":"Feature","properties":{"zcta":"32953","d":376},"geometry":{"type":"Polygon","coordinates":[[[-80.63694,28.52598],[-80.6296,28.52429],[-80.62458,28.52142],[-80.63259,28.50824],[-80.64257,28.50812],[-80.6424,28.48737],[-80.64263,28.48557],[-80.64648,28.47759],[-80.65198,28.46388],[-80.65051,28.46361],[-80.6527,28.45845],[-80.65596,28.44802],[-80.65999,28.43401],[-80.66119,28.42502],[-80.66271,28.40969],[-80.67587,28.40946],[-80.67587,28.40914],[-80.69351,28.40914],[-80.69421,28.40539],[-80.69319,28.40006],[-80.69279,28.395],[-80.68966,28.39256],[-80.69032,28.38946],[-80.68945,28.38664],[-80.68879,28.3768],[-80.68801,28.37392],[-80.68395,28.36907],[-80.68068,28.3671],[-80.68118,28.36148],[-80.68468,28.3613],[-80.68358,28.35728],[-80.70472,28.357],[-80.71166,28.35636],[-80.7182,28.35633],[-80.72638,28.37588],[-80.73468,28.40255],[-80.74318,28.43487],[-80.74977,28.45768],[-80.75147,28.46221],[-80.75268,28.47098],[-80.75758,28.49118],[-80.75781,28.51555],[-80.72454,28.5154],[-80.72464,28.50787],[-80.70099,28.50744],[-80.69955,28.50722],[-80.69819,28.51387],[-80.69574,28.52152],[-80.69273,28.5211],[-80.69291,28.52594],[-80.6641,28.52599],[-80.66405,28.52618],[-80.63694,28.52598]]]}},{"type":"Feature","properties":{"zcta":"32935","d":1610},"geometry":{"type":"Polygon","coordinates":[[[-80.66134,28.18483],[-80.6592,28.18101],[-80.65681,28.18104],[-80.65858,28.18377],[-80.66128,28.19042],[-80.65664,28.18997],[-80.65972,28.19829],[-80.66028,28.20281],[-80.65809,28.20488],[-80.65115,28.20615],[-80.63928,28.18069],[-80.61808,28.13329],[-80.61768,28.13268],[-80.61337,28.13377],[-80.61217,28.1226],[-80.60398,28.10709],[-80.62911,28.10714],[-80.63409,28.11206],[-80.63673,28.11048],[-80.6465,28.10984],[-80.6546,28.11004],[-80.65458,28.10697],[-80.67145,28.10709],[-80.67279,28.10831],[-80.6766,28.10801],[-80.67456,28.11047],[-80.67461,28.11409],[-80.67565,28.11651],[-80.67373,28.11658],[-80.67352,28.11885],[-80.67581,28.11864],[-80.6758,28.12138],[-80.69388,28.12143],[-80.69223,28.12229],[-80.68803,28.12635],[-80.68259,28.12823],[-80.67371,28.12857],[-80.67421,28.13092],[-80.67179,28.13131],[-80.67174,28.14335],[-80.67282,28.14334],[-80.67288,28.14671],[-80.67179,28.14673],[-80.67189,28.15356],[-80.67898,28.15332],[-80.67901,28.15552],[-80.67694,28.15554],[-80.677,28.15755],[-80.67306,28.15757],[-80.67192,28.15958],[-80.67198,28.16476],[-80.67299,28.16477],[-80.67298,28.16769],[-80.67193,28.16836],[-80.67197,28.17206],[-80.67458,28.17202],[-80.67463,28.17721],[-80.67212,28.17722],[-80.67202,28.18471],[-80.66134,28.18483]]]}},{"type":"Feature","properties":{"zcta":"32796","d":681},"geometry":{"type":"Polygon","coordinates":[[[-80.8033,28.65078],[-80.80678,28.64487],[-80.80698,28.63367],[-80.79779,28.6211],[-80.7923,28.60073],[-80.80563,28.60083],[-80.80678,28.60396],[-80.80674,28.60803],[-80.8241,28.60767],[-80.8261,28.60785],[-80.8308,28.60651],[-80.84461,28.59589],[-80.8469,28.59155],[-80.84701,28.58556],[-80.85154,28.58558],[-80.85154,28.58338],[-80.85508,28.58335],[-80.85516,28.57612],[-80.85717,28.57612],[-80.85718,28.57434],[-80.85516,28.57434],[-80.85516,28.57259],[-80.85921,28.57261],[-80.8592,28.57612],[-80.86326,28.57612],[-80.86326,28.57803],[-80.87165,28.57805],[-80.87164,28.57984],[-80.86344,28.57987],[-80.86343,28.58344],[-80.86851,28.58346],[-80.8685,28.58598],[-80.87088,28.58594],[-80.87078,28.58958],[-80.86846,28.5896],[-80.86847,28.59637],[-80.87015,28.59808],[-80.87026,28.60476],[-80.87214,28.6275],[-80.87988,28.62778],[-80.87649,28.63294],[-80.87469,28.63879],[-80.87663,28.63902],[-80.87619,28.64059],[-80.87648,28.6471],[-80.87789,28.64948],[-80.88072,28.64949],[-80.87989,28.65149],[-80.88009,28.65501],[-80.87719,28.65489],[-80.87748,28.66234],[-80.87494,28.66153],[-80.87169,28.66341],[-80.87278,28.66621],[-80.86956,28.66623],[-80.86363,28.65177],[-80.84732,28.65181],[-80.84732,28.65313],[-80.84447,28.65371],[-80.84443,28.65862],[-80.84363,28.65915],[-80.80648,28.65973],[-80.8033,28.65078]]]}},{"type":"Feature","properties":{"zcta":"32952","d":852},"geometry":{"type":"Polygon","coordinates":[[[-80.71166,28.35636],[-80.70472,28.357],[-80.68358,28.35728],[-80.68468,28.3613],[-80.68118,28.36148],[-80.68068,28.3671],[-80.68395,28.36907],[-80.68801,28.37392],[-80.68879,28.3768],[-80.68945,28.38664],[-80.69032,28.38946],[-80.68966,28.39256],[-80.69279,28.395],[-80.69319,28.40006],[-80.69421,28.40539],[-80.69351,28.40914],[-80.67587,28.40914],[-80.64624,28.40913],[-80.64618,28.40506],[-80.64737,28.39148],[-80.64827,28.37558],[-80.64897,28.37048],[-80.64799,28.35756],[-80.64978,28.32739],[-80.65057,28.29815],[-80.65047,28.28889],[-80.64897,28.27179],[-80.64717,28.24589],[-80.63442,28.21252],[-80.63364,28.20923],[-80.63419,28.20823],[-80.62477,28.18969],[-80.6157,28.17212],[-80.60587,28.14927],[-80.60734,28.14881],[-80.60468,28.14388],[-80.62438,28.17763],[-80.62979,28.18908],[-80.6399,28.20701],[-80.64366,28.20735],[-80.65123,28.20632],[-80.67328,28.25289],[-80.6941,28.30297],[-80.70778,28.33229],[-80.71538,28.34948],[-80.7182,28.35633],[-80.71166,28.35636]]]}},{"type":"Feature","properties":{"zcta":"32907","d":1260},"geometry":{"type":"Polygon","coordinates":[[[-80.64086,28.01337],[-80.60327,28.01274],[-80.60155,28.01279],[-80.60166,28.00184],[-80.6098,28.00194],[-80.60986,27.99835],[-80.614,27.99833],[-80.6219,27.99729],[-80.62218,27.99126],[-80.6267,27.99136],[-80.62887,27.99521],[-80.63431,27.99595],[-80.63455,27.99852],[-80.64854,27.99878],[-80.65528,27.99869],[-80.65528,27.99636],[-80.65711,27.99637],[-80.65715,27.99872],[-80.67184,27.99903],[-80.6727,27.99904],[-80.67202,27.9954],[-80.67998,27.99529],[-80.67998,27.99886],[-80.68469,27.99883],[-80.68468,27.99534],[-80.68828,27.99532],[-80.68826,27.99903],[-80.72895,27.99896],[-80.74547,27.99891],[-80.7453,28.01342],[-80.72885,28.01344],[-80.72896,28.01439],[-80.72833,28.04241],[-80.68749,28.04262],[-80.68766,28.03537],[-80.67355,28.03558],[-80.67352,28.03736],[-80.67142,28.0374],[-80.67148,28.03561],[-80.65649,28.03535],[-80.64086,28.01337]]]}},{"type":"Feature","properties":{"zcta":"32920","d":1359},"geometry":{"type":"Polygon","coordinates":[[[-80.64006,28.40922],[-80.64027,28.40988],[-80.63571,28.41011],[-80.63307,28.41246],[-80.63286,28.41619],[-80.63066,28.41868],[-80.62091,28.41929],[-80.61811,28.4201],[-80.60879,28.41938],[-80.60405,28.41979],[-80.60232,28.42836],[-80.60284,28.43193],[-80.60067,28.43666],[-80.60054,28.44104],[-80.59914,28.44339],[-80.59981,28.44564],[-80.59765,28.44917],[-80.59664,28.45249],[-80.59676,28.45636],[-80.60013,28.45833],[-80.60107,28.46069],[-80.59843,28.46314],[-80.59769,28.46495],[-80.59861,28.46762],[-80.596,28.46775],[-80.59354,28.4698],[-80.59325,28.47311],[-80.59417,28.47433],[-80.59112,28.47509],[-80.59083,28.47837],[-80.59187,28.4807],[-80.5885,28.48537],[-80.5894,28.48902],[-80.58753,28.49116],[-80.58604,28.4946],[-80.58455,28.50335],[-80.58466,28.50582],[-80.5879,28.50557],[-80.58417,28.50771],[-80.58468,28.51614],[-80.5934,28.52446],[-80.59839,28.52358],[-80.59859,28.52593],[-80.57824,28.5255],[-80.55897,28.52574],[-80.55418,28.51382],[-80.54573,28.49879],[-80.53611,28.47865],[-80.52509,28.45945],[-80.52522,28.45503],[-80.52673,28.45171],[-80.52896,28.4497],[-80.53585,28.44698],[-80.53924,28.44689],[-80.5519,28.44159],[-80.56013,28.43913],[-80.56671,28.43497],[-80.57192,28.43038],[-80.57331,28.42731],[-80.5781,28.42308],[-80.58275,28.41686],[-80.5847,28.41184],[-80.58903,28.40787],[-80.59415,28.39532],[-80.59751,28.38552],[-80.59911,28.37931],[-80.6056,28.37893],[-80.60563,28.37046],[-80.6114,28.37066],[-80.64897,28.37048],[-80.64827,28.37558],[-80.64737,28.39148],[-80.64618,28.40506],[-80.64624,28.40913],[-80.64006,28.40922]]]}}]}