{"type":"FeatureCollection","features":[{"type":"Feature","properties":{"id":"06077","name":"San Joaquin Co."},"geometry":{"type":"Polygon","coordinates":[[[-121.5823,38.0514],[-121.5839,38.0599],[-121.5822,38.0684],[-121.5748,38.0718],[-121.5729,38.0742],[-121.5767,38.0782],[-121.5783,38.0917],[-121.58,38.0944],[-121.5741,38.0964],[-121.5672,38.0973],[-121.564,38.1014],[-121.5658,38.1053],[-121.5732,38.1089],[-121.5808,38.111],[-121.5835,38.1135],[-121.5841,38.1202],[-121.5809,38.1249],[-121.5765,38.129],[-121.5624,38.136],[-121.5577,38.1368],[-121.5573,38.1391],[-121.5601,38.1421],[-121.5592,38.1439],[-121.5499,38.1461],[-121.5469,38.1481],[-121.5434,38.1476],[-121.5427,38.1508],[-121.5363,38.1516],[-121.5345,38.1558],[-121.5362,38.1582],[-121.5335,38.1627],[-121.5314,38.1631],[-121.5293,38.169],[-121.5251,38.1713],[-121.5246,38.1748],[-121.5278,38.181],[-121.5245,38.1855],[-121.5292,38.1938],[-121.5221,38.2019],[-121.5199,38.2032],[-121.5127,38.2026],[-121.5099,38.2046],[-121.5081,38.2092],[-121.5043,38.2121],[-121.5075,38.2226],[-121.501,38.2268],[-121.4917,38.2277],[-121.4908,38.2322],[-121.4877,38.2347],[-121.4866,38.2405],[-121.4787,38.246],[-121.4785,38.2511],[-121.4801,38.2536],[-121.4757,38.2581],[-121.471,38.2599],[-121.4616,38.2592],[-121.4558,38.2576],[-121.4504,38.2546],[-121.4445,38.2568],[-121.4344,38.2543],[-121.4291,38.2547],[-121.4251,38.2504],[-121.4272,38.2448],[-121.4239,38.2423],[-121.4205,38.2372],[-121.4157,38.2356],[-121.4112,38.2319],[-121.4098,38.2329],[-121.4052,38.23],[-121.4017,38.2307],[-121.3982,38.2274],[-121.3957,38.228],[-121.3891,38.2332],[-121.3854,38.2314],[-121.3825,38.2321],[-121.3779,38.2306],[-121.3732,38.2311],[-121.3709,38.2297],[-121.367,38.2312],[-121.3643,38.2287],[-121.3624,38.2299],[-121.3547,38.231],[-121.344,38.2283],[-121.339,38.2289],[-121.3293,38.2328],[-121.3218,38.2327],[-121.3177,38.2352],[-121.3131,38.2348],[-121.309,38.2358],[-121.3053,38.2348],[-121.2955,38.2376],[-121.2913,38.2403],[-121.2881,38.2456],[-121.2812,38.2501],[-121.2768,38.2493],[-121.2684,38.2523],[-121.259,38.2503],[-121.2527,38.2469],[-121.2476,38.2454],[-121.2424,38.2454],[-121.2375,38.2475],[-121.2292,38.2475],[-121.2225,38.2444],[-121.215,38.2488],[-121.2034,38.2488],[-121.1941,38.2557],[-121.182,38.2568],[-121.1802,38.2553],[-121.1731,38.2552],[-121.1691,38.2581],[-121.1615,38.2608],[-121.157,38.2608],[-121.147,38.2639],[-121.1416,38.2692],[-121.1377,38.2716],[-121.1338,38.2719],[-121.1278,38.2774],[-121.1201,38.2782],[-121.1168,38.2773],[-121.1095,38.2811],[-121.1021,38.2832],[-121.0954,38.2816],[-121.0899,38.284],[-121.0854,38.2871],[-121.0842,38.2864],[-121.0782,38.2917],[-121.0739,38.2933],[-121.0685,38.2985],[-121.0648,38.2995],[-121.0534,38.2932],[-121.0475,38.2911],[-121.0436,38.2937],[-121.0406,38.2977],[-121.0305,38.2989],[-121.0271,38.3003],[-121.0064,38.2505],[-121.0035,38.243],[-120.9864,38.2046],[-120.9753,38.1782],[-120.9388,38.0883],[-120.9264,38.0774],[-120.9265,38.0172],[-120.9263,37.9833],[-120.9264,37.9452],[-120.9263,37.8867],[-120.9234,37.8003],[-120.9226,37.7503],[-120.9211,37.746],[-120.9206,37.7385],[-120.9222,37.7375],[-120.933,37.7395],[-120.9391,37.742],[-120.9444,37.7421],[-120.9542,37.7384],[-120.9588,37.7415],[-120.9619,37.7418],[-120.9732,37.748],[-120.9772,37.7528],[-120.9806,37.7539],[-120.9816,37.7566],[-120.9863,37.7564],[-120.9957,37.7602],[-120.9989,37.7571],[-120.9979,37.755],[-121.0031,37.7517],[-121.007,37.7511],[-121.008,37.7491],[-121.0119,37.7497],[-121.014,37.7565],[-121.0177,37.7553],[-121.0213,37.7501],[-121.0209,37.7478],[-121.0241,37.7467],[-121.0265,37.7418],[-121.0288,37.7407],[-121.033,37.7429],[-121.0372,37.7425],[-121.0379,37.7392],[-121.0415,37.7417],[-121.0452,37.7394],[-121.0464,37.7426],[-121.0518,37.7425],[-121.0507,37.7457],[-121.0533,37.7456],[-121.052,37.7485],[-121.0562,37.7504],[-121.0599,37.7493],[-121.0614,37.7463],[-121.0649,37.7462],[-121.0631,37.7439],[-121.0669,37.7447],[-121.0665,37.7402],[-121.071,37.7381],[-121.0751,37.7389],[-121.0764,37.7376],[-121.084,37.7418],[-121.0884,37.7411],[-121.09,37.7366],[-121.0963,37.7335],[-121.0958,37.736],[-121.101,37.7377],[-121.0998,37.7402],[-121.1026,37.7413],[-121.1068,37.7401],[-121.1102,37.742],[-121.1113,37.74],[-121.1076,37.7323],[-121.1129,37.7277],[-121.1168,37.7265],[-121.1163,37.7247],[-121.1214,37.7245],[-121.1207,37.7223],[-121.1256,37.7226],[-121.1284,37.7242],[-121.1307,37.7223],[-121.1365,37.7247],[-121.138,37.7223],[-121.1416,37.7229],[-121.1419,37.721],[-121.1454,37.72],[-121.1461,37.7175],[-121.151,37.7195],[-121.1558,37.7198],[-121.1588,37.717],[-121.1578,37.7134],[-121.1608,37.7111],[-121.1592,37.7044],[-121.1657,37.7043],[-121.1668,37.7022],[-121.1637,37.7004],[-121.1689,37.6991],[-121.1763,37.704],[-121.1765,37.7061],[-121.1802,37.7034],[-121.1768,37.7023],[-121.1759,37.6994],[-121.1818,37.699],[-121.1824,37.6966],[-121.179,37.6911],[-121.1831,37.69],[-121.1811,37.6881],[-121.1859,37.6888],[-121.1902,37.6919],[-121.1919,37.6905],[-121.1942,37.695],[-121.1964,37.6946],[-121.1978,37.6905],[-121.2013,37.6925],[-121.1998,37.6962],[-121.2022,37.696],[-121.2087,37.6863],[-121.2108,37.6859],[-121.2164,37.6879],[-121.222,37.6826],[-121.2226,37.6804],[-121.2186,37.6798],[-121.2227,37.6772],[-121.222,37.6751],[-121.2191,37.6765],[-121.2185,37.6738],[-121.2228,37.6698],[-121.2292,37.6689],[-121.2291,37.6643],[-121.2316,37.6626],[-121.24,37.6649],[-121.2694,37.6416],[-121.324,37.5988],[-121.3342,37.5904],[-121.3755,37.5584],[-121.4719,37.4818],[-121.4692,37.4894],[-121.4759,37.4953],[-121.4794,37.4965],[-121.4821,37.5014],[-121.4932,37.5024],[-121.496,37.5049],[-121.4954,37.5081],[-121.4972,37.5125],[-121.5024,37.5185],[-121.4983,37.5224],[-121.5015,37.525],[-121.5079,37.5248],[-121.5167,37.5255],[-121.5223,37.5247],[-121.5288,37.5281],[-121.5418,37.5302],[-121.5458,37.5325],[-121.5505,37.5393],[-121.5567,37.5427],[-121.557,37.7077],[-121.557,37.7432],[-121.5567,37.7561],[-121.557,37.7714],[-121.5569,37.8172],[-121.5533,37.8188],[-121.5512,37.8251],[-121.552,37.83],[-121.5495,37.8336],[-121.5459,37.8323],[-121.5422,37.8338],[-121.5382,37.8374],[-121.5389,37.8393],[-121.5368,37.8463],[-121.5342,37.8499],[-121.5372,37.8508],[-121.54,37.8488],[-121.542,37.8513],[-121.5411,37.8577],[-121.5475,37.8552],[-121.5531,37.861],[-121.5553,37.858],[-121.5603,37.8586],[-121.5626,37.8534],[-121.5659,37.8579],[-121.5706,37.858],[-121.5698,37.8607],[-121.579,37.8585],[-121.5795,37.8611],[-121.5738,37.8643],[-121.5734,37.8658],[-121.5788,37.87],[-121.5794,37.8723],[-121.5739,37.8834],[-121.5759,37.8876],[-121.575,37.8894],[-121.5677,37.8924],[-121.5659,37.8977],[-121.5682,37.901],[-121.5718,37.9025],[-121.5726,37.9047],[-121.5648,37.909],[-121.5632,37.9122],[-121.5659,37.9161],[-121.5651,37.9192],[-121.5583,37.9214],[-121.5564,37.9233],[-121.5589,37.9279],[-121.5573,37.9322],[-121.5615,37.9359],[-121.5609,37.9399],[-121.5634,37.9443],[-121.5582,37.9454],[-121.5607,37.9476],[-121.5655,37.9442],[-121.5686,37.9455],[-121.5685,37.9492],[-121.5637,37.9535],[-121.5641,37.9551],[-121.5736,37.9538],[-121.5745,37.9569],[-121.5656,37.9578],[-121.5651,37.9598],[-121.5737,37.9664],[-121.5741,37.9718],[-121.5799,37.9761],[-121.5742,37.9774],[-121.5736,37.9803],[-121.5795,37.9816],[-121.5825,37.9839],[-121.581,37.9895],[-121.5761,37.9949],[-121.5778,37.999],[-121.5706,37.999],[-121.5691,38.0028],[-121.5787,38.0043],[-121.5799,38.0078],[-121.5779,38.0108],[-121.5681,38.0114],[-121.567,38.0135],[-121.5728,38.0169],[-121.5721,38.0184],[-121.5664,38.0181],[-121.5611,38.0154],[-121.5576,38.017],[-121.5633,38.0239],[-121.5642,38.0297],[-121.5718,38.0314],[-121.5708,38.038],[-121.5722,38.0414],[-121.5776,38.043],[-121.5808,38.0388],[-121.5779,38.0338],[-121.5817,38.0324],[-121.5844,38.036],[-121.5847,38.0435],[-121.5823,38.0514]]]}}]}