{"type":"FeatureCollection","features":[{"type":"Feature","properties":{"zcta":"95206","d":206},"geometry":{"type":"MultiPolygon","coordinates":[[[[-121.56899,37.88995],[-121.51448,37.89007],[-121.50833,37.89105],[-121.49182,37.89154],[-121.4883,37.89077],[-121.48804,37.89347],[-121.49055,37.89344],[-121.49153,37.8943],[-121.49284,37.89744],[-121.49571,37.89917],[-121.49702,37.90434],[-121.5021,37.90812],[-121.50489,37.90712],[-121.50604,37.90693],[-121.50872,37.91063],[-121.51522,37.9116],[-121.51614,37.91209],[-121.51602,37.9131],[-121.51206,37.9158],[-121.51191,37.91564],[-121.51562,37.91315],[-121.51538,37.9118],[-121.50946,37.91098],[-121.50844,37.91052],[-121.50631,37.90733],[-121.50256,37.90828],[-121.50172,37.90801],[-121.49698,37.90447],[-121.49559,37.89919],[-121.49271,37.89738],[-121.49057,37.89352],[-121.48778,37.89361],[-121.48719,37.89277],[-121.48149,37.89649],[-121.47487,37.89811],[-121.46796,37.90171],[-121.46349,37.9036],[-121.45736,37.90771],[-121.45256,37.91012],[-121.44882,37.91342],[-121.43575,37.92198],[-121.43523,37.92364],[-121.43247,37.92567],[-121.43627,37.93028],[-121.43596,37.93272],[-121.43113,37.93423],[-121.52365,37.9398],[-121.53144,37.93982],[-121.53127,37.94323],[-121.52455,37.9473],[-121.5237,37.9491],[-121.52489,37.9517],[-121.52633,37.95739],[-121.52912,37.96001],[-121.53017,37.96736],[-121.52387,37.97095],[-121.51976,37.97129],[-121.50085,37.97105],[-121.50085,37.97203],[-121.50649,37.97207],[-121.51216,37.97542],[-121.51219,37.97949],[-121.51546,37.98211],[-121.51595,37.98571],[-121.51342,37.98666],[-121.51152,37.99036],[-121.50684,37.99202],[-121.50547,37.9934],[-121.50608,37.99809],[-121.50756,37.9995],[-121.4917,37.99964],[-121.49142,37.99758],[-121.48984,37.99677],[-121.4874,37.99876],[-121.48412,37.99311],[-121.47539,37.9814],[-121.47475,37.98365],[-121.46949,37.98501],[-121.46646,37.98759],[-121.45963,37.99045],[-121.45701,37.99085],[-121.45223,37.9938],[-121.44999,37.99356],[-121.44569,37.99675],[-121.43576,37.99249],[-121.43137,37.99292],[-121.42233,37.99468],[-121.41579,37.99415],[-121.40943,37.99186],[-121.40959,37.98881],[-121.40852,37.98757],[-121.40766,37.99112],[-121.39214,37.98552],[-121.38309,37.97796],[-121.37284,37.96901],[-121.37032,37.96728],[-121.3731,37.96472],[-121.37412,37.96274],[-121.37774,37.96234],[-121.38008,37.95872],[-121.37838,37.95803],[-121.3766,37.95276],[-121.37757,37.94986],[-121.37298,37.94809],[-121.37148,37.94665],[-121.37206,37.94494],[-121.3662,37.94132],[-121.35711,37.94132],[-121.35288,37.93953],[-121.35063,37.94037],[-121.34818,37.93996],[-121.34608,37.9427],[-121.34257,37.94331],[-121.34034,37.94609],[-121.33855,37.94656],[-121.33622,37.94425],[-121.33202,37.9444],[-121.33097,37.94177],[-121.32874,37.93996],[-121.32088,37.9412],[-121.31968,37.94292],[-121.31795,37.93975],[-121.29023,37.94434],[-121.28866,37.94355],[-121.28783,37.94553],[-121.28627,37.94495],[-121.28241,37.94561],[-121.28279,37.94704],[-121.2799,37.94726],[-121.27555,37.94549],[-121.27434,37.94094],[-121.26532,37.94249],[-121.25572,37.94493],[-121.25489,37.94413],[-121.25284,37.93784],[-121.25003,37.93869],[-121.2476,37.93592],[-121.24718,37.9314],[-121.25015,37.93124],[-121.248,37.92622],[-121.24406,37.9271],[-121.24193,37.92184],[-121.24598,37.92078],[-121.24481,37.91769],[-121.22954,37.92169],[-121.22473,37.90974],[-121.22481,37.90802],[-121.22852,37.90678],[-121.22933,37.90485],[-121.22254,37.90429],[-121.22041,37.89874],[-121.22027,37.88006],[-121.22391,37.87998],[-121.22387,37.87887],[-121.22951,37.8792],[-121.24072,37.87653],[-121.24309,37.87916],[-121.24774,37.8791],[-121.24905,37.88115],[-121.25307,37.88378],[-121.25689,37.88825],[-121.25672,37.88559],[-121.26424,37.88366],[-121.26531,37.88629],[-121.26736,37.88571],[-121.26837,37.88848],[-121.27127,37.89156],[-121.27596,37.89445],[-121.27644,37.89013],[-121.27995,37.89397],[-121.28094,37.89696],[-121.28363,37.89711],[-121.28746,37.90772],[-121.28865,37.90896],[-121.28989,37.9074],[-121.28543,37.8998],[-121.28569,37.89711],[-121.32729,37.89716],[-121.32851,37.8952],[-121.32778,37.89245],[-121.32998,37.88803],[-121.33147,37.88663],[-121.33269,37.87934],[-121.33189,37.87722],[-121.33252,37.87434],[-121.33034,37.87287],[-121.32742,37.86799],[-121.32654,37.86522],[-121.32084,37.86337],[-121.32032,37.86094],[-121.31779,37.85969],[-121.32033,37.85535],[-121.32027,37.85397],[-121.32297,37.85447],[-121.32182,37.85069],[-121.32437,37.84879],[-121.32424,37.84747],[-121.32144,37.84472],[-121.32067,37.84212],[-121.31801,37.84087],[-121.31609,37.83532],[-121.31254,37.83212],[-121.31002,37.82632],[-121.31434,37.82472],[-121.31494,37.82357],[-121.32004,37.82142],[-121.32074,37.82039],[-121.31897,37.81879],[-121.31487,37.81769],[-121.31679,37.81599],[-121.31927,37.81622],[-121.32004,37.81512],[-121.31772,37.81249],[-121.31947,37.81122],[-121.32499,37.81034],[-121.32687,37.80901],[-121.33071,37.80807],[-121.33421,37.80905],[-121.33522,37.8104],[-121.33522,37.81335],[-121.33287,37.81776],[-121.33431,37.81963],[-121.33938,37.82206],[-121.34111,37.82125],[-121.34197,37.81733],[-121.3478,37.82175],[-121.35113,37.81788],[-121.35388,37.81691],[-121.35867,37.81752],[-121.36163,37.8197],[-121.36605,37.81928],[-121.36989,37.8215],[-121.37662,37.82219],[-121.3782,37.82024],[-121.3803,37.81985],[-121.37997,37.81732],[-121.38181,37.81716],[-121.38241,37.81448],[-121.38388,37.8137],[-121.38395,37.81166],[-121.39268,37.80936],[-121.39635,37.80964],[-121.3978,37.80822],[-121.39769,37.80626],[-121.40205,37.80549],[-121.40736,37.80635],[-121.41108,37.80981],[-121.41395,37.81031],[-121.41793,37.81308],[-121.42084,37.81263],[-121.42869,37.81942],[-121.43546,37.81993],[-121.44966,37.82003],[-121.54807,37.82011],[-121.55208,37.8225],[-121.55115,37.8251],[-121.55224,37.82713],[-121.55197,37.83001],[-121.54946,37.83357],[-121.54587,37.83234],[-121.5422,37.83379],[-121.5416,37.83542],[-121.53819,37.83743],[-121.53887,37.8393],[-121.5368,37.84626],[-121.53493,37.84754],[-121.53425,37.84989],[-121.53721,37.85084],[-121.54003,37.84884],[-121.54201,37.85131],[-121.54112,37.85775],[-121.5475,37.85523],[-121.54899,37.85625],[-121.55168,37.8604],[-121.55312,37.86096],[-121.55525,37.85801],[-121.55989,37.85883],[-121.5623,37.85568],[-121.56122,37.85428],[-121.56261,37.85335],[-121.5659,37.85786],[-121.56802,37.85704],[-121.57059,37.85801],[-121.56829,37.86],[-121.56961,37.86066],[-121.57301,37.86465],[-121.57374,37.86652],[-121.57883,37.86995],[-121.57942,37.8723],[-121.57819,37.87548],[-121.57387,37.8834],[-121.57592,37.88755],[-121.57496,37.88945],[-121.5699,37.89086],[-121.56899,37.88995]]],[[[-121.51744,37.92154],[-121.52536,37.92348],[-121.52568,37.92389],[-121.52569,37.92803],[-121.52683,37.93135],[-121.52695,37.93542],[-121.5314,37.93791],[-121.53185,37.93827],[-121.53178,37.93852],[-121.5271,37.93557],[-121.52666,37.93522],[-121.52676,37.93131],[-121.52563,37.92794],[-121.52514,37.92346],[-121.51746,37.92162],[-121.51206,37.9158],[-121.51744,37.92154]]]]}},{"type":"Feature","properties":{"zcta":"95219","d":244},"geometry":{"type":"MultiPolygon","coordinates":[[[[-121.51602,37.9131],[-121.51614,37.91209],[-121.51522,37.9116],[-121.50872,37.91063],[-121.50604,37.90693],[-121.50489,37.90712],[-121.5021,37.90812],[-121.49702,37.90434],[-121.49571,37.89917],[-121.49284,37.89744],[-121.49153,37.8943],[-121.49055,37.89344],[-121.48804,37.89347],[-121.4883,37.89077],[-121.49182,37.89154],[-121.50833,37.89105],[-121.51448,37.89007],[-121.56899,37.88995],[-121.5699,37.89086],[-121.56768,37.89243],[-121.5659,37.89767],[-121.56816,37.90102],[-121.57177,37.9025],[-121.57263,37.90467],[-121.56477,37.90901],[-121.56321,37.91222],[-121.56592,37.9161],[-121.56511,37.91917],[-121.55826,37.92138],[-121.55642,37.9233],[-121.5589,37.92793],[-121.55727,37.93225],[-121.56145,37.93589],[-121.56194,37.93761],[-121.56088,37.93988],[-121.56323,37.94268],[-121.56341,37.94427],[-121.55817,37.94538],[-121.55818,37.94737],[-121.56068,37.94758],[-121.56364,37.94611],[-121.56555,37.94417],[-121.56741,37.94398],[-121.5686,37.94546],[-121.56851,37.94917],[-121.56369,37.95351],[-121.56411,37.95512],[-121.57359,37.95376],[-121.57519,37.95505],[-121.5745,37.95694],[-121.56559,37.95779],[-121.56514,37.95985],[-121.57012,37.96326],[-121.57371,37.96643],[-121.57415,37.97181],[-121.57555,37.97368],[-121.57994,37.97611],[-121.57696,37.97776],[-121.57424,37.97742],[-121.57239,37.97905],[-121.57358,37.98031],[-121.57953,37.98155],[-121.58246,37.98392],[-121.58102,37.98953],[-121.57608,37.99486],[-121.57736,37.99713],[-121.58014,37.99878],[-121.58125,38.00175],[-121.58591,38.026],[-121.58576,38.02968],[-121.59516,38.0252],[-121.5977,38.02265],[-121.60217,38.01982],[-121.6072,38.01908],[-121.61322,38.02902],[-121.62345,38.03541],[-121.62528,38.03777],[-121.62778,38.03866],[-121.62758,38.04116],[-121.62901,38.04189],[-121.63303,38.04165],[-121.63586,38.04627],[-121.6402,38.04677],[-121.644,38.04817],[-121.6465,38.04504],[-121.64706,38.04297],[-121.64942,38.04336],[-121.64931,38.04698],[-121.6543,38.04661],[-121.65897,38.04744],[-121.66008,38.04604],[-121.6602,38.04328],[-121.66138,38.04189],[-121.66422,38.04228],[-121.67095,38.0412],[-121.67523,38.04118],[-121.67633,38.03711],[-121.67524,38.036],[-121.67289,38.03626],[-121.67176,38.03358],[-121.67399,38.03218],[-121.6734,38.03041],[-121.66996,38.03076],[-121.66689,38.02834],[-121.66313,38.02792],[-121.65761,38.02112],[-121.65323,38.01747],[-121.65048,38.01773],[-121.64565,38.01595],[-121.6411,38.01223],[-121.64894,38.01314],[-121.66737,38.01321],[-121.67475,38.01232],[-121.67912,38.01126],[-121.68436,38.01432],[-121.68493,38.01586],[-121.68264,38.01775],[-121.68778,38.01989],[-121.69277,38.02652],[-121.69934,38.02692],[-121.70455,38.02522],[-121.70894,38.0228],[-121.71204,38.0222],[-121.71529,38.02287],[-121.72021,38.02503],[-121.72509,38.02613],[-121.71932,38.03257],[-121.70841,38.03348],[-121.70416,38.03532],[-121.6978,38.04051],[-121.69421,38.04233],[-121.69273,38.04416],[-121.69167,38.04769],[-121.68897,38.05218],[-121.67993,38.0568],[-121.67664,38.06111],[-121.67516,38.06599],[-121.67527,38.06998],[-121.67749,38.08193],[-121.6768,38.08733],[-121.67333,38.09025],[-121.66967,38.0918],[-121.6638,38.09331],[-121.65961,38.09293],[-121.65098,38.08723],[-121.6446,38.08449],[-121.63689,38.08515],[-121.62772,38.08725],[-121.62515,38.08832],[-121.62247,38.09144],[-121.62305,38.09589],[-121.62171,38.09792],[-121.61365,38.09965],[-121.60492,38.09988],[-121.58528,38.09637],[-121.58128,38.09394],[-121.57406,38.09636],[-121.56718,38.09732],[-121.56461,38.09925],[-121.56403,38.10142],[-121.56575,38.10528],[-121.5732,38.1089],[-121.58078,38.11101],[-121.5835,38.11348],[-121.58436,38.1183],[-121.58407,38.12023],[-121.58088,38.12492],[-121.57943,38.12568],[-121.55553,38.11528],[-121.55007,38.11361],[-121.54508,38.1132],[-121.50528,38.11395],[-121.49828,38.115],[-121.49695,38.1151],[-121.49812,38.11242],[-121.50052,38.10973],[-121.49992,38.10823],[-121.49584,38.10613],[-121.49154,38.10701],[-121.48885,38.10551],[-121.4881,38.10042],[-121.49131,38.09957],[-121.49265,38.0975],[-121.49494,38.09691],[-121.49293,38.09445],[-121.49335,38.0918],[-121.49084,38.08967],[-121.48887,38.08958],[-121.48351,38.09135],[-121.48113,38.08981],[-121.47975,38.08583],[-121.47298,38.08452],[-121.47167,38.08349],[-121.46968,38.07964],[-121.47042,38.07528],[-121.46931,38.07361],[-121.46546,38.07229],[-121.45963,38.068],[-121.45817,38.068],[-121.45361,38.07113],[-121.4512,38.0751],[-121.44817,38.07672],[-121.44159,38.08226],[-121.43613,38.08255],[-121.43353,38.0846],[-121.42844,38.0842],[-121.42101,38.08587],[-121.41714,38.08413],[-121.41571,38.08264],[-121.41578,38.08645],[-121.41479,38.07687],[-121.41714,38.07222],[-121.39306,38.07232],[-121.39161,38.05812],[-121.37248,38.05791],[-121.36538,38.03529],[-121.35864,38.02134],[-121.35492,38.01382],[-121.34113,37.97943],[-121.34529,37.97668],[-121.34824,37.97399],[-121.35122,37.97321],[-121.3525,37.97123],[-121.35921,37.96761],[-121.36256,37.96834],[-121.36521,37.96748],[-121.36871,37.96745],[-121.37032,37.96728],[-121.37284,37.96901],[-121.38309,37.97796],[-121.39214,37.98552],[-121.40766,37.99112],[-121.40852,37.98757],[-121.40959,37.98881],[-121.40943,37.99186],[-121.41579,37.99415],[-121.42233,37.99468],[-121.43137,37.99292],[-121.43576,37.99249],[-121.44569,37.99675],[-121.44999,37.99356],[-121.45223,37.9938],[-121.45701,37.99085],[-121.45963,37.99045],[-121.46646,37.98759],[-121.46949,37.98501],[-121.47475,37.98365],[-121.47539,37.9814],[-121.48412,37.99311],[-121.4874,37.99876],[-121.48984,37.99677],[-121.49142,37.99758],[-121.4917,37.99964],[-121.50756,37.9995],[-121.50608,37.99809],[-121.50547,37.9934],[-121.50684,37.99202],[-121.51152,37.99036],[-121.51342,37.98666],[-121.51595,37.98571],[-121.51546,37.98211],[-121.51219,37.97949],[-121.51216,37.97542],[-121.50649,37.97207],[-121.50085,37.97203],[-121.50085,37.97105],[-121.51976,37.97129],[-121.52387,37.97095],[-121.53017,37.96736],[-121.52912,37.96001],[-121.52633,37.95739],[-121.52489,37.9517],[-121.5237,37.9491],[-121.52455,37.9473],[-121.53127,37.94323],[-121.53144,37.93982],[-121.52365,37.9398],[-121.43113,37.93423],[-121.43596,37.93272],[-121.43627,37.93028],[-121.43247,37.92567],[-121.43523,37.92364],[-121.43575,37.92198],[-121.44882,37.91342],[-121.45256,37.91012],[-121.45736,37.90771],[-121.46349,37.9036],[-121.46796,37.90171],[-121.47487,37.89811],[-121.48149,37.89649],[-121.48719,37.89277],[-121.48778,37.89361],[-121.49057,37.89352],[-121.49271,37.89738],[-121.49559,37.89919],[-121.49698,37.90447],[-121.50172,37.90801],[-121.50256,37.90828],[-121.50631,37.90733],[-121.50844,37.91052],[-121.50946,37.91098],[-121.51538,37.9118],[-121.51562,37.91315],[-121.51191,37.91564],[-121.51206,37.9158],[-121.51602,37.9131]],[[-121.51746,37.92162],[-121.52514,37.92346],[-121.52563,37.92794],[-121.52676,37.93131],[-121.52666,37.93522],[-121.5271,37.93557],[-121.53178,37.93852],[-121.53185,37.93827],[-121.5314,37.93791],[-121.52695,37.93542],[-121.52683,37.93135],[-121.52569,37.92803],[-121.52568,37.92389],[-121.52536,37.92348],[-121.51744,37.92154],[-121.51206,37.9158],[-121.51746,37.92162]]]]}},{"type":"Feature","properties":{"zcta":"95211","d":0},"geometry":{"type":"Polygon","coordinates":[[[-121.31531,37.98021],[-121.30988,37.98438],[-121.30727,37.9806],[-121.31371,37.97806],[-121.31442,37.97963],[-121.31862,37.97853],[-121.31858,37.97965],[-121.31531,37.98021]]]}},{"type":"Feature","properties":{"zcta":"95220","d":55},"geometry":{"type":"Polygon","coordinates":[[[-121.40975,38.23287],[-121.40643,38.23152],[-121.40517,38.22996],[-121.40169,38.23069],[-121.40132,38.22947],[-121.39819,38.22743],[-121.39572,38.22798],[-121.39492,38.22972],[-121.39246,38.2304],[-121.38905,38.23317],[-121.38542,38.23135],[-121.38251,38.23207],[-121.37791,38.23055],[-121.37317,38.23106],[-121.37091,38.22973],[-121.36698,38.23124],[-121.36435,38.22866],[-121.36239,38.22991],[-121.35468,38.23103],[-121.35031,38.23039],[-121.34801,38.22882],[-121.34402,38.22826],[-121.34179,38.22965],[-121.33904,38.22893],[-121.33481,38.23127],[-121.3319,38.23152],[-121.32931,38.23283],[-121.32177,38.23268],[-121.31774,38.23521],[-121.31307,38.23475],[-121.30905,38.23579],[-121.30531,38.23475],[-121.30068,38.23672],[-121.2955,38.23762],[-121.2927,38.23887],[-121.28995,38.24203],[-121.28799,38.24582],[-121.28005,38.23333],[-121.27705,38.23309],[-121.27787,38.23123],[-121.27119,38.22957],[-121.26807,38.23059],[-121.26781,38.22017],[-121.2673,38.21832],[-121.26316,38.21832],[-121.26306,38.2147],[-121.26759,38.21471],[-121.26755,38.2137],[-121.26368,38.20742],[-121.26156,38.20534],[-121.26151,38.20378],[-121.25362,38.20368],[-121.25342,38.19641],[-121.24888,38.19629],[-121.24899,38.20272],[-121.24491,38.20267],[-121.24441,38.20356],[-121.24483,38.21686],[-121.25393,38.21696],[-121.25387,38.21457],[-121.25848,38.21466],[-121.25862,38.21827],[-121.24465,38.21812],[-121.24499,38.23359],[-121.24135,38.23367],[-121.23931,38.23198],[-121.23544,38.23383],[-121.21981,38.23414],[-121.21865,38.23013],[-121.21273,38.23063],[-121.2127,38.22578],[-121.20827,38.22588],[-121.20823,38.21861],[-121.18964,38.21874],[-121.18988,38.23447],[-121.17487,38.2346],[-121.17285,38.23158],[-121.17603,38.23139],[-121.17594,38.22563],[-121.17288,38.22557],[-121.17234,38.21922],[-121.15265,38.22001],[-121.15305,38.23469],[-121.1498,38.23472],[-121.14474,38.23214],[-121.14447,38.23095],[-121.14095,38.23139],[-121.13964,38.23009],[-121.13367,38.22643],[-121.13165,38.22243],[-121.12756,38.22255],[-121.12729,38.22078],[-121.12391,38.22027],[-121.11583,38.22042],[-121.11659,38.23135],[-121.10942,38.23136],[-121.10479,38.22486],[-121.1066,38.2237],[-121.10654,38.22063],[-121.10415,38.21996],[-121.09757,38.22079],[-121.09654,38.22169],[-121.08919,38.22177],[-121.08829,38.22374],[-121.08798,38.21371],[-121.09075,38.20886],[-121.0943,38.2065],[-121.09324,38.20539],[-121.10387,38.1967],[-121.1061,38.19312],[-121.11093,38.19133],[-121.11527,38.19291],[-121.117,38.19105],[-121.12152,38.18903],[-121.12357,38.1872],[-121.12717,38.18868],[-121.13041,38.18457],[-121.13767,38.18271],[-121.13592,38.17896],[-121.13777,38.17748],[-121.14,38.17624],[-121.15109,38.17593],[-121.15545,38.17641],[-121.15986,38.17773],[-121.16563,38.17787],[-121.16948,38.17467],[-121.17012,38.17216],[-121.1718,38.17084],[-121.17147,38.1688],[-121.17311,38.16794],[-121.16969,38.16498],[-121.17176,38.16203],[-121.17845,38.15981],[-121.18099,38.15785],[-121.18236,38.15471],[-121.18448,38.15413],[-121.18545,38.15162],[-121.18762,38.15132],[-121.18945,38.14829],[-121.19192,38.15029],[-121.19311,38.14818],[-121.19677,38.15091],[-121.19501,38.1531],[-121.19464,38.15626],[-121.19709,38.15662],[-121.19914,38.15855],[-121.20493,38.15858],[-121.20619,38.15951],[-121.20846,38.16081],[-121.20927,38.15856],[-121.21186,38.15851],[-121.21158,38.15732],[-121.21416,38.15593],[-121.21384,38.15469],[-121.21709,38.15523],[-121.21894,38.15319],[-121.22003,38.14904],[-121.21804,38.14823],[-121.22097,38.14573],[-121.2211,38.14454],[-121.22597,38.14281],[-121.22924,38.14698],[-121.22942,38.14886],[-121.23257,38.14861],[-121.23315,38.14676],[-121.23552,38.14705],[-121.23711,38.14495],[-121.23986,38.14651],[-121.24215,38.14956],[-121.24584,38.15116],[-121.24773,38.14908],[-121.24895,38.14988],[-121.25109,38.14847],[-121.25308,38.14882],[-121.25612,38.14613],[-121.26115,38.14883],[-121.2635,38.14899],[-121.26523,38.14755],[-121.2669,38.14891],[-121.27193,38.14862],[-121.27804,38.1504],[-121.27903,38.14847],[-121.28034,38.15059],[-121.28232,38.15028],[-121.285,38.15182],[-121.28754,38.15476],[-121.29014,38.15143],[-121.29189,38.15197],[-121.29252,38.14973],[-121.29292,38.15191],[-121.29129,38.15392],[-121.29131,38.16016],[-121.29528,38.16014],[-121.29492,38.1674],[-121.29406,38.17468],[-121.30776,38.17466],[-121.30819,38.18609],[-121.31724,38.18614],[-121.31739,38.18917],[-121.32207,38.18918],[-121.32303,38.18998],[-121.32831,38.19049],[-121.33154,38.19364],[-121.33226,38.19745],[-121.33583,38.19854],[-121.33639,38.20065],[-121.33484,38.20373],[-121.33585,38.20572],[-121.3397,38.20606],[-121.34204,38.20714],[-121.34653,38.20764],[-121.34752,38.20906],[-121.35428,38.21093],[-121.35598,38.21235],[-121.35821,38.21233],[-121.35913,38.21047],[-121.36171,38.209],[-121.36523,38.2086],[-121.36611,38.21007],[-121.37283,38.20935],[-121.37644,38.20994],[-121.37943,38.21217],[-121.3805,38.21008],[-121.39055,38.2107],[-121.39366,38.2134],[-121.39314,38.21865],[-121.39571,38.2211],[-121.39996,38.22132],[-121.40517,38.22455],[-121.40687,38.22446],[-121.41047,38.22627],[-121.41059,38.2313],[-121.411,38.23193],[-121.40975,38.23287]]]}},{"type":"Feature","properties":{"zcta":"95230","d":3},"geometry":{"type":"Polygon","coordinates":[[[-121.0152,37.93242],[-121.01447,37.93511],[-121.01262,37.93491],[-121.01104,37.93645],[-121.00875,37.93435],[-121.0057,37.93488],[-121.0279,37.95891],[-121.02073,37.95895],[-121.02049,37.96611],[-121.02494,37.96606],[-121.02512,37.9733],[-120.94464,37.97371],[-120.94476,38.01735],[-120.92652,38.01723],[-120.92654,38.07311],[-120.92645,38.07742],[-120.91868,38.07076],[-120.91718,38.07043],[-120.90937,38.06862],[-120.90407,38.06991],[-120.89964,38.07002],[-120.89831,38.06831],[-120.89047,38.06572],[-120.89055,38.06367],[-120.8889,38.06273],[-120.88571,38.06299],[-120.88182,38.05983],[-120.87736,38.05778],[-120.87312,38.05785],[-120.87252,38.05501],[-120.8674,38.05275],[-120.86268,38.0537],[-120.86176,38.05038],[-120.86028,38.04897],[-120.85902,38.04264],[-120.85663,38.04028],[-120.85553,38.03789],[-120.85194,38.03524],[-120.85008,38.03771],[-120.84623,38.03963],[-120.84189,38.03972],[-120.83456,38.04567],[-120.82255,38.04715],[-120.82195,38.04891],[-120.81109,38.05077],[-120.8081,38.05192],[-120.80549,38.05454],[-120.80201,38.05382],[-120.80204,38.0521],[-120.79957,38.04925],[-120.7963,38.04931],[-120.79394,38.05041],[-120.79185,38.04955],[-120.78604,38.04897],[-120.78417,38.04944],[-120.77971,38.053],[-120.78,38.05501],[-120.78354,38.06278],[-120.78775,38.06652],[-120.78635,38.06786],[-120.7871,38.07125],[-120.7883,38.07213],[-120.7882,38.09035],[-120.7594,38.09053],[-120.757,38.08759],[-120.75041,38.08311],[-120.74747,38.07903],[-120.74158,38.07687],[-120.73875,38.07288],[-120.74103,38.06366],[-120.7405,38.06094],[-120.73641,38.05369],[-120.73554,38.0558],[-120.72862,38.05839],[-120.72406,38.05371],[-120.72152,38.04979],[-120.71584,38.04915],[-120.69623,38.04876],[-120.69085,38.04746],[-120.69587,38.04482],[-120.71406,38.03086],[-120.71572,38.02857],[-120.71973,38.0286],[-120.73179,38.02466],[-120.74038,38.023],[-120.74896,38.01828],[-120.75743,38.02411],[-120.76023,38.02559],[-120.76233,38.02532],[-120.76476,38.02292],[-120.77258,38.0222],[-120.77554,38.01987],[-120.77554,38.01797],[-120.7771,38.01731],[-120.76914,38.01733],[-120.76926,38.00288],[-120.75978,38.00278],[-120.75998,37.9593],[-120.7939,37.95923],[-120.789,37.95477],[-120.784,37.95096],[-120.77579,37.94304],[-120.77038,37.93881],[-120.75269,37.92333],[-120.74734,37.91605],[-120.75302,37.91594],[-120.75632,37.91119],[-120.75673,37.90928],[-120.75866,37.90812],[-120.76042,37.90409],[-120.76463,37.90081],[-120.76539,37.89716],[-120.76742,37.89565],[-120.77748,37.89696],[-120.78053,37.89579],[-120.78221,37.89621],[-120.78752,37.90058],[-120.79047,37.90135],[-120.79418,37.90472],[-120.79403,37.90639],[-120.79624,37.9077],[-120.80099,37.91228],[-120.80572,37.91448],[-120.81025,37.91569],[-120.81191,37.91464],[-120.81462,37.9156],[-120.83449,37.91564],[-120.83449,37.90108],[-120.8162,37.90099],[-120.81657,37.88154],[-120.82283,37.8832],[-120.82711,37.88266],[-120.82941,37.88314],[-120.83754,37.88926],[-120.84535,37.89097],[-120.84753,37.89244],[-120.8507,37.89143],[-120.85351,37.88818],[-120.85679,37.88719],[-120.86166,37.88884],[-120.86417,37.88867],[-120.86869,37.89045],[-120.8692,37.89183],[-120.87154,37.89209],[-120.87291,37.89065],[-120.8798,37.88878],[-120.88083,37.89253],[-120.88238,37.89122],[-120.8816,37.88996],[-120.88353,37.88833],[-120.88715,37.88681],[-120.88818,37.88878],[-120.8906,37.88863],[-120.89843,37.8912],[-120.90038,37.89068],[-120.9022,37.89199],[-120.907,37.88788],[-120.91143,37.887],[-120.91357,37.88846],[-120.913,37.89118],[-120.91733,37.89199],[-120.91822,37.89488],[-120.92043,37.89473],[-120.92212,37.90007],[-120.92636,37.90026],[-120.92635,37.88672],[-120.92548,37.85841],[-120.92585,37.85696],[-120.94358,37.85676],[-120.94366,37.85957],[-120.94605,37.86097],[-120.94785,37.86021],[-120.95375,37.86221],[-120.96233,37.86929],[-120.96255,37.87472],[-120.95341,37.87483],[-120.95373,37.88229],[-120.94725,37.88232],[-120.94455,37.88315],[-120.94464,37.90026],[-120.94636,37.90641],[-120.94783,37.90695],[-120.95259,37.90427],[-120.95377,37.90564],[-120.95465,37.90953],[-120.95908,37.90867],[-120.9611,37.91045],[-120.96131,37.91356],[-120.96575,37.91646],[-120.9674,37.91997],[-120.96979,37.92246],[-120.97373,37.92466],[-120.97742,37.92467],[-120.97988,37.92644],[-120.98629,37.92622],[-120.99058,37.92513],[-120.99493,37.92605],[-120.99837,37.92775],[-121.00015,37.92539],[-120.99994,37.89365],[-121.04601,37.89295],[-121.04631,37.90125],[-121.01223,37.90125],[-121.01221,37.92194],[-121.01397,37.92235],[-121.01905,37.92558],[-121.02211,37.92376],[-121.02176,37.92189],[-121.02455,37.92014],[-121.0277,37.9201],[-121.02781,37.92971],[-121.0162,37.92984],[-121.01628,37.93265],[-121.0152,37.93242]]]}},{"type":"Feature","properties":{"zcta":"95304","d":40},"geometry":{"type":"Polygon","coordinates":[[[-121.55568,37.54906],[-121.55107,37.54948],[-121.55022,37.54865],[-121.54578,37.54829],[-121.54426,37.54723],[-121.53955,37.54822],[-121.53718,37.54994],[-121.52708,37.55363],[-121.52195,37.55423],[-121.52037,37.55535],[-121.51723,37.55542],[-121.50893,37.56035],[-121.50671,37.55995],[-121.50503,37.56111],[-121.50013,37.5599],[-121.49842,37.56137],[-121.49378,37.56272],[-121.48847,37.56334],[-121.48463,37.56451],[-121.48094,37.5671],[-121.47065,37.56476],[-121.46592,37.56524],[-121.46453,37.56415],[-121.461,37.56502],[-121.45863,37.56311],[-121.44907,37.56272],[-121.44736,37.56356],[-121.44361,37.56326],[-121.44212,37.56214],[-121.43973,37.56247],[-121.43914,37.56475],[-121.43754,37.56506],[-121.43929,37.56778],[-121.43963,37.57046],[-121.43783,37.57229],[-121.43561,37.5729],[-121.4321,37.57606],[-121.4267,37.5771],[-121.42486,37.57905],[-121.42213,37.57973],[-121.4203,37.58464],[-121.41749,37.58653],[-121.41068,37.58904],[-121.40537,37.59265],[-121.40221,37.59378],[-121.39949,37.59733],[-121.39473,37.59932],[-121.39042,37.60015],[-121.38941,37.60271],[-121.38604,37.60562],[-121.38333,37.60683],[-121.37954,37.61064],[-121.37598,37.61139],[-121.36869,37.61498],[-121.36515,37.61492],[-121.37414,37.62168],[-121.39757,37.63588],[-121.4343,37.65854],[-121.43434,37.66112],[-121.42959,37.6575],[-121.41598,37.65041],[-121.4163,37.6917],[-121.41638,37.7106],[-121.41657,37.73975],[-121.41095,37.74023],[-121.40969,37.74495],[-121.40973,37.74853],[-121.41434,37.75025],[-121.41467,37.75428],[-121.41477,37.76439],[-121.42321,37.76317],[-121.43734,37.76308],[-121.44457,37.76185],[-121.4533,37.75829],[-121.49254,37.74221],[-121.49711,37.74096],[-121.50085,37.74067],[-121.53157,37.74259],[-121.5315,37.75097],[-121.5275,37.75095],[-121.53135,37.75269],[-121.53154,37.75796],[-121.51733,37.75843],[-121.52246,37.76056],[-121.52413,37.76304],[-121.52806,37.76549],[-121.52236,37.76556],[-121.52239,37.7692],[-121.52502,37.76916],[-121.52241,37.77284],[-121.53168,37.77285],[-121.53154,37.78263],[-121.51332,37.77164],[-121.51338,37.78898],[-121.51709,37.79285],[-121.52004,37.79462],[-121.52292,37.79783],[-121.52612,37.79874],[-121.52921,37.8023],[-121.53296,37.80522],[-121.53849,37.80732],[-121.54261,37.81054],[-121.54619,37.81144],[-121.55507,37.81744],[-121.5539,37.81801],[-121.55208,37.8225],[-121.54807,37.82011],[-121.44966,37.82003],[-121.43546,37.81993],[-121.42869,37.81942],[-121.42084,37.81263],[-121.41793,37.81308],[-121.41395,37.81031],[-121.41108,37.80981],[-121.40736,37.80635],[-121.41029,37.80573],[-121.4115,37.80342],[-121.4138,37.80341],[-121.41269,37.80202],[-121.40529,37.80149],[-121.39132,37.80499],[-121.38832,37.8045],[-121.37061,37.80032],[-121.36582,37.79606],[-121.36206,37.78943],[-121.35999,37.78877],[-121.3533,37.79],[-121.35041,37.78831],[-121.34948,37.78457],[-121.34004,37.78124],[-121.33963,37.77958],[-121.3359,37.77585],[-121.33187,37.77498],[-121.3283,37.77222],[-121.3244,37.77061],[-121.32207,37.76755],[-121.31816,37.76433],[-121.30746,37.77623],[-121.30585,37.77756],[-121.30043,37.7797],[-121.29938,37.77798],[-121.30305,37.77344],[-121.30141,37.77188],[-121.30184,37.76883],[-121.30779,37.76649],[-121.30857,37.76145],[-121.30591,37.76005],[-121.30445,37.75818],[-121.30293,37.75121],[-121.29294,37.75195],[-121.29221,37.74942],[-121.29053,37.74764],[-121.29102,37.74472],[-121.29649,37.73921],[-121.29668,37.73725],[-121.29542,37.73317],[-121.29819,37.72756],[-121.29431,37.72469],[-121.29161,37.72131],[-121.2902,37.71636],[-121.28232,37.71358],[-121.27813,37.70956],[-121.27686,37.71218],[-121.2786,37.71753],[-121.27796,37.71965],[-121.27175,37.7212],[-121.26295,37.72157],[-121.25921,37.71872],[-121.26338,37.71634],[-121.26766,37.71253],[-121.2708,37.70753],[-121.27199,37.70458],[-121.27475,37.7009],[-121.27404,37.69924],[-121.27077,37.69623],[-121.27011,37.69374],[-121.27118,37.69152],[-121.27523,37.68855],[-121.26761,37.68739],[-121.25917,37.68796],[-121.25669,37.6871],[-121.25602,37.68491],[-121.25718,37.68312],[-121.26385,37.67941],[-121.26534,37.67748],[-121.2638,37.67429],[-121.26229,37.67327],[-121.25796,37.67231],[-121.25121,37.66494],[-121.24915,37.66427],[-121.24665,37.6667],[-121.24628,37.67252],[-121.24347,37.67221],[-121.24198,37.66714],[-121.24003,37.66492],[-121.25682,37.65164],[-121.25857,37.65404],[-121.27828,37.63828],[-121.28763,37.63826],[-121.28754,37.62754],[-121.32405,37.59883],[-121.32397,37.59457],[-121.32898,37.59479],[-121.33379,37.59073],[-121.37375,37.55983],[-121.37545,37.55843],[-121.47192,37.48178],[-121.4712,37.48503],[-121.46921,37.48936],[-121.47376,37.49278],[-121.4759,37.49527],[-121.47936,37.49648],[-121.48206,37.50144],[-121.48659,37.50139],[-121.49318,37.50242],[-121.49602,37.50494],[-121.49521,37.50686],[-121.49668,37.50921],[-121.49723,37.51246],[-121.50237,37.51847],[-121.49958,37.52014],[-121.49827,37.52243],[-121.50147,37.525],[-121.50442,37.52586],[-121.50788,37.52477],[-121.51367,37.52476],[-121.51675,37.52551],[-121.51913,37.52445],[-121.52233,37.5247],[-121.52386,37.52621],[-121.52882,37.52806],[-121.5299,37.52705],[-121.53362,37.52889],[-121.54183,37.53022],[-121.54575,37.53253],[-121.55045,37.53933],[-121.55665,37.54273],[-121.55666,37.55004],[-121.55568,37.54906]]]}},{"type":"Feature","properties":{"zcta":"95242","d":140},"geometry":{"type":"Polygon","coordinates":[[[-121.40982,38.22235],[-121.41055,38.22613],[-121.411,38.23193],[-121.41059,38.2313],[-121.41047,38.22627],[-121.40687,38.22446],[-121.40517,38.22455],[-121.39996,38.22132],[-121.39571,38.2211],[-121.39314,38.21865],[-121.39366,38.2134],[-121.39055,38.2107],[-121.3805,38.21008],[-121.37943,38.21217],[-121.37644,38.20994],[-121.37283,38.20935],[-121.36611,38.21007],[-121.36523,38.2086],[-121.36171,38.209],[-121.35913,38.21047],[-121.35821,38.21233],[-121.35598,38.21235],[-121.35428,38.21093],[-121.34752,38.20906],[-121.34653,38.20764],[-121.34204,38.20714],[-121.3397,38.20606],[-121.33585,38.20572],[-121.33484,38.20373],[-121.33639,38.20065],[-121.33583,38.19854],[-121.33226,38.19745],[-121.33154,38.19364],[-121.32831,38.19049],[-121.32303,38.18998],[-121.32207,38.18918],[-121.32655,38.18917],[-121.32575,38.16738],[-121.31819,38.15876],[-121.31621,38.15825],[-121.31597,38.15335],[-121.31236,38.15342],[-121.31087,38.15158],[-121.31085,38.14898],[-121.30833,38.149],[-121.30767,38.15061],[-121.30422,38.15188],[-121.30443,38.15091],[-121.29782,38.14917],[-121.29622,38.15062],[-121.29557,38.14883],[-121.29252,38.14973],[-121.29189,38.15197],[-121.29014,38.15143],[-121.28839,38.14929],[-121.28819,38.12638],[-121.2859,38.12635],[-121.28588,38.12471],[-121.28817,38.12471],[-121.28791,38.10705],[-121.28635,38.10347],[-121.28632,38.10106],[-121.2881,38.10101],[-121.28755,38.08758],[-121.28326,38.08381],[-121.28314,38.0778],[-121.28737,38.07523],[-121.28718,38.05746],[-121.31479,38.0576],[-121.35183,38.05771],[-121.35192,38.07231],[-121.36896,38.07252],[-121.37129,38.07181],[-121.37824,38.07244],[-121.39306,38.07232],[-121.41714,38.07222],[-121.41479,38.07687],[-121.41578,38.08645],[-121.41571,38.08264],[-121.41714,38.08413],[-121.42101,38.08587],[-121.42844,38.0842],[-121.43353,38.0846],[-121.43613,38.08255],[-121.44159,38.08226],[-121.44817,38.07672],[-121.4512,38.0751],[-121.45361,38.07113],[-121.45817,38.068],[-121.45963,38.068],[-121.46546,38.07229],[-121.46931,38.07361],[-121.47042,38.07528],[-121.46968,38.07964],[-121.47167,38.08349],[-121.47298,38.08452],[-121.47975,38.08583],[-121.48113,38.08981],[-121.48351,38.09135],[-121.48887,38.08958],[-121.49084,38.08967],[-121.49335,38.0918],[-121.49293,38.09445],[-121.49494,38.09691],[-121.49265,38.0975],[-121.49131,38.09957],[-121.4881,38.10042],[-121.48885,38.10551],[-121.49154,38.10701],[-121.49584,38.10613],[-121.49992,38.10823],[-121.50052,38.10973],[-121.49812,38.11242],[-121.49695,38.1151],[-121.49828,38.115],[-121.50139,38.11517],[-121.50141,38.11622],[-121.49599,38.11674],[-121.49618,38.11947],[-121.49931,38.12242],[-121.49611,38.12637],[-121.49848,38.12891],[-121.50376,38.13],[-121.50725,38.13347],[-121.50367,38.13651],[-121.50503,38.14003],[-121.50463,38.14356],[-121.507,38.14551],[-121.50358,38.15073],[-121.50393,38.15743],[-121.50041,38.16134],[-121.49335,38.16402],[-121.49239,38.16525],[-121.48831,38.16702],[-121.48588,38.16712],[-121.48477,38.16577],[-121.48158,38.16467],[-121.47456,38.16694],[-121.471,38.16914],[-121.4664,38.16846],[-121.46199,38.1697],[-121.45627,38.16948],[-121.44613,38.17293],[-121.4462,38.19543],[-121.43253,38.19545],[-121.4326,38.2041],[-121.41061,38.20399],[-121.40968,38.20689],[-121.4113,38.21119],[-121.41728,38.22221],[-121.40982,38.22235]]]}},{"type":"Feature","properties":{"zcta":"95237","d":228},"geometry":{"type":"Polygon","coordinates":[[[-121.17837,38.14542],[-121.17845,38.15981],[-121.17176,38.16203],[-121.16969,38.16498],[-121.17311,38.16794],[-121.17147,38.1688],[-121.1718,38.17084],[-121.17012,38.17216],[-121.16948,38.17467],[-121.16563,38.17787],[-121.15986,38.17773],[-121.15545,38.17641],[-121.15109,38.17593],[-121.14,38.17624],[-121.13777,38.17748],[-121.13795,38.16937],[-121.13228,38.17118],[-121.09688,38.18632],[-121.09711,38.18045],[-121.09672,38.17889],[-121.09658,38.1748],[-121.09861,38.17436],[-121.10023,38.17555],[-121.10106,38.17375],[-121.10485,38.17297],[-121.10869,38.16944],[-121.11022,38.16952],[-121.11159,38.16735],[-121.11567,38.16556],[-121.12424,38.16395],[-121.12688,38.16094],[-121.1297,38.15946],[-121.1302,38.15673],[-121.13424,38.15461],[-121.13593,38.15523],[-121.13859,38.1531],[-121.13331,38.14833],[-121.13301,38.14739],[-121.15064,38.14697],[-121.15069,38.1407],[-121.15417,38.13181],[-121.16608,38.13101],[-121.16249,38.13874],[-121.16441,38.13836],[-121.16441,38.13624],[-121.17268,38.13624],[-121.17268,38.13807],[-121.18768,38.13804],[-121.18769,38.14022],[-121.17837,38.14542]]]}},{"type":"Feature","properties":{"zcta":"95204","d":2635},"geometry":{"type":"Polygon","coordinates":[[[-121.36521,37.96748],[-121.36256,37.96834],[-121.35921,37.96761],[-121.3525,37.97123],[-121.35122,37.97321],[-121.34824,37.97399],[-121.34529,37.97668],[-121.34113,37.97943],[-121.33464,37.98074],[-121.33169,37.98076],[-121.32743,37.98206],[-121.32158,37.98106],[-121.31858,37.97965],[-121.31862,37.97853],[-121.31442,37.97963],[-121.31371,37.97806],[-121.30727,37.9806],[-121.30988,37.98438],[-121.30603,37.99014],[-121.30235,37.99186],[-121.29633,37.99221],[-121.29135,37.99322],[-121.28342,37.99369],[-121.28161,37.99445],[-121.28298,37.97435],[-121.28439,37.97652],[-121.28848,37.97466],[-121.28661,37.96874],[-121.29786,37.96683],[-121.30361,37.96532],[-121.30553,37.96549],[-121.30701,37.96791],[-121.34646,37.95812],[-121.34951,37.95668],[-121.35352,37.95806],[-121.35436,37.95692],[-121.36001,37.9597],[-121.3691,37.96709],[-121.36871,37.96745],[-121.36521,37.96748]]]}},{"type":"Feature","properties":{"zcta":"95377","d":163},"geometry":{"type":"Polygon","coordinates":[[[-121.62748,37.73474],[-121.60907,37.73784],[-121.6008,37.73839],[-121.59428,37.73919],[-121.58018,37.74143],[-121.54967,37.74369],[-121.53157,37.74259],[-121.50085,37.74067],[-121.49711,37.74096],[-121.49254,37.74221],[-121.4533,37.75829],[-121.45313,37.72338],[-121.46984,37.71696],[-121.46909,37.71657],[-121.46108,37.71958],[-121.45485,37.7209],[-121.45369,37.7184],[-121.45399,37.71137],[-121.45286,37.71058],[-121.41638,37.7106],[-121.4163,37.6917],[-121.41598,37.65041],[-121.42959,37.6575],[-121.43434,37.66112],[-121.4343,37.65854],[-121.39757,37.63588],[-121.37414,37.62168],[-121.36515,37.61492],[-121.36869,37.61498],[-121.37598,37.61139],[-121.37954,37.61064],[-121.38333,37.60683],[-121.38604,37.60562],[-121.38941,37.60271],[-121.39042,37.60015],[-121.39473,37.59932],[-121.39949,37.59733],[-121.40221,37.59378],[-121.40537,37.59265],[-121.41068,37.58904],[-121.41749,37.58653],[-121.4203,37.58464],[-121.42213,37.57973],[-121.42486,37.57905],[-121.4267,37.5771],[-121.4321,37.57606],[-121.43561,37.5729],[-121.43783,37.57229],[-121.43963,37.57046],[-121.43929,37.56778],[-121.43754,37.56506],[-121.43914,37.56475],[-121.43973,37.56247],[-121.44212,37.56214],[-121.44361,37.56326],[-121.44736,37.56356],[-121.44907,37.56272],[-121.45863,37.56311],[-121.461,37.56502],[-121.46453,37.56415],[-121.46592,37.56524],[-121.47065,37.56476],[-121.48094,37.5671],[-121.48463,37.56451],[-121.48847,37.56334],[-121.49378,37.56272],[-121.49842,37.56137],[-121.50013,37.5599],[-121.50503,37.56111],[-121.50671,37.55995],[-121.50893,37.56035],[-121.51723,37.55542],[-121.52037,37.55535],[-121.52195,37.55423],[-121.52708,37.55363],[-121.53718,37.54994],[-121.53955,37.54822],[-121.54426,37.54723],[-121.54578,37.54829],[-121.55022,37.54865],[-121.55107,37.54948],[-121.55568,37.54906],[-121.55666,37.55004],[-121.55696,37.66423],[-121.56004,37.66438],[-121.60549,37.66475],[-121.60548,37.66633],[-121.60986,37.66813],[-121.61362,37.66785],[-121.61824,37.66658],[-121.62445,37.66883],[-121.62533,37.66973],[-121.62228,37.67271],[-121.62493,37.68258],[-121.62828,37.68356],[-121.62952,37.68683],[-121.62489,37.68643],[-121.61364,37.68677],[-121.60793,37.68744],[-121.6028,37.68645],[-121.59716,37.68706],[-121.58939,37.69598],[-121.58505,37.69858],[-121.5818,37.70295],[-121.57634,37.70604],[-121.57351,37.70941],[-121.57089,37.71058],[-121.56819,37.71295],[-121.56773,37.7149],[-121.56166,37.71489],[-121.56288,37.71913],[-121.56511,37.72315],[-121.57009,37.72664],[-121.57271,37.72575],[-121.57528,37.72355],[-121.58149,37.72147],[-121.58544,37.72287],[-121.58776,37.72534],[-121.59076,37.72581],[-121.59373,37.72435],[-121.59768,37.72545],[-121.60292,37.7332],[-121.60502,37.73414],[-121.6087,37.73227],[-121.61625,37.73194],[-121.62139,37.73124],[-121.62704,37.73181],[-121.6295,37.7342],[-121.62748,37.73474]]]}},{"type":"Feature","properties":{"zcta":"95203","d":1052},"geometry":{"type":"Polygon","coordinates":[[[-121.36871,37.96745],[-121.3691,37.96709],[-121.36001,37.9597],[-121.35436,37.95692],[-121.35352,37.95806],[-121.34951,37.95668],[-121.34646,37.95812],[-121.30701,37.96791],[-121.30553,37.96549],[-121.30361,37.96532],[-121.29786,37.96683],[-121.29718,37.96487],[-121.29689,37.95879],[-121.29532,37.95803],[-121.29306,37.94971],[-121.27742,37.95239],[-121.27555,37.94549],[-121.2799,37.94726],[-121.28279,37.94704],[-121.28241,37.94561],[-121.28627,37.94495],[-121.28783,37.94553],[-121.28866,37.94355],[-121.29023,37.94434],[-121.31795,37.93975],[-121.31968,37.94292],[-121.32088,37.9412],[-121.32874,37.93996],[-121.33097,37.94177],[-121.33202,37.9444],[-121.33622,37.94425],[-121.33855,37.94656],[-121.34034,37.94609],[-121.34257,37.94331],[-121.34608,37.9427],[-121.34818,37.93996],[-121.35063,37.94037],[-121.35288,37.93953],[-121.35711,37.94132],[-121.3662,37.94132],[-121.37206,37.94494],[-121.37148,37.94665],[-121.37298,37.94809],[-121.37757,37.94986],[-121.3766,37.95276],[-121.37838,37.95803],[-121.38008,37.95872],[-121.37774,37.96234],[-121.37412,37.96274],[-121.3731,37.96472],[-121.37032,37.96728],[-121.36871,37.96745]]]}},{"type":"Feature","properties":{"zcta":"95336","d":589},"geometry":{"type":"Polygon","coordinates":[[[-121.24774,37.8791],[-121.24309,37.87916],[-121.24072,37.87653],[-121.22951,37.8792],[-121.22387,37.87887],[-121.22391,37.87998],[-121.22027,37.88006],[-121.21949,37.87502],[-121.21484,37.87623],[-121.20907,37.8763],[-121.20668,37.87797],[-121.20486,37.87788],[-121.19851,37.88014],[-121.19313,37.8794],[-121.19061,37.88053],[-121.18721,37.88092],[-121.18495,37.88324],[-121.18367,37.88609],[-121.17807,37.88601],[-121.17639,37.88726],[-121.17011,37.88833],[-121.1654,37.88865],[-121.16471,37.87025],[-121.15551,37.87022],[-121.15457,37.85034],[-121.15219,37.85039],[-121.14899,37.85177],[-121.14714,37.85365],[-121.14549,37.85364],[-121.14475,37.8375],[-121.14064,37.83628],[-121.13638,37.83671],[-121.13058,37.83606],[-121.12649,37.83639],[-121.12646,37.83417],[-121.13107,37.83412],[-121.13097,37.83051],[-121.13573,37.83048],[-121.13561,37.82688],[-121.14426,37.82679],[-121.1437,37.81218],[-121.15683,37.8121],[-121.15652,37.80488],[-121.14344,37.80489],[-121.14285,37.77871],[-121.14657,37.77871],[-121.14657,37.7769],[-121.17832,37.77684],[-121.17933,37.77734],[-121.17924,37.77322],[-121.2005,37.7858],[-121.21638,37.79504],[-121.25325,37.81679],[-121.25304,37.81216],[-121.2533,37.81682],[-121.26253,37.82158],[-121.26271,37.82347],[-121.25582,37.82338],[-121.25605,37.82596],[-121.25435,37.82652],[-121.26299,37.82644],[-121.26443,37.85561],[-121.26579,37.87861],[-121.26623,37.88094],[-121.25965,37.87764],[-121.2506,37.87175],[-121.24757,37.87588],[-121.25047,37.87806],[-121.24905,37.88115],[-121.24774,37.8791]]]}},{"type":"Feature","properties":{"zcta":"95236","d":23},"geometry":{"type":"Polygon","coordinates":[[[-121.14754,38.06815],[-121.14427,38.06848],[-121.14247,38.06605],[-121.14246,38.07332],[-121.13324,38.07354],[-121.13325,38.07696],[-121.13327,38.08082],[-121.11485,38.0813],[-121.11486,38.08864],[-121.08734,38.08912],[-121.08734,38.09638],[-121.07811,38.09653],[-121.07811,38.10734],[-121.06426,38.10764],[-121.06422,38.1113],[-121.01596,38.11112],[-121.01596,38.1232],[-121.01219,38.13573],[-121.01223,38.16064],[-121.01774,38.16102],[-121.0212,38.15993],[-121.01935,38.16094],[-120.97534,38.17822],[-120.94211,38.09633],[-120.93842,38.09619],[-120.93886,38.09399],[-120.93758,38.09358],[-120.93544,38.09715],[-120.92644,38.09988],[-120.92645,38.10165],[-120.92196,38.10292],[-120.91827,38.1047],[-120.90884,38.10477],[-120.91026,38.10238],[-120.90906,38.09993],[-120.91054,38.09737],[-120.91022,38.09467],[-120.91138,38.09139],[-120.91062,38.08933],[-120.9123,38.08849],[-120.9132,38.08533],[-120.91247,38.08386],[-120.91243,38.07533],[-120.91353,38.07344],[-120.91711,38.07341],[-120.91718,38.07043],[-120.91868,38.07076],[-120.92645,38.07742],[-120.92654,38.07311],[-120.92652,38.01723],[-120.94476,38.01735],[-120.94464,37.97371],[-121.02512,37.9733],[-121.02494,37.96606],[-121.02049,37.96611],[-121.02073,37.95895],[-121.0279,37.95891],[-121.0057,37.93488],[-121.00875,37.93435],[-121.01104,37.93645],[-121.01262,37.93491],[-121.01447,37.93511],[-121.0152,37.93242],[-121.01628,37.93265],[-121.02049,37.9338],[-121.02255,37.93273],[-121.02666,37.93463],[-121.03036,37.93861],[-121.03381,37.93972],[-121.03849,37.93857],[-121.04005,37.93999],[-121.04412,37.94031],[-121.04889,37.93915],[-121.06469,37.93887],[-121.06749,37.93848],[-121.06972,37.9353],[-121.07487,37.93731],[-121.07738,37.93586],[-121.08412,37.93491],[-121.08503,37.95766],[-121.07582,37.95783],[-121.07589,37.96008],[-121.08046,37.96033],[-121.08197,37.96152],[-121.08379,37.96032],[-121.08514,37.9613],[-121.08555,37.96497],[-121.08711,37.96361],[-121.08956,37.96392],[-121.09011,37.96115],[-121.09343,37.95983],[-121.09687,37.96097],[-121.11699,37.9607],[-121.11748,37.95717],[-121.12875,37.9569],[-121.13128,37.95723],[-121.14238,37.95714],[-121.14833,37.95784],[-121.14849,37.96482],[-121.13781,37.96509],[-121.13284,37.96692],[-121.12485,37.96688],[-121.12255,37.96823],[-121.11436,37.97005],[-121.1133,37.97181],[-121.12681,37.97143],[-121.1269,37.97474],[-121.12295,37.97594],[-121.1171,37.97894],[-121.14887,37.97846],[-121.14947,38.00074],[-121.14128,38.00297],[-121.14144,38.01093],[-121.14975,38.01075],[-121.15051,38.04391],[-121.14913,38.04827],[-121.14213,38.04835],[-121.14217,38.05128],[-121.1473,38.0512],[-121.14746,38.05855],[-121.15092,38.05844],[-121.15087,38.06567],[-121.14754,38.06815]]]}},{"type":"Feature","properties":{"zcta":"95686","d":0},"geometry":{"type":"Polygon","coordinates":[[[-121.50543,38.11666],[-121.51028,38.11948],[-121.51189,38.12111],[-121.51702,38.12294],[-121.52839,38.12184],[-121.53629,38.11934],[-121.54677,38.11724],[-121.55674,38.11782],[-121.55995,38.12065],[-121.56274,38.13054],[-121.56675,38.13263],[-121.57189,38.13151],[-121.56244,38.13598],[-121.55769,38.13675],[-121.55729,38.13912],[-121.56014,38.14213],[-121.55918,38.14389],[-121.5499,38.14606],[-121.54692,38.14811],[-121.5434,38.14757],[-121.54266,38.15083],[-121.54058,38.15198],[-121.53631,38.15158],[-121.53453,38.15576],[-121.53615,38.15816],[-121.53397,38.15968],[-121.53346,38.16267],[-121.5314,38.1631],[-121.5293,38.16902],[-121.52511,38.17128],[-121.52461,38.17484],[-121.52607,38.17891],[-121.52781,38.18102],[-121.52711,38.18286],[-121.525,38.18387],[-121.52445,38.18552],[-121.52915,38.19383],[-121.5289,38.19533],[-121.5256,38.19728],[-121.52213,38.20191],[-121.51987,38.20316],[-121.51273,38.20256],[-121.50993,38.20458],[-121.5083,38.20711],[-121.50808,38.20924],[-121.50433,38.21213],[-121.50625,38.21754],[-121.50749,38.22256],[-121.50639,38.22459],[-121.50434,38.22454],[-121.50101,38.22685],[-121.49766,38.22768],[-121.49586,38.22711],[-121.49167,38.22769],[-121.49076,38.23219],[-121.4877,38.23468],[-121.48663,38.23731],[-121.48661,38.24046],[-121.48324,38.24215],[-121.48159,38.24443],[-121.47874,38.24599],[-121.47851,38.25108],[-121.48007,38.25358],[-121.47658,38.25634],[-121.47622,38.25778],[-121.47096,38.2599],[-121.46608,38.25993],[-121.4614,38.25916],[-121.45868,38.25736],[-121.45578,38.25757],[-121.45043,38.25462],[-121.44777,38.2551],[-121.4443,38.24608],[-121.43734,38.24654],[-121.43123,38.24649],[-121.42976,38.24456],[-121.42843,38.24074],[-121.42835,38.23185],[-121.41923,38.232],[-121.41911,38.22784],[-121.41627,38.22429],[-121.41728,38.22221],[-121.4113,38.21119],[-121.40968,38.20689],[-121.41061,38.20399],[-121.4326,38.2041],[-121.43253,38.19545],[-121.4462,38.19543],[-121.44613,38.17293],[-121.45627,38.16948],[-121.46199,38.1697],[-121.4664,38.16846],[-121.471,38.16914],[-121.47456,38.16694],[-121.48158,38.16467],[-121.48477,38.16577],[-121.48588,38.16712],[-121.48831,38.16702],[-121.49239,38.16525],[-121.49335,38.16402],[-121.50041,38.16134],[-121.50393,38.15743],[-121.50358,38.15073],[-121.507,38.14551],[-121.50463,38.14356],[-121.50503,38.14003],[-121.50367,38.13651],[-121.50725,38.13347],[-121.50376,38.13],[-121.49848,38.12891],[-121.49611,38.12637],[-121.49931,38.12242],[-121.49618,38.11947],[-121.49599,38.11674],[-121.50141,38.11622],[-121.50543,38.11666]]]}},{"type":"Feature","properties":{"zcta":"95330","d":709},"geometry":{"type":"Polygon","coordinates":[[[-121.40205,37.80549],[-121.39769,37.80626],[-121.3978,37.80822],[-121.39635,37.80964],[-121.39268,37.80936],[-121.38395,37.81166],[-121.38388,37.8137],[-121.38241,37.81448],[-121.38181,37.81716],[-121.37997,37.81732],[-121.3803,37.81985],[-121.3782,37.82024],[-121.37662,37.82219],[-121.36989,37.8215],[-121.36605,37.81928],[-121.36163,37.8197],[-121.35867,37.81752],[-121.35388,37.81691],[-121.35113,37.81788],[-121.3478,37.82175],[-121.34197,37.81733],[-121.34111,37.82125],[-121.33938,37.82206],[-121.33431,37.81963],[-121.33287,37.81776],[-121.33522,37.81335],[-121.33522,37.8104],[-121.33421,37.80905],[-121.33071,37.80807],[-121.32687,37.80901],[-121.32499,37.81034],[-121.31947,37.81122],[-121.31772,37.81249],[-121.32004,37.81512],[-121.31927,37.81622],[-121.31679,37.81599],[-121.31487,37.81769],[-121.31897,37.81879],[-121.32074,37.82039],[-121.32004,37.82142],[-121.31494,37.82357],[-121.31434,37.82472],[-121.31002,37.82632],[-121.31254,37.83212],[-121.31609,37.83532],[-121.31801,37.84087],[-121.32067,37.84212],[-121.32144,37.84472],[-121.32424,37.84747],[-121.32437,37.84879],[-121.32182,37.85069],[-121.32297,37.85447],[-121.32027,37.85397],[-121.32033,37.85535],[-121.30116,37.85547],[-121.30135,37.86048],[-121.28956,37.86055],[-121.28957,37.86202],[-121.28362,37.86202],[-121.28364,37.86414],[-121.28019,37.86407],[-121.27941,37.86574],[-121.2822,37.85565],[-121.27472,37.85556],[-121.27493,37.8264],[-121.26299,37.82644],[-121.25435,37.82652],[-121.25605,37.82596],[-121.25582,37.82338],[-121.26271,37.82347],[-121.26253,37.82158],[-121.2533,37.81682],[-121.25304,37.81216],[-121.25302,37.81174],[-121.26186,37.81187],[-121.26151,37.80544],[-121.26245,37.80001],[-121.26372,37.79731],[-121.27055,37.7971],[-121.27054,37.79057],[-121.2735,37.78893],[-121.27884,37.78697],[-121.30043,37.7797],[-121.30585,37.77756],[-121.30746,37.77623],[-121.31816,37.76433],[-121.32207,37.76755],[-121.3244,37.77061],[-121.3283,37.77222],[-121.33187,37.77498],[-121.3359,37.77585],[-121.33963,37.77958],[-121.34004,37.78124],[-121.34948,37.78457],[-121.35041,37.78831],[-121.3533,37.79],[-121.35999,37.78877],[-121.36206,37.78943],[-121.36582,37.79606],[-121.37061,37.80032],[-121.38832,37.8045],[-121.39132,37.80499],[-121.40529,37.80149],[-121.41269,37.80202],[-121.4138,37.80341],[-121.4115,37.80342],[-121.41029,37.80573],[-121.40736,37.80635],[-121.40205,37.80549]]]}},{"type":"Feature","properties":{"zcta":"95205","d":1781},"geometry":{"type":"Polygon","coordinates":[[[-121.27605,37.99518],[-121.27157,37.99972],[-121.26837,38.0004],[-121.2679,38.00341],[-121.26625,38.00455],[-121.26136,38.00403],[-121.25757,38.00493],[-121.25025,37.98621],[-121.24969,37.97977],[-121.24451,37.96727],[-121.24168,37.96145],[-121.23548,37.94533],[-121.2339,37.93383],[-121.23794,37.9357],[-121.23836,37.93478],[-121.23324,37.93088],[-121.22954,37.92169],[-121.24481,37.91769],[-121.24598,37.92078],[-121.24193,37.92184],[-121.24406,37.9271],[-121.248,37.92622],[-121.25015,37.93124],[-121.24718,37.9314],[-121.2476,37.93592],[-121.25003,37.93869],[-121.25284,37.93784],[-121.25489,37.94413],[-121.25572,37.94493],[-121.26532,37.94249],[-121.27434,37.94094],[-121.27555,37.94549],[-121.27742,37.95239],[-121.2821,37.96951],[-121.28661,37.96874],[-121.28848,37.97466],[-121.28439,37.97652],[-121.28298,37.97435],[-121.28161,37.99445],[-121.27605,37.99518]]]}},{"type":"Feature","properties":{"zcta":"95207","d":2920},"geometry":{"type":"Polygon","coordinates":[[[-121.31942,38.02102],[-121.30494,38.02094],[-121.29518,38.00333],[-121.29135,37.99322],[-121.29633,37.99221],[-121.30235,37.99186],[-121.30603,37.99014],[-121.30988,37.98438],[-121.31531,37.98021],[-121.31858,37.97965],[-121.32158,37.98106],[-121.32743,37.98206],[-121.33169,37.98076],[-121.33464,37.98074],[-121.34113,37.97943],[-121.35492,38.01382],[-121.35864,38.02134],[-121.34977,38.02071],[-121.34543,38.02107],[-121.33612,38.02102],[-121.3367,38.01961],[-121.33333,38.01971],[-121.33335,38.02104],[-121.32602,38.02101],[-121.32457,38.02036],[-121.31942,38.02102]]]}},{"type":"Feature","properties":{"zcta":"95209","d":2390},"geometry":{"type":"Polygon","coordinates":[[[-121.37824,38.07244],[-121.37129,38.07181],[-121.36896,38.07252],[-121.35192,38.07231],[-121.35183,38.05771],[-121.31479,38.0576],[-121.31431,38.05079],[-121.31522,38.04983],[-121.3211,38.04992],[-121.3191,38.04633],[-121.32409,38.04667],[-121.32373,38.0438],[-121.32583,38.04379],[-121.32583,38.0458],[-121.33213,38.04624],[-121.33194,38.04284],[-121.32222,38.04278],[-121.32278,38.03983],[-121.32276,38.02812],[-121.32317,38.02107],[-121.32457,38.02036],[-121.32602,38.02101],[-121.33335,38.02104],[-121.33333,38.01971],[-121.3367,38.01961],[-121.33612,38.02102],[-121.34543,38.02107],[-121.34977,38.02071],[-121.35864,38.02134],[-121.36538,38.03529],[-121.37248,38.05791],[-121.39161,38.05812],[-121.39306,38.07232],[-121.37824,38.07244]]]}},{"type":"Feature","properties":{"zcta":"95210","d":2510},"geometry":{"type":"Polygon","coordinates":[[[-121.28718,38.05746],[-121.27709,38.05741],[-121.28161,37.99445],[-121.28342,37.99369],[-121.29135,37.99322],[-121.29518,38.00333],[-121.30494,38.02094],[-121.31942,38.02102],[-121.32457,38.02036],[-121.32317,38.02107],[-121.32276,38.02812],[-121.32278,38.03983],[-121.32222,38.04278],[-121.33194,38.04284],[-121.33213,38.04624],[-121.32583,38.0458],[-121.32583,38.04379],[-121.32373,38.0438],[-121.32409,38.04667],[-121.3191,38.04633],[-121.3211,38.04992],[-121.31522,38.04983],[-121.31431,38.05079],[-121.31479,38.0576],[-121.28718,38.05746]]]}},{"type":"Feature","properties":{"zcta":"95212","d":627},"geometry":{"type":"Polygon","coordinates":[[[-121.27709,38.05741],[-121.26129,38.05759],[-121.25757,38.05742],[-121.25924,38.0608],[-121.25264,38.06456],[-121.24941,38.06503],[-121.24671,38.06661],[-121.24225,38.06729],[-121.24235,38.0742],[-121.23389,38.0747],[-121.23361,38.07399],[-121.22766,38.07405],[-121.22741,38.07835],[-121.22424,38.07832],[-121.22166,38.07933],[-121.21429,38.07952],[-121.21497,38.0851],[-121.21323,38.08635],[-121.20753,38.08688],[-121.20384,38.09081],[-121.19327,38.09297],[-121.18484,38.09294],[-121.18416,38.09443],[-121.1856,38.09644],[-121.17938,38.09794],[-121.18716,38.07252],[-121.17084,38.07282],[-121.1655,38.07465],[-121.1592,38.07316],[-121.15085,38.07301],[-121.14429,38.0752],[-121.14353,38.07636],[-121.1394,38.0744],[-121.13325,38.07696],[-121.13324,38.07354],[-121.14246,38.07332],[-121.14247,38.06605],[-121.14427,38.06848],[-121.14754,38.06815],[-121.15087,38.06567],[-121.1547,38.06479],[-121.15657,38.06526],[-121.15853,38.06281],[-121.16304,38.06056],[-121.16312,38.05877],[-121.16591,38.05787],[-121.17102,38.0533],[-121.17763,38.04981],[-121.18251,38.05124],[-121.18482,38.05061],[-121.18713,38.05193],[-121.19255,38.05235],[-121.19325,38.05114],[-121.19151,38.04894],[-121.19525,38.04628],[-121.20285,38.04445],[-121.20408,38.04019],[-121.20556,38.03904],[-121.21036,38.03734],[-121.21521,38.03233],[-121.23275,38.01842],[-121.23714,38.01287],[-121.24484,38.01219],[-121.24741,38.00978],[-121.25757,38.00493],[-121.26136,38.00403],[-121.26625,38.00455],[-121.2679,38.00341],[-121.26837,38.0004],[-121.27157,37.99972],[-121.27605,37.99518],[-121.28161,37.99445],[-121.27709,38.05741]]]}},{"type":"Feature","properties":{"zcta":"95227","d":0},"geometry":{"type":"Polygon","coordinates":[[[-121.13592,38.17896],[-121.13767,38.18271],[-121.13041,38.18457],[-121.12717,38.18868],[-121.12357,38.1872],[-121.12152,38.18903],[-121.117,38.19105],[-121.11527,38.19291],[-121.11093,38.19133],[-121.1061,38.19312],[-121.10387,38.1967],[-121.09324,38.20539],[-121.0943,38.2065],[-121.09075,38.20886],[-121.08798,38.21371],[-121.08829,38.22374],[-121.08919,38.22177],[-121.09654,38.22169],[-121.09757,38.22079],[-121.10415,38.21996],[-121.10654,38.22063],[-121.1066,38.2237],[-121.10479,38.22486],[-121.10942,38.23136],[-121.10859,38.2314],[-121.11,38.23514],[-121.08894,38.23545],[-121.08898,38.24994],[-121.08049,38.25007],[-121.08038,38.25687],[-121.08366,38.25777],[-121.08834,38.26122],[-121.08303,38.26409],[-121.07471,38.26387],[-121.07337,38.26511],[-121.07059,38.26417],[-121.06378,38.26365],[-121.06076,38.26428],[-121.05852,38.26341],[-121.05636,38.26494],[-121.05354,38.26506],[-121.05299,38.26255],[-121.04857,38.26225],[-121.04732,38.25983],[-121.04812,38.25872],[-121.0467,38.25635],[-121.0425,38.25531],[-121.04099,38.25647],[-121.0376,38.2561],[-121.03528,38.25815],[-121.02497,38.26575],[-121.01637,38.2744],[-121.00636,38.25051],[-121.00346,38.24301],[-120.9955,38.2254],[-120.98645,38.20465],[-120.97534,38.17822],[-121.01935,38.16094],[-121.0212,38.15993],[-121.02544,38.15765],[-121.03335,38.1541],[-121.04154,38.14849],[-121.07778,38.14801],[-121.07833,38.18669],[-121.07962,38.18432],[-121.08369,38.18428],[-121.08454,38.18595],[-121.08693,38.18511],[-121.08681,38.18306],[-121.08933,38.18182],[-121.09168,38.18416],[-121.09616,38.18349],[-121.09572,38.18157],[-121.09672,38.17889],[-121.09711,38.18045],[-121.09688,38.18632],[-121.13228,38.17118],[-121.13795,38.16937],[-121.13777,38.17748],[-121.13592,38.17896]]]}},{"type":"Feature","properties":{"zcta":"95240","d":240},"geometry":{"type":"Polygon","coordinates":[[[-121.28754,38.15476],[-121.285,38.15182],[-121.28232,38.15028],[-121.28034,38.15059],[-121.27903,38.14847],[-121.27804,38.1504],[-121.27193,38.14862],[-121.2669,38.14891],[-121.26523,38.14755],[-121.2635,38.14899],[-121.26115,38.14883],[-121.25612,38.14613],[-121.25308,38.14882],[-121.25109,38.14847],[-121.24895,38.14988],[-121.24773,38.14908],[-121.24584,38.15116],[-121.24215,38.14956],[-121.23986,38.14651],[-121.23711,38.14495],[-121.23552,38.14705],[-121.23315,38.14676],[-121.23257,38.14861],[-121.22942,38.14886],[-121.22924,38.14698],[-121.22597,38.14281],[-121.2211,38.14454],[-121.22097,38.14573],[-121.21804,38.14823],[-121.22003,38.14904],[-121.21894,38.15319],[-121.21709,38.15523],[-121.21384,38.15469],[-121.21416,38.15593],[-121.21158,38.15732],[-121.21186,38.15851],[-121.20927,38.15856],[-121.20846,38.16081],[-121.20619,38.15951],[-121.20612,38.1461],[-121.21083,38.14602],[-121.21074,38.13787],[-121.19222,38.13837],[-121.18769,38.14022],[-121.18768,38.13804],[-121.17268,38.13807],[-121.17268,38.13624],[-121.16441,38.13624],[-121.16441,38.13836],[-121.16249,38.13874],[-121.16608,38.13101],[-121.15417,38.13181],[-121.15069,38.1407],[-121.15064,38.14697],[-121.13301,38.14739],[-121.13331,38.14833],[-121.13859,38.1531],[-121.13593,38.15523],[-121.13424,38.15461],[-121.1302,38.15673],[-121.1297,38.15946],[-121.12688,38.16094],[-121.12424,38.16395],[-121.11567,38.16556],[-121.11159,38.16735],[-121.11022,38.16952],[-121.10869,38.16944],[-121.10485,38.17297],[-121.10106,38.17375],[-121.10023,38.17555],[-121.09861,38.17436],[-121.09658,38.1748],[-121.09672,38.17889],[-121.09572,38.18157],[-121.09616,38.18349],[-121.09168,38.18416],[-121.08933,38.18182],[-121.08681,38.18306],[-121.08693,38.18511],[-121.08454,38.18595],[-121.08369,38.18428],[-121.07962,38.18432],[-121.07833,38.18669],[-121.07778,38.14801],[-121.04154,38.14849],[-121.03335,38.1541],[-121.02544,38.15765],[-121.0212,38.15993],[-121.01774,38.16102],[-121.01223,38.16064],[-121.01219,38.13573],[-121.01596,38.1232],[-121.01596,38.11112],[-121.06422,38.1113],[-121.06426,38.10764],[-121.07811,38.10734],[-121.07811,38.09653],[-121.08734,38.09638],[-121.08734,38.08912],[-121.11486,38.08864],[-121.11485,38.0813],[-121.13327,38.08082],[-121.13325,38.07696],[-121.1394,38.0744],[-121.14353,38.07636],[-121.14429,38.0752],[-121.15085,38.07301],[-121.1592,38.07316],[-121.1655,38.07465],[-121.17084,38.07282],[-121.18716,38.07252],[-121.17938,38.09794],[-121.1856,38.09644],[-121.18416,38.09443],[-121.18484,38.09294],[-121.19327,38.09297],[-121.20384,38.09081],[-121.20753,38.08688],[-121.21323,38.08635],[-121.21497,38.0851],[-121.21429,38.07952],[-121.22166,38.07933],[-121.22424,38.07832],[-121.22741,38.07835],[-121.22766,38.07405],[-121.23361,38.07399],[-121.23389,38.0747],[-121.24235,38.0742],[-121.24225,38.06729],[-121.24671,38.06661],[-121.24941,38.06503],[-121.25264,38.06456],[-121.25924,38.0608],[-121.25757,38.05742],[-121.26129,38.05759],[-121.27709,38.05741],[-121.28718,38.05746],[-121.28737,38.07523],[-121.28314,38.0778],[-121.28326,38.08381],[-121.28755,38.08758],[-121.2881,38.10101],[-121.28632,38.10106],[-121.28635,38.10347],[-121.28791,38.10705],[-121.28817,38.12471],[-121.28588,38.12471],[-121.2859,38.12635],[-121.28819,38.12638],[-121.28839,38.14929],[-121.29014,38.15143],[-121.28754,38.15476]]]}},{"type":"Feature","properties":{"zcta":"95376","d":3209},"geometry":{"type":"Polygon","coordinates":[[[-121.45286,37.71058],[-121.45399,37.71137],[-121.45369,37.7184],[-121.45485,37.7209],[-121.46108,37.71958],[-121.46909,37.71657],[-121.46984,37.71696],[-121.45313,37.72338],[-121.4533,37.75829],[-121.44457,37.76185],[-121.43734,37.76308],[-121.42321,37.76317],[-121.41477,37.76439],[-121.41467,37.75428],[-121.41434,37.75025],[-121.40973,37.74853],[-121.40969,37.74495],[-121.41095,37.74023],[-121.41657,37.73975],[-121.41638,37.7106],[-121.45286,37.71058]]]}},{"type":"Feature","properties":{"zcta":"95231","d":160},"geometry":{"type":"Polygon","coordinates":[[[-121.25047,37.87806],[-121.24757,37.87588],[-121.2506,37.87175],[-121.25965,37.87764],[-121.26623,37.88094],[-121.26579,37.87861],[-121.26443,37.85561],[-121.26299,37.82644],[-121.27493,37.8264],[-121.27472,37.85556],[-121.2822,37.85565],[-121.27941,37.86574],[-121.28019,37.86407],[-121.28364,37.86414],[-121.28362,37.86202],[-121.28957,37.86202],[-121.28956,37.86055],[-121.30135,37.86048],[-121.30116,37.85547],[-121.32033,37.85535],[-121.31779,37.85969],[-121.32032,37.86094],[-121.32084,37.86337],[-121.32654,37.86522],[-121.32742,37.86799],[-121.33034,37.87287],[-121.33252,37.87434],[-121.33189,37.87722],[-121.33269,37.87934],[-121.33147,37.88663],[-121.32998,37.88803],[-121.32778,37.89245],[-121.32851,37.8952],[-121.32729,37.89716],[-121.28569,37.89711],[-121.28543,37.8998],[-121.28989,37.9074],[-121.28865,37.90896],[-121.28746,37.90772],[-121.28363,37.89711],[-121.28094,37.89696],[-121.27995,37.89397],[-121.27644,37.89013],[-121.27596,37.89445],[-121.27127,37.89156],[-121.26837,37.88848],[-121.26736,37.88571],[-121.26531,37.88629],[-121.26424,37.88366],[-121.25672,37.88559],[-121.25689,37.88825],[-121.25307,37.88378],[-121.24905,37.88115],[-121.25047,37.87806]]]}},{"type":"Feature","properties":{"zcta":"95258","d":754},"geometry":{"type":"Polygon","coordinates":[[[-121.29557,38.14883],[-121.29622,38.15062],[-121.29782,38.14917],[-121.30443,38.15091],[-121.30422,38.15188],[-121.30767,38.15061],[-121.30833,38.149],[-121.31085,38.14898],[-121.31087,38.15158],[-121.31236,38.15342],[-121.31597,38.15335],[-121.31621,38.15825],[-121.31819,38.15876],[-121.32575,38.16738],[-121.32655,38.18917],[-121.32207,38.18918],[-121.31739,38.18917],[-121.31724,38.18614],[-121.30819,38.18609],[-121.30776,38.17466],[-121.29406,38.17468],[-121.29492,38.1674],[-121.29528,38.16014],[-121.29131,38.16016],[-121.29129,38.15392],[-121.29292,38.15191],[-121.29252,38.14973],[-121.29557,38.14883]]]}},{"type":"Feature","properties":{"zcta":"95366","d":241},"geometry":{"type":"Polygon","coordinates":[[[-121.17933,37.77734],[-121.17832,37.77684],[-121.14657,37.7769],[-121.14657,37.77871],[-121.14285,37.77871],[-121.14344,37.80489],[-121.15652,37.80488],[-121.15683,37.8121],[-121.1437,37.81218],[-121.14426,37.82679],[-121.13561,37.82688],[-121.11708,37.82699],[-121.11654,37.81063],[-121.10723,37.80553],[-121.10741,37.80891],[-121.10508,37.80891],[-121.10516,37.81073],[-121.09829,37.81079],[-121.09824,37.80952],[-121.09367,37.80957],[-121.09347,37.80537],[-121.08894,37.80543],[-121.08869,37.79814],[-121.07039,37.7983],[-121.06979,37.77622],[-121.06064,37.77638],[-121.06025,37.76194],[-121.05115,37.76207],[-121.05106,37.75821],[-121.04183,37.7551],[-121.04175,37.75135],[-121.05677,37.75108],[-121.05839,37.75037],[-121.06345,37.75029],[-121.0653,37.74956],[-121.06694,37.74475],[-121.06742,37.74242],[-121.06655,37.74018],[-121.07096,37.73808],[-121.07508,37.73893],[-121.07643,37.73757],[-121.0794,37.73845],[-121.07985,37.74023],[-121.08183,37.73979],[-121.084,37.74179],[-121.08527,37.74085],[-121.08837,37.74105],[-121.08999,37.7366],[-121.09273,37.73475],[-121.0963,37.73353],[-121.09577,37.73596],[-121.101,37.73771],[-121.09985,37.7402],[-121.10259,37.74129],[-121.10685,37.74013],[-121.11021,37.74204],[-121.11135,37.74003],[-121.10949,37.73445],[-121.10763,37.73228],[-121.11295,37.72767],[-121.11676,37.72649],[-121.11628,37.72466],[-121.1187,37.72361],[-121.12137,37.72447],[-121.12074,37.72234],[-121.12556,37.72262],[-121.12845,37.72423],[-121.13074,37.7223],[-121.13499,37.72305],[-121.13652,37.72468],[-121.138,37.72232],[-121.14156,37.7229],[-121.14188,37.72098],[-121.14544,37.71999],[-121.14611,37.7175],[-121.15105,37.71948],[-121.15391,37.71896],[-121.15585,37.71984],[-121.15883,37.71695],[-121.15913,37.7151],[-121.15777,37.71335],[-121.15839,37.71179],[-121.16083,37.71114],[-121.15935,37.70853],[-121.16212,37.70805],[-121.1614,37.70673],[-121.15875,37.70641],[-121.15922,37.70444],[-121.1634,37.70372],[-121.16567,37.70425],[-121.16682,37.70223],[-121.16368,37.70038],[-121.16892,37.69913],[-121.1763,37.70405],[-121.17655,37.70607],[-121.17845,37.70553],[-121.18016,37.70342],[-121.17886,37.70194],[-121.1768,37.70228],[-121.17591,37.69942],[-121.17694,37.6988],[-121.18177,37.699],[-121.18243,37.69662],[-121.18023,37.69572],[-121.18063,37.69357],[-121.18401,37.69285],[-121.18222,37.6916],[-121.17968,37.69298],[-121.17895,37.69108],[-121.1831,37.68998],[-121.18112,37.68809],[-121.18585,37.68879],[-121.18744,37.68751],[-121.18786,37.69011],[-121.18947,37.68971],[-121.19024,37.69189],[-121.19192,37.69048],[-121.19423,37.69495],[-121.19642,37.69457],[-121.19627,37.69257],[-121.19782,37.69052],[-121.19964,37.69037],[-121.20131,37.69246],[-121.1993,37.69422],[-121.19982,37.69622],[-121.20224,37.69596],[-121.20416,37.69344],[-121.20607,37.6949],[-121.20039,37.69712],[-121.19728,37.69714],[-121.19423,37.69615],[-121.18808,37.6991],[-121.18299,37.70048],[-121.18182,37.70315],[-121.17855,37.70705],[-121.1786,37.72487],[-121.19233,37.72486],[-121.19246,37.74301],[-121.18787,37.74304],[-121.1882,37.76129],[-121.17898,37.76121],[-121.17893,37.7576],[-121.17439,37.75758],[-121.17432,37.75394],[-121.16382,37.75397],[-121.16385,37.75594],[-121.16067,37.75595],[-121.16077,37.76246],[-121.17924,37.77322],[-121.17933,37.77734]]]}},{"type":"Feature","properties":{"zcta":"95215","d":103},"geometry":{"type":"Polygon","coordinates":[[[-121.24741,38.00978],[-121.24484,38.01219],[-121.23714,38.01287],[-121.23275,38.01842],[-121.21521,38.03233],[-121.21036,38.03734],[-121.20556,38.03904],[-121.20408,38.04019],[-121.20285,38.04445],[-121.19525,38.04628],[-121.19151,38.04894],[-121.19325,38.05114],[-121.19255,38.05235],[-121.18713,38.05193],[-121.18482,38.05061],[-121.18251,38.05124],[-121.17763,38.04981],[-121.17102,38.0533],[-121.16591,38.05787],[-121.16312,38.05877],[-121.16304,38.06056],[-121.15853,38.06281],[-121.15657,38.06526],[-121.1547,38.06479],[-121.15087,38.06567],[-121.15092,38.05844],[-121.14746,38.05855],[-121.1473,38.0512],[-121.14217,38.05128],[-121.14213,38.04835],[-121.14913,38.04827],[-121.15051,38.04391],[-121.14975,38.01075],[-121.14144,38.01093],[-121.14128,38.00297],[-121.14947,38.00074],[-121.14887,37.97846],[-121.1171,37.97894],[-121.12295,37.97594],[-121.1269,37.97474],[-121.12681,37.97143],[-121.1133,37.97181],[-121.11436,37.97005],[-121.12255,37.96823],[-121.12485,37.96688],[-121.13284,37.96692],[-121.13781,37.96509],[-121.14849,37.96482],[-121.14833,37.95784],[-121.14238,37.95714],[-121.13128,37.95723],[-121.12875,37.9569],[-121.11748,37.95717],[-121.11699,37.9607],[-121.09687,37.96097],[-121.09343,37.95983],[-121.09011,37.96115],[-121.08956,37.96392],[-121.08711,37.96361],[-121.08555,37.96497],[-121.08514,37.9613],[-121.08379,37.96032],[-121.08197,37.96152],[-121.08046,37.96033],[-121.07589,37.96008],[-121.07582,37.95783],[-121.08503,37.95766],[-121.08412,37.93491],[-121.07738,37.93586],[-121.07487,37.93731],[-121.06972,37.9353],[-121.06749,37.93848],[-121.06469,37.93887],[-121.04889,37.93915],[-121.04412,37.94031],[-121.04005,37.93999],[-121.03849,37.93857],[-121.03381,37.93972],[-121.03036,37.93861],[-121.02666,37.93463],[-121.02255,37.93273],[-121.02049,37.9338],[-121.01628,37.93265],[-121.0162,37.92984],[-121.02781,37.92971],[-121.0277,37.9201],[-121.02455,37.92014],[-121.02176,37.92189],[-121.02211,37.92376],[-121.01905,37.92558],[-121.01397,37.92235],[-121.01221,37.92194],[-121.01223,37.90125],[-121.04631,37.90125],[-121.04601,37.89295],[-121.05532,37.89277],[-121.05418,37.86244],[-121.08698,37.87849],[-121.08832,37.87101],[-121.09344,37.87082],[-121.09474,37.86922],[-121.1092,37.86888],[-121.10904,37.86358],[-121.1285,37.86329],[-121.13794,37.85948],[-121.14053,37.85514],[-121.14549,37.85364],[-121.14714,37.85365],[-121.14899,37.85177],[-121.15219,37.85039],[-121.15457,37.85034],[-121.15551,37.87022],[-121.16471,37.87025],[-121.1654,37.88865],[-121.17011,37.88833],[-121.17639,37.88726],[-121.17807,37.88601],[-121.18367,37.88609],[-121.18495,37.88324],[-121.18721,37.88092],[-121.19061,37.88053],[-121.19313,37.8794],[-121.19851,37.88014],[-121.20486,37.87788],[-121.20668,37.87797],[-121.20907,37.8763],[-121.21484,37.87623],[-121.21949,37.87502],[-121.22027,37.88006],[-121.22041,37.89874],[-121.22254,37.90429],[-121.22933,37.90485],[-121.22852,37.90678],[-121.22481,37.90802],[-121.22473,37.90974],[-121.22954,37.92169],[-121.23324,37.93088],[-121.23836,37.93478],[-121.23794,37.9357],[-121.2339,37.93383],[-121.23548,37.94533],[-121.24168,37.96145],[-121.24451,37.96727],[-121.24969,37.97977],[-121.25025,37.98621],[-121.25757,38.00493],[-121.24741,38.00978]]]}},{"type":"Feature","properties":{"zcta":"95320","d":64},"geometry":{"type":"Polygon","coordinates":[[[-121.14053,37.85514],[-121.13794,37.85948],[-121.1285,37.86329],[-121.10904,37.86358],[-121.1092,37.86888],[-121.09474,37.86922],[-121.09344,37.87082],[-121.08832,37.87101],[-121.08698,37.87849],[-121.05418,37.86244],[-121.05532,37.89277],[-121.04601,37.89295],[-120.99994,37.89365],[-121.00015,37.92539],[-120.99837,37.92775],[-120.99493,37.92605],[-120.99058,37.92513],[-120.98629,37.92622],[-120.97988,37.92644],[-120.97742,37.92467],[-120.97373,37.92466],[-120.96979,37.92246],[-120.9674,37.91997],[-120.96575,37.91646],[-120.96131,37.91356],[-120.9611,37.91045],[-120.95908,37.90867],[-120.95465,37.90953],[-120.95377,37.90564],[-120.95259,37.90427],[-120.94783,37.90695],[-120.94636,37.90641],[-120.94464,37.90026],[-120.94455,37.88315],[-120.94725,37.88232],[-120.95373,37.88229],[-120.95341,37.87483],[-120.96255,37.87472],[-120.96233,37.86929],[-120.95375,37.86221],[-120.94785,37.86021],[-120.94605,37.86097],[-120.94366,37.85957],[-120.94358,37.85676],[-120.96195,37.85667],[-120.9609,37.82759],[-120.95928,37.82596],[-120.95927,37.82396],[-120.95388,37.82399],[-120.94926,37.82308],[-120.94934,37.8258],[-120.94243,37.82582],[-120.94249,37.82763],[-120.94009,37.82762],[-120.93996,37.82036],[-120.94232,37.82034],[-120.9422,37.81553],[-120.92393,37.81543],[-120.92325,37.79357],[-120.92264,37.75957],[-120.92337,37.75781],[-120.92085,37.7567],[-120.91734,37.75679],[-120.91717,37.75244],[-120.91836,37.74985],[-120.92212,37.7486],[-120.9211,37.74597],[-120.92146,37.74333],[-120.9206,37.73833],[-120.92225,37.73748],[-120.93301,37.7395],[-120.93908,37.74196],[-120.94444,37.74213],[-120.94796,37.74049],[-120.95416,37.73845],[-120.95881,37.74145],[-120.96186,37.74182],[-120.97316,37.74795],[-120.97722,37.75277],[-120.98065,37.75393],[-120.98164,37.75656],[-120.98631,37.75645],[-120.99199,37.75898],[-120.99276,37.76076],[-120.99575,37.76015],[-120.99894,37.75713],[-120.99785,37.75502],[-121.00306,37.75173],[-121.00433,37.75245],[-121.007,37.75111],[-121.008,37.74909],[-121.01189,37.74973],[-121.01097,37.75204],[-121.01311,37.75494],[-121.01117,37.75575],[-121.0147,37.75649],[-121.01772,37.75528],[-121.0213,37.75008],[-121.02086,37.74775],[-121.02405,37.74667],[-121.02648,37.74177],[-121.02882,37.7407],[-121.03296,37.74287],[-121.03718,37.74253],[-121.03787,37.73916],[-121.03965,37.73955],[-121.04153,37.74167],[-121.04384,37.74153],[-121.043,37.73862],[-121.04525,37.73942],[-121.04636,37.74263],[-121.05033,37.74168],[-121.05181,37.74251],[-121.05071,37.74571],[-121.05334,37.74563],[-121.05204,37.74852],[-121.05621,37.75037],[-121.05706,37.74915],[-121.05994,37.74926],[-121.06144,37.74634],[-121.06489,37.7462],[-121.06313,37.74391],[-121.06694,37.74475],[-121.0653,37.74956],[-121.06345,37.75029],[-121.05839,37.75037],[-121.05677,37.75108],[-121.04175,37.75135],[-121.04183,37.7551],[-121.05106,37.75821],[-121.05115,37.76207],[-121.06025,37.76194],[-121.06064,37.77638],[-121.06979,37.77622],[-121.07039,37.7983],[-121.08869,37.79814],[-121.08894,37.80543],[-121.09347,37.80537],[-121.09367,37.80957],[-121.09824,37.80952],[-121.09829,37.81079],[-121.10516,37.81073],[-121.10508,37.80891],[-121.10741,37.80891],[-121.10723,37.80553],[-121.11654,37.81063],[-121.11708,37.82699],[-121.13561,37.82688],[-121.13573,37.83048],[-121.13097,37.83051],[-121.13107,37.83412],[-121.12646,37.83417],[-121.12649,37.83639],[-121.13058,37.83606],[-121.13638,37.83671],[-121.14064,37.83628],[-121.14475,37.8375],[-121.14549,37.85364],[-121.14053,37.85514]]]}},{"type":"Feature","properties":{"zcta":"95391","d":410},"geometry":{"type":"Polygon","coordinates":[[[-121.54619,37.81144],[-121.54261,37.81054],[-121.53849,37.80732],[-121.53296,37.80522],[-121.52921,37.8023],[-121.52612,37.79874],[-121.52292,37.79783],[-121.52004,37.79462],[-121.51709,37.79285],[-121.51338,37.78898],[-121.51332,37.77164],[-121.53154,37.78263],[-121.53168,37.77285],[-121.52241,37.77284],[-121.52502,37.76916],[-121.52239,37.7692],[-121.52236,37.76556],[-121.52806,37.76549],[-121.52413,37.76304],[-121.52246,37.76056],[-121.51733,37.75843],[-121.53154,37.75796],[-121.53135,37.75269],[-121.5275,37.75095],[-121.5315,37.75097],[-121.53157,37.74259],[-121.54967,37.74369],[-121.58018,37.74143],[-121.59428,37.73919],[-121.6008,37.73839],[-121.60907,37.73784],[-121.62748,37.73474],[-121.6295,37.7342],[-121.63063,37.7337],[-121.63218,37.7387],[-121.63487,37.74035],[-121.63823,37.74064],[-121.64119,37.74277],[-121.64589,37.74237],[-121.65286,37.74445],[-121.65421,37.74641],[-121.6546,37.7497],[-121.65295,37.75134],[-121.6486,37.75315],[-121.64997,37.75747],[-121.64942,37.75855],[-121.65198,37.76153],[-121.65783,37.76369],[-121.65932,37.76371],[-121.66359,37.76162],[-121.66487,37.7684],[-121.66589,37.77077],[-121.66835,37.77245],[-121.67217,37.77382],[-121.67004,37.77634],[-121.66859,37.77963],[-121.67007,37.78217],[-121.67037,37.78901],[-121.6554,37.79267],[-121.63447,37.797],[-121.62331,37.80012],[-121.62566,37.79719],[-121.62599,37.79403],[-121.62326,37.79108],[-121.62324,37.78319],[-121.62154,37.78416],[-121.62162,37.78648],[-121.61878,37.78751],[-121.60616,37.78748],[-121.6049,37.78984],[-121.60491,37.79486],[-121.59313,37.79482],[-121.58744,37.79189],[-121.58889,37.78818],[-121.58549,37.78586],[-121.58383,37.7824],[-121.58244,37.7824],[-121.57868,37.77873],[-121.57287,37.77654],[-121.56503,37.77589],[-121.56454,37.77474],[-121.561,37.77297],[-121.55845,37.77065],[-121.55697,37.7714],[-121.55694,37.81722],[-121.55507,37.81744],[-121.54619,37.81144]]]}},{"type":"Feature","properties":{"zcta":"95202","d":1855},"geometry":{"type":"Polygon","coordinates":[[[-121.28661,37.96874],[-121.2821,37.96951],[-121.27742,37.95239],[-121.29306,37.94971],[-121.29532,37.95803],[-121.29689,37.95879],[-121.29718,37.96487],[-121.29786,37.96683],[-121.28661,37.96874]]]}},{"type":"Feature","properties":{"zcta":"95337","d":484},"geometry":{"type":"Polygon","coordinates":[[[-121.27884,37.78697],[-121.2735,37.78893],[-121.27054,37.79057],[-121.27055,37.7971],[-121.26372,37.79731],[-121.26245,37.80001],[-121.26151,37.80544],[-121.26186,37.81187],[-121.25302,37.81174],[-121.25304,37.81216],[-121.25325,37.81679],[-121.21638,37.79504],[-121.2005,37.7858],[-121.17924,37.77322],[-121.16077,37.76246],[-121.16067,37.75595],[-121.16385,37.75594],[-121.16382,37.75397],[-121.17432,37.75394],[-121.17439,37.75758],[-121.17893,37.7576],[-121.17898,37.76121],[-121.1882,37.76129],[-121.18787,37.74304],[-121.19246,37.74301],[-121.19233,37.72486],[-121.1786,37.72487],[-121.17855,37.70705],[-121.18182,37.70315],[-121.18299,37.70048],[-121.18808,37.6991],[-121.19423,37.69615],[-121.19728,37.69714],[-121.20039,37.69712],[-121.20607,37.6949],[-121.20684,37.69372],[-121.20525,37.69203],[-121.20772,37.68878],[-121.20869,37.6863],[-121.21083,37.68587],[-121.21497,37.6868],[-121.21639,37.68787],[-121.21789,37.68568],[-121.22195,37.68262],[-121.22315,37.68373],[-121.2226,37.68037],[-121.21864,37.67978],[-121.21971,37.67769],[-121.22275,37.67723],[-121.22233,37.67529],[-121.21909,37.67646],[-121.21849,37.67385],[-121.22036,37.67104],[-121.22277,37.66981],[-121.22925,37.66893],[-121.22985,37.66643],[-121.22907,37.66434],[-121.23155,37.66259],[-121.24003,37.66492],[-121.24198,37.66714],[-121.24347,37.67221],[-121.24628,37.67252],[-121.24665,37.6667],[-121.24915,37.66427],[-121.25121,37.66494],[-121.25796,37.67231],[-121.26229,37.67327],[-121.2638,37.67429],[-121.26534,37.67748],[-121.26385,37.67941],[-121.25718,37.68312],[-121.25602,37.68491],[-121.25669,37.6871],[-121.25917,37.68796],[-121.26761,37.68739],[-121.27523,37.68855],[-121.27118,37.69152],[-121.27011,37.69374],[-121.27077,37.69623],[-121.27404,37.69924],[-121.27475,37.7009],[-121.27199,37.70458],[-121.2708,37.70753],[-121.26766,37.71253],[-121.26338,37.71634],[-121.25921,37.71872],[-121.26295,37.72157],[-121.27175,37.7212],[-121.27796,37.71965],[-121.2786,37.71753],[-121.27686,37.71218],[-121.27813,37.70956],[-121.28232,37.71358],[-121.2902,37.71636],[-121.29161,37.72131],[-121.29431,37.72469],[-121.29819,37.72756],[-121.29542,37.73317],[-121.29668,37.73725],[-121.29649,37.73921],[-121.29102,37.74472],[-121.29053,37.74764],[-121.29221,37.74942],[-121.29294,37.75195],[-121.30293,37.75121],[-121.30445,37.75818],[-121.30591,37.76005],[-121.30857,37.76145],[-121.30779,37.76649],[-121.30184,37.76883],[-121.30141,37.77188],[-121.30305,37.77344],[-121.29938,37.77798],[-121.30043,37.7797],[-121.27884,37.78697]]]}}]}