{"type":"FeatureCollection","features":[{"type":"Feature","properties":{"id":"12071","name":"Lee Co."},"geometry":{"type":"MultiPolygon","coordinates":[[[[-82.1738,26.7056],[-82.1581,26.7073],[-82.1517,26.7041],[-82.139,26.703],[-82.1258,26.6995],[-82.1118,26.6816],[-82.1062,26.6673],[-82.1036,26.6654],[-82.104,26.6542],[-82.099,26.646],[-82.0878,26.6472],[-82.0821,26.6536],[-82.0914,26.6668],[-82.0867,26.6852],[-82.085,26.7024],[-82.0798,26.7168],[-82.0666,26.7427],[-82.0599,26.7704],[-81.8586,26.7699],[-81.7607,26.7696],[-81.5657,26.7696],[-81.5665,26.7095],[-81.5658,26.6441],[-81.5646,26.5639],[-81.5622,26.4232],[-81.5625,26.4226],[-81.6595,26.4211],[-81.6581,26.3324],[-81.6579,26.3176],[-81.7462,26.3169],[-81.7891,26.3163],[-81.819,26.3162],[-81.8191,26.3304],[-81.8458,26.3304],[-81.855,26.3505],[-81.8631,26.3642],[-81.8629,26.366],[-81.869,26.3786],[-81.8765,26.387],[-81.8843,26.394],[-81.8856,26.3977],[-81.8827,26.4006],[-81.8846,26.4037],[-81.8939,26.4036],[-81.9017,26.4111],[-81.903,26.4171],[-81.9065,26.4229],[-81.9128,26.4294],[-81.9236,26.4367],[-81.9384,26.4451],[-81.9562,26.4526],[-81.9639,26.4572],[-81.9693,26.4639],[-81.9669,26.4655],[-81.9614,26.4595],[-81.9559,26.4575],[-81.9548,26.4587],[-81.9566,26.467],[-81.9695,26.4765],[-81.9807,26.481],[-81.997,26.4849],[-82.009,26.4841],[-82.0127,26.4869],[-82.0108,26.4936],[-82.0072,26.4971],[-82.0083,26.5021],[-82.0076,26.5063],[-82.0101,26.5129],[-82.009,26.5201],[-81.9983,26.5264],[-81.9981,26.5327],[-82.0059,26.5344],[-82.0153,26.5288],[-82.0255,26.5303],[-82.0387,26.5256],[-82.0394,26.5322],[-82.0431,26.5327],[-82.0427,26.5364],[-82.0447,26.5398],[-82.0512,26.5422],[-82.0547,26.5481],[-82.0581,26.5484],[-82.0693,26.5354],[-82.0716,26.5257],[-82.0685,26.5135],[-82.0633,26.5029],[-82.0569,26.4972],[-82.0569,26.4937],[-82.0717,26.4926],[-82.0859,26.4895],[-82.0961,26.4839],[-82.1057,26.4839],[-82.1065,26.4914],[-82.1027,26.4997],[-82.1006,26.5108],[-82.1091,26.5152],[-82.107,26.5182],[-82.1021,26.5195],[-82.1047,26.5235],[-82.112,26.5276],[-82.1137,26.5322],[-82.1139,26.5407],[-82.1225,26.555],[-82.1251,26.5682],[-82.1244,26.5824],[-82.1216,26.5853],[-82.1235,26.5896],[-82.1266,26.5904],[-82.132,26.6102],[-82.1387,26.6126],[-82.1446,26.6228],[-82.1477,26.6345],[-82.1444,26.6389],[-82.1426,26.6439],[-82.1499,26.6541],[-82.166,26.6693],[-82.1693,26.6765],[-82.1729,26.6787],[-82.1757,26.6785],[-82.1816,26.6817],[-82.1838,26.6878],[-82.1836,26.695],[-82.1738,26.7056]]],[[[-82.2199,26.6071],[-82.2143,26.6029],[-82.2064,26.5836],[-82.199,26.5609],[-82.1974,26.5535],[-82.1919,26.5436],[-82.1902,26.5377],[-82.1879,26.5235],[-82.1795,26.5125],[-82.1798,26.506],[-82.1761,26.4976],[-82.1778,26.4922],[-82.173,26.4936],[-82.1688,26.4923],[-82.1685,26.4877],[-82.1639,26.4856],[-82.16,26.4861],[-82.1597,26.482],[-82.1542,26.4808],[-82.1494,26.4776],[-82.1401,26.4773],[-82.1325,26.4791],[-82.12,26.4736],[-82.0884,26.4552],[-82.0769,26.4661],[-82.0666,26.4661],[-82.0626,26.4701],[-82.0408,26.4582],[-82.0362,26.4544],[-82.0322,26.4527],[-82.0205,26.4531],[-82.0156,26.4549],[-82.0139,26.4521],[-82.0631,26.4255],[-82.075,26.4221],[-82.0829,26.4221],[-82.0981,26.425],[-82.1267,26.4363],[-82.1487,26.4555],[-82.1729,26.4677],[-82.1807,26.4763],[-82.1864,26.4892],[-82.1988,26.546],[-82.2017,26.5514],[-82.2014,26.5563],[-82.2053,26.5679],[-82.2137,26.5799],[-82.2209,26.5839],[-82.2244,26.5932],[-82.2241,26.6029],[-82.2199,26.6071]]],[[[-82.2584,26.688],[-82.2558,26.7039],[-82.2501,26.7078],[-82.2461,26.7061],[-82.2425,26.6967],[-82.2449,26.6925],[-82.2454,26.6863],[-82.2428,26.6814],[-82.2342,26.6768],[-82.2375,26.6691],[-82.2385,26.6625],[-82.2349,26.6553],[-82.2332,26.6496],[-82.2283,26.6445],[-82.2278,26.637],[-82.2237,26.6268],[-82.2188,26.6251],[-82.2209,26.6181],[-82.2211,26.6134],[-82.2231,26.6125],[-82.2279,26.6271],[-82.2315,26.6347],[-82.2361,26.6379],[-82.2446,26.6535],[-82.2483,26.6617],[-82.2544,26.6672],[-82.2625,26.6776],[-82.2625,26.684],[-82.2584,26.688]]],[[[-82.2647,26.7894],[-82.2426,26.7857],[-82.2339,26.7832],[-82.2224,26.782],[-82.2181,26.7798],[-82.2088,26.7717],[-82.2021,26.7702],[-82.2033,26.7657],[-82.2054,26.7644],[-82.21,26.7681],[-82.2207,26.7666],[-82.2306,26.771],[-82.2499,26.7629],[-82.2532,26.754],[-82.2544,26.7455],[-82.2598,26.728],[-82.2588,26.7185],[-82.2619,26.7171],[-82.2643,26.7202],[-82.2638,26.7256],[-82.2647,26.7568],[-82.2695,26.7847],[-82.2721,26.7895],[-82.2647,26.7894]]]]}}]}