{"type":"FeatureCollection","features":[{"type":"Feature","properties":{"zcta":"33967","d":1896},"geometry":{"type":"Polygon","coordinates":[[[-81.79401,26.4847],[-81.78624,26.45654],[-81.78369,26.44885],[-81.78896,26.44955],[-81.80506,26.44913],[-81.81525,26.44961],[-81.81785,26.44819],[-81.82128,26.45227],[-81.82125,26.45945],[-81.82398,26.45825],[-81.82669,26.45876],[-81.83402,26.46795],[-81.84223,26.48732],[-81.84366,26.49001],[-81.84624,26.49244],[-81.81322,26.49273],[-81.8132,26.492],[-81.8062,26.49202],[-81.80621,26.49275],[-81.79424,26.49313],[-81.79401,26.4847]]]}},{"type":"Feature","properties":{"zcta":"33972","d":304},"geometry":{"type":"Polygon","coordinates":[[[-81.65013,26.68623],[-81.61105,26.68681],[-81.61082,26.67965],[-81.59839,26.67982],[-81.59824,26.67252],[-81.56609,26.67277],[-81.56566,26.63553],[-81.56585,26.63553],[-81.56549,26.61458],[-81.5914,26.6145],[-81.59111,26.61863],[-81.59162,26.62528],[-81.59305,26.62527],[-81.59313,26.62892],[-81.5917,26.62907],[-81.59175,26.63265],[-81.59032,26.63266],[-81.59038,26.63624],[-81.5918,26.63624],[-81.5919,26.64374],[-81.59986,26.64365],[-81.59973,26.63977],[-81.60402,26.63971],[-81.60363,26.62896],[-81.60366,26.61801],[-81.60508,26.61799],[-81.60509,26.61554],[-81.6065,26.61438],[-81.63438,26.61414],[-81.64186,26.61353],[-81.63996,26.61134],[-81.6466,26.61607],[-81.6548,26.61923],[-81.65946,26.62143],[-81.66266,26.62478],[-81.66223,26.62824],[-81.66226,26.64232],[-81.66283,26.64298],[-81.66306,26.67123],[-81.66299,26.68624],[-81.65013,26.68623]]]}},{"type":"Feature","properties":{"zcta":"33991","d":1007},"geometry":{"type":"Polygon","coordinates":[[[-81.97255,26.65155],[-81.97417,26.64472],[-81.97413,26.62874],[-81.9706,26.6287],[-81.97097,26.62678],[-81.97415,26.62642],[-81.97419,26.61515],[-81.97323,26.61514],[-81.97324,26.60766],[-81.97419,26.60766],[-81.98027,26.60762],[-81.98032,26.60466],[-81.98768,26.60706],[-82.01517,26.60703],[-82.03185,26.60714],[-82.03462,26.6083],[-82.03663,26.6121],[-82.03884,26.61486],[-82.04174,26.61929],[-82.04419,26.6338],[-82.04811,26.63401],[-82.04819,26.63759],[-82.05505,26.63956],[-82.05635,26.64105],[-82.05668,26.65135],[-82.05745,26.65025],[-82.05734,26.65896],[-82.05583,26.65908],[-82.0559,26.65269],[-82.04003,26.65222],[-82.01128,26.65218],[-82.01128,26.65127],[-82.00723,26.65],[-82.00721,26.6517],[-82.00129,26.65084],[-81.99826,26.65168],[-81.99062,26.65178],[-81.98854,26.65052],[-81.98395,26.65258],[-81.98194,26.64902],[-81.97416,26.65206],[-81.97255,26.65155]]]}},{"type":"Feature","properties":{"zcta":"33907","d":1743},"geometry":{"type":"Polygon","coordinates":[[[-81.87188,26.59679],[-81.85862,26.5973],[-81.85929,26.60115],[-81.85566,26.60149],[-81.8556,26.60443],[-81.85553,26.59722],[-81.85525,26.57538],[-81.85526,26.54628],[-81.8627,26.54646],[-81.87319,26.54618],[-81.87151,26.54032],[-81.87347,26.54031],[-81.87345,26.5346],[-81.87142,26.53439],[-81.87135,26.52801],[-81.87472,26.52752],[-81.87627,26.52601],[-81.87795,26.52234],[-81.88062,26.52087],[-81.89094,26.5208],[-81.88731,26.52503],[-81.887,26.52956],[-81.88709,26.54297],[-81.88536,26.54995],[-81.88513,26.55786],[-81.88401,26.56296],[-81.88421,26.57536],[-81.88188,26.57539],[-81.88185,26.57817],[-81.87932,26.58127],[-81.88341,26.58486],[-81.88377,26.59423],[-81.89196,26.59361],[-81.89077,26.59651],[-81.87188,26.59679]]]}},{"type":"Feature","properties":{"zcta":"33965","d":0},"geometry":{"type":"Polygon","coordinates":[[[-81.7743,26.44938],[-81.77443,26.45179],[-81.77615,26.45419],[-81.7805,26.45691],[-81.78279,26.45911],[-81.78538,26.46416],[-81.78611,26.47033],[-81.78201,26.46932],[-81.77791,26.47123],[-81.77251,26.47178],[-81.76148,26.47195],[-81.76095,26.47133],[-81.75575,26.47128],[-81.75495,26.4535],[-81.7555,26.44949],[-81.7743,26.44938]]]}},{"type":"Feature","properties":{"zcta":"33973","d":1312},"geometry":{"type":"Polygon","coordinates":[[[-81.71232,26.5912],[-81.71229,26.58507],[-81.71375,26.5817],[-81.73572,26.59135],[-81.73948,26.59396],[-81.75909,26.611],[-81.7588,26.61332],[-81.74839,26.61338],[-81.74401,26.60863],[-81.74265,26.60992],[-81.74272,26.61345],[-81.71442,26.61355],[-81.71232,26.5912]]]}},{"type":"Feature","properties":{"zcta":"33920","d":70},"geometry":{"type":"Polygon","coordinates":[[[-81.56575,26.7696],[-81.56627,26.73634],[-81.5665,26.71446],[-81.56638,26.69595],[-81.56609,26.67277],[-81.59824,26.67252],[-81.59839,26.67982],[-81.61082,26.67965],[-81.61105,26.68681],[-81.65013,26.68623],[-81.66299,26.68624],[-81.69563,26.68586],[-81.71184,26.68565],[-81.71225,26.70182],[-81.7082,26.70192],[-81.70826,26.7041],[-81.71024,26.7041],[-81.71029,26.70591],[-81.71229,26.70589],[-81.71246,26.71859],[-81.70874,26.71864],[-81.70839,26.7244],[-81.71253,26.72422],[-81.7127,26.72528],[-81.72151,26.72359],[-81.73591,26.72128],[-81.73887,26.71957],[-81.7455,26.71733],[-81.74995,26.71677],[-81.76081,26.71728],[-81.761,26.74029],[-81.76074,26.7696],[-81.56575,26.7696]]]}},{"type":"Feature","properties":{"zcta":"33990","d":1761},"geometry":{"type":"Polygon","coordinates":[[[-81.96992,26.65398],[-81.96698,26.65233],[-81.94895,26.65253],[-81.94212,26.6523],[-81.92342,26.65271],[-81.92368,26.62786],[-81.91719,26.62751],[-81.91253,26.62784],[-81.91212,26.62497],[-81.91345,26.62426],[-81.91124,26.60773],[-81.9127,26.60795],[-81.95021,26.60744],[-81.95639,26.60571],[-81.95639,26.60652],[-81.96329,26.60681],[-81.96475,26.60441],[-81.96593,26.60681],[-81.97324,26.60766],[-81.97323,26.61514],[-81.97419,26.61515],[-81.97415,26.62642],[-81.97097,26.62678],[-81.9706,26.6287],[-81.97413,26.62874],[-81.97417,26.64472],[-81.97255,26.65155],[-81.97416,26.65206],[-81.96992,26.65398]]]}},{"type":"Feature","properties":{"zcta":"33993","d":305},"geometry":{"type":"Polygon","coordinates":[[[-82.10735,26.64191],[-82.10706,26.63826],[-82.10457,26.64121],[-82.09985,26.64064],[-82.09666,26.63661],[-82.09572,26.63782],[-82.09371,26.63683],[-82.09145,26.6326],[-82.08722,26.6312],[-82.08944,26.63332],[-82.08674,26.63331],[-82.08477,26.63455],[-82.08085,26.63347],[-82.078,26.63049],[-82.076,26.62576],[-82.07417,26.62574],[-82.07966,26.63418],[-82.07871,26.63919],[-82.07551,26.6392],[-82.07181,26.63702],[-82.06947,26.63696],[-82.06506,26.64063],[-82.06658,26.64048],[-82.07051,26.64345],[-82.07039,26.64681],[-82.07727,26.65003],[-82.08134,26.65317],[-82.08066,26.65595],[-82.0866,26.66001],[-82.09135,26.66677],[-82.0867,26.68516],[-82.08497,26.70241],[-82.0798,26.71678],[-82.06657,26.74266],[-82.06341,26.75575],[-82.06094,26.75727],[-82.04845,26.75668],[-82.0445,26.75854],[-82.03849,26.7586],[-82.03893,26.74557],[-82.03013,26.74482],[-82.03014,26.74112],[-82.02261,26.74129],[-82.02287,26.72645],[-82.00622,26.72653],[-82.00621,26.71174],[-82.00213,26.71173],[-82.00212,26.71542],[-82.00417,26.71543],[-82.00417,26.71913],[-81.99802,26.7191],[-81.99803,26.7154],[-81.98984,26.71537],[-81.98987,26.7117],[-81.98728,26.71167],[-81.97378,26.71767],[-81.97366,26.71158],[-81.97403,26.6964],[-81.97404,26.68215],[-81.97447,26.65606],[-81.97416,26.65206],[-81.98194,26.64902],[-81.98395,26.65258],[-81.98854,26.65052],[-81.99062,26.65178],[-81.99826,26.65168],[-82.00129,26.65084],[-82.00721,26.6517],[-82.00723,26.65],[-82.01128,26.65127],[-82.01128,26.65218],[-82.04003,26.65222],[-82.0559,26.65269],[-82.05583,26.65908],[-82.05734,26.65896],[-82.05745,26.65025],[-82.05668,26.65135],[-82.05635,26.64105],[-82.05505,26.63956],[-82.04819,26.63759],[-82.04811,26.63401],[-82.04419,26.6338],[-82.04174,26.61929],[-82.03884,26.61486],[-82.03975,26.60683],[-82.04629,26.60679],[-82.04759,26.61196],[-82.04918,26.61306],[-82.04812,26.61601],[-82.04927,26.61699],[-82.05194,26.61589],[-82.05393,26.61959],[-82.05356,26.62416],[-82.0555,26.62564],[-82.05646,26.62388],[-82.05875,26.625],[-82.06319,26.625],[-82.06756,26.62102],[-82.06605,26.61943],[-82.06076,26.61139],[-82.05904,26.60607],[-82.05871,26.60188],[-82.05917,26.59688],[-82.06199,26.58854],[-82.06495,26.58318],[-82.0681,26.5742],[-82.06952,26.56903],[-82.0688,26.56344],[-82.08068,26.56326],[-82.08145,26.56473],[-82.0836,26.56326],[-82.0824,26.56556],[-82.08286,26.56753],[-82.08665,26.57202],[-82.08691,26.57421],[-82.09015,26.58],[-82.09586,26.58779],[-82.09674,26.59138],[-82.09793,26.59262],[-82.10066,26.59268],[-82.09957,26.59388],[-82.1013,26.5954],[-82.10186,26.59904],[-82.10339,26.59939],[-82.1048,26.60456],[-82.10562,26.61059],[-82.10488,26.6144],[-82.10883,26.62114],[-82.10835,26.62509],[-82.11073,26.62536],[-82.11131,26.62709],[-82.11168,26.63572],[-82.10929,26.64285],[-82.10735,26.64191]]]}},{"type":"Feature","properties":{"zcta":"33904","d":1603},"geometry":{"type":"Polygon","coordinates":[[[-81.97324,26.60766],[-81.96593,26.60681],[-81.96475,26.60441],[-81.96329,26.60681],[-81.95639,26.60652],[-81.95639,26.60571],[-81.95021,26.60744],[-81.9127,26.60795],[-81.91124,26.60773],[-81.90408,26.6032],[-81.90368,26.59718],[-81.90821,26.58305],[-81.91531,26.57225],[-81.92527,26.56302],[-81.93941,26.54355],[-81.94341,26.54005],[-81.95691,26.53315],[-81.97324,26.53175],[-81.97416,26.54231],[-81.97522,26.54406],[-81.97468,26.55158],[-81.97389,26.55261],[-81.97405,26.5583],[-81.97336,26.56398],[-81.97406,26.56451],[-81.97412,26.58012],[-81.97358,26.59379],[-81.9742,26.60227],[-81.97419,26.60766],[-81.97324,26.60766]]]}},{"type":"Feature","properties":{"zcta":"33919","d":1782},"geometry":{"type":"Polygon","coordinates":[[[-81.89499,26.59704],[-81.89077,26.59651],[-81.89196,26.59361],[-81.88377,26.59423],[-81.88341,26.58486],[-81.87932,26.58127],[-81.88185,26.57817],[-81.88188,26.57539],[-81.88421,26.57536],[-81.88401,26.56296],[-81.88513,26.55786],[-81.88536,26.54995],[-81.88709,26.54297],[-81.887,26.52956],[-81.88731,26.52503],[-81.89094,26.5208],[-81.91859,26.52017],[-81.91957,26.51994],[-81.91989,26.53711],[-81.92312,26.53547],[-81.92676,26.5323],[-81.92669,26.53468],[-81.92529,26.53518],[-81.92578,26.54384],[-81.93941,26.54355],[-81.92527,26.56302],[-81.91531,26.57225],[-81.90821,26.58305],[-81.90368,26.59718],[-81.90408,26.6032],[-81.89499,26.59704]]]}},{"type":"Feature","properties":{"zcta":"33931","d":246},"geometry":{"type":"Polygon","coordinates":[[[-81.8701,26.42157],[-81.86074,26.41222],[-81.85476,26.40327],[-81.85238,26.40324],[-81.85262,26.3912],[-81.85387,26.38523],[-81.85284,26.38027],[-81.84905,26.37792],[-81.84639,26.37727],[-81.84632,26.37536],[-81.84343,26.35311],[-81.84898,26.35151],[-81.85161,26.35247],[-81.8551,26.35525],[-81.85564,26.35797],[-81.85803,26.35988],[-81.85764,26.3621],[-81.86008,26.36449],[-81.86085,26.36839],[-81.85919,26.36681],[-81.8582,26.36393],[-81.85629,26.3666],[-81.8698,26.39937],[-81.87204,26.40199],[-81.87511,26.4035],[-81.87953,26.40417],[-81.87979,26.4024],[-81.88265,26.40091],[-81.88251,26.40265],[-81.88456,26.40366],[-81.8939,26.40363],[-81.90172,26.41111],[-81.90301,26.41707],[-81.90655,26.42287],[-81.91284,26.42939],[-81.92361,26.43666],[-81.93841,26.44506],[-81.95616,26.45259],[-81.96393,26.45722],[-81.96742,26.46086],[-81.96928,26.46389],[-81.96685,26.46552],[-81.96439,26.46207],[-81.9614,26.45955],[-81.95591,26.4575],[-81.95484,26.45875],[-81.95662,26.46705],[-81.96951,26.47651],[-81.97275,26.47779],[-81.97155,26.4791],[-81.96729,26.48082],[-81.95972,26.48084],[-81.95956,26.49032],[-81.95142,26.49085],[-81.95145,26.4941],[-81.94328,26.49389],[-81.94324,26.49198],[-81.9391,26.49397],[-81.93069,26.49412],[-81.92788,26.49477],[-81.91628,26.49971],[-81.91588,26.49805],[-81.91951,26.4946],[-81.91721,26.49382],[-81.91418,26.48837],[-81.91415,26.48411],[-81.91336,26.48221],[-81.91361,26.47784],[-81.91125,26.47342],[-81.91186,26.46641],[-81.91062,26.46419],[-81.91187,26.46117],[-81.90984,26.45884],[-81.91004,26.45446],[-81.91394,26.4511],[-81.91375,26.44829],[-81.91467,26.445],[-81.91652,26.4443],[-81.92011,26.44046],[-81.91691,26.43886],[-81.90546,26.43468],[-81.89784,26.4338],[-81.89483,26.43276],[-81.88466,26.42764],[-81.8809,26.42633],[-81.87481,26.42506],[-81.87244,26.42328],[-81.8701,26.42157]]]}},{"type":"Feature","properties":{"zcta":"33936","d":600},"geometry":{"type":"Polygon","coordinates":[[[-81.63996,26.61134],[-81.64186,26.61353],[-81.63438,26.61414],[-81.6065,26.61438],[-81.60509,26.61554],[-81.60508,26.61799],[-81.60366,26.61801],[-81.60363,26.62896],[-81.60402,26.63971],[-81.59973,26.63977],[-81.59986,26.64365],[-81.5919,26.64374],[-81.5918,26.63624],[-81.59038,26.63624],[-81.59032,26.63266],[-81.59175,26.63265],[-81.5917,26.62907],[-81.59313,26.62892],[-81.59305,26.62527],[-81.59162,26.62528],[-81.59111,26.61863],[-81.5914,26.6145],[-81.56549,26.61458],[-81.56585,26.63553],[-81.56566,26.63553],[-81.56609,26.67277],[-81.56638,26.69595],[-81.55801,26.69621],[-81.55784,26.68798],[-81.51402,26.6882],[-81.5138,26.67323],[-81.51781,26.67325],[-81.5174,26.65851],[-81.4688,26.65939],[-81.46853,26.64554],[-81.47465,26.64551],[-81.47754,26.64668],[-81.49134,26.64645],[-81.49236,26.64671],[-81.50402,26.64644],[-81.5045,26.6323],[-81.51943,26.63224],[-81.48322,26.60084],[-81.48168,26.59911],[-81.48167,26.59722],[-81.51597,26.59706],[-81.51625,26.60097],[-81.53271,26.60058],[-81.5651,26.60033],[-81.59283,26.59999],[-81.59735,26.60084],[-81.59788,26.59913],[-81.60853,26.59916],[-81.60902,26.5998],[-81.61388,26.59976],[-81.61387,26.59299],[-81.61783,26.59274],[-81.61776,26.5892],[-81.61963,26.58871],[-81.61831,26.5865],[-81.61881,26.58233],[-81.61724,26.58141],[-81.61726,26.57793],[-81.62081,26.57771],[-81.62118,26.57572],[-81.6209,26.56748],[-81.62449,26.56797],[-81.62182,26.56974],[-81.62514,26.56966],[-81.62508,26.5652],[-81.63424,26.56467],[-81.63809,26.56546],[-81.6432,26.56518],[-81.64533,26.56736],[-81.64544,26.57031],[-81.63755,26.5703],[-81.63745,26.57397],[-81.63332,26.57402],[-81.63333,26.57771],[-81.62934,26.57775],[-81.62936,26.58472],[-81.64115,26.58457],[-81.64569,26.58487],[-81.64581,26.58404],[-81.64997,26.5836],[-81.64799,26.58089],[-81.64921,26.58022],[-81.65211,26.58385],[-81.65477,26.58335],[-81.65212,26.57883],[-81.65278,26.57847],[-81.65622,26.58432],[-81.66218,26.58424],[-81.66257,26.61283],[-81.66982,26.61306],[-81.66986,26.61369],[-81.66257,26.61417],[-81.65199,26.61433],[-81.64678,26.61503],[-81.6466,26.61607],[-81.63996,26.61134]]]}},{"type":"Feature","properties":{"zcta":"33921","d":0},"geometry":{"type":"Polygon","coordinates":[[[-82.2823,26.81186],[-82.27777,26.81102],[-82.27647,26.8101],[-82.2724,26.81847],[-82.26985,26.82781],[-82.26874,26.83019],[-82.26572,26.83084],[-82.26173,26.82944],[-82.26134,26.80676],[-82.26152,26.8038],[-82.26135,26.78886],[-82.24263,26.78574],[-82.23391,26.78322],[-82.22622,26.78201],[-82.22149,26.78175],[-82.21812,26.77979],[-82.20879,26.77172],[-82.20556,26.77053],[-82.20211,26.77016],[-82.2033,26.76571],[-82.20544,26.76443],[-82.21,26.76808],[-82.22065,26.76655],[-82.23064,26.77101],[-82.23872,26.76783],[-82.24989,26.76295],[-82.25321,26.75403],[-82.2544,26.74554],[-82.25975,26.72803],[-82.2588,26.71848],[-82.26194,26.71709],[-82.26427,26.72016],[-82.2638,26.72564],[-82.26468,26.75684],[-82.2695,26.78467],[-82.27425,26.79354],[-82.28268,26.80421],[-82.28436,26.8093],[-82.2823,26.81186]]]}},{"type":"Feature","properties":{"zcta":"33916","d":1207},"geometry":{"type":"Polygon","coordinates":[[[-81.85395,26.6755],[-81.84042,26.68914],[-81.83836,26.68785],[-81.83496,26.68587],[-81.82882,26.67892],[-81.82708,26.67796],[-81.83094,26.67426],[-81.82816,26.67323],[-81.8278,26.67045],[-81.82908,26.66651],[-81.8285,26.66313],[-81.82813,26.6486],[-81.82475,26.64128],[-81.8212,26.64079],[-81.81164,26.63776],[-81.81139,26.61283],[-81.81122,26.61263],[-81.81566,26.61245],[-81.81898,26.61131],[-81.83334,26.59928],[-81.83839,26.5975],[-81.85553,26.59722],[-81.8556,26.60443],[-81.85566,26.61173],[-81.85623,26.62815],[-81.86036,26.63359],[-81.86034,26.6443],[-81.86119,26.65014],[-81.86329,26.64911],[-81.8688,26.65422],[-81.87049,26.65312],[-81.87603,26.66153],[-81.85395,26.6755]]]}},{"type":"Feature","properties":{"zcta":"33928","d":221},"geometry":{"type":"Polygon","coordinates":[[[-81.81785,26.44819],[-81.81525,26.44961],[-81.80506,26.44913],[-81.78896,26.44955],[-81.78369,26.44885],[-81.77928,26.44941],[-81.7743,26.44938],[-81.7555,26.44949],[-81.74222,26.4496],[-81.73877,26.4512],[-81.7038,26.4531],[-81.69482,26.45337],[-81.69228,26.45215],[-81.69214,26.46435],[-81.64524,26.46488],[-81.64377,26.46107],[-81.64391,26.45052],[-81.60219,26.45081],[-81.60219,26.45619],[-81.58697,26.45649],[-81.58684,26.45101],[-81.56641,26.45128],[-81.56323,26.45306],[-81.56274,26.4544],[-81.56218,26.42263],[-81.65836,26.4211],[-81.65979,26.42133],[-81.66103,26.41939],[-81.65963,26.418],[-81.65948,26.41131],[-81.66564,26.41128],[-81.6759,26.41074],[-81.67645,26.41522],[-81.68124,26.41944],[-81.68167,26.42115],[-81.69254,26.42138],[-81.72399,26.4207],[-81.74091,26.42054],[-81.77342,26.42044],[-81.78304,26.42014],[-81.78444,26.4205],[-81.7845,26.42416],[-81.78822,26.42414],[-81.78815,26.42033],[-81.80483,26.42035],[-81.80454,26.4188],[-81.80425,26.40561],[-81.80585,26.39882],[-81.8107,26.39797],[-81.81492,26.39797],[-81.81651,26.40166],[-81.82066,26.40149],[-81.82072,26.40514],[-81.82961,26.40521],[-81.83006,26.40741],[-81.83193,26.40952],[-81.83126,26.41256],[-81.83658,26.41253],[-81.84061,26.41107],[-81.84057,26.40894],[-81.84754,26.40925],[-81.84742,26.41196],[-81.85064,26.41569],[-81.85097,26.41837],[-81.84872,26.42296],[-81.84628,26.42233],[-81.84918,26.4255],[-81.84986,26.4244],[-81.85324,26.42519],[-81.85206,26.42749],[-81.8545,26.42755],[-81.85739,26.43151],[-81.85584,26.44006],[-81.85147,26.43839],[-81.85276,26.43634],[-81.8506,26.43541],[-81.84812,26.43668],[-81.84673,26.43309],[-81.84342,26.43643],[-81.84574,26.43787],[-81.84577,26.44174],[-81.84687,26.44695],[-81.84544,26.44878],[-81.82325,26.44919],[-81.82329,26.45193],[-81.82128,26.45227],[-81.81785,26.44819]]]}},{"type":"Feature","properties":{"zcta":"33917","d":269},"geometry":{"type":"Polygon","coordinates":[[[-81.85864,26.76989],[-81.85819,26.79904],[-81.89055,26.79855],[-81.89027,26.82842],[-81.90494,26.82842],[-81.91896,26.89353],[-81.85774,26.82871],[-81.84171,26.82865],[-81.8419,26.82146],[-81.82541,26.82162],[-81.82546,26.81754],[-81.82641,26.81379],[-81.84151,26.81369],[-81.84175,26.81126],[-81.83082,26.79913],[-81.82593,26.79912],[-81.82594,26.7935],[-81.80567,26.76975],[-81.76074,26.7696],[-81.761,26.74029],[-81.76081,26.71728],[-81.76428,26.71613],[-81.7679,26.71384],[-81.7706,26.70905],[-81.77608,26.70317],[-81.78639,26.69906],[-81.79374,26.69831],[-81.79681,26.69674],[-81.80111,26.69674],[-81.8024,26.69813],[-81.80763,26.69818],[-81.81104,26.69526],[-81.81502,26.69445],[-81.82731,26.69055],[-81.83526,26.68947],[-81.83836,26.68785],[-81.84042,26.68914],[-81.85395,26.6755],[-81.87603,26.66153],[-81.87608,26.66465],[-81.87779,26.66479],[-81.87897,26.66764],[-81.88022,26.66737],[-81.88266,26.67095],[-81.88312,26.67968],[-81.88401,26.6841],[-81.89135,26.6996],[-81.90079,26.71118],[-81.90237,26.71253],[-81.90669,26.7253],[-81.91304,26.73661],[-81.92464,26.75789],[-81.93133,26.77005],[-81.85864,26.76989]]]}},{"type":"Feature","properties":{"zcta":"33905","d":435},"geometry":{"type":"Polygon","coordinates":[[[-81.74995,26.71677],[-81.7455,26.71733],[-81.73887,26.71957],[-81.73591,26.72128],[-81.72151,26.72359],[-81.7127,26.72528],[-81.71253,26.72422],[-81.70839,26.7244],[-81.70874,26.71864],[-81.71246,26.71859],[-81.71229,26.70589],[-81.71029,26.70591],[-81.71024,26.7041],[-81.70826,26.7041],[-81.7082,26.70192],[-81.71225,26.70182],[-81.71184,26.68565],[-81.69563,26.68586],[-81.6953,26.67181],[-81.69472,26.65807],[-81.68634,26.65783],[-81.6867,26.64169],[-81.69204,26.64253],[-81.69201,26.63694],[-81.69535,26.63711],[-81.70171,26.64163],[-81.70472,26.64258],[-81.71733,26.64258],[-81.71875,26.63959],[-81.72072,26.63871],[-81.72617,26.63845],[-81.72772,26.63703],[-81.72733,26.63541],[-81.73122,26.63554],[-81.73123,26.63646],[-81.75013,26.63634],[-81.75502,26.63445],[-81.75718,26.62836],[-81.7592,26.62737],[-81.77411,26.62709],[-81.77583,26.6255],[-81.78796,26.61562],[-81.78972,26.61306],[-81.80302,26.61275],[-81.81122,26.61263],[-81.81139,26.61283],[-81.81164,26.63776],[-81.8212,26.64079],[-81.82475,26.64128],[-81.82813,26.6486],[-81.8285,26.66313],[-81.82908,26.66651],[-81.8278,26.67045],[-81.82816,26.67323],[-81.83094,26.67426],[-81.82708,26.67796],[-81.82882,26.67892],[-81.83496,26.68587],[-81.83836,26.68785],[-81.83526,26.68947],[-81.82731,26.69055],[-81.81502,26.69445],[-81.81104,26.69526],[-81.80763,26.69818],[-81.8024,26.69813],[-81.80111,26.69674],[-81.79681,26.69674],[-81.79374,26.69831],[-81.78639,26.69906],[-81.77608,26.70317],[-81.7706,26.70905],[-81.7679,26.71384],[-81.76428,26.71613],[-81.76081,26.71728],[-81.74995,26.71677]]]}},{"type":"Feature","properties":{"zcta":"33909","d":1043},"geometry":{"type":"Polygon","coordinates":[[[-82.03816,26.77037],[-81.93133,26.77005],[-81.92464,26.75789],[-81.92949,26.7579],[-81.92817,26.75526],[-81.94029,26.75527],[-81.94058,26.74801],[-81.94021,26.74062],[-81.93208,26.74053],[-81.92464,26.74093],[-81.92485,26.72572],[-81.91832,26.72575],[-81.91475,26.72227],[-81.90757,26.72507],[-81.90763,26.7169],[-81.90419,26.71775],[-81.90381,26.71652],[-81.90764,26.71557],[-81.90768,26.70417],[-81.91812,26.70413],[-81.92011,26.69813],[-81.9188,26.69399],[-81.91405,26.69305],[-81.91421,26.68956],[-81.90816,26.68932],[-81.90832,26.68698],[-81.91087,26.68698],[-81.91098,26.6816],[-81.92231,26.67618],[-81.92203,26.67296],[-81.91994,26.67284],[-81.91977,26.67109],[-81.91773,26.67108],[-81.91756,26.66921],[-81.92157,26.66923],[-81.9214,26.66005],[-81.92338,26.66007],[-81.92342,26.65271],[-81.94212,26.6523],[-81.94895,26.65253],[-81.96698,26.65233],[-81.96992,26.65398],[-81.97416,26.65206],[-81.97447,26.65606],[-81.97404,26.68215],[-81.97403,26.6964],[-81.97366,26.71158],[-81.97378,26.71767],[-81.98728,26.71167],[-81.98987,26.7117],[-81.98984,26.71537],[-81.99803,26.7154],[-81.99802,26.7191],[-82.00417,26.71913],[-82.00417,26.71543],[-82.00212,26.71542],[-82.00213,26.71173],[-82.00621,26.71174],[-82.00622,26.72653],[-82.02287,26.72645],[-82.02261,26.74129],[-82.03014,26.74112],[-82.03013,26.74482],[-82.03893,26.74557],[-82.03849,26.7586],[-82.03816,26.77037]]]}},{"type":"Feature","properties":{"zcta":"33971","d":836},"geometry":{"type":"Polygon","coordinates":[[[-81.66299,26.68624],[-81.66306,26.67123],[-81.66283,26.64298],[-81.66226,26.64232],[-81.66223,26.62824],[-81.66266,26.62478],[-81.65946,26.62143],[-81.6548,26.61923],[-81.6466,26.61607],[-81.64678,26.61503],[-81.65199,26.61433],[-81.66257,26.61417],[-81.66986,26.61369],[-81.66982,26.61306],[-81.67886,26.61304],[-81.68638,26.61354],[-81.71107,26.61327],[-81.71442,26.61355],[-81.74272,26.61345],[-81.74265,26.60992],[-81.74401,26.60863],[-81.74839,26.61338],[-81.7588,26.61332],[-81.75909,26.611],[-81.77583,26.6255],[-81.77411,26.62709],[-81.7592,26.62737],[-81.75718,26.62836],[-81.75502,26.63445],[-81.75013,26.63634],[-81.73123,26.63646],[-81.73122,26.63554],[-81.72733,26.63541],[-81.72772,26.63703],[-81.72617,26.63845],[-81.72072,26.63871],[-81.71875,26.63959],[-81.71733,26.64258],[-81.70472,26.64258],[-81.70171,26.64163],[-81.69535,26.63711],[-81.69201,26.63694],[-81.69204,26.64253],[-81.6867,26.64169],[-81.68634,26.65783],[-81.69472,26.65807],[-81.6953,26.67181],[-81.69563,26.68586],[-81.66299,26.68624]]]}},{"type":"Feature","properties":{"zcta":"33957","d":160},"geometry":{"type":"Polygon","coordinates":[[[-82.17552,26.4919],[-82.17303,26.49359],[-82.17007,26.49345],[-82.1688,26.49234],[-82.1685,26.48774],[-82.16391,26.48561],[-82.16166,26.48665],[-82.16,26.48613],[-82.15974,26.48198],[-82.15418,26.48084],[-82.14937,26.47761],[-82.14007,26.47731],[-82.13247,26.47907],[-82.12843,26.47758],[-82.12005,26.47358],[-82.08842,26.45518],[-82.07692,26.46611],[-82.06664,26.46609],[-82.06255,26.47013],[-82.04081,26.45823],[-82.03621,26.45439],[-82.03217,26.45269],[-82.02053,26.45311],[-82.01561,26.45486],[-82.01371,26.45426],[-82.01391,26.45206],[-82.06311,26.42546],[-82.07501,26.42206],[-82.08291,26.42206],[-82.09812,26.42496],[-82.12667,26.43628],[-82.14872,26.45546],[-82.17292,26.46766],[-82.17702,26.47156],[-82.18072,26.47626],[-82.1831,26.48166],[-82.17727,26.49214],[-82.17552,26.4919]]]}},{"type":"Feature","properties":{"zcta":"33966","d":919},"geometry":{"type":"Polygon","coordinates":[[[-81.83839,26.5975],[-81.83334,26.59928],[-81.81898,26.61131],[-81.81566,26.61245],[-81.81122,26.61263],[-81.80302,26.61275],[-81.79894,26.59881],[-81.80407,26.59177],[-81.80554,26.58786],[-81.81231,26.58547],[-81.81276,26.58356],[-81.81736,26.57861],[-81.81639,26.57826],[-81.82185,26.56882],[-81.82772,26.57061],[-81.83333,26.55717],[-81.83829,26.55187],[-81.83937,26.54678],[-81.85526,26.54628],[-81.85525,26.57538],[-81.85553,26.59722],[-81.83839,26.5975]]]}},{"type":"Feature","properties":{"zcta":"33956","d":100},"geometry":{"type":"MultiPolygon","coordinates":[[[[-82.11671,26.61368],[-82.11744,26.61201],[-82.11797,26.61366],[-82.11671,26.61368]]],[[[-82.10562,26.61059],[-82.1048,26.60456],[-82.10339,26.59939],[-82.10186,26.59904],[-82.1013,26.5954],[-82.09957,26.59388],[-82.10066,26.59268],[-82.09793,26.59262],[-82.09674,26.59138],[-82.09586,26.58779],[-82.09015,26.58],[-82.08691,26.57421],[-82.08665,26.57202],[-82.08286,26.56753],[-82.0824,26.56556],[-82.0836,26.56326],[-82.08145,26.56473],[-82.08068,26.56326],[-82.0688,26.56344],[-82.06664,26.55743],[-82.06537,26.54969],[-82.06473,26.54068],[-82.06925,26.53543],[-82.07163,26.52565],[-82.06854,26.51353],[-82.06331,26.50289],[-82.05689,26.49715],[-82.05689,26.49375],[-82.07175,26.49255],[-82.08589,26.48949],[-82.09611,26.48393],[-82.10567,26.48393],[-82.1065,26.49139],[-82.10271,26.4997],[-82.10062,26.51076],[-82.10915,26.51523],[-82.10704,26.51821],[-82.10205,26.51948],[-82.10467,26.52352],[-82.11203,26.52757],[-82.1137,26.53224],[-82.11393,26.54075],[-82.12249,26.55499],[-82.12511,26.56818],[-82.12439,26.58242],[-82.12161,26.58527],[-82.1235,26.58963],[-82.12657,26.59036],[-82.13007,26.60315],[-82.12981,26.60803],[-82.12868,26.61007],[-82.12726,26.60963],[-82.12086,26.60985],[-82.12067,26.61361],[-82.1192,26.61364],[-82.11692,26.61037],[-82.11316,26.61047],[-82.11316,26.61318],[-82.11156,26.61189],[-82.10937,26.61193],[-82.10935,26.61382],[-82.10488,26.6144],[-82.10562,26.61059]]]]}},{"type":"Feature","properties":{"zcta":"34134","d":690},"geometry":{"type":"Polygon","coordinates":[[[-81.87979,26.4024],[-81.87953,26.40417],[-81.87511,26.4035],[-81.87204,26.40199],[-81.8698,26.39937],[-81.85629,26.3666],[-81.8582,26.36393],[-81.85919,26.36681],[-81.86085,26.36839],[-81.86008,26.36449],[-81.85764,26.3621],[-81.85803,26.35988],[-81.85564,26.35797],[-81.8551,26.35525],[-81.85161,26.35247],[-81.84898,26.35151],[-81.84343,26.35311],[-81.84632,26.37536],[-81.84639,26.37727],[-81.84905,26.37792],[-81.85284,26.38027],[-81.85387,26.38523],[-81.85262,26.3912],[-81.85238,26.40324],[-81.85476,26.40327],[-81.86074,26.41222],[-81.8701,26.42157],[-81.87244,26.42328],[-81.86256,26.42835],[-81.85895,26.42974],[-81.85739,26.43151],[-81.8545,26.42755],[-81.85206,26.42749],[-81.85324,26.42519],[-81.84986,26.4244],[-81.84918,26.4255],[-81.84628,26.42233],[-81.84872,26.42296],[-81.85097,26.41837],[-81.85064,26.41569],[-81.84742,26.41196],[-81.84754,26.40925],[-81.84057,26.40894],[-81.84061,26.41107],[-81.83658,26.41253],[-81.83126,26.41256],[-81.83193,26.40952],[-81.83006,26.40741],[-81.82961,26.40521],[-81.82072,26.40514],[-81.82066,26.40149],[-81.81651,26.40166],[-81.81492,26.39797],[-81.8107,26.39797],[-81.81065,26.39518],[-81.80807,26.38142],[-81.80783,26.35867],[-81.80627,26.3587],[-81.80441,26.3545],[-81.80758,26.35388],[-81.80756,26.35136],[-81.80317,26.35069],[-81.80294,26.34718],[-81.80754,26.34718],[-81.806,26.33059],[-81.80517,26.31629],[-81.81902,26.31625],[-81.81906,26.32151],[-81.82614,26.32124],[-81.82618,26.31901],[-81.8297,26.31769],[-81.83286,26.31535],[-81.83658,26.31429],[-81.83538,26.31073],[-81.83342,26.30961],[-81.83006,26.3105],[-81.82801,26.30118],[-81.82449,26.29927],[-81.82394,26.2969],[-81.82776,26.28983],[-81.83176,26.28811],[-81.83314,26.29452],[-81.84455,26.32771],[-81.85498,26.35051],[-81.86313,26.36425],[-81.8629,26.36597],[-81.86898,26.37865],[-81.87652,26.38698],[-81.88427,26.39396],[-81.88557,26.39773],[-81.88265,26.40091],[-81.87979,26.4024]]]}},{"type":"Feature","properties":{"zcta":"34135","d":667},"geometry":{"type":"Polygon","coordinates":[[[-81.80585,26.39882],[-81.80425,26.40561],[-81.80454,26.4188],[-81.80483,26.42035],[-81.78815,26.42033],[-81.78822,26.42414],[-81.7845,26.42416],[-81.78444,26.4205],[-81.78304,26.42014],[-81.77342,26.42044],[-81.74091,26.42054],[-81.72399,26.4207],[-81.69254,26.42138],[-81.68167,26.42115],[-81.68124,26.41944],[-81.67645,26.41522],[-81.6759,26.41074],[-81.66564,26.41128],[-81.65948,26.41131],[-81.65963,26.418],[-81.66103,26.41939],[-81.65979,26.42133],[-81.65836,26.4211],[-81.65951,26.42108],[-81.65806,26.33237],[-81.6579,26.31756],[-81.7221,26.31708],[-81.72221,26.32428],[-81.7381,26.32423],[-81.73794,26.31863],[-81.73724,26.31697],[-81.76117,26.31665],[-81.76124,26.31341],[-81.7623,26.3134],[-81.76275,26.32561],[-81.76257,26.32761],[-81.77054,26.32732],[-81.77064,26.32025],[-81.7746,26.32015],[-81.77474,26.32376],[-81.77798,26.32374],[-81.77798,26.32611],[-81.78246,26.32612],[-81.7869,26.31956],[-81.78811,26.31643],[-81.80517,26.31629],[-81.806,26.33059],[-81.80754,26.34718],[-81.80294,26.34718],[-81.80317,26.35069],[-81.80756,26.35136],[-81.80758,26.35388],[-81.80441,26.3545],[-81.80627,26.3587],[-81.80783,26.35867],[-81.80807,26.38142],[-81.81065,26.39518],[-81.8107,26.39797],[-81.80585,26.39882]]]}},{"type":"Feature","properties":{"zcta":"33924","d":0},"geometry":{"type":"Polygon","coordinates":[[[-82.18644,26.48922],[-82.19884,26.54598],[-82.20167,26.55138],[-82.2014,26.55631],[-82.20532,26.56793],[-82.21367,26.57991],[-82.22089,26.58391],[-82.22444,26.59325],[-82.22407,26.6029],[-82.21994,26.60707],[-82.21434,26.60294],[-82.20635,26.58363],[-82.19902,26.56095],[-82.19736,26.55351],[-82.19188,26.54362],[-82.1902,26.53773],[-82.18785,26.52352],[-82.17953,26.51247],[-82.17978,26.50599],[-82.17683,26.50051],[-82.17608,26.49757],[-82.1782,26.4943],[-82.17727,26.49214],[-82.1831,26.48166],[-82.18644,26.48922]]]}},{"type":"Feature","properties":{"zcta":"33913","d":170},"geometry":{"type":"Polygon","coordinates":[[[-81.78972,26.61306],[-81.78796,26.61562],[-81.77583,26.6255],[-81.75909,26.611],[-81.73948,26.59396],[-81.73572,26.59135],[-81.71375,26.5817],[-81.6618,26.55919],[-81.64765,26.55302],[-81.63722,26.54526],[-81.6339,26.53908],[-81.63128,26.53618],[-81.6284,26.53487],[-81.56383,26.51847],[-81.56274,26.4544],[-81.56323,26.45306],[-81.56641,26.45128],[-81.58684,26.45101],[-81.58697,26.45649],[-81.60219,26.45619],[-81.60219,26.45081],[-81.64391,26.45052],[-81.64377,26.46107],[-81.64524,26.46488],[-81.69214,26.46435],[-81.69228,26.45215],[-81.69482,26.45337],[-81.7038,26.4531],[-81.73877,26.4512],[-81.74222,26.4496],[-81.7555,26.44949],[-81.75495,26.4535],[-81.75575,26.47128],[-81.76095,26.47133],[-81.76148,26.47195],[-81.77251,26.47178],[-81.77791,26.47123],[-81.78201,26.46932],[-81.78611,26.47033],[-81.78538,26.46416],[-81.78279,26.45911],[-81.7805,26.45691],[-81.77615,26.45419],[-81.77443,26.45179],[-81.7743,26.44938],[-81.77928,26.44941],[-81.78369,26.44885],[-81.78624,26.45654],[-81.79401,26.4847],[-81.79424,26.49313],[-81.79483,26.54739],[-81.79477,26.55485],[-81.79216,26.5712],[-81.79237,26.57625],[-81.79894,26.59881],[-81.80302,26.61275],[-81.78972,26.61306]]]}},{"type":"Feature","properties":{"zcta":"33901","d":1687},"geometry":{"type":"Polygon","coordinates":[[[-81.89422,26.64751],[-81.88205,26.65698],[-81.87802,26.65078],[-81.87049,26.65312],[-81.8688,26.65422],[-81.86329,26.64911],[-81.86119,26.65014],[-81.86034,26.6443],[-81.86036,26.63359],[-81.85623,26.62815],[-81.85566,26.61173],[-81.8556,26.60443],[-81.85566,26.60149],[-81.85929,26.60115],[-81.85862,26.5973],[-81.87188,26.59679],[-81.89077,26.59651],[-81.89499,26.59704],[-81.90408,26.6032],[-81.91124,26.60773],[-81.91345,26.62426],[-81.91212,26.62497],[-81.91253,26.62784],[-81.89422,26.64751]]]}},{"type":"Feature","properties":{"zcta":"33903","d":846},"geometry":{"type":"Polygon","coordinates":[[[-81.91304,26.73661],[-81.90669,26.7253],[-81.90237,26.71253],[-81.90079,26.71118],[-81.89135,26.6996],[-81.88401,26.6841],[-81.88312,26.67968],[-81.88266,26.67095],[-81.88022,26.66737],[-81.87897,26.66764],[-81.87779,26.66479],[-81.87608,26.66465],[-81.87603,26.66153],[-81.87049,26.65312],[-81.87802,26.65078],[-81.88205,26.65698],[-81.89422,26.64751],[-81.91253,26.62784],[-81.91719,26.62751],[-81.92368,26.62786],[-81.92342,26.65271],[-81.92338,26.66007],[-81.9214,26.66005],[-81.92157,26.66923],[-81.91756,26.66921],[-81.91773,26.67108],[-81.91977,26.67109],[-81.91994,26.67284],[-81.92203,26.67296],[-81.92231,26.67618],[-81.91098,26.6816],[-81.91087,26.68698],[-81.90832,26.68698],[-81.90816,26.68932],[-81.91421,26.68956],[-81.91405,26.69305],[-81.9188,26.69399],[-81.92011,26.69813],[-81.91812,26.70413],[-81.90768,26.70417],[-81.90764,26.71557],[-81.90381,26.71652],[-81.90419,26.71775],[-81.90763,26.7169],[-81.90757,26.72507],[-81.91475,26.72227],[-81.91832,26.72575],[-81.92485,26.72572],[-81.92464,26.74093],[-81.93208,26.74053],[-81.94021,26.74062],[-81.94058,26.74801],[-81.94029,26.75527],[-81.92817,26.75526],[-81.92949,26.7579],[-81.92464,26.75789],[-81.91304,26.73661]]]}},{"type":"Feature","properties":{"zcta":"33912","d":468},"geometry":{"type":"Polygon","coordinates":[[[-81.83937,26.54678],[-81.83829,26.55187],[-81.83333,26.55717],[-81.82772,26.57061],[-81.82185,26.56882],[-81.81639,26.57826],[-81.81736,26.57861],[-81.81276,26.58356],[-81.81231,26.58547],[-81.80554,26.58786],[-81.80407,26.59177],[-81.79894,26.59881],[-81.79237,26.57625],[-81.79216,26.5712],[-81.79477,26.55485],[-81.79483,26.54739],[-81.79424,26.49313],[-81.80621,26.49275],[-81.8062,26.49202],[-81.8132,26.492],[-81.81322,26.49273],[-81.84624,26.49244],[-81.85508,26.50087],[-81.8616,26.50997],[-81.86988,26.52211],[-81.87135,26.52801],[-81.87142,26.53439],[-81.87345,26.5346],[-81.87347,26.54031],[-81.87151,26.54032],[-81.87319,26.54618],[-81.8627,26.54646],[-81.85526,26.54628],[-81.83937,26.54678]]]}},{"type":"Feature","properties":{"zcta":"33914","d":999},"geometry":{"type":"Polygon","coordinates":[[[-82.03663,26.6121],[-82.03462,26.6083],[-82.03185,26.60714],[-82.01517,26.60703],[-81.98768,26.60706],[-81.98032,26.60466],[-81.98027,26.60762],[-81.97419,26.60766],[-81.9742,26.60227],[-81.97358,26.59379],[-81.97412,26.58012],[-81.97406,26.56451],[-81.97336,26.56398],[-81.97405,26.5583],[-81.97389,26.55261],[-81.97468,26.55158],[-81.97522,26.54406],[-81.97416,26.54231],[-81.97324,26.53175],[-81.99821,26.52961],[-81.99812,26.53272],[-82.0059,26.53441],[-82.0153,26.52884],[-82.02552,26.53033],[-82.03872,26.52565],[-82.03998,26.52695],[-82.03851,26.52923],[-82.03942,26.53224],[-82.04311,26.53267],[-82.044,26.53445],[-82.0427,26.53637],[-82.04471,26.53983],[-82.05119,26.54224],[-82.05471,26.54805],[-82.05808,26.5484],[-82.06473,26.54068],[-82.06537,26.54969],[-82.06664,26.55743],[-82.0688,26.56344],[-82.06952,26.56903],[-82.0681,26.5742],[-82.06495,26.58318],[-82.06199,26.58854],[-82.05917,26.59688],[-82.05871,26.60188],[-82.05904,26.60607],[-82.06076,26.61139],[-82.06605,26.61943],[-82.06756,26.62102],[-82.06319,26.625],[-82.05875,26.625],[-82.05646,26.62388],[-82.0555,26.62564],[-82.05356,26.62416],[-82.05393,26.61959],[-82.05194,26.61589],[-82.04927,26.61699],[-82.04812,26.61601],[-82.04918,26.61306],[-82.04759,26.61196],[-82.04629,26.60679],[-82.03975,26.60683],[-82.03884,26.61486],[-82.03663,26.6121]]]}},{"type":"Feature","properties":{"zcta":"33922","d":122},"geometry":{"type":"MultiPolygon","coordinates":[[[[-82.11168,26.63572],[-82.11131,26.62709],[-82.11073,26.62536],[-82.10835,26.62509],[-82.10883,26.62114],[-82.10488,26.6144],[-82.10935,26.61382],[-82.10937,26.61193],[-82.11156,26.61189],[-82.11316,26.61318],[-82.11316,26.61047],[-82.11692,26.61037],[-82.1192,26.61364],[-82.12067,26.61361],[-82.12086,26.60985],[-82.12726,26.60963],[-82.12868,26.61007],[-82.12981,26.60803],[-82.13007,26.60315],[-82.13201,26.61021],[-82.13865,26.6126],[-82.1446,26.6228],[-82.14769,26.63448],[-82.14436,26.63894],[-82.14255,26.64391],[-82.14994,26.65412],[-82.16603,26.6693],[-82.16931,26.67654],[-82.17288,26.67866],[-82.17573,26.67845],[-82.18157,26.68171],[-82.18381,26.6878],[-82.18358,26.69502],[-82.1812,26.6982],[-82.17383,26.70563],[-82.15814,26.70733],[-82.15167,26.70414],[-82.13902,26.70299],[-82.12579,26.69954],[-82.1118,26.68164],[-82.10625,26.66734],[-82.10503,26.66646],[-82.10618,26.66348],[-82.10646,26.65906],[-82.10779,26.65543],[-82.10869,26.64851],[-82.10822,26.64497],[-82.10929,26.64285],[-82.11168,26.63572]],[[-82.11744,26.61201],[-82.11671,26.61368],[-82.11797,26.61366],[-82.11744,26.61201]]],[[[-82.25844,26.68801],[-82.25726,26.69353],[-82.25583,26.70393],[-82.25013,26.70776],[-82.24608,26.70606],[-82.24561,26.70309],[-82.24252,26.69672],[-82.2449,26.69247],[-82.24537,26.68631],[-82.24276,26.68143],[-82.2342,26.67675],[-82.23753,26.66911],[-82.23848,26.66252],[-82.23491,26.6553],[-82.23325,26.64957],[-82.22826,26.64447],[-82.22778,26.63703],[-82.22374,26.62683],[-82.21875,26.62513],[-82.21851,26.62322],[-82.22089,26.61812],[-82.22113,26.61345],[-82.22313,26.61254],[-82.2239,26.61418],[-82.22792,26.62713],[-82.23147,26.63473],[-82.2361,26.63788],[-82.2446,26.65352],[-82.24828,26.66166],[-82.2544,26.6672],[-82.26248,26.6776],[-82.26248,26.68397],[-82.25844,26.68801]]]]}},{"type":"Feature","properties":{"zcta":"33974","d":377},"geometry":{"type":"Polygon","coordinates":[[[-81.65622,26.58432],[-81.65278,26.57847],[-81.65212,26.57883],[-81.65477,26.58335],[-81.65211,26.58385],[-81.64921,26.58022],[-81.64799,26.58089],[-81.64997,26.5836],[-81.64581,26.58404],[-81.64569,26.58487],[-81.64115,26.58457],[-81.62936,26.58472],[-81.62934,26.57775],[-81.63333,26.57771],[-81.63332,26.57402],[-81.63745,26.57397],[-81.63755,26.5703],[-81.64544,26.57031],[-81.64533,26.56736],[-81.6432,26.56518],[-81.63809,26.56546],[-81.63424,26.56467],[-81.62508,26.5652],[-81.62514,26.56966],[-81.62182,26.56974],[-81.62449,26.56797],[-81.6209,26.56748],[-81.62118,26.57572],[-81.62081,26.57771],[-81.61726,26.57793],[-81.61724,26.58141],[-81.61881,26.58233],[-81.61831,26.5865],[-81.61963,26.58871],[-81.61776,26.5892],[-81.61783,26.59274],[-81.61387,26.59299],[-81.61388,26.59976],[-81.60902,26.5998],[-81.60853,26.59916],[-81.59788,26.59913],[-81.59735,26.60084],[-81.59283,26.59999],[-81.5651,26.60033],[-81.56459,26.56394],[-81.56383,26.51847],[-81.6284,26.53487],[-81.63128,26.53618],[-81.6339,26.53908],[-81.63722,26.54526],[-81.64765,26.55302],[-81.6618,26.55919],[-81.66182,26.57151],[-81.66069,26.57417],[-81.66218,26.58424],[-81.65622,26.58432]]]}},{"type":"Feature","properties":{"zcta":"33908","d":616},"geometry":{"type":"Polygon","coordinates":[[[-81.97324,26.53175],[-81.95691,26.53315],[-81.94341,26.54005],[-81.93941,26.54355],[-81.92578,26.54384],[-81.92529,26.53518],[-81.92669,26.53468],[-81.92676,26.5323],[-81.92312,26.53547],[-81.91989,26.53711],[-81.91957,26.51994],[-81.91859,26.52017],[-81.89094,26.5208],[-81.88062,26.52087],[-81.87795,26.52234],[-81.87627,26.52601],[-81.87472,26.52752],[-81.87135,26.52801],[-81.86988,26.52211],[-81.8616,26.50997],[-81.85508,26.50087],[-81.84624,26.49244],[-81.84366,26.49001],[-81.84223,26.48732],[-81.83402,26.46795],[-81.82669,26.45876],[-81.82398,26.45825],[-81.82125,26.45945],[-81.82128,26.45227],[-81.82329,26.45193],[-81.82325,26.44919],[-81.84544,26.44878],[-81.84687,26.44695],[-81.84577,26.44174],[-81.84574,26.43787],[-81.84342,26.43643],[-81.84673,26.43309],[-81.84812,26.43668],[-81.8506,26.43541],[-81.85276,26.43634],[-81.85147,26.43839],[-81.85584,26.44006],[-81.85739,26.43151],[-81.85895,26.42974],[-81.86256,26.42835],[-81.87244,26.42328],[-81.87481,26.42506],[-81.8809,26.42633],[-81.88466,26.42764],[-81.89483,26.43276],[-81.89784,26.4338],[-81.90546,26.43468],[-81.91691,26.43886],[-81.92011,26.44046],[-81.91652,26.4443],[-81.91467,26.445],[-81.91375,26.44829],[-81.91394,26.4511],[-81.91004,26.45446],[-81.90984,26.45884],[-81.91187,26.46117],[-81.91062,26.46419],[-81.91186,26.46641],[-81.91125,26.47342],[-81.91361,26.47784],[-81.91336,26.48221],[-81.91415,26.48411],[-81.91418,26.48837],[-81.91721,26.49382],[-81.91951,26.4946],[-81.91588,26.49805],[-81.91628,26.49971],[-81.92788,26.49477],[-81.93069,26.49412],[-81.9391,26.49397],[-81.94324,26.49198],[-81.94328,26.49389],[-81.95145,26.4941],[-81.95142,26.49085],[-81.95956,26.49032],[-81.95972,26.48084],[-81.96729,26.48082],[-81.97155,26.4791],[-81.97275,26.47779],[-81.98071,26.48096],[-81.99701,26.48486],[-82.00896,26.48405],[-82.01271,26.48688],[-82.01082,26.4936],[-82.00725,26.49714],[-82.00834,26.50211],[-82.00758,26.5063],[-82.01012,26.51292],[-82.00905,26.52007],[-81.99831,26.52638],[-81.99821,26.52961],[-81.97324,26.53175]]]}},{"type":"Feature","properties":{"zcta":"33976","d":1054},"geometry":{"type":"Polygon","coordinates":[[[-81.71107,26.61327],[-81.68638,26.61354],[-81.67886,26.61304],[-81.66982,26.61306],[-81.66257,26.61283],[-81.66218,26.58424],[-81.66069,26.57417],[-81.66182,26.57151],[-81.6618,26.55919],[-81.71375,26.5817],[-81.71229,26.58507],[-81.71232,26.5912],[-81.71442,26.61355],[-81.71107,26.61327]]]}}]}