{"type":"FeatureCollection","features":[{"type":"Feature","properties":{"id":"49045","name":"Tooele Co."},"geometry":{"type":"Polygon","coordinates":[[[-112.2275,40.7253],[-112.2165,40.7179],[-112.2077,40.7157],[-112.2033,40.7091],[-112.1988,40.6975],[-112.1986,40.6932],[-112.2015,40.6863],[-112.2042,40.6834],[-112.2044,40.6786],[-112.2015,40.6712],[-112.2012,40.6632],[-112.203,40.6583],[-112.2021,40.6521],[-112.1979,40.6478],[-112.1974,40.6418],[-112.1954,40.6403],[-112.1941,40.6356],[-112.1962,40.6317],[-112.1977,40.6255],[-112.1959,40.6212],[-112.1934,40.62],[-112.1884,40.6142],[-112.1817,40.6121],[-112.1784,40.6068],[-112.1753,40.604],[-112.1773,40.5965],[-112.1749,40.5854],[-112.1815,40.5804],[-112.1804,40.5773],[-112.1836,40.573],[-112.182,40.5709],[-112.1829,40.5622],[-112.1783,40.5564],[-112.18,40.5459],[-112.1822,40.5437],[-112.1827,40.5386],[-112.1792,40.5316],[-112.1788,40.522],[-112.1852,40.5178],[-112.1875,40.5141],[-112.1846,40.5083],[-112.1797,40.5022],[-112.1758,40.5001],[-112.1806,40.4976],[-112.181,40.4918],[-112.177,40.4854],[-112.1781,40.4821],[-112.1716,40.4712],[-112.1729,40.4671],[-112.1903,40.4685],[-112.1957,40.4623],[-112.2077,40.4597],[-112.2122,40.4593],[-112.2142,40.4523],[-112.2128,40.449],[-112.2132,40.4448],[-112.2085,40.4317],[-112.2049,40.4311],[-112.2024,40.4277],[-112.1987,40.4257],[-112.1947,40.4211],[-112.1956,40.4173],[-112.1979,40.4149],[-112.1983,40.4091],[-112.1999,40.4035],[-112.1986,40.4],[-112.2001,40.3974],[-112.1994,40.3906],[-112.2016,40.3882],[-112.1992,40.3825],[-112.1944,40.3795],[-112.1887,40.3725],[-112.1937,40.3679],[-112.1947,40.3628],[-112.194,40.3599],[-112.1881,40.3549],[-112.1853,40.3485],[-112.1814,40.3459],[-112.1786,40.3396],[-112.1755,40.3358],[-112.1799,40.3321],[-112.1911,40.3294],[-112.1963,40.3258],[-112.1927,40.3229],[-112.1937,40.3183],[-112.1968,40.3171],[-112.1985,40.3123],[-112.1974,40.3088],[-112.1986,40.3069],[-112.1921,40.3041],[-112.1898,40.3001],[-112.1902,40.2963],[-112.1874,40.292],[-112.1885,40.2906],[-112.1865,40.2869],[-112.1884,40.2857],[-112.189,40.2735],[-112.1929,40.2689],[-112.1922,40.2645],[-112.1866,40.2591],[-112.1838,40.2581],[-112.1839,40.25],[-112.1793,40.2494],[-112.179,40.2447],[-112.1797,40.2322],[-112.1767,40.2277],[-112.1705,40.2256],[-112.1687,40.2193],[-112.1615,40.2171],[-112.1572,40.2193],[-112.1538,40.2182],[-112.1547,40.2148],[-112.1495,40.2122],[-112.1586,40.2066],[-112.1572,40.2032],[-112.1604,40.1988],[-112.1564,40.197],[-112.1486,40.1954],[-112.1487,40.1905],[-112.1468,40.1897],[-112.1505,40.1877],[-112.1534,40.1822],[-112.1527,40.179],[-112.1467,40.1784],[-112.1459,40.1709],[-112.1523,40.1715],[-112.1559,40.1702],[-112.1551,40.1686],[-112.1596,40.1628],[-112.1644,40.162],[-112.174,40.1543],[-112.1713,40.1487],[-112.1678,40.1467],[-112.1722,40.1412],[-112.1734,40.1347],[-112.1761,40.1308],[-112.1721,40.1272],[-112.1688,40.1267],[-112.1636,40.1232],[-112.1642,40.1187],[-112.1609,40.1143],[-112.1558,40.1127],[-112.1549,40.1087],[-112.1509,40.1073],[-112.1511,40.1052],[-112.1569,40.0987],[-112.1579,40.0891],[-112.1649,40.0878],[-112.1714,40.0856],[-112.1745,40.0818],[-112.176,40.0777],[-112.1722,40.0683],[-112.1732,40.0662],[-112.1802,40.067],[-112.1836,40.0597],[-112.1776,40.0511],[-112.1781,40.0489],[-112.1755,40.0437],[-112.172,40.0395],[-112.1749,40.0353],[-112.1741,40.0327],[-112.1771,40.0306],[-112.178,40.0266],[-112.1769,40.0194],[-112.1798,40.0117],[-112.1819,40.0111],[-112.1869,40.006],[-112.1967,40.0035],[-112.1999,40.0041],[-112.2019,39.9999],[-112.2056,39.9987],[-112.2106,39.9946],[-112.2244,39.9886],[-112.2259,39.9862],[-112.2248,39.9822],[-112.2276,39.9777],[-112.2345,39.971],[-112.2367,39.9666],[-112.2363,39.9607],[-112.2388,39.9586],[-112.2458,39.9562],[-112.2489,39.9508],[-112.2542,39.9506],[-112.2608,39.9428],[-112.2672,39.9418],[-112.2703,39.939],[-112.2783,39.9392],[-112.2808,39.9414],[-112.2847,39.9411],[-112.2984,39.9387],[-112.302,39.9366],[-112.3055,39.94],[-112.3067,39.9454],[-112.3091,39.9448],[-112.3094,39.9484],[-112.3153,39.9458],[-112.3207,39.946],[-112.3232,39.9445],[-112.3274,39.9467],[-112.3323,39.9528],[-112.3346,39.9495],[-112.3347,39.9457],[-112.3398,39.9437],[-112.3355,39.9306],[-112.337,39.9279],[-112.3353,39.9237],[-112.3373,39.9189],[-112.3431,39.9108],[-112.342,39.9045],[-112.4576,39.9039],[-112.6039,39.9037],[-112.7981,39.9037],[-112.7981,39.9042],[-113.025,39.9049],[-113.2485,39.9047],[-113.2485,39.9053],[-113.7013,39.9055],[-113.9248,39.9059],[-114.0471,39.9061],[-114.0466,39.9969],[-114.0468,40.0301],[-114.0464,40.0979],[-114.0467,40.1042],[-114.0462,40.232],[-114.0462,40.3983],[-114.0458,40.4248],[-114.0452,40.4303],[-114.0455,40.4945],[-114.0453,40.5066],[-114.0435,40.7263],[-114.0438,40.7587],[-114.0432,40.7717],[-114.0421,40.9999],[-112.7994,40.9999],[-112.7508,41.0122],[-112.7486,41.0129],[-112.6636,41.0343],[-112.4935,41.0769],[-112.2602,40.7691],[-112.2275,40.7253]]]}},{"type":"Feature","properties":{"id":"49035","name":"Salt Lake Co."},"geometry":{"type":"Polygon","coordinates":[[[-112.1483,40.8461],[-112.0066,40.9218],[-111.9587,40.9218],[-111.9586,40.9002],[-111.9593,40.8963],[-111.9617,40.8934],[-111.9661,40.8917],[-111.9663,40.8888],[-111.9687,40.8869],[-111.9676,40.8801],[-111.9711,40.8766],[-111.9695,40.8723],[-111.9636,40.8716],[-111.9627,40.8636],[-111.9664,40.8579],[-111.9645,40.8534],[-111.9597,40.8522],[-111.9589,40.8492],[-111.9539,40.8476],[-111.9512,40.842],[-111.9467,40.838],[-111.9429,40.8305],[-111.9436,40.8274],[-111.9467,40.8238],[-111.9459,40.8218],[-111.9057,40.8218],[-111.9057,40.8199],[-111.9009,40.8199],[-111.9009,40.8218],[-111.8705,40.8217],[-111.8692,40.8238],[-111.8616,40.8248],[-111.8585,40.8242],[-111.8537,40.8292],[-111.8463,40.8296],[-111.8444,40.8319],[-111.8384,40.8308],[-111.8304,40.8318],[-111.8285,40.8335],[-111.8218,40.8343],[-111.817,40.8385],[-111.812,40.84],[-111.8049,40.8379],[-111.7928,40.8444],[-111.7892,40.8456],[-111.7817,40.8439],[-111.778,40.8447],[-111.7721,40.8488],[-111.7683,40.8484],[-111.755,40.8539],[-111.752,40.8533],[-111.7487,40.8564],[-111.7468,40.8602],[-111.7389,40.8612],[-111.7333,40.8594],[-111.729,40.8563],[-111.7246,40.8547],[-111.7208,40.8558],[-111.7176,40.8531],[-111.7124,40.8517],[-111.7073,40.8526],[-111.7039,40.8558],[-111.7013,40.8612],[-111.6959,40.8618],[-111.6909,40.8588],[-111.6872,40.8588],[-111.6833,40.8563],[-111.6741,40.8553],[-111.6726,40.8538],[-111.664,40.8502],[-111.6605,40.8451],[-111.664,40.8409],[-111.6661,40.8321],[-111.6645,40.8299],[-111.6567,40.8305],[-111.6525,40.8273],[-111.6518,40.824],[-111.6456,40.8241],[-111.6456,40.8205],[-111.6423,40.8185],[-111.639,40.8093],[-111.6425,40.8057],[-111.6408,40.8051],[-111.6411,40.7989],[-111.6465,40.7976],[-111.6487,40.7922],[-111.643,40.7859],[-111.6464,40.7821],[-111.6453,40.779],[-111.6491,40.7734],[-111.6443,40.7711],[-111.6415,40.7713],[-111.6374,40.7682],[-111.6374,40.7639],[-111.6304,40.7608],[-111.6254,40.761],[-111.6213,40.7582],[-111.6235,40.7537],[-111.6214,40.7501],[-111.6174,40.7464],[-111.6209,40.7424],[-111.6247,40.74],[-111.6217,40.7377],[-111.6234,40.7329],[-111.6226,40.7301],[-111.6133,40.7279],[-111.6163,40.7228],[-111.6146,40.7194],[-111.6072,40.7143],[-111.594,40.7028],[-111.5927,40.6991],[-111.5992,40.6921],[-111.6018,40.6847],[-111.6024,40.6721],[-111.6045,40.6666],[-111.6003,40.6642],[-111.5967,40.6598],[-111.5939,40.6517],[-111.5877,40.6497],[-111.5795,40.6453],[-111.5773,40.6426],[-111.5767,40.6337],[-111.569,40.6294],[-111.5674,40.6233],[-111.5576,40.6196],[-111.559,40.6142],[-111.5535,40.6107],[-111.556,40.6051],[-111.5593,40.6015],[-111.5584,40.5999],[-111.5609,40.5938],[-111.56,40.5908],[-111.5639,40.5851],[-111.5725,40.5822],[-111.5778,40.5834],[-111.5827,40.5813],[-111.5905,40.5803],[-111.5939,40.5771],[-111.5981,40.5779],[-111.6022,40.5753],[-111.6018,40.5703],[-111.6057,40.5645],[-111.6107,40.5659],[-111.6203,40.5652],[-111.6338,40.5675],[-111.6381,40.5678],[-111.6417,40.5624],[-111.6456,40.5599],[-111.6465,40.5561],[-111.6503,40.5512],[-111.6563,40.5518],[-111.6618,40.5497],[-111.6613,40.5476],[-111.6641,40.5412],[-111.6735,40.537],[-111.6753,40.5332],[-111.6785,40.5318],[-111.6813,40.5329],[-111.6846,40.5313],[-111.6981,40.5357],[-111.7008,40.5339],[-111.7131,40.5327],[-111.7164,40.5276],[-111.7206,40.5251],[-111.7268,40.5293],[-111.7363,40.5319],[-111.7367,40.5292],[-111.7398,40.524],[-111.7442,40.5226],[-111.7554,40.5264],[-111.7566,40.5279],[-111.7626,40.5292],[-111.7696,40.5226],[-111.7754,40.5213],[-111.7811,40.5187],[-111.784,40.5147],[-111.788,40.5137],[-111.7891,40.5091],[-111.7917,40.5052],[-111.7892,40.502],[-111.7893,40.4981],[-111.8027,40.4936],[-111.8073,40.4894],[-111.8119,40.4884],[-111.8163,40.4892],[-111.8222,40.4865],[-111.8263,40.4864],[-111.8263,40.4827],[-111.8333,40.4827],[-111.8362,40.4777],[-111.8362,40.4751],[-111.8428,40.4746],[-111.8437,40.4767],[-111.8501,40.4749],[-111.8509,40.472],[-111.8565,40.4714],[-111.8584,40.4693],[-111.8629,40.4693],[-111.8685,40.4726],[-111.8706,40.4767],[-111.8737,40.4768],[-111.8826,40.4725],[-111.8924,40.4641],[-111.901,40.4633],[-111.9077,40.4534],[-111.9149,40.452],[-111.9191,40.4432],[-111.9312,40.4336],[-111.9451,40.4256],[-111.9544,40.4216],[-111.9577,40.4218],[-111.96,40.4184],[-111.9665,40.4199],[-111.9737,40.4173],[-111.9787,40.4171],[-111.9821,40.4142],[-111.9845,40.4172],[-111.9925,40.4204],[-111.9926,40.424],[-111.9992,40.4241],[-112.0017,40.4266],[-112.0061,40.4264],[-112.0089,40.433],[-112.0066,40.4352],[-112.0106,40.4372],[-112.0162,40.435],[-112.0213,40.4388],[-112.0245,40.4451],[-112.0206,40.4474],[-112.0246,40.4504],[-112.0315,40.4506],[-112.0304,40.4539],[-112.0327,40.4576],[-112.0332,40.4627],[-112.0382,40.4646],[-112.0471,40.4566],[-112.0594,40.453],[-112.0616,40.4501],[-112.0652,40.4488],[-112.0668,40.4464],[-112.0936,40.4478],[-112.1012,40.4455],[-112.1046,40.4426],[-112.1119,40.439],[-112.1144,40.4413],[-112.1134,40.4475],[-112.1148,40.4507],[-112.1213,40.4542],[-112.1243,40.4586],[-112.1309,40.4628],[-112.1318,40.4644],[-112.1437,40.4704],[-112.1561,40.4669],[-112.1563,40.4643],[-112.1602,40.4611],[-112.1654,40.4623],[-112.1719,40.4655],[-112.1729,40.4671],[-112.1716,40.4712],[-112.1781,40.4821],[-112.177,40.4854],[-112.181,40.4918],[-112.1806,40.4976],[-112.1758,40.5001],[-112.1797,40.5022],[-112.1846,40.5083],[-112.1875,40.5141],[-112.1852,40.5178],[-112.1788,40.522],[-112.1792,40.5316],[-112.1827,40.5386],[-112.1822,40.5437],[-112.18,40.5459],[-112.1783,40.5564],[-112.1829,40.5622],[-112.182,40.5709],[-112.1836,40.573],[-112.1804,40.5773],[-112.1815,40.5804],[-112.1749,40.5854],[-112.1773,40.5965],[-112.1753,40.604],[-112.1784,40.6068],[-112.1817,40.6121],[-112.1884,40.6142],[-112.1934,40.62],[-112.1959,40.6212],[-112.1977,40.6255],[-112.1962,40.6317],[-112.1941,40.6356],[-112.1954,40.6403],[-112.1974,40.6418],[-112.1979,40.6478],[-112.2021,40.6521],[-112.203,40.6583],[-112.2012,40.6632],[-112.2015,40.6712],[-112.2044,40.6786],[-112.2042,40.6834],[-112.2015,40.6863],[-112.1986,40.6932],[-112.1988,40.6975],[-112.2033,40.7091],[-112.2077,40.7157],[-112.2165,40.7179],[-112.2275,40.7253],[-112.2602,40.7691],[-112.1483,40.8461]]]}}]}