{"type":"FeatureCollection","features":[{"type":"Feature","properties":{"zcta":"84083","d":0},"geometry":{"type":"Polygon","coordinates":[[[-113.20172,40.72576],[-113.57405,40.73259],[-113.8215,40.73787],[-113.82153,40.73879],[-113.9631,40.74161],[-113.97267,40.74244],[-113.98286,40.7439],[-113.99905,40.74677],[-113.99903,40.73332],[-114.00856,40.73325],[-114.00847,40.68975],[-114.0438,40.68976],[-114.0435,40.72629],[-114.04383,40.75867],[-114.04318,40.77168],[-114.04215,40.9999],[-113.61186,40.99993],[-113.61194,40.86372],[-113.49761,40.86361],[-113.49757,40.85564],[-113.1866,40.85632],[-113.18767,40.85383],[-113.19079,40.8507],[-113.19234,40.84465],[-113.19695,40.80309],[-113.20171,40.72669],[-113.20172,40.72576]]]}},{"type":"Feature","properties":{"zcta":"84092","d":245},"geometry":{"type":"Polygon","coordinates":[[[-111.85,40.57926],[-111.84999,40.57776],[-111.84758,40.57867],[-111.84379,40.57862],[-111.8438,40.58048],[-111.82845,40.58047],[-111.82327,40.57867],[-111.82325,40.58045],[-111.81509,40.58034],[-111.81555,40.58126],[-111.80661,40.58281],[-111.80341,40.58495],[-111.80152,40.58394],[-111.79993,40.57985],[-111.7971,40.57852],[-111.79655,40.58133],[-111.79438,40.58595],[-111.79224,40.58651],[-111.79235,40.58115],[-111.78846,40.57701],[-111.78666,40.57647],[-111.78648,40.58135],[-111.78495,40.58439],[-111.78433,40.58775],[-111.78656,40.5882],[-111.7865,40.59203],[-111.78207,40.59364],[-111.77577,40.59447],[-111.77584,40.59546],[-111.77103,40.59555],[-111.76499,40.59362],[-111.75633,40.59487],[-111.75076,40.59375],[-111.74722,40.5955],[-111.74062,40.59514],[-111.73746,40.59727],[-111.72641,40.59791],[-111.71981,40.59431],[-111.67126,40.59135],[-111.64526,40.60109],[-111.63103,40.59801],[-111.62964,40.59893],[-111.62271,40.5987],[-111.62226,40.59996],[-111.61828,40.60196],[-111.61771,40.6002],[-111.61454,40.60187],[-111.61259,40.5994],[-111.60941,40.59777],[-111.61069,40.5957],[-111.60933,40.59556],[-111.60897,40.58863],[-111.60652,40.58523],[-111.6036,40.58547],[-111.59879,40.58446],[-111.59881,40.58169],[-111.59394,40.57707],[-111.59808,40.57791],[-111.60127,40.57625],[-111.60263,40.57454],[-111.6018,40.57027],[-111.60262,40.56797],[-111.60581,40.56441],[-111.61071,40.56588],[-111.61263,40.56527],[-111.62025,40.56518],[-111.631,40.56693],[-111.63465,40.56811],[-111.63808,40.56775],[-111.6417,40.56243],[-111.64556,40.55994],[-111.64647,40.55607],[-111.64865,40.55427],[-111.65025,40.55113],[-111.6566,40.55186],[-111.66187,40.54967],[-111.66121,40.54736],[-111.6641,40.54122],[-111.66785,40.53996],[-111.67334,40.5372],[-111.67532,40.53303],[-111.67846,40.53171],[-111.68131,40.53299],[-111.68463,40.53131],[-111.6936,40.53394],[-111.69811,40.53573],[-111.70164,40.53359],[-111.70591,40.53362],[-111.71112,40.53249],[-111.71314,40.53269],[-111.71636,40.52764],[-111.72085,40.52519],[-111.72373,40.52639],[-111.72682,40.52931],[-111.73261,40.53047],[-111.73387,40.53227],[-111.73613,40.53206],[-111.73674,40.52894],[-111.73871,40.52673],[-111.73985,40.52398],[-111.74377,40.52254],[-111.74752,40.52438],[-111.75005,40.52419],[-111.75545,40.5264],[-111.75628,40.52773],[-111.76035,40.52923],[-111.76237,40.52924],[-111.76408,40.52692],[-111.76966,40.52261],[-111.77561,40.52128],[-111.78117,40.51868],[-111.78131,40.51694],[-111.78354,40.51491],[-111.78784,40.51376],[-111.78912,40.50911],[-111.79167,40.50521],[-111.78911,40.50186],[-111.78963,40.49777],[-111.79786,40.49555],[-111.80268,40.49364],[-111.80345,40.49248],[-111.80727,40.48938],[-111.81192,40.48841],[-111.8163,40.48916],[-111.82215,40.48654],[-111.82005,40.48857],[-111.81949,40.49074],[-111.81279,40.49267],[-111.81684,40.49441],[-111.81739,40.49572],[-111.82435,40.49781],[-111.82719,40.49957],[-111.82714,40.50096],[-111.83018,40.50197],[-111.83127,40.50454],[-111.82956,40.5068],[-111.83144,40.50699],[-111.83257,40.51293],[-111.83108,40.51541],[-111.82895,40.51702],[-111.82796,40.51938],[-111.82549,40.52238],[-111.82182,40.5217],[-111.82243,40.52481],[-111.82374,40.52571],[-111.81819,40.53094],[-111.81403,40.5339],[-111.81225,40.5333],[-111.81043,40.53694],[-111.81287,40.53695],[-111.81286,40.53512],[-111.81528,40.53604],[-111.81894,40.53333],[-111.8242,40.5333],[-111.82474,40.53612],[-111.83422,40.53395],[-111.83904,40.52996],[-111.8469,40.52967],[-111.85063,40.52808],[-111.85276,40.52967],[-111.85319,40.53255],[-111.85345,40.54428],[-111.85317,40.56236],[-111.85006,40.56235],[-111.85116,40.56578],[-111.85311,40.56554],[-111.85323,40.58044],[-111.85234,40.58045],[-111.85,40.57926]]]}},{"type":"Feature","properties":{"zcta":"84101","d":2593},"geometry":{"type":"Polygon","coordinates":[[[-111.90548,40.77155],[-111.90253,40.77155],[-111.90253,40.76934],[-111.89967,40.76935],[-111.89967,40.77155],[-111.89396,40.77155],[-111.89396,40.76935],[-111.8911,40.76935],[-111.89107,40.74161],[-111.8968,40.74161],[-111.89691,40.74266],[-111.89966,40.74161],[-111.90846,40.7416],[-111.90892,40.74938],[-111.90824,40.74976],[-111.90825,40.76064],[-111.90922,40.76064],[-111.91052,40.76499],[-111.90825,40.76499],[-111.90825,40.76717],[-111.91104,40.76717],[-111.90987,40.7689],[-111.90548,40.77155]]]}},{"type":"Feature","properties":{"zcta":"84108","d":134},"geometry":{"type":"Polygon","coordinates":[[[-111.83885,40.75836],[-111.83598,40.75732],[-111.83467,40.75625],[-111.83216,40.75801],[-111.82829,40.76264],[-111.82826,40.76283],[-111.82655,40.7662],[-111.82758,40.76671],[-111.83237,40.77046],[-111.83503,40.77443],[-111.83692,40.77337],[-111.83884,40.77484],[-111.83884,40.7764],[-111.83294,40.78152],[-111.83265,40.78282],[-111.82618,40.78673],[-111.82063,40.78841],[-111.81511,40.79185],[-111.81509,40.79798],[-111.79976,40.79864],[-111.79972,40.81233],[-111.78699,40.81675],[-111.78706,40.81966],[-111.77751,40.8197],[-111.7773,40.81932],[-111.76166,40.81973],[-111.74048,40.81974],[-111.74046,40.82967],[-111.74506,40.82804],[-111.74952,40.82949],[-111.75153,40.83101],[-111.75819,40.82932],[-111.76055,40.83035],[-111.76615,40.82948],[-111.76918,40.83107],[-111.77285,40.82935],[-111.77684,40.82893],[-111.78067,40.827],[-111.78249,40.82747],[-111.78491,40.82623],[-111.79016,40.82588],[-111.79335,40.82464],[-111.79496,40.82544],[-111.80241,40.82452],[-111.80593,40.82244],[-111.80803,40.82204],[-111.81004,40.82353],[-111.81448,40.83124],[-111.81565,40.8353],[-111.81576,40.83892],[-111.81311,40.83992],[-111.80439,40.83835],[-111.79474,40.84308],[-111.79288,40.8445],[-111.78922,40.84555],[-111.78576,40.84535],[-111.78174,40.8439],[-111.77853,40.84458],[-111.77488,40.84763],[-111.77123,40.84901],[-111.76872,40.84875],[-111.76271,40.85093],[-111.75997,40.85297],[-111.75873,40.85241],[-111.75505,40.85407],[-111.75219,40.8535],[-111.74966,40.85523],[-111.74804,40.85897],[-111.74477,40.86066],[-111.73874,40.861],[-111.73331,40.8594],[-111.72903,40.85633],[-111.72462,40.85469],[-111.72084,40.85576],[-111.71763,40.85315],[-111.71622,40.8536],[-111.71236,40.85168],[-111.70673,40.85277],[-111.70385,40.85583],[-111.70129,40.86124],[-111.69591,40.86178],[-111.69088,40.85883],[-111.68721,40.85881],[-111.68332,40.8563],[-111.67926,40.85618],[-111.67411,40.85528],[-111.67253,40.85376],[-111.6698,40.85353],[-111.66887,40.85237],[-111.664,40.85019],[-111.66203,40.84838],[-111.66048,40.84508],[-111.66389,40.84092],[-111.66613,40.83211],[-111.6645,40.8299],[-111.65673,40.8305],[-111.65246,40.82735],[-111.65176,40.82404],[-111.64887,40.82455],[-111.64565,40.82406],[-111.64559,40.82054],[-111.64227,40.81845],[-111.64038,40.81479],[-111.63905,40.80929],[-111.64248,40.80574],[-111.64082,40.80506],[-111.64105,40.79892],[-111.64648,40.79757],[-111.64874,40.79225],[-111.64701,40.78932],[-111.64401,40.7876],[-111.64304,40.78594],[-111.64639,40.7821],[-111.64534,40.77904],[-111.64798,40.7763],[-111.64913,40.77344],[-111.64433,40.77106],[-111.64146,40.77127],[-111.63736,40.76819],[-111.63741,40.7639],[-111.63521,40.76241],[-111.63036,40.7608],[-111.62539,40.76102],[-111.62133,40.75822],[-111.62276,40.75681],[-111.62353,40.75372],[-111.63003,40.75157],[-111.63505,40.74891],[-111.63873,40.74778],[-111.64597,40.74664],[-111.65089,40.74487],[-111.66039,40.74307],[-111.66705,40.73994],[-111.67085,40.73912],[-111.67364,40.73974],[-111.67882,40.74304],[-111.68787,40.74371],[-111.68965,40.74431],[-111.69959,40.74933],[-111.70306,40.75066],[-111.70956,40.75063],[-111.71428,40.75198],[-111.71787,40.75148],[-111.7214,40.74865],[-111.73381,40.74266],[-111.73928,40.74214],[-111.7417,40.74111],[-111.74403,40.73744],[-111.74819,40.734],[-111.75751,40.73204],[-111.76207,40.72948],[-111.76604,40.7282],[-111.769,40.72588],[-111.77246,40.72459],[-111.77707,40.72114],[-111.78261,40.71891],[-111.7861,40.71412],[-111.78993,40.71209],[-111.79777,40.71107],[-111.80445,40.71342],[-111.80551,40.71437],[-111.80538,40.72344],[-111.8043,40.72554],[-111.79589,40.72551],[-111.79594,40.73305],[-111.8017,40.73296],[-111.80669,40.72879],[-111.80627,40.72723],[-111.81139,40.72695],[-111.81093,40.7258],[-111.81916,40.72584],[-111.82793,40.72645],[-111.82841,40.72549],[-111.83365,40.72585],[-111.84227,40.72552],[-111.84351,40.72598],[-111.84227,40.72909],[-111.84227,40.7335],[-111.8436,40.7335],[-111.84224,40.73645],[-111.84226,40.74717],[-111.84375,40.74804],[-111.84022,40.75075],[-111.84762,40.75074],[-111.84774,40.75849],[-111.83885,40.75836]]]}},{"type":"Feature","properties":{"zcta":"84111","d":4351},"geometry":{"type":"Polygon","coordinates":[[[-111.88823,40.77002],[-111.8782,40.76935],[-111.87776,40.76563],[-111.87881,40.76403],[-111.87678,40.76283],[-111.87777,40.75791],[-111.87701,40.75444],[-111.8776,40.75064],[-111.87677,40.75026],[-111.87813,40.74352],[-111.87742,40.7422],[-111.88248,40.74172],[-111.88821,40.74246],[-111.89107,40.74161],[-111.8911,40.76935],[-111.88823,40.77002]],[[-111.88619,40.76631],[-111.88637,40.76718],[-111.88823,40.76635],[-111.88619,40.76631]]]}},{"type":"Feature","properties":{"zcta":"84034","d":0},"geometry":{"type":"Polygon","coordinates":[[[-114.22631,39.99332],[-114.11783,39.99339],[-114.06021,39.99323],[-114.06024,39.9901],[-114.05676,39.9929],[-114.05554,39.99508],[-114.05264,39.99706],[-114.04956,40.00146],[-114.04661,40.00293],[-114.04683,40.03013],[-114.04639,40.0979],[-114.04674,40.10423],[-114.0464,40.17903],[-114.0435,40.17817],[-114.04136,40.17858],[-114.03958,40.17665],[-114.03673,40.17649],[-114.03201,40.17499],[-114.02322,40.17361],[-114.01698,40.17452],[-114.01417,40.17316],[-114.00964,40.17287],[-114.0055,40.17185],[-113.99831,40.1722],[-113.99919,40.17987],[-113.99892,40.18147],[-113.99374,40.18975],[-113.99068,40.19303],[-113.98705,40.19588],[-113.98811,40.2021],[-113.99113,40.20896],[-113.99061,40.21531],[-113.99187,40.22194],[-113.99466,40.24547],[-113.99395,40.24866],[-113.98853,40.26331],[-113.98712,40.2656],[-113.98699,40.26799],[-113.98464,40.27401],[-113.98511,40.27865],[-113.98066,40.27927],[-113.97136,40.27991],[-113.96207,40.28617],[-113.97893,40.29427],[-113.97208,40.30123],[-113.96591,40.30816],[-113.96306,40.31482],[-113.95675,40.31901],[-113.9507,40.32123],[-113.94095,40.32421],[-113.92196,40.32941],[-113.91557,40.33333],[-113.89668,40.31808],[-113.83285,40.26675],[-113.8357,40.26841],[-113.84363,40.26693],[-113.84856,40.26158],[-113.84827,40.25649],[-113.85077,40.25],[-113.85469,40.24821],[-113.86104,40.24987],[-113.86684,40.24997],[-113.87561,40.25207],[-113.88674,40.2532],[-113.88934,40.25408],[-113.89798,40.25519],[-113.89918,40.25696],[-113.90528,40.25705],[-113.91087,40.2581],[-113.91447,40.25687],[-113.92255,40.24735],[-113.92427,40.24366],[-113.92407,40.24136],[-113.92547,40.23691],[-113.9303,40.24003],[-113.95756,40.24972],[-113.96142,40.25267],[-113.96214,40.25499],[-113.9608,40.25859],[-113.96531,40.26095],[-113.96867,40.25971],[-113.97407,40.25282],[-113.96606,40.2499],[-113.96249,40.25112],[-113.95782,40.2498],[-113.95728,40.24428],[-113.95842,40.24289],[-113.95857,40.23968],[-113.96097,40.23706],[-113.9609,40.22697],[-113.96139,40.22328],[-113.95924,40.22152],[-113.95567,40.21208],[-113.9583,40.21117],[-113.96273,40.21208],[-113.96786,40.21216],[-113.96911,40.21442],[-113.9705,40.21043],[-113.97023,40.20849],[-113.97442,40.20457],[-113.968,40.20473],[-113.96658,40.19996],[-113.96816,40.19619],[-113.97157,40.19347],[-113.9708,40.19191],[-113.97108,40.18817],[-113.96919,40.18528],[-113.96493,40.18405],[-113.96257,40.18235],[-113.96187,40.17986],[-113.96343,40.17801],[-113.96293,40.17471],[-113.96496,40.17019],[-113.96775,40.16633],[-113.96694,40.16064],[-113.96881,40.15476],[-113.96697,40.15413],[-113.95727,40.15316],[-113.95122,40.15516],[-113.95287,40.1527],[-113.95089,40.15235],[-113.94881,40.14576],[-113.94479,40.1432],[-113.94637,40.14274],[-113.94276,40.14012],[-113.94111,40.13651],[-113.93942,40.13629],[-113.93568,40.13402],[-113.92976,40.13272],[-113.92746,40.13059],[-113.92947,40.12578],[-113.92967,40.12252],[-113.92645,40.11999],[-113.92065,40.11367],[-113.91782,40.11269],[-113.9164,40.11088],[-113.91567,40.10457],[-113.91652,40.1022],[-113.91076,40.10241],[-113.90283,40.1008],[-113.89726,40.10209],[-113.88834,40.10212],[-113.8824,40.1011],[-113.87899,40.09986],[-113.87414,40.09578],[-113.86917,40.0906],[-113.86331,40.08654],[-113.85131,40.07929],[-113.84632,40.07961],[-113.84423,40.07727],[-113.84421,40.07579],[-113.83974,40.07272],[-113.83808,40.06944],[-113.83341,40.06659],[-113.83085,40.06634],[-113.82818,40.06446],[-113.82296,40.06268],[-113.82265,40.06165],[-113.81808,40.05931],[-113.81687,40.05619],[-113.81283,40.05225],[-113.81093,40.05176],[-113.80679,40.0486],[-113.80643,40.04708],[-113.80349,40.04492],[-113.80324,40.04371],[-113.80904,40.03798],[-113.81274,40.0366],[-113.81533,40.03319],[-113.82111,40.02909],[-113.82383,40.02911],[-113.82571,40.02798],[-113.82362,40.02626],[-113.8239,40.02387],[-113.82608,40.02063],[-113.82516,40.01903],[-113.82619,40.0161],[-113.82422,40.01361],[-113.82292,40.01023],[-113.82553,40.00859],[-113.82331,40.00633],[-113.83136,39.9954],[-113.83224,39.99118],[-113.83323,39.99001],[-113.82402,39.99054],[-113.81725,39.99179],[-113.80918,39.99185],[-113.80533,39.99336],[-113.80234,39.9931],[-113.79995,39.99079],[-113.79685,39.98994],[-113.78626,39.98963],[-113.7788,39.98837],[-113.78096,39.98691],[-113.78343,39.98797],[-113.7895,39.98793],[-113.78803,39.97781],[-113.78027,39.97958],[-113.77792,39.979],[-113.77313,39.97978],[-113.77212,39.97886],[-113.7648,39.97822],[-113.76028,39.97865],[-113.75707,39.97822],[-113.75699,39.97591],[-113.759,39.9711],[-113.75632,39.96636],[-113.75579,39.96362],[-113.75224,39.96047],[-113.74207,39.95992],[-113.73501,39.95904],[-113.73172,39.95791],[-113.73797,39.94623],[-113.7393,39.93968],[-113.73882,39.93067],[-113.73687,39.9223],[-113.72821,39.90834],[-113.72564,39.90831],[-113.7254,39.92044],[-113.72072,39.92009],[-113.71591,39.92361],[-113.71078,39.92931],[-113.70698,39.9349],[-113.70372,39.93856],[-113.70171,39.94442],[-113.70145,39.93746],[-113.70129,39.90553],[-113.92481,39.90593],[-113.92419,39.83371],[-113.9433,39.83389],[-113.94302,39.81931],[-113.9484,39.81916],[-113.94858,39.76857],[-113.93866,39.76857],[-113.93865,39.73812],[-113.93045,39.73814],[-113.93045,39.7216],[-113.94497,39.72165],[-113.94496,39.70286],[-113.9577,39.70289],[-113.95777,39.74946],[-113.97674,39.74948],[-113.97718,39.73951],[-113.96737,39.73956],[-113.96728,39.73255],[-113.96246,39.73261],[-113.96242,39.72865],[-113.96723,39.72863],[-113.96714,39.72491],[-113.99358,39.72477],[-113.99357,39.72071],[-113.99887,39.72072],[-113.99889,39.71786],[-114.00826,39.71785],[-114.00826,39.72071],[-114.02702,39.72071],[-114.027,39.72479],[-114.04735,39.7248],[-114.04727,39.75941],[-114.04778,39.79416],[-114.04721,39.82102],[-114.04713,39.90693],[-114.05593,39.91569],[-114.05911,39.91673],[-114.06762,39.93056],[-114.06859,39.93364],[-114.07167,39.93694],[-114.07279,39.941],[-114.07587,39.9472],[-114.07741,39.9539],[-114.07668,39.96965],[-114.07782,39.9706],[-114.08093,39.96941],[-114.08272,39.96716],[-114.08397,39.96268],[-114.0853,39.96096],[-114.08602,39.9572],[-114.08852,39.95069],[-114.08822,39.94368],[-114.08995,39.93729],[-114.08901,39.93418],[-114.09163,39.93263],[-114.09118,39.92846],[-114.09623,39.91869],[-114.09831,39.91168],[-114.1059,39.91894],[-114.10847,39.92219],[-114.11443,39.9269],[-114.11685,39.93083],[-114.11474,39.93976],[-114.1161,39.94344],[-114.12104,39.9438],[-114.13661,39.94075],[-114.14199,39.9385],[-114.14848,39.93735],[-114.14888,39.93841],[-114.15435,39.93802],[-114.15971,39.93884],[-114.16268,39.94147],[-114.22781,39.98194],[-114.2277,39.99347],[-114.22631,39.99332]]]}},{"type":"Feature","properties":{"zcta":"84006","d":18},"geometry":{"type":"Polygon","coordinates":[[[-112.19034,40.62801],[-112.07947,40.62896],[-112.06661,40.62892],[-112.06734,40.62402],[-112.07318,40.6242],[-112.07312,40.61706],[-112.08257,40.61694],[-112.08254,40.60972],[-112.07208,40.60949],[-112.07256,40.60706],[-112.07157,40.60307],[-112.07192,40.59891],[-112.07314,40.5989],[-112.07283,40.59525],[-112.07499,40.59525],[-112.075,40.59159],[-112.0696,40.59071],[-112.06324,40.59228],[-112.05863,40.59225],[-112.06319,40.56739],[-112.06326,40.56598],[-112.07919,40.56602],[-112.07918,40.56459],[-112.08168,40.56438],[-112.0817,40.56598],[-112.08901,40.566],[-112.09076,40.56392],[-112.09739,40.56173],[-112.10782,40.56236],[-112.11743,40.56141],[-112.12197,40.56021],[-112.12776,40.55642],[-112.13043,40.5556],[-112.13538,40.55993],[-112.1429,40.56435],[-112.14853,40.56923],[-112.14978,40.57084],[-112.15503,40.57479],[-112.16277,40.57389],[-112.16694,40.57232],[-112.17191,40.57376],[-112.18056,40.57393],[-112.18261,40.57461],[-112.18038,40.57735],[-112.18147,40.58038],[-112.17923,40.58177],[-112.17791,40.5841],[-112.17508,40.58566],[-112.17651,40.58843],[-112.17568,40.59029],[-112.17752,40.59627],[-112.17637,40.5972],[-112.1764,40.60026],[-112.17534,40.60398],[-112.17855,40.60547],[-112.17845,40.60678],[-112.18171,40.61206],[-112.18563,40.61408],[-112.18845,40.61418],[-112.18974,40.61627],[-112.19342,40.61997],[-112.1959,40.62123],[-112.19767,40.62546],[-112.19639,40.62934],[-112.19034,40.62801]]]}},{"type":"Feature","properties":{"zcta":"84022","d":1},"geometry":{"type":"MultiPolygon","coordinates":[[[[-112.73505,40.30646],[-112.73511,40.317],[-112.73458,40.31808],[-112.72697,40.32768],[-112.72556,40.33121],[-112.72567,40.34664],[-112.70666,40.34654],[-112.70678,40.3754],[-112.67874,40.37535],[-112.67535,40.3727],[-112.67264,40.36613],[-112.67094,40.36409],[-112.66895,40.36372],[-112.66273,40.36873],[-112.65644,40.37089],[-112.64862,40.37125],[-112.64651,40.37195],[-112.6415,40.37186],[-112.6368,40.36935],[-112.63522,40.36675],[-112.63403,40.3678],[-112.63096,40.36637],[-112.63396,40.36153],[-112.63435,40.35757],[-112.63556,40.35665],[-112.63595,40.35106],[-112.63608,40.33275],[-112.63591,40.32589],[-112.63518,40.32475],[-112.62447,40.32451],[-112.61216,40.33773],[-112.6106,40.33813],[-112.6083,40.34063],[-112.60303,40.34397],[-112.59615,40.34475],[-112.59181,40.34639],[-112.58869,40.34612],[-112.5834,40.34434],[-112.57747,40.34029],[-112.57412,40.33957],[-112.57308,40.33801],[-112.56967,40.34002],[-112.56787,40.34414],[-112.56787,40.34871],[-112.57115,40.35306],[-112.57563,40.35718],[-112.58578,40.36565],[-112.58817,40.37023],[-112.59175,40.37961],[-112.59294,40.38921],[-112.59203,40.39813],[-112.59352,40.40545],[-112.60308,40.41186],[-112.60725,40.41553],[-112.60815,40.4185],[-112.60665,40.42147],[-112.60184,40.42669],[-112.59694,40.4246],[-112.59375,40.42392],[-112.59189,40.42444],[-112.58324,40.42409],[-112.57612,40.42542],[-112.57138,40.42488],[-112.56453,40.42075],[-112.5628,40.42039],[-112.56473,40.41915],[-112.57021,40.41763],[-112.57098,40.41326],[-112.57059,40.40996],[-112.56918,40.40852],[-112.5698,40.40594],[-112.56848,40.40011],[-112.57014,40.39987],[-112.56902,40.39407],[-112.56299,40.39097],[-112.56263,40.38904],[-112.55897,40.38518],[-112.55569,40.383],[-112.55427,40.38014],[-112.55099,40.37615],[-112.54904,40.37155],[-112.54562,40.3681],[-112.53851,40.36417],[-112.53256,40.36141],[-112.5295,40.35816],[-112.52985,40.35638],[-112.53275,40.35781],[-112.53522,40.35788],[-112.53733,40.36023],[-112.53946,40.35969],[-112.53827,40.35599],[-112.54018,40.35298],[-112.54205,40.35397],[-112.54834,40.34975],[-112.54994,40.34685],[-112.55112,40.34883],[-112.55456,40.34817],[-112.55813,40.34914],[-112.5605,40.34752],[-112.56459,40.34707],[-112.56426,40.34565],[-112.56627,40.34386],[-112.56805,40.33825],[-112.57104,40.33636],[-112.57263,40.33731],[-112.58099,40.32956],[-112.58543,40.31956],[-112.58419,40.30934],[-112.57817,40.29867],[-112.57004,40.2864],[-112.56094,40.2803],[-112.55281,40.24994],[-112.55056,40.24232],[-112.56079,40.23241],[-112.56862,40.22827],[-112.56585,40.2211],[-112.5628,40.21587],[-112.56015,40.2095],[-112.56132,40.20004],[-112.55126,40.19594],[-112.54659,40.19308],[-112.54378,40.19069],[-112.54035,40.18115],[-112.54098,40.1709],[-112.54561,40.1613],[-112.54829,40.16262],[-112.5546,40.16113],[-112.5579,40.15942],[-112.56165,40.15976],[-112.56682,40.15776],[-112.56788,40.16004],[-112.57103,40.15893],[-112.57372,40.1595],[-112.58086,40.15822],[-112.58562,40.1578],[-112.58803,40.15623],[-112.60607,40.1541],[-112.60916,40.16125],[-112.61066,40.16949],[-112.616,40.17827],[-112.61987,40.18061],[-112.62317,40.18426],[-112.62375,40.18733],[-112.62852,40.18681],[-112.62833,40.19059],[-112.62834,40.21125],[-112.63496,40.21369],[-112.63542,40.21454],[-112.63916,40.21489],[-112.63934,40.21701],[-112.64186,40.21984],[-112.64519,40.22239],[-112.64593,40.22387],[-112.65564,40.23221],[-112.66367,40.23992],[-112.67139,40.22871],[-112.68026,40.219],[-112.68254,40.21251],[-112.68723,40.2103],[-112.6888,40.21181],[-112.69702,40.21594],[-112.70343,40.2204],[-112.7091,40.22055],[-112.71094,40.21965],[-112.71323,40.22033],[-112.72299,40.22079],[-112.72314,40.23142],[-112.72342,40.23192],[-112.72749,40.22798],[-112.72649,40.22598],[-112.72399,40.22536],[-112.72437,40.21883],[-112.72533,40.21826],[-112.73571,40.21522],[-112.74114,40.21448],[-112.74828,40.21215],[-112.75,40.21088],[-112.75348,40.21563],[-112.76083,40.21382],[-112.77725,40.21311],[-112.77754,40.21592],[-112.78024,40.21841],[-112.78016,40.22417],[-112.77917,40.228],[-112.78076,40.23193],[-112.77699,40.23913],[-112.77174,40.24433],[-112.72317,40.24456],[-112.72536,40.24754],[-112.73602,40.25245],[-112.73987,40.25597],[-112.74072,40.2595],[-112.7431,40.30647],[-112.73505,40.30646]]],[[[-113.43247,39.9054],[-113.24864,39.90532],[-113.2485,39.90471],[-113.2348,39.90472],[-113.25308,39.88145],[-113.25482,39.87992],[-113.2582,39.88036],[-113.26651,39.87941],[-113.27149,39.87787],[-113.28184,39.87304],[-113.29331,39.8681],[-113.29586,39.86652],[-113.29891,39.86309],[-113.30392,39.85593],[-113.30661,39.84964],[-113.31337,39.84304],[-113.3228,39.83588],[-113.32484,39.83557],[-113.33359,39.83571],[-113.33587,39.83536],[-113.34977,39.8314],[-113.35409,39.83196],[-113.35619,39.8298],[-113.3613,39.82686],[-113.36469,39.82433],[-113.37268,39.82101],[-113.37716,39.81967],[-113.39431,39.82052],[-113.39593,39.8218],[-113.39755,39.82613],[-113.3967,39.83262],[-113.40031,39.84035],[-113.40143,39.84152],[-113.40996,39.84715],[-113.41108,39.84881],[-113.40738,39.87388],[-113.40758,39.87661],[-113.41154,39.88027],[-113.41409,39.88546],[-113.4144,39.88807],[-113.41622,39.89149],[-113.41941,39.89126],[-113.42409,39.89259],[-113.42959,39.89547],[-113.43255,39.89761],[-113.43293,39.90214],[-113.43247,39.9054]]]]}},{"type":"Feature","properties":{"zcta":"84180","d":0},"geometry":{"type":"Polygon","coordinates":[[[-111.89967,40.77155],[-111.89967,40.76935],[-111.90253,40.76934],[-111.90253,40.77155],[-111.89967,40.77155]]]}},{"type":"Feature","properties":{"zcta":"84029","d":19},"geometry":{"type":"Polygon","coordinates":[[[-114.00847,40.68975],[-114.00856,40.73325],[-113.99903,40.73332],[-113.99905,40.74677],[-113.98286,40.7439],[-113.97267,40.74244],[-113.9631,40.74161],[-113.82153,40.73879],[-113.8215,40.73787],[-113.57405,40.73259],[-113.20172,40.72576],[-113.20171,40.72669],[-113.14456,40.72599],[-113.13837,40.72634],[-113.13293,40.72723],[-113.11451,40.73225],[-113.11409,40.7314],[-112.99244,40.76485],[-112.98383,40.76856],[-112.97813,40.77243],[-112.93278,40.808],[-112.92673,40.8116],[-112.91588,40.81631],[-112.91794,40.81898],[-112.91836,40.82124],[-112.91752,40.82892],[-112.9141,40.83325],[-112.91393,40.85373],[-112.91183,40.86515],[-112.91147,40.86952],[-112.90901,40.87423],[-112.90961,40.88197],[-112.90699,40.88643],[-112.90808,40.88721],[-112.91344,40.88751],[-112.91367,40.8935],[-112.9132,40.89677],[-112.91047,40.90181],[-112.90354,40.90976],[-112.90423,40.91279],[-112.911,40.95413],[-112.91653,40.99993],[-112.92133,41.01959],[-112.92156,41.02138],[-112.9201,41.03014],[-112.921,41.03015],[-112.92222,41.03363],[-112.9243,41.0366],[-112.93832,41.0507],[-112.9265,41.05716],[-112.91942,41.05727],[-112.91624,41.0583],[-112.92009,41.03022],[-112.91717,41.02907],[-112.91299,41.02636],[-112.90694,41.02355],[-112.90549,41.02372],[-112.90005,41.02094],[-112.89669,41.02275],[-112.89207,41.02201],[-112.88592,41.0148],[-112.87968,41.01139],[-112.86875,41.00602],[-112.85994,40.99993],[-112.84894,40.99993],[-112.84675,40.99822],[-112.85193,40.995],[-112.84433,40.98884],[-112.84113,40.98673],[-112.83435,40.97846],[-112.82921,40.97308],[-112.83375,40.96745],[-112.82626,40.96268],[-112.81582,40.9593],[-112.81924,40.95521],[-112.81509,40.95248],[-112.80985,40.95044],[-112.80814,40.94796],[-112.80804,40.94296],[-112.79616,40.94262],[-112.7841,40.94273],[-112.77961,40.93935],[-112.77693,40.93859],[-112.77431,40.93547],[-112.7415,40.93548],[-112.74218,40.93318],[-112.73986,40.93131],[-112.74209,40.93048],[-112.73791,40.92879],[-112.73299,40.92606],[-112.73413,40.92361],[-112.7325,40.91818],[-112.73318,40.91058],[-112.73372,40.89754],[-112.73378,40.84095],[-112.73322,40.84026],[-112.73319,40.8112],[-112.73109,40.81105],[-112.72188,40.81259],[-112.71636,40.81242],[-112.70953,40.80922],[-112.70567,40.80846],[-112.70454,40.80924],[-112.69211,40.80994],[-112.68756,40.80825],[-112.68379,40.80285],[-112.68822,40.80017],[-112.68272,40.80081],[-112.68003,40.80267],[-112.67789,40.80121],[-112.682,40.79597],[-112.6885,40.79563],[-112.6919,40.79457],[-112.69444,40.79476],[-112.6959,40.79243],[-112.6992,40.79292],[-112.6982,40.79125],[-112.70202,40.7888],[-112.69998,40.78629],[-112.69845,40.78832],[-112.6947,40.78759],[-112.69226,40.7881],[-112.69143,40.78535],[-112.69308,40.7842],[-112.69215,40.78173],[-112.68929,40.78228],[-112.68803,40.78082],[-112.68267,40.77892],[-112.6861,40.77842],[-112.6846,40.77505],[-112.6808,40.77548],[-112.67883,40.77284],[-112.67443,40.77178],[-112.67063,40.77281],[-112.67477,40.77066],[-112.67307,40.76599],[-112.67805,40.76528],[-112.68299,40.76217],[-112.67812,40.75956],[-112.67809,40.7564],[-112.675,40.75489],[-112.67172,40.75476],[-112.66595,40.75564],[-112.66091,40.75345],[-112.65183,40.7512],[-112.64808,40.75184],[-112.64118,40.74835],[-112.6413,40.74646],[-112.64338,40.74517],[-112.65292,40.7456],[-112.65344,40.74399],[-112.64714,40.73915],[-112.6429,40.74173],[-112.6404,40.7406],[-112.63531,40.74277],[-112.63253,40.74301],[-112.62235,40.73957],[-112.62061,40.74628],[-112.62059,40.76377],[-112.62129,40.76853],[-112.62293,40.77257],[-112.61475,40.76849],[-112.56557,40.76846],[-112.56482,40.7688],[-112.55619,40.78199],[-112.55874,40.78242],[-112.55411,40.78931],[-112.54274,40.78843],[-112.53308,40.78898],[-112.52937,40.79198],[-112.52959,40.78885],[-112.52798,40.78875],[-112.52792,40.79214],[-112.52438,40.80555],[-112.52444,40.81135],[-112.52629,40.8259],[-112.52639,40.83394],[-112.5283,40.83932],[-112.53125,40.8455],[-112.5328,40.85209],[-112.53699,40.85823],[-112.54065,40.86847],[-112.54198,40.87628],[-112.54192,40.88206],[-112.54257,40.88596],[-112.53938,40.88929],[-112.53689,40.89301],[-112.5329,40.89642],[-112.52549,40.90107],[-112.52162,40.9044],[-112.52016,40.9085],[-112.52474,40.91252],[-112.52659,40.91306],[-112.52974,40.91633],[-112.52904,40.92159],[-112.52676,40.92464],[-112.52478,40.92587],[-112.52161,40.92942],[-112.51647,40.93026],[-112.51043,40.93334],[-112.50739,40.93164],[-112.50463,40.92653],[-112.50612,40.92612],[-112.5011,40.92444],[-112.49971,40.92189],[-112.49947,40.91877],[-112.49757,40.91843],[-112.49517,40.91544],[-112.49135,40.91476],[-112.4885,40.91251],[-112.48684,40.90848],[-112.48666,40.90621],[-112.48498,40.90239],[-112.48519,40.90012],[-112.48087,40.89144],[-112.47748,40.88711],[-112.47594,40.88414],[-112.47543,40.88101],[-112.47725,40.87968],[-112.47372,40.87841],[-112.47324,40.87707],[-112.46812,40.87382],[-112.46699,40.8704],[-112.47023,40.87144],[-112.47062,40.8695],[-112.46931,40.86655],[-112.46775,40.86669],[-112.46359,40.86381],[-112.45852,40.8588],[-112.45695,40.85603],[-112.45495,40.84936],[-112.45454,40.84523],[-112.45513,40.8386],[-112.45217,40.83438],[-112.45316,40.83139],[-112.45152,40.83254],[-112.44758,40.82688],[-112.44641,40.8239],[-112.4446,40.8227],[-112.43664,40.82083],[-112.43066,40.81758],[-112.43003,40.81464],[-112.42591,40.81451],[-112.42061,40.81272],[-112.42697,40.80946],[-112.43367,40.81016],[-112.43992,40.80895],[-112.44419,40.80671],[-112.44491,40.80496],[-112.44724,40.80446],[-112.45367,40.80141],[-112.46621,40.7963],[-112.4678,40.79412],[-112.4853,40.78299],[-112.48741,40.78275],[-112.49696,40.77608],[-112.50022,40.77584],[-112.49841,40.77308],[-112.51077,40.76976],[-112.51463,40.76662],[-112.51461,40.74754],[-112.51498,40.74031],[-112.52151,40.7348],[-112.52508,40.73408],[-112.52694,40.73458],[-112.53146,40.72599],[-112.53198,40.72143],[-112.53026,40.71477],[-112.53062,40.71303],[-112.5276,40.71137],[-112.54296,40.69453],[-112.506,40.68488],[-112.45883,40.67269],[-112.43403,40.67304],[-112.43741,40.67889],[-112.43145,40.67597],[-112.42861,40.67275],[-112.43004,40.66899],[-112.43012,40.66593],[-112.43144,40.66579],[-112.43133,40.66171],[-112.42788,40.66127],[-112.42857,40.65736],[-112.42386,40.65519],[-112.42028,40.65525],[-112.41673,40.65024],[-112.41904,40.64829],[-112.41537,40.64912],[-112.41569,40.64581],[-112.41305,40.64726],[-112.41197,40.64629],[-112.4076,40.64528],[-112.4053,40.6465],[-112.40271,40.64657],[-112.40158,40.64787],[-112.39488,40.65024],[-112.38677,40.64888],[-112.3797,40.6492],[-112.37861,40.65006],[-112.37305,40.64934],[-112.37036,40.64955],[-112.3652,40.64816],[-112.36731,40.6443],[-112.37703,40.64342],[-112.37712,40.6306],[-112.37553,40.61245],[-112.37103,40.61437],[-112.3704,40.5938],[-112.38577,40.59352],[-112.36738,40.57575],[-112.36744,40.56694],[-112.3681,40.56467],[-112.454,40.56352],[-112.46369,40.56334],[-112.4671,40.55988],[-112.4743,40.55347],[-112.48246,40.54556],[-112.48505,40.54396],[-112.48662,40.54173],[-112.48942,40.54146],[-112.49181,40.54383],[-112.49444,40.54359],[-112.49904,40.53127],[-112.49867,40.52657],[-112.50088,40.52087],[-112.5006,40.51781],[-112.49837,40.51357],[-112.49536,40.50596],[-112.49376,40.49044],[-112.49252,40.48551],[-112.47405,40.44729],[-112.47721,40.44875],[-112.48457,40.44888],[-112.49371,40.44795],[-112.49528,40.44685],[-112.4994,40.44659],[-112.50839,40.4434],[-112.51436,40.4398],[-112.51535,40.43713],[-112.51882,40.43486],[-112.52721,40.43248],[-112.53279,40.43088],[-112.53879,40.42857],[-112.54582,40.42704],[-112.54771,40.42571],[-112.55457,40.42278],[-112.5628,40.42039],[-112.56453,40.42075],[-112.57138,40.42488],[-112.57612,40.42542],[-112.58324,40.42409],[-112.59189,40.42444],[-112.59375,40.42392],[-112.59694,40.4246],[-112.60184,40.42669],[-112.60665,40.42147],[-112.60815,40.4185],[-112.60725,40.41553],[-112.60308,40.41186],[-112.59352,40.40545],[-112.59203,40.39813],[-112.59294,40.38921],[-112.59175,40.37961],[-112.58817,40.37023],[-112.58578,40.36565],[-112.57563,40.35718],[-112.57115,40.35306],[-112.56787,40.34871],[-112.56787,40.34414],[-112.56967,40.34002],[-112.57308,40.33801],[-112.57412,40.33957],[-112.57747,40.34029],[-112.5834,40.34434],[-112.58869,40.34612],[-112.59181,40.34639],[-112.59615,40.34475],[-112.60303,40.34397],[-112.6083,40.34063],[-112.6106,40.33813],[-112.61216,40.33773],[-112.62447,40.32451],[-112.63518,40.32475],[-112.63591,40.32589],[-112.63608,40.33275],[-112.63595,40.35106],[-112.63556,40.35665],[-112.63435,40.35757],[-112.63396,40.36153],[-112.63096,40.36637],[-112.63403,40.3678],[-112.63522,40.36675],[-112.6368,40.36935],[-112.6415,40.37186],[-112.64651,40.37195],[-112.64862,40.37125],[-112.65644,40.37089],[-112.66273,40.36873],[-112.66895,40.36372],[-112.67094,40.36409],[-112.67264,40.36613],[-112.67535,40.3727],[-112.67874,40.37535],[-112.70678,40.3754],[-112.70666,40.34654],[-112.72567,40.34664],[-112.72556,40.33121],[-112.72697,40.32768],[-112.73458,40.31808],[-112.73511,40.317],[-112.73505,40.30646],[-112.7431,40.30647],[-112.7432,40.30821],[-112.74863,40.31089],[-112.75449,40.31439],[-112.75617,40.31653],[-112.76185,40.32025],[-112.78097,40.33945],[-112.78866,40.34656],[-112.79081,40.34991],[-112.79208,40.35546],[-112.78279,40.36029],[-112.78262,40.37574],[-112.80157,40.37577],[-112.80146,40.41962],[-112.75863,40.41928],[-112.75882,40.43092],[-112.76034,40.43272],[-112.76315,40.43407],[-112.76719,40.43439],[-112.77353,40.43381],[-112.78044,40.43375],[-112.79079,40.4331],[-112.79114,40.43667],[-112.79261,40.44055],[-112.79632,40.44727],[-112.79624,40.45264],[-112.79505,40.45874],[-112.79556,40.46107],[-112.79539,40.46854],[-112.79343,40.4722],[-112.79321,40.47527],[-112.79041,40.47987],[-112.78982,40.48269],[-112.79062,40.48904],[-112.79341,40.49515],[-112.79154,40.49837],[-112.79092,40.49662],[-112.78701,40.49812],[-112.77743,40.50348],[-112.77383,40.50591],[-112.77054,40.50701],[-112.76518,40.51019],[-112.76277,40.51367],[-112.77293,40.51376],[-112.77131,40.53286],[-112.7716,40.53552],[-112.78423,40.53568],[-112.7935,40.5328],[-112.79581,40.53724],[-112.80294,40.53938],[-112.87109,40.62813],[-112.87401,40.62963],[-112.87511,40.62409],[-112.87557,40.61853],[-112.87404,40.60852],[-112.87435,40.60426],[-112.87542,40.60188],[-112.87879,40.59784],[-112.88195,40.59628],[-112.88724,40.59201],[-112.89018,40.59141],[-112.8924,40.58981],[-112.89693,40.59251],[-112.90354,40.59737],[-112.90972,40.60085],[-112.91679,40.60611],[-112.91981,40.60596],[-112.92264,40.60126],[-112.92444,40.6007],[-112.92552,40.59672],[-112.92328,40.59496],[-112.92461,40.59101],[-112.92622,40.5897],[-112.9231,40.58777],[-112.92189,40.58165],[-112.92301,40.57964],[-112.92062,40.57584],[-112.92397,40.57315],[-112.92567,40.57064],[-112.9242,40.56791],[-112.9145,40.56756],[-112.91081,40.56572],[-112.9044,40.56351],[-112.90067,40.56088],[-112.89785,40.56027],[-112.89386,40.56057],[-112.8921,40.55986],[-112.89375,40.55796],[-112.89515,40.55358],[-112.89684,40.55187],[-112.89538,40.55065],[-112.89559,40.54806],[-112.89472,40.54437],[-112.89252,40.54001],[-112.89369,40.53846],[-112.89186,40.53779],[-112.89177,40.53552],[-112.89339,40.53194],[-112.89108,40.52537],[-112.89194,40.51913],[-112.89498,40.51285],[-112.89662,40.51073],[-112.89844,40.50513],[-112.89894,40.50086],[-112.89822,40.49964],[-112.89948,40.497],[-112.89924,40.49368],[-112.90017,40.49289],[-112.90235,40.48774],[-112.90435,40.47947],[-112.90852,40.47074],[-112.91044,40.46957],[-112.91186,40.46654],[-112.91168,40.46418],[-112.91643,40.45766],[-112.92129,40.45366],[-112.92574,40.45087],[-112.92951,40.44625],[-112.93052,40.44326],[-112.93386,40.44008],[-112.93532,40.4378],[-112.93671,40.43785],[-112.9394,40.43215],[-112.94842,40.43],[-112.94984,40.4305],[-112.95262,40.42813],[-112.94917,40.42342],[-112.94876,40.41995],[-112.95118,40.41756],[-112.9518,40.4153],[-112.9497,40.41329],[-112.95431,40.4137],[-112.95673,40.41063],[-112.96252,40.40971],[-112.96698,40.41046],[-112.96918,40.41193],[-112.97086,40.40797],[-112.97348,40.40546],[-112.97363,40.39862],[-112.97135,40.39838],[-112.97701,40.39569],[-112.9865,40.39798],[-112.98784,40.39785],[-112.98861,40.39479],[-112.99095,40.39301],[-112.99707,40.39304],[-112.99903,40.3923],[-113.00073,40.38857],[-113.00372,40.38812],[-113.00724,40.38642],[-113.00902,40.40486],[-113.00911,40.41943],[-113.08959,40.419],[-113.09745,40.45876],[-113.09845,40.46527],[-113.0989,40.47349],[-113.1,40.47928],[-113.10148,40.48196],[-113.10613,40.48611],[-113.11177,40.49703],[-113.11606,40.50108],[-113.12189,40.50372],[-113.12275,40.50629],[-113.12325,40.51299],[-113.12381,40.51466],[-113.12995,40.51749],[-113.13234,40.52393],[-113.13014,40.54972],[-113.14295,40.5498],[-113.14295,40.63737],[-113.41912,40.63748],[-113.43262,40.63659],[-113.52224,40.63652],[-113.5413,40.63609],[-113.55068,40.63648],[-113.6001,40.63641],[-113.60013,40.64615],[-113.90276,40.64642],[-113.90424,40.64477],[-113.90413,40.59587],[-114.04097,40.59565],[-114.04067,40.62748],[-114.0443,40.62826],[-114.0438,40.68976],[-114.00847,40.68975]]]}},{"type":"Feature","properties":{"zcta":"84121","d":312},"geometry":{"type":"Polygon","coordinates":[[[-111.84842,40.64938],[-111.82682,40.64948],[-111.82631,40.64731],[-111.8246,40.64576],[-111.8154,40.64584],[-111.81401,40.64965],[-111.80818,40.64796],[-111.8077,40.65281],[-111.80617,40.65915],[-111.80655,40.6522],[-111.80524,40.64872],[-111.80067,40.64281],[-111.78946,40.64277],[-111.78955,40.63895],[-111.78613,40.63982],[-111.78239,40.64332],[-111.78114,40.64359],[-111.77807,40.64664],[-111.7749,40.64623],[-111.77125,40.64705],[-111.76528,40.65131],[-111.76192,40.65232],[-111.75692,40.65178],[-111.75042,40.6533],[-111.74223,40.65672],[-111.73808,40.65962],[-111.73345,40.6604],[-111.72211,40.66515],[-111.71297,40.65949],[-111.70762,40.65876],[-111.68998,40.66634],[-111.68423,40.66805],[-111.67735,40.66756],[-111.67438,40.66844],[-111.66472,40.66606],[-111.6624,40.66344],[-111.65382,40.66811],[-111.65098,40.66827],[-111.642,40.66669],[-111.64018,40.66786],[-111.63517,40.66454],[-111.63009,40.66262],[-111.63041,40.66425],[-111.62131,40.6653],[-111.61992,40.66189],[-111.61368,40.66016],[-111.6064,40.66263],[-111.59911,40.66051],[-111.59664,40.65847],[-111.59674,40.65977],[-111.59405,40.65376],[-111.59387,40.65166],[-111.5908,40.65006],[-111.58771,40.64969],[-111.58536,40.64773],[-111.57949,40.6453],[-111.57735,40.64258],[-111.57775,40.63868],[-111.57617,40.63677],[-111.57671,40.63372],[-111.57262,40.63071],[-111.56897,40.6294],[-111.56785,40.62689],[-111.56742,40.62328],[-111.55952,40.62052],[-111.5575,40.61932],[-111.55902,40.6142],[-111.55665,40.61185],[-111.55347,40.61073],[-111.55327,40.60931],[-111.55596,40.60506],[-111.55911,40.60195],[-111.55853,40.6002],[-111.56098,40.59317],[-111.56002,40.5908],[-111.5616,40.58935],[-111.5644,40.58469],[-111.56839,40.58412],[-111.57249,40.58216],[-111.57784,40.58343],[-111.58266,40.58128],[-111.58671,40.58147],[-111.5907,40.58014],[-111.59394,40.57707],[-111.59881,40.58169],[-111.59879,40.58446],[-111.6036,40.58547],[-111.60652,40.58523],[-111.60897,40.58863],[-111.60933,40.59556],[-111.61069,40.5957],[-111.60941,40.59777],[-111.61259,40.5994],[-111.61454,40.60187],[-111.61771,40.6002],[-111.61828,40.60196],[-111.62226,40.59996],[-111.62271,40.5987],[-111.62964,40.59893],[-111.63103,40.59801],[-111.64526,40.60109],[-111.67126,40.59135],[-111.71981,40.59431],[-111.72641,40.59791],[-111.73746,40.59727],[-111.74062,40.59514],[-111.74722,40.5955],[-111.75076,40.59375],[-111.75633,40.59487],[-111.76499,40.59362],[-111.77103,40.59555],[-111.77584,40.59546],[-111.77577,40.59447],[-111.78207,40.59364],[-111.7865,40.59203],[-111.78656,40.5882],[-111.78433,40.58775],[-111.78495,40.58439],[-111.78648,40.58135],[-111.78666,40.57647],[-111.78846,40.57701],[-111.79235,40.58115],[-111.79224,40.58651],[-111.7936,40.58939],[-111.79889,40.59027],[-111.80072,40.59414],[-111.80104,40.59795],[-111.80534,40.60465],[-111.81079,40.60646],[-111.81408,40.60549],[-111.8148,40.60363],[-111.81877,40.60607],[-111.82435,40.60771],[-111.82485,40.60573],[-111.833,40.60788],[-111.83799,40.6101],[-111.84008,40.61362],[-111.84596,40.61583],[-111.8481,40.61522],[-111.85306,40.62018],[-111.85193,40.62289],[-111.8536,40.62304],[-111.8537,40.62606],[-111.85782,40.62582],[-111.86173,40.63005],[-111.8659,40.63006],[-111.86595,40.63359],[-111.86693,40.6339],[-111.86596,40.64427],[-111.86851,40.64536],[-111.86835,40.64958],[-111.84842,40.64938]]]}},{"type":"Feature","properties":{"zcta":"84084","d":1892},"geometry":{"type":"Polygon","coordinates":[[[-111.99186,40.63133],[-111.9917,40.63859],[-111.98815,40.63857],[-111.98815,40.63481],[-111.99152,40.63448],[-111.99151,40.63132],[-111.98414,40.63132],[-111.98562,40.63513],[-111.97936,40.63858],[-111.97652,40.63858],[-111.97636,40.6313],[-111.95963,40.6313],[-111.95782,40.63189],[-111.95782,40.63856],[-111.95569,40.63856],[-111.95569,40.63526],[-111.95448,40.6376],[-111.95114,40.63856],[-111.95111,40.6352],[-111.9523,40.63357],[-111.94833,40.63455],[-111.94968,40.63322],[-111.95441,40.63175],[-111.94353,40.63131],[-111.93877,40.63131],[-111.93509,40.62934],[-111.92609,40.6286],[-111.92311,40.62629],[-111.923,40.63002],[-111.92141,40.62772],[-111.92082,40.62372],[-111.92348,40.62375],[-111.92243,40.62047],[-111.925,40.61586],[-111.92702,40.61516],[-111.92916,40.61514],[-111.92915,40.60941],[-111.94292,40.60952],[-111.94346,40.61075],[-111.94814,40.60998],[-111.95171,40.61088],[-111.95262,40.61006],[-111.9578,40.61011],[-111.9578,40.60952],[-111.97815,40.60945],[-111.98132,40.61052],[-111.98143,40.60944],[-112.00536,40.60945],[-112.00547,40.62405],[-112.00583,40.62971],[-112.00509,40.63131],[-111.99186,40.63133]]]}},{"type":"Feature","properties":{"zcta":"84009","d":0},"geometry":{"type":"Polygon","coordinates":[[[-112.03668,40.56603],[-112.03345,40.56693],[-112.03324,40.56598],[-112.01483,40.56597],[-112.01462,40.57621],[-112.00586,40.58059],[-112.00491,40.58062],[-111.9771,40.58053],[-111.97721,40.55555],[-111.97805,40.5533],[-111.98352,40.54723],[-111.9843,40.5442],[-111.98429,40.53691],[-112.06827,40.53701],[-112.06914,40.53865],[-112.06281,40.55129],[-112.06181,40.55413],[-112.06326,40.56598],[-112.03668,40.56603]]]}},{"type":"Feature","properties":{"zcta":"84112","d":418},"geometry":{"type":"Polygon","coordinates":[[[-111.84773,40.77051],[-111.8431,40.7713],[-111.84206,40.77271],[-111.83692,40.77337],[-111.83503,40.77443],[-111.83237,40.77046],[-111.82758,40.76671],[-111.8299,40.76494],[-111.82826,40.76283],[-111.82829,40.76264],[-111.83039,40.76192],[-111.8324,40.76424],[-111.83175,40.7652],[-111.83578,40.76789],[-111.83716,40.76579],[-111.83468,40.75962],[-111.83598,40.75732],[-111.83885,40.75836],[-111.84774,40.75849],[-111.85235,40.75849],[-111.85235,40.76711],[-111.84829,40.76702],[-111.84827,40.76812],[-111.84773,40.77051]]]}},{"type":"Feature","properties":{"zcta":"84095","d":809},"geometry":{"type":"Polygon","coordinates":[[[-111.95775,40.58051],[-111.95775,40.58093],[-111.95068,40.58097],[-111.94968,40.58046],[-111.92915,40.58045],[-111.92916,40.58142],[-111.9244,40.5821],[-111.9225,40.58051],[-111.91916,40.58052],[-111.92159,40.57902],[-111.9187,40.57638],[-111.91664,40.57327],[-111.90402,40.57329],[-111.90213,40.56972],[-111.9001,40.5697],[-111.89841,40.55889],[-111.89494,40.54431],[-111.90758,40.544],[-111.91657,40.54427],[-111.9168,40.54067],[-111.91843,40.53955],[-111.91647,40.53838],[-111.91739,40.53697],[-111.9202,40.538],[-111.92913,40.53798],[-111.92912,40.54042],[-111.93392,40.53978],[-111.93392,40.54048],[-111.93867,40.53917],[-111.94124,40.54067],[-111.94127,40.5369],[-111.94818,40.53686],[-111.9491,40.53953],[-111.95275,40.5394],[-111.95771,40.5404],[-111.95769,40.53685],[-111.98407,40.53691],[-111.98429,40.53691],[-111.9843,40.5442],[-111.98352,40.54723],[-111.97805,40.5533],[-111.97721,40.55555],[-111.9771,40.58053],[-111.95775,40.58051]]]}},{"type":"Feature","properties":{"zcta":"84109","d":192},"geometry":{"type":"Polygon","coordinates":[[[-111.82841,40.72549],[-111.82793,40.72645],[-111.81916,40.72584],[-111.81093,40.7258],[-111.81139,40.72695],[-111.80627,40.72723],[-111.80669,40.72879],[-111.8017,40.73296],[-111.79594,40.73305],[-111.79589,40.72551],[-111.8043,40.72554],[-111.80538,40.72344],[-111.80551,40.71437],[-111.80445,40.71342],[-111.79777,40.71107],[-111.78993,40.71209],[-111.7861,40.71412],[-111.78261,40.71891],[-111.77707,40.72114],[-111.77246,40.72459],[-111.769,40.72588],[-111.76604,40.7282],[-111.76207,40.72948],[-111.75751,40.73204],[-111.74819,40.734],[-111.74403,40.73744],[-111.7417,40.74111],[-111.73928,40.74214],[-111.73381,40.74266],[-111.7214,40.74865],[-111.71787,40.75148],[-111.71428,40.75198],[-111.70956,40.75063],[-111.70306,40.75066],[-111.69959,40.74933],[-111.68965,40.74431],[-111.68787,40.74371],[-111.67882,40.74304],[-111.67364,40.73974],[-111.67085,40.73912],[-111.66705,40.73994],[-111.66039,40.74307],[-111.65089,40.74487],[-111.64597,40.74664],[-111.63873,40.74778],[-111.63505,40.74891],[-111.63003,40.75157],[-111.62353,40.75372],[-111.62181,40.75102],[-111.61878,40.74923],[-111.61742,40.7464],[-111.61909,40.74353],[-111.62418,40.7416],[-111.62469,40.74002],[-111.62165,40.73773],[-111.62348,40.73215],[-111.62229,40.72991],[-111.61809,40.72944],[-111.61346,40.72807],[-111.61632,40.72278],[-111.61464,40.71938],[-111.61179,40.71888],[-111.61187,40.71774],[-111.60724,40.71434],[-111.59396,40.70278],[-111.59273,40.69912],[-111.59471,40.69611],[-111.59917,40.69206],[-111.60182,40.68472],[-111.60168,40.67926],[-111.60302,40.67746],[-111.60198,40.67577],[-111.60194,40.6712],[-111.60477,40.66876],[-111.60441,40.66652],[-111.60026,40.66416],[-111.59674,40.65977],[-111.59664,40.65847],[-111.59911,40.66051],[-111.6064,40.66263],[-111.61368,40.66016],[-111.61992,40.66189],[-111.62131,40.6653],[-111.63041,40.66425],[-111.63009,40.66262],[-111.63517,40.66454],[-111.64018,40.66786],[-111.642,40.66669],[-111.65098,40.66827],[-111.65382,40.66811],[-111.6624,40.66344],[-111.66472,40.66606],[-111.67438,40.66844],[-111.67735,40.66756],[-111.68423,40.66805],[-111.68998,40.66634],[-111.70762,40.65876],[-111.71297,40.65949],[-111.72211,40.66515],[-111.73345,40.6604],[-111.73808,40.65962],[-111.74223,40.65672],[-111.75042,40.6533],[-111.75692,40.65178],[-111.76192,40.65232],[-111.76528,40.65131],[-111.77125,40.64705],[-111.7749,40.64623],[-111.77513,40.6756],[-111.77682,40.67609],[-111.77653,40.6822],[-111.77669,40.69052],[-111.78445,40.68921],[-111.78448,40.68864],[-111.79092,40.68869],[-111.7916,40.68711],[-111.80009,40.68702],[-111.83403,40.68709],[-111.83322,40.69249],[-111.83407,40.70001],[-111.83499,40.70041],[-111.83407,40.70405],[-111.83538,40.70451],[-111.8341,40.70745],[-111.83409,40.71106],[-111.83534,40.71163],[-111.83363,40.71937],[-111.83197,40.72098],[-111.83369,40.72225],[-111.83365,40.72585],[-111.82841,40.72549]]]}},{"type":"Feature","properties":{"zcta":"84020","d":883},"geometry":{"type":"Polygon","coordinates":[[[-111.91647,40.53838],[-111.91843,40.53955],[-111.9168,40.54067],[-111.91657,40.54427],[-111.90758,40.544],[-111.89494,40.54431],[-111.872,40.54431],[-111.87107,40.54432],[-111.87099,40.54073],[-111.86509,40.54062],[-111.86509,40.53698],[-111.86271,40.53696],[-111.86273,40.52973],[-111.85276,40.52967],[-111.85063,40.52808],[-111.8469,40.52967],[-111.83904,40.52996],[-111.83422,40.53395],[-111.82474,40.53612],[-111.8242,40.5333],[-111.81894,40.53333],[-111.81528,40.53604],[-111.81286,40.53512],[-111.81287,40.53695],[-111.81043,40.53694],[-111.81225,40.5333],[-111.81403,40.5339],[-111.81819,40.53094],[-111.82374,40.52571],[-111.82243,40.52481],[-111.82182,40.5217],[-111.82549,40.52238],[-111.82796,40.51938],[-111.82895,40.51702],[-111.83108,40.51541],[-111.83257,40.51293],[-111.83144,40.50699],[-111.82956,40.5068],[-111.83127,40.50454],[-111.83018,40.50197],[-111.82714,40.50096],[-111.82719,40.49957],[-111.82435,40.49781],[-111.81739,40.49572],[-111.81684,40.49441],[-111.81279,40.49267],[-111.81949,40.49074],[-111.82005,40.48857],[-111.82215,40.48654],[-111.8163,40.48916],[-111.81192,40.48841],[-111.80727,40.48938],[-111.80345,40.49248],[-111.79894,40.48737],[-111.79745,40.48284],[-111.79817,40.4808],[-111.79681,40.47913],[-111.79638,40.47646],[-111.79363,40.47504],[-111.79108,40.46831],[-111.79633,40.46829],[-111.7962,40.4611],[-111.80093,40.46108],[-111.80387,40.4647],[-111.80719,40.4647],[-111.80593,40.46053],[-111.81118,40.45994],[-111.81336,40.45704],[-111.81681,40.45671],[-111.81796,40.45545],[-111.8215,40.45501],[-111.82187,40.4532],[-111.82657,40.45482],[-111.82898,40.45671],[-111.83029,40.45579],[-111.83983,40.45739],[-111.84191,40.45617],[-111.84445,40.45798],[-111.8489,40.45816],[-111.85295,40.46172],[-111.85365,40.46366],[-111.8564,40.46529],[-111.85651,40.46689],[-111.86042,40.47032],[-111.86289,40.46926],[-111.86549,40.47028],[-111.86855,40.47263],[-111.87212,40.4766],[-111.87375,40.47682],[-111.88239,40.47264],[-111.88911,40.46689],[-111.89105,40.46632],[-111.89238,40.46408],[-111.90103,40.46331],[-111.90771,40.45341],[-111.91331,40.45252],[-111.91423,40.45789],[-111.9139,40.46189],[-111.91175,40.46646],[-111.90128,40.48125],[-111.89633,40.4863],[-111.90554,40.48615],[-111.90553,40.48979],[-111.91506,40.48976],[-111.91504,40.49695],[-111.92005,40.4969],[-111.91566,40.50179],[-111.91629,40.50611],[-111.91397,40.50879],[-111.91504,40.51105],[-111.91383,40.51672],[-111.91637,40.52003],[-111.92048,40.51948],[-111.91945,40.52139],[-111.92184,40.52238],[-111.92184,40.52469],[-111.91943,40.52674],[-111.92136,40.53035],[-111.92034,40.53186],[-111.91716,40.53241],[-111.91739,40.53697],[-111.91647,40.53838]]]}},{"type":"Feature","properties":{"zcta":"84124","d":1805},"geometry":{"type":"Polygon","coordinates":[[[-111.85981,40.68705],[-111.8598,40.68874],[-111.8569,40.68877],[-111.85632,40.68741],[-111.84658,40.68858],[-111.84581,40.6871],[-111.84036,40.68782],[-111.83403,40.68709],[-111.80009,40.68702],[-111.7916,40.68711],[-111.79092,40.68869],[-111.78448,40.68864],[-111.78445,40.68921],[-111.77669,40.69052],[-111.77653,40.6822],[-111.77682,40.67609],[-111.77513,40.6756],[-111.7749,40.64623],[-111.77807,40.64664],[-111.78114,40.64359],[-111.78239,40.64332],[-111.78613,40.63982],[-111.78955,40.63895],[-111.78946,40.64277],[-111.80067,40.64281],[-111.80524,40.64872],[-111.80655,40.6522],[-111.80617,40.65915],[-111.80537,40.66431],[-111.80508,40.67068],[-111.80246,40.67442],[-111.80972,40.67507],[-111.81421,40.67488],[-111.816,40.67306],[-111.82196,40.67513],[-111.8245,40.67421],[-111.83727,40.67426],[-111.84087,40.67506],[-111.84124,40.67427],[-111.86554,40.6743],[-111.86552,40.68706],[-111.85981,40.68705]]]}},{"type":"Feature","properties":{"zcta":"84071","d":8},"geometry":{"type":"Polygon","coordinates":[[[-112.48281,40.49051],[-112.48015,40.49106],[-112.46307,40.49297],[-112.34234,40.49368],[-112.34225,40.4925],[-112.33212,40.4927],[-112.31754,40.5075],[-112.28948,40.50762],[-112.29055,40.5054],[-112.28831,40.50219],[-112.28518,40.49538],[-112.28574,40.49019],[-112.2856,40.485],[-112.28496,40.48356],[-112.28152,40.48128],[-112.27098,40.47722],[-112.26717,40.47278],[-112.25915,40.468],[-112.25619,40.46541],[-112.2556,40.46359],[-112.25318,40.46266],[-112.24552,40.45774],[-112.23733,40.45458],[-112.23485,40.45229],[-112.22529,40.44698],[-112.22283,40.4467],[-112.2145,40.44824],[-112.21495,40.45255],[-112.21323,40.45511],[-112.21418,40.45231],[-112.21281,40.44904],[-112.21317,40.4448],[-112.21073,40.43888],[-112.20853,40.43174],[-112.2049,40.43107],[-112.2024,40.42774],[-112.19866,40.42566],[-112.19805,40.42339],[-112.19464,40.42111],[-112.19555,40.41734],[-112.19791,40.41493],[-112.19828,40.4091],[-112.19985,40.4035],[-112.19857,40.4],[-112.20005,40.39736],[-112.19919,40.39521],[-112.19934,40.39064],[-112.20154,40.38764],[-112.20082,40.38485],[-112.19917,40.38255],[-112.19441,40.37954],[-112.19085,40.37431],[-112.18873,40.37249],[-112.19023,40.37044],[-112.19373,40.36789],[-112.19364,40.36518],[-112.19474,40.36282],[-112.19399,40.35987],[-112.18808,40.35489],[-112.18534,40.34849],[-112.18137,40.34589],[-112.17862,40.33962],[-112.17553,40.33584],[-112.17993,40.33214],[-112.18322,40.33187],[-112.19106,40.32939],[-112.19628,40.32584],[-112.19268,40.32289],[-112.1937,40.31835],[-112.19645,40.31726],[-112.19656,40.31839],[-112.19978,40.32085],[-112.20391,40.32016],[-112.21068,40.32088],[-112.21397,40.31988],[-112.21666,40.3201],[-112.22537,40.31846],[-112.22874,40.31637],[-112.24034,40.31286],[-112.24471,40.31195],[-112.24788,40.3104],[-112.25284,40.30933],[-112.25735,40.30686],[-112.26318,40.30649],[-112.26806,40.30715],[-112.27247,40.31246],[-112.27468,40.31296],[-112.27972,40.31671],[-112.27738,40.31782],[-112.27693,40.31931],[-112.28096,40.32162],[-112.28337,40.32525],[-112.28645,40.32488],[-112.28839,40.32756],[-112.29028,40.32739],[-112.29677,40.33285],[-112.2985,40.33483],[-112.31058,40.35128],[-112.31306,40.35389],[-112.31976,40.35766],[-112.33977,40.36461],[-112.3407,40.36864],[-112.33925,40.37154],[-112.33791,40.37071],[-112.33817,40.3817],[-112.33633,40.38547],[-112.33655,40.3891],[-112.33514,40.3977],[-112.32903,40.40132],[-112.32736,40.40358],[-112.32784,40.40744],[-112.3263,40.4093],[-112.32642,40.41105],[-112.3242,40.41388],[-112.32499,40.41579],[-112.32237,40.41878],[-112.32098,40.42195],[-112.31542,40.41991],[-112.3228,40.42486],[-112.3274,40.42515],[-112.33064,40.4273],[-112.3352,40.42746],[-112.34431,40.42655],[-112.34191,40.42554],[-112.33983,40.42305],[-112.33972,40.42146],[-112.34255,40.4216],[-112.348,40.42366],[-112.34802,40.42074],[-112.35697,40.42068],[-112.36659,40.42137],[-112.37165,40.4209],[-112.3698,40.42371],[-112.37207,40.42859],[-112.37793,40.43134],[-112.38055,40.42589],[-112.38577,40.40482],[-112.38639,40.38432],[-112.39993,40.38447],[-112.40104,40.38559],[-112.41946,40.38823],[-112.42374,40.38846],[-112.42416,40.42068],[-112.46183,40.42027],[-112.46174,40.40552],[-112.4698,40.40555],[-112.4762,40.41182],[-112.48011,40.41326],[-112.48799,40.41776],[-112.49619,40.41862],[-112.5015,40.4204],[-112.50484,40.42358],[-112.51211,40.42674],[-112.51575,40.42895],[-112.51919,40.4297],[-112.5194,40.43119],[-112.51796,40.43483],[-112.52721,40.43248],[-112.51882,40.43486],[-112.51535,40.43713],[-112.51436,40.4398],[-112.50839,40.4434],[-112.4994,40.44659],[-112.49528,40.44685],[-112.49371,40.44795],[-112.48457,40.44888],[-112.47721,40.44875],[-112.47405,40.44729],[-112.49252,40.48551],[-112.49376,40.49044],[-112.48281,40.49051]]]}},{"type":"Feature","properties":{"zcta":"84094","d":2550},"geometry":{"type":"Polygon","coordinates":[[[-111.87082,40.60953],[-111.85533,40.60964],[-111.8534,40.61055],[-111.85309,40.60953],[-111.85319,40.58767],[-111.8509,40.58537],[-111.85234,40.58536],[-111.85234,40.58045],[-111.85323,40.58044],[-111.85311,40.56554],[-111.85116,40.56578],[-111.85006,40.56235],[-111.85317,40.56236],[-111.85345,40.54428],[-111.85319,40.53255],[-111.85276,40.52967],[-111.86273,40.52973],[-111.86271,40.53696],[-111.86509,40.53698],[-111.86509,40.54062],[-111.87099,40.54073],[-111.87107,40.54432],[-111.872,40.54431],[-111.87222,40.54564],[-111.87217,40.57165],[-111.87166,40.57165],[-111.87172,40.57749],[-111.8685,40.57811],[-111.872,40.57884],[-111.87033,40.58394],[-111.87219,40.58396],[-111.87215,40.58653],[-111.87015,40.58665],[-111.87137,40.59501],[-111.87217,40.59499],[-111.87218,40.60493],[-111.87088,40.60527],[-111.87092,40.60803],[-111.87217,40.60872],[-111.87082,40.60953]]]}},{"type":"Feature","properties":{"zcta":"84129","d":0},"geometry":{"type":"Polygon","coordinates":[[[-111.98648,40.63858],[-111.98648,40.64488],[-111.98743,40.64647],[-111.98692,40.64915],[-111.98691,40.66361],[-111.98533,40.66498],[-111.98145,40.66286],[-111.98671,40.66668],[-111.98658,40.66756],[-111.98141,40.66755],[-111.98032,40.66936],[-111.97701,40.66836],[-111.9722,40.66882],[-111.97123,40.66802],[-111.96348,40.66761],[-111.96223,40.66913],[-111.95798,40.66904],[-111.95802,40.68215],[-111.94022,40.68212],[-111.93888,40.68212],[-111.93999,40.67934],[-111.93995,40.67544],[-111.93885,40.67376],[-111.9443,40.67514],[-111.94804,40.67513],[-111.94772,40.6701],[-111.93887,40.66982],[-111.93884,40.66765],[-111.94049,40.66367],[-111.94041,40.66101],[-111.93882,40.66105],[-111.93882,40.65513],[-111.93992,40.65316],[-111.94299,40.65225],[-111.94335,40.64709],[-111.94509,40.64707],[-111.94516,40.64514],[-111.93879,40.64451],[-111.93877,40.63853],[-111.94207,40.63858],[-111.9393,40.63496],[-111.94354,40.63494],[-111.94353,40.63131],[-111.95441,40.63175],[-111.94968,40.63322],[-111.94833,40.63455],[-111.9523,40.63357],[-111.95111,40.6352],[-111.95114,40.63856],[-111.95448,40.6376],[-111.95569,40.63526],[-111.95569,40.63856],[-111.95782,40.63856],[-111.95782,40.63189],[-111.95963,40.6313],[-111.97636,40.6313],[-111.97652,40.63858],[-111.97936,40.63858],[-111.98562,40.63513],[-111.98414,40.63132],[-111.99151,40.63132],[-111.99152,40.63448],[-111.98815,40.63481],[-111.98815,40.63857],[-111.98648,40.63858]]]}},{"type":"Feature","properties":{"zcta":"84096","d":442},"geometry":{"type":"Polygon","coordinates":[[[-112.18056,40.57393],[-112.17191,40.57376],[-112.16694,40.57232],[-112.16277,40.57389],[-112.15503,40.57479],[-112.14978,40.57084],[-112.14853,40.56923],[-112.1429,40.56435],[-112.13538,40.55993],[-112.13043,40.5556],[-112.12776,40.55642],[-112.12197,40.56021],[-112.11743,40.56141],[-112.10782,40.56236],[-112.09739,40.56173],[-112.09076,40.56392],[-112.08901,40.566],[-112.0817,40.56598],[-112.08168,40.56438],[-112.07918,40.56459],[-112.07919,40.56602],[-112.06326,40.56598],[-112.06181,40.55413],[-112.06281,40.55129],[-112.06914,40.53865],[-112.06827,40.53701],[-111.98429,40.53691],[-111.98407,40.53691],[-111.98407,40.51152],[-111.98266,40.50784],[-111.98744,40.50781],[-111.99095,40.50619],[-111.99282,40.50615],[-111.9916,40.50047],[-111.99196,40.49868],[-111.98774,40.49402],[-111.98312,40.4925],[-111.97892,40.48666],[-111.97912,40.48586],[-111.97454,40.48414],[-111.97087,40.47904],[-111.96738,40.47735],[-111.9647,40.47461],[-111.95937,40.47234],[-111.95508,40.47149],[-111.95151,40.46791],[-111.94966,40.46391],[-111.95289,40.46309],[-111.95245,40.46085],[-111.96249,40.46031],[-111.98584,40.46024],[-111.98575,40.45658],[-112.0145,40.45647],[-112.01461,40.4603],[-112.03254,40.46013],[-112.03323,40.46271],[-112.03817,40.46462],[-112.04709,40.45664],[-112.05424,40.45492],[-112.05938,40.45299],[-112.0616,40.45006],[-112.06517,40.4488],[-112.06679,40.44639],[-112.07094,40.44569],[-112.07186,40.44676],[-112.08038,40.44697],[-112.08143,40.44825],[-112.08504,40.4476],[-112.09355,40.44783],[-112.10117,40.44555],[-112.10458,40.44259],[-112.10932,40.4408],[-112.1119,40.43895],[-112.11442,40.44129],[-112.11462,40.44329],[-112.11342,40.44746],[-112.11478,40.4507],[-112.11931,40.45269],[-112.12128,40.45424],[-112.12425,40.45855],[-112.13085,40.46281],[-112.13182,40.46444],[-112.13701,40.46679],[-112.13879,40.46847],[-112.14109,40.46854],[-112.14368,40.47035],[-112.14872,40.4696],[-112.15057,40.46805],[-112.15364,40.46836],[-112.15611,40.46691],[-112.15627,40.46434],[-112.16017,40.46107],[-112.16541,40.46228],[-112.17194,40.46548],[-112.17286,40.46707],[-112.17157,40.47118],[-112.17397,40.47612],[-112.17631,40.47693],[-112.17601,40.47902],[-112.17814,40.48207],[-112.17702,40.48538],[-112.18102,40.49183],[-112.18127,40.4953],[-112.18002,40.49799],[-112.17584,40.50014],[-112.17972,40.50222],[-112.18459,40.50832],[-112.18754,40.5141],[-112.18521,40.51778],[-112.17876,40.52202],[-112.17919,40.53161],[-112.18274,40.53856],[-112.18215,40.54366],[-112.18004,40.54586],[-112.17991,40.54873],[-112.17861,40.55279],[-112.17826,40.55634],[-112.18024,40.55819],[-112.18291,40.56219],[-112.18338,40.56465],[-112.18195,40.56649],[-112.18205,40.57088],[-112.18338,40.57253],[-112.18261,40.57461],[-112.18056,40.57393]]]}},{"type":"Feature","properties":{"zcta":"84081","d":1645},"geometry":{"type":"Polygon","coordinates":[[[-112.06572,40.63123],[-112.0681,40.63128],[-112.06812,40.64221],[-112.06332,40.64241],[-112.05647,40.63608],[-112.05334,40.63117],[-112.03502,40.63123],[-112.02464,40.63148],[-112.02463,40.63855],[-112.00538,40.63861],[-112.00709,40.63598],[-112.00725,40.63132],[-112.00509,40.63131],[-112.00583,40.62971],[-112.00547,40.62405],[-112.00536,40.60945],[-112.00514,40.58157],[-112.00491,40.58062],[-112.00586,40.58059],[-112.01462,40.57621],[-112.01483,40.56597],[-112.03324,40.56598],[-112.03345,40.56693],[-112.03668,40.56603],[-112.06326,40.56598],[-112.06319,40.56739],[-112.05863,40.59225],[-112.06324,40.59228],[-112.0696,40.59071],[-112.075,40.59159],[-112.07499,40.59525],[-112.07283,40.59525],[-112.07314,40.5989],[-112.07192,40.59891],[-112.07157,40.60307],[-112.07256,40.60706],[-112.07208,40.60949],[-112.08254,40.60972],[-112.08257,40.61694],[-112.07312,40.61706],[-112.07318,40.6242],[-112.06734,40.62402],[-112.06661,40.62892],[-112.06572,40.63123]]]}},{"type":"Feature","properties":{"zcta":"84128","d":1425},"geometry":{"type":"Polygon","coordinates":[[[-112.0249,40.74026],[-112.0249,40.72589],[-112.02489,40.72033],[-112.02595,40.72032],[-112.02603,40.71705],[-112.02729,40.71703],[-112.02753,40.71102],[-112.02549,40.71095],[-112.02489,40.70381],[-112.02799,40.70376],[-112.02813,40.69755],[-112.02509,40.69655],[-112.02483,40.69501],[-112.02468,40.66846],[-112.02527,40.66884],[-112.03426,40.66835],[-112.04385,40.66844],[-112.04388,40.67741],[-112.05228,40.67903],[-112.06075,40.682],[-112.06305,40.682],[-112.06327,40.72559],[-112.04246,40.72566],[-112.04351,40.72885],[-112.05079,40.73447],[-112.05286,40.73479],[-112.0548,40.73336],[-112.05689,40.7355],[-112.05947,40.73672],[-112.06306,40.74024],[-112.0249,40.74026]]]}},{"type":"Feature","properties":{"zcta":"84088","d":1843},"geometry":{"type":"Polygon","coordinates":[[[-111.98143,40.60944],[-111.98132,40.61052],[-111.97815,40.60945],[-111.9578,40.60952],[-111.9578,40.61011],[-111.95262,40.61006],[-111.95171,40.61088],[-111.94814,40.60998],[-111.94346,40.61075],[-111.94292,40.60952],[-111.92915,40.60941],[-111.92916,40.61514],[-111.92702,40.61516],[-111.92574,40.61154],[-111.92589,40.60908],[-111.92129,40.60953],[-111.92059,40.60782],[-111.92017,40.60104],[-111.91839,40.59698],[-111.91365,40.5971],[-111.9124,40.59589],[-111.91174,40.59373],[-111.91317,40.5904],[-111.9127,40.58774],[-111.91385,40.58583],[-111.91695,40.58384],[-111.91916,40.58052],[-111.9225,40.58051],[-111.9244,40.5821],[-111.92916,40.58142],[-111.92915,40.58045],[-111.94968,40.58046],[-111.95068,40.58097],[-111.95775,40.58093],[-111.95775,40.58051],[-111.9771,40.58053],[-112.00491,40.58062],[-112.00514,40.58157],[-112.00536,40.60945],[-111.98143,40.60944]]]}},{"type":"Feature","properties":{"zcta":"84093","d":1968},"geometry":{"type":"Polygon","coordinates":[[[-111.84596,40.61583],[-111.84008,40.61362],[-111.83799,40.6101],[-111.833,40.60788],[-111.82485,40.60573],[-111.82435,40.60771],[-111.81877,40.60607],[-111.8148,40.60363],[-111.81408,40.60549],[-111.81079,40.60646],[-111.80534,40.60465],[-111.80104,40.59795],[-111.80072,40.59414],[-111.79889,40.59027],[-111.7936,40.58939],[-111.79224,40.58651],[-111.79438,40.58595],[-111.79655,40.58133],[-111.7971,40.57852],[-111.79993,40.57985],[-111.80152,40.58394],[-111.80341,40.58495],[-111.80661,40.58281],[-111.81555,40.58126],[-111.81509,40.58034],[-111.82325,40.58045],[-111.82327,40.57867],[-111.82845,40.58047],[-111.8438,40.58048],[-111.84379,40.57862],[-111.84758,40.57867],[-111.84999,40.57776],[-111.85,40.57926],[-111.85234,40.58045],[-111.85234,40.58536],[-111.8509,40.58537],[-111.85319,40.58767],[-111.85309,40.60953],[-111.8534,40.61055],[-111.85275,40.61122],[-111.85777,40.61635],[-111.85463,40.61634],[-111.8481,40.61522],[-111.84596,40.61583]]]}},{"type":"Feature","properties":{"zcta":"84102","d":4949},"geometry":{"type":"Polygon","coordinates":[[[-111.87156,40.76935],[-111.87156,40.77056],[-111.86858,40.76935],[-111.86407,40.76983],[-111.85234,40.77001],[-111.84899,40.76935],[-111.84827,40.76812],[-111.84829,40.76702],[-111.85235,40.76711],[-111.85235,40.75849],[-111.84774,40.75849],[-111.84762,40.75074],[-111.85389,40.75197],[-111.85389,40.74979],[-111.85674,40.75038],[-111.87677,40.75026],[-111.8776,40.75064],[-111.87701,40.75444],[-111.87777,40.75791],[-111.87678,40.76283],[-111.87881,40.76403],[-111.87776,40.76563],[-111.8782,40.76935],[-111.87156,40.76935]]]}},{"type":"Feature","properties":{"zcta":"84103","d":788},"geometry":{"type":"MultiPolygon","coordinates":[[[[-111.8911,40.77155],[-111.8911,40.76935],[-111.89396,40.76935],[-111.89396,40.77155],[-111.8911,40.77155]]],[[[-111.90091,40.81988],[-111.90091,40.82183],[-111.87583,40.82182],[-111.87089,40.8217],[-111.86928,40.82381],[-111.86532,40.82455],[-111.86332,40.82398],[-111.86081,40.82501],[-111.85813,40.82434],[-111.85728,40.82618],[-111.85365,40.82928],[-111.8468,40.8297],[-111.84404,40.83223],[-111.84168,40.83243],[-111.83785,40.83068],[-111.83329,40.83183],[-111.83019,40.83193],[-111.82814,40.83377],[-111.82213,40.83424],[-111.81576,40.83892],[-111.81565,40.8353],[-111.81448,40.83124],[-111.81004,40.82353],[-111.80803,40.82204],[-111.80593,40.82244],[-111.80241,40.82452],[-111.79496,40.82544],[-111.79335,40.82464],[-111.79016,40.82588],[-111.78491,40.82623],[-111.78249,40.82747],[-111.78067,40.827],[-111.77684,40.82893],[-111.77285,40.82935],[-111.76918,40.83107],[-111.76615,40.82948],[-111.76055,40.83035],[-111.75819,40.82932],[-111.75153,40.83101],[-111.74952,40.82949],[-111.74506,40.82804],[-111.74046,40.82967],[-111.74048,40.81974],[-111.76166,40.81973],[-111.7773,40.81932],[-111.77751,40.8197],[-111.78706,40.81966],[-111.78699,40.81675],[-111.79972,40.81233],[-111.79976,40.79864],[-111.81509,40.79798],[-111.81511,40.79185],[-111.82063,40.78841],[-111.82618,40.78673],[-111.83265,40.78282],[-111.83294,40.78152],[-111.83884,40.7764],[-111.83884,40.77484],[-111.83692,40.77337],[-111.84206,40.77271],[-111.8431,40.7713],[-111.84773,40.77051],[-111.84827,40.76812],[-111.84899,40.76935],[-111.85234,40.77001],[-111.86407,40.76983],[-111.86858,40.76935],[-111.87156,40.77056],[-111.87156,40.76935],[-111.8782,40.76935],[-111.88823,40.77002],[-111.88822,40.77155],[-111.8911,40.77155],[-111.8911,40.77365],[-111.89396,40.77369],[-111.89396,40.77155],[-111.89967,40.77155],[-111.90253,40.77155],[-111.90548,40.77155],[-111.90551,40.78021],[-111.90498,40.78239],[-111.9071,40.78408],[-111.91929,40.80068],[-111.91973,40.80329],[-111.91776,40.79992],[-111.91601,40.79881],[-111.91141,40.79877],[-111.90982,40.79941],[-111.9037,40.79444],[-111.89881,40.7979],[-111.89265,40.79571],[-111.89102,40.80007],[-111.89302,40.79981],[-111.89504,40.80352],[-111.89678,40.80482],[-111.89802,40.80787],[-111.90186,40.80829],[-111.90435,40.81056],[-111.90274,40.81364],[-111.90342,40.8199],[-111.90091,40.81988]],[[-111.88668,40.77595],[-111.88564,40.77994],[-111.88995,40.77993],[-111.89107,40.77597],[-111.88668,40.77595]]]]}},{"type":"Feature","properties":{"zcta":"84074","d":237},"geometry":{"type":"Polygon","coordinates":[[[-112.36707,40.65039],[-112.36492,40.64978],[-112.35658,40.65344],[-112.3531,40.65415],[-112.34571,40.65701],[-112.33994,40.66101],[-112.33732,40.66215],[-112.34882,40.66236],[-112.36212,40.66407],[-112.37595,40.66751],[-112.37593,40.66887],[-112.36843,40.66787],[-112.36466,40.66819],[-112.35897,40.66966],[-112.25936,40.70464],[-112.22917,40.72255],[-112.22579,40.72412],[-112.21653,40.71791],[-112.21361,40.71681],[-112.20768,40.71572],[-112.20482,40.71076],[-112.20331,40.70914],[-112.2004,40.70298],[-112.19878,40.69752],[-112.19864,40.69319],[-112.19971,40.69182],[-112.20147,40.68634],[-112.20418,40.68339],[-112.2031,40.68176],[-112.20436,40.67865],[-112.20247,40.67486],[-112.20148,40.67118],[-112.20181,40.66872],[-112.20124,40.66322],[-112.20305,40.6583],[-112.20293,40.65398],[-112.20212,40.65214],[-112.19785,40.64784],[-112.19802,40.64393],[-112.19736,40.64184],[-112.19505,40.63951],[-112.19415,40.63561],[-112.19556,40.63359],[-112.19639,40.62934],[-112.19767,40.62546],[-112.1959,40.62123],[-112.19342,40.61997],[-112.18974,40.61627],[-112.18845,40.61418],[-112.18563,40.61408],[-112.18171,40.61206],[-112.17845,40.60678],[-112.17855,40.60547],[-112.17534,40.60398],[-112.1764,40.60026],[-112.17637,40.5972],[-112.17752,40.59627],[-112.17568,40.59029],[-112.17651,40.58843],[-112.17508,40.58566],[-112.17791,40.5841],[-112.17923,40.58177],[-112.18147,40.58038],[-112.18038,40.57735],[-112.18261,40.57461],[-112.18338,40.57253],[-112.18205,40.57088],[-112.18195,40.56649],[-112.18338,40.56465],[-112.18291,40.56219],[-112.18024,40.55819],[-112.17826,40.55634],[-112.17861,40.55279],[-112.17991,40.54873],[-112.18004,40.54586],[-112.18215,40.54366],[-112.18274,40.53856],[-112.17919,40.53161],[-112.17876,40.52202],[-112.18521,40.51778],[-112.18754,40.5141],[-112.18459,40.50832],[-112.17972,40.50222],[-112.17584,40.50014],[-112.18002,40.49799],[-112.18127,40.4953],[-112.18102,40.49183],[-112.17702,40.48538],[-112.17814,40.48207],[-112.17601,40.47902],[-112.17631,40.47693],[-112.17397,40.47612],[-112.17157,40.47118],[-112.17286,40.46707],[-112.17965,40.46813],[-112.1815,40.46777],[-112.19027,40.46852],[-112.19244,40.46535],[-112.19546,40.46231],[-112.20771,40.45967],[-112.21222,40.45928],[-112.21323,40.45511],[-112.21495,40.45255],[-112.2145,40.44824],[-112.22283,40.4467],[-112.22529,40.44698],[-112.23485,40.45229],[-112.23733,40.45458],[-112.24552,40.45774],[-112.25318,40.46266],[-112.2556,40.46359],[-112.25619,40.46541],[-112.25915,40.468],[-112.26717,40.47278],[-112.27098,40.47722],[-112.28152,40.48128],[-112.28496,40.48356],[-112.2856,40.485],[-112.28574,40.49019],[-112.28518,40.49538],[-112.28831,40.50219],[-112.29055,40.5054],[-112.28948,40.50762],[-112.31754,40.5075],[-112.33212,40.4927],[-112.34225,40.4925],[-112.34234,40.49368],[-112.46307,40.49297],[-112.48015,40.49106],[-112.48281,40.49051],[-112.49376,40.49044],[-112.49536,40.50596],[-112.49837,40.51357],[-112.5006,40.51781],[-112.50088,40.52087],[-112.49867,40.52657],[-112.49904,40.53127],[-112.49444,40.54359],[-112.49181,40.54383],[-112.48942,40.54146],[-112.48662,40.54173],[-112.48505,40.54396],[-112.48246,40.54556],[-112.4743,40.55347],[-112.4671,40.55988],[-112.46369,40.56334],[-112.454,40.56352],[-112.3681,40.56467],[-112.36744,40.56694],[-112.36738,40.57575],[-112.38577,40.59352],[-112.3704,40.5938],[-112.37103,40.61437],[-112.37553,40.61245],[-112.37712,40.6306],[-112.37703,40.64342],[-112.36731,40.6443],[-112.3652,40.64816],[-112.37036,40.64955],[-112.36707,40.65039]]]}},{"type":"Feature","properties":{"zcta":"84069","d":4},"geometry":{"type":"Polygon","coordinates":[[[-112.55457,40.42278],[-112.54771,40.42571],[-112.54582,40.42704],[-112.53879,40.42857],[-112.53279,40.43088],[-112.52721,40.43248],[-112.51796,40.43483],[-112.5194,40.43119],[-112.51919,40.4297],[-112.51575,40.42895],[-112.51211,40.42674],[-112.50484,40.42358],[-112.5015,40.4204],[-112.49619,40.41862],[-112.48799,40.41776],[-112.48011,40.41326],[-112.4762,40.41182],[-112.4698,40.40555],[-112.46174,40.40552],[-112.46183,40.42027],[-112.42416,40.42068],[-112.42374,40.38846],[-112.41946,40.38823],[-112.40104,40.38559],[-112.41051,40.36619],[-112.41295,40.36564],[-112.4148,40.36745],[-112.41962,40.3695],[-112.42344,40.36952],[-112.42281,40.33687],[-112.40956,40.33722],[-112.40466,40.3118],[-112.42197,40.30836],[-112.42217,40.31513],[-112.42998,40.31521],[-112.43294,40.31862],[-112.42243,40.31872],[-112.42274,40.32594],[-112.44154,40.32564],[-112.44152,40.30386],[-112.45061,40.30023],[-112.47902,40.29155],[-112.4791,40.29633],[-112.4839,40.29634],[-112.48405,40.29862],[-112.48753,40.29862],[-112.49007,40.29977],[-112.49805,40.29981],[-112.49852,40.30344],[-112.50816,40.30304],[-112.51305,40.30319],[-112.51516,40.30218],[-112.52258,40.30222],[-112.52649,40.3034],[-112.52998,40.30553],[-112.53451,40.30566],[-112.53049,40.30903],[-112.53288,40.31154],[-112.53188,40.31405],[-112.53433,40.3158],[-112.53598,40.31555],[-112.53725,40.31976],[-112.54057,40.32241],[-112.53577,40.32301],[-112.53679,40.32842],[-112.52935,40.32896],[-112.52299,40.33188],[-112.52279,40.33344],[-112.52792,40.33527],[-112.53452,40.33822],[-112.53719,40.34097],[-112.5411,40.34198],[-112.54949,40.34572],[-112.54994,40.34685],[-112.54834,40.34975],[-112.54205,40.35397],[-112.54018,40.35298],[-112.53827,40.35599],[-112.53946,40.35969],[-112.53733,40.36023],[-112.53522,40.35788],[-112.53275,40.35781],[-112.52985,40.35638],[-112.5295,40.35816],[-112.53256,40.36141],[-112.53851,40.36417],[-112.54562,40.3681],[-112.54904,40.37155],[-112.55099,40.37615],[-112.55427,40.38014],[-112.55569,40.383],[-112.55897,40.38518],[-112.56263,40.38904],[-112.56299,40.39097],[-112.56902,40.39407],[-112.57014,40.39987],[-112.56848,40.40011],[-112.5698,40.40594],[-112.56918,40.40852],[-112.57059,40.40996],[-112.57098,40.41326],[-112.57021,40.41763],[-112.56473,40.41915],[-112.5628,40.42039],[-112.55457,40.42278]]]}},{"type":"Feature","properties":{"zcta":"84104","d":484},"geometry":{"type":"Polygon","coordinates":[[[-112.01515,40.77121],[-112.00997,40.7708],[-112.0034,40.76941],[-111.99468,40.76604],[-111.98703,40.76464],[-111.96899,40.76468],[-111.93919,40.76622],[-111.93441,40.76578],[-111.93213,40.76657],[-111.91969,40.76841],[-111.91969,40.76933],[-111.91397,40.76934],[-111.91397,40.77154],[-111.91041,40.77154],[-111.91168,40.76844],[-111.90987,40.7689],[-111.91104,40.76717],[-111.90825,40.76717],[-111.90825,40.76499],[-111.91052,40.76499],[-111.90922,40.76064],[-111.90825,40.76064],[-111.90824,40.74976],[-111.90892,40.74938],[-111.90846,40.7416],[-111.90845,40.72555],[-111.92106,40.72598],[-111.92104,40.73128],[-111.92436,40.73133],[-111.92612,40.72597],[-111.93895,40.72588],[-111.94803,40.72607],[-111.94819,40.72493],[-111.95454,40.72582],[-111.96092,40.72594],[-111.96777,40.7268],[-111.97717,40.72616],[-111.98623,40.72592],[-112.0249,40.72589],[-112.0249,40.74026],[-112.06306,40.74024],[-112.06448,40.74024],[-112.06432,40.75184],[-112.06336,40.75179],[-112.06287,40.76378],[-112.06307,40.77113],[-112.01515,40.77121]]]}},{"type":"Feature","properties":{"zcta":"84113","d":0},"geometry":{"type":"MultiPolygon","coordinates":[[[[-111.8299,40.76494],[-111.82758,40.76671],[-111.82655,40.7662],[-111.82826,40.76283],[-111.8299,40.76494]]],[[[-111.83468,40.75962],[-111.83716,40.76579],[-111.83578,40.76789],[-111.83175,40.7652],[-111.8324,40.76424],[-111.83039,40.76192],[-111.82829,40.76264],[-111.83216,40.75801],[-111.83467,40.75625],[-111.83598,40.75732],[-111.83468,40.75962]]]]}},{"type":"Feature","properties":{"zcta":"84116","d":432},"geometry":{"type":"Polygon","coordinates":[[[-112.00657,40.92185],[-111.95867,40.92182],[-111.9586,40.90017],[-111.95927,40.89633],[-111.96153,40.89528],[-111.96174,40.89336],[-111.96615,40.89165],[-111.96629,40.8888],[-111.96916,40.88566],[-111.96756,40.88006],[-111.97107,40.87665],[-111.96891,40.87411],[-111.96954,40.87232],[-111.96657,40.87232],[-111.96371,40.87131],[-111.96256,40.86873],[-111.9639,40.8675],[-111.96384,40.86453],[-111.96265,40.8636],[-111.96477,40.86148],[-111.96407,40.85997],[-111.96645,40.85787],[-111.96604,40.85496],[-111.96378,40.85533],[-111.96175,40.85388],[-111.96449,40.85345],[-111.96179,40.85188],[-111.9597,40.85217],[-111.9589,40.84925],[-111.963,40.84817],[-111.95587,40.84911],[-111.95392,40.84764],[-111.95293,40.84468],[-111.94978,40.84313],[-111.95162,40.84157],[-111.94673,40.83796],[-111.94429,40.83415],[-111.94466,40.83218],[-111.94287,40.83049],[-111.94359,40.82739],[-111.94669,40.82385],[-111.94586,40.82179],[-111.90566,40.82182],[-111.90567,40.81988],[-111.90342,40.8199],[-111.90274,40.81364],[-111.90435,40.81056],[-111.90186,40.80829],[-111.89802,40.80787],[-111.89678,40.80482],[-111.89504,40.80352],[-111.89302,40.79981],[-111.89102,40.80007],[-111.89265,40.79571],[-111.89881,40.7979],[-111.9037,40.79444],[-111.90982,40.79941],[-111.91141,40.79877],[-111.91601,40.79881],[-111.91776,40.79992],[-111.91973,40.80329],[-111.91929,40.80068],[-111.9071,40.78408],[-111.90498,40.78239],[-111.90551,40.78021],[-111.90548,40.77155],[-111.90987,40.7689],[-111.91168,40.76844],[-111.91041,40.77154],[-111.91397,40.77154],[-111.91397,40.76934],[-111.91969,40.76933],[-111.91969,40.76841],[-111.93213,40.76657],[-111.93441,40.76578],[-111.93919,40.76622],[-111.96899,40.76468],[-111.98703,40.76464],[-111.99468,40.76604],[-112.0034,40.76941],[-112.00997,40.7708],[-112.01515,40.77121],[-112.06307,40.77113],[-112.10122,40.77113],[-112.10112,40.77895],[-112.09646,40.77892],[-112.09645,40.78153],[-112.10127,40.78155],[-112.10135,40.82439],[-112.10592,40.82293],[-112.10871,40.82549],[-112.10983,40.82419],[-112.11796,40.82596],[-112.12139,40.82557],[-112.12229,40.82675],[-112.11872,40.82748],[-112.11518,40.82699],[-112.12473,40.83397],[-112.13959,40.84766],[-112.14218,40.84939],[-112.00657,40.92185]]]}},{"type":"Feature","properties":{"zcta":"84117","d":2170},"geometry":{"type":"Polygon","coordinates":[[[-111.84124,40.67427],[-111.84087,40.67506],[-111.83727,40.67426],[-111.8245,40.67421],[-111.82196,40.67513],[-111.816,40.67306],[-111.81421,40.67488],[-111.80972,40.67507],[-111.80246,40.67442],[-111.80508,40.67068],[-111.80537,40.66431],[-111.80617,40.65915],[-111.8077,40.65281],[-111.80818,40.64796],[-111.81401,40.64965],[-111.8154,40.64584],[-111.8246,40.64576],[-111.82631,40.64731],[-111.82682,40.64948],[-111.84842,40.64938],[-111.86835,40.64958],[-111.86728,40.65355],[-111.86741,40.65672],[-111.86594,40.65702],[-111.86593,40.65944],[-111.86459,40.66275],[-111.86486,40.66578],[-111.868,40.6664],[-111.86786,40.67057],[-111.86542,40.67063],[-111.86554,40.6743],[-111.84124,40.67427]]]}},{"type":"Feature","properties":{"zcta":"84118","d":1142},"geometry":{"type":"Polygon","coordinates":[[[-112.06075,40.682],[-112.05228,40.67903],[-112.04388,40.67741],[-112.04385,40.66844],[-112.03426,40.66835],[-112.02527,40.66884],[-112.02468,40.66846],[-112.02467,40.66758],[-112.01083,40.66757],[-112.00649,40.66827],[-112.00653,40.66727],[-111.98889,40.66728],[-111.98658,40.66756],[-111.98671,40.66668],[-111.98145,40.66286],[-111.98533,40.66498],[-111.98691,40.66361],[-111.98692,40.64915],[-111.98743,40.64647],[-111.98648,40.64488],[-111.98648,40.63858],[-111.98815,40.63857],[-111.9917,40.63859],[-111.99186,40.63133],[-112.00509,40.63131],[-112.00725,40.63132],[-112.00709,40.63598],[-112.00538,40.63861],[-112.02463,40.63855],[-112.02464,40.63148],[-112.03502,40.63123],[-112.05334,40.63117],[-112.05647,40.63608],[-112.06332,40.64241],[-112.07927,40.65703],[-112.08856,40.66255],[-112.09059,40.66476],[-112.09191,40.6686],[-112.09185,40.68201],[-112.06305,40.682],[-112.06075,40.682]]]}},{"type":"Feature","properties":{"zcta":"84119","d":1892},"geometry":{"type":"Polygon","coordinates":[[[-111.96777,40.7268],[-111.96092,40.72594],[-111.95454,40.72582],[-111.94819,40.72493],[-111.94803,40.72607],[-111.93895,40.72588],[-111.92612,40.72597],[-111.92436,40.73133],[-111.92104,40.73128],[-111.92106,40.72598],[-111.90845,40.72555],[-111.90831,40.71251],[-111.90406,40.69979],[-111.90944,40.69985],[-111.90948,40.69823],[-111.9072,40.69825],[-111.90839,40.69656],[-111.90865,40.68701],[-111.9178,40.68698],[-111.92513,40.68549],[-111.92462,40.68617],[-111.92694,40.68915],[-111.9323,40.68948],[-111.93365,40.68728],[-111.93683,40.68713],[-111.93888,40.68593],[-111.93889,40.68793],[-111.94099,40.68772],[-111.94313,40.68578],[-111.94309,40.68397],[-111.94019,40.68395],[-111.94022,40.68212],[-111.95802,40.68215],[-111.95798,40.66904],[-111.96223,40.66913],[-111.96348,40.66761],[-111.97123,40.66802],[-111.9722,40.66882],[-111.97701,40.66836],[-111.97703,40.67485],[-111.97892,40.67485],[-111.9788,40.67699],[-111.97704,40.6781],[-111.97708,40.69745],[-111.97822,40.69748],[-111.97824,40.70327],[-111.97994,40.70391],[-111.98004,40.70862],[-111.98138,40.71159],[-111.97714,40.71117],[-111.97715,40.71647],[-111.97986,40.71647],[-111.97987,40.71835],[-111.97716,40.7176],[-111.97717,40.72616],[-111.96777,40.7268]]]}},{"type":"Feature","properties":{"zcta":"84120","d":2283},"geometry":{"type":"Polygon","coordinates":[[[-111.98623,40.72592],[-111.97717,40.72616],[-111.97716,40.7176],[-111.97987,40.71835],[-111.97986,40.71647],[-111.97715,40.71647],[-111.97714,40.71117],[-111.98138,40.71159],[-111.98004,40.70862],[-111.97994,40.70391],[-111.97824,40.70327],[-111.97822,40.69748],[-111.97708,40.69745],[-111.97704,40.6781],[-111.9788,40.67699],[-111.97892,40.67485],[-111.97703,40.67485],[-111.97701,40.66836],[-111.98032,40.66936],[-111.98141,40.66755],[-111.98658,40.66756],[-111.98889,40.66728],[-112.00653,40.66727],[-112.00649,40.66827],[-112.01083,40.66757],[-112.02467,40.66758],[-112.02468,40.66846],[-112.02483,40.69501],[-112.02509,40.69655],[-112.02813,40.69755],[-112.02799,40.70376],[-112.02489,40.70381],[-112.02549,40.71095],[-112.02753,40.71102],[-112.02729,40.71703],[-112.02603,40.71705],[-112.02595,40.72032],[-112.02489,40.72033],[-112.0249,40.72589],[-111.98623,40.72592]]]}},{"type":"Feature","properties":{"zcta":"84105","d":3661},"geometry":{"type":"Polygon","coordinates":[[[-111.85674,40.75038],[-111.85389,40.74979],[-111.85389,40.75197],[-111.84762,40.75074],[-111.84022,40.75075],[-111.84375,40.74804],[-111.84226,40.74717],[-111.84224,40.73645],[-111.8436,40.7335],[-111.84227,40.7335],[-111.84227,40.72909],[-111.84351,40.72598],[-111.84227,40.72552],[-111.85166,40.72581],[-111.85674,40.72541],[-111.85674,40.72835],[-111.8596,40.72835],[-111.8605,40.7263],[-111.86246,40.72542],[-111.86676,40.72542],[-111.86832,40.72645],[-111.87678,40.72587],[-111.87742,40.7289],[-111.87712,40.7355],[-111.87742,40.7422],[-111.87813,40.74352],[-111.87677,40.75026],[-111.85674,40.75038]]]}},{"type":"Feature","properties":{"zcta":"84065","d":1089},"geometry":{"type":"Polygon","coordinates":[[[-111.95769,40.53685],[-111.95771,40.5404],[-111.95275,40.5394],[-111.9491,40.53953],[-111.94818,40.53686],[-111.94127,40.5369],[-111.94124,40.54067],[-111.93867,40.53917],[-111.93392,40.54048],[-111.93392,40.53978],[-111.92912,40.54042],[-111.92913,40.53798],[-111.9202,40.538],[-111.91739,40.53697],[-111.91716,40.53241],[-111.92034,40.53186],[-111.92136,40.53035],[-111.91943,40.52674],[-111.92184,40.52469],[-111.92184,40.52238],[-111.91945,40.52139],[-111.92048,40.51948],[-111.91637,40.52003],[-111.91383,40.51672],[-111.91504,40.51105],[-111.91397,40.50879],[-111.91629,40.50611],[-111.91566,40.50179],[-111.92005,40.4969],[-111.91504,40.49695],[-111.91506,40.48976],[-111.90553,40.48979],[-111.90554,40.48615],[-111.89633,40.4863],[-111.90128,40.48125],[-111.91175,40.46646],[-111.9139,40.46189],[-111.91423,40.45789],[-111.91331,40.45252],[-111.9149,40.45201],[-111.91912,40.44319],[-111.93115,40.43361],[-111.93814,40.42957],[-111.93639,40.43409],[-111.93856,40.43521],[-111.93865,40.44235],[-111.94337,40.44237],[-111.94388,40.44973],[-111.94823,40.4497],[-111.94864,40.46096],[-111.95245,40.46085],[-111.95289,40.46309],[-111.94966,40.46391],[-111.95151,40.46791],[-111.95508,40.47149],[-111.95937,40.47234],[-111.9647,40.47461],[-111.96738,40.47735],[-111.97087,40.47904],[-111.97454,40.48414],[-111.97912,40.48586],[-111.97892,40.48666],[-111.98312,40.4925],[-111.98774,40.49402],[-111.99196,40.49868],[-111.9916,40.50047],[-111.99282,40.50615],[-111.99095,40.50619],[-111.98744,40.50781],[-111.98266,40.50784],[-111.98407,40.51152],[-111.98407,40.53691],[-111.95769,40.53685]]]}},{"type":"Feature","properties":{"zcta":"84044","d":309},"geometry":{"type":"Polygon","coordinates":[[[-112.13959,40.84766],[-112.12473,40.83397],[-112.11518,40.82699],[-112.11872,40.82748],[-112.12229,40.82675],[-112.12139,40.82557],[-112.11796,40.82596],[-112.10983,40.82419],[-112.10871,40.82549],[-112.10592,40.82293],[-112.10135,40.82439],[-112.10127,40.78155],[-112.09645,40.78153],[-112.09646,40.77892],[-112.10112,40.77895],[-112.10122,40.77113],[-112.06307,40.77113],[-112.06287,40.76378],[-112.06336,40.75179],[-112.06432,40.75184],[-112.06448,40.74024],[-112.06306,40.74024],[-112.05947,40.73672],[-112.05689,40.7355],[-112.0548,40.73336],[-112.05286,40.73479],[-112.05079,40.73447],[-112.04351,40.72885],[-112.04246,40.72566],[-112.06327,40.72559],[-112.06305,40.682],[-112.09185,40.68201],[-112.09191,40.6686],[-112.09059,40.66476],[-112.08856,40.66255],[-112.07927,40.65703],[-112.06332,40.64241],[-112.06812,40.64221],[-112.0681,40.63128],[-112.06572,40.63123],[-112.06661,40.62892],[-112.07947,40.62896],[-112.19034,40.62801],[-112.19639,40.62934],[-112.19556,40.63359],[-112.19415,40.63561],[-112.19505,40.63951],[-112.19736,40.64184],[-112.19802,40.64393],[-112.19785,40.64784],[-112.20212,40.65214],[-112.20293,40.65398],[-112.20305,40.6583],[-112.20124,40.66322],[-112.20181,40.66872],[-112.20148,40.67118],[-112.20247,40.67486],[-112.20436,40.67865],[-112.2031,40.68176],[-112.20418,40.68339],[-112.20147,40.68634],[-112.19971,40.69182],[-112.19864,40.69319],[-112.19878,40.69752],[-112.2004,40.70298],[-112.20331,40.70914],[-112.20482,40.71076],[-112.20768,40.71572],[-112.21361,40.71681],[-112.21653,40.71791],[-112.22579,40.72412],[-112.22779,40.72559],[-112.26022,40.76909],[-112.14827,40.84613],[-112.14218,40.84939],[-112.13959,40.84766]]]}},{"type":"Feature","properties":{"zcta":"84106","d":3086},"geometry":{"type":"Polygon","coordinates":[[[-111.86832,40.72645],[-111.86676,40.72542],[-111.86246,40.72542],[-111.8605,40.7263],[-111.8596,40.72835],[-111.85674,40.72835],[-111.85674,40.72541],[-111.85166,40.72581],[-111.84227,40.72552],[-111.83365,40.72585],[-111.83369,40.72225],[-111.83197,40.72098],[-111.83363,40.71937],[-111.83534,40.71163],[-111.83409,40.71106],[-111.8341,40.70745],[-111.83538,40.70451],[-111.83407,40.70405],[-111.83499,40.70041],[-111.83407,40.70001],[-111.83322,40.69249],[-111.83403,40.68709],[-111.84036,40.68782],[-111.84581,40.6871],[-111.84658,40.68858],[-111.85632,40.68741],[-111.8569,40.68877],[-111.8598,40.68874],[-111.85981,40.68705],[-111.86552,40.68706],[-111.86837,40.68835],[-111.87137,40.68707],[-111.87699,40.68706],[-111.87773,40.68761],[-111.87814,40.69128],[-111.87695,40.69426],[-111.87743,40.69623],[-111.8797,40.69669],[-111.87694,40.6978],[-111.8769,40.70326],[-111.87791,40.70553],[-111.87757,40.7151],[-111.87686,40.71511],[-111.87678,40.72587],[-111.86832,40.72645]]]}},{"type":"Feature","properties":{"zcta":"84047","d":2956},"geometry":{"type":"Polygon","coordinates":[[[-111.925,40.61586],[-111.92243,40.62047],[-111.92348,40.62375],[-111.92082,40.62372],[-111.92141,40.62772],[-111.9061,40.62786],[-111.90396,40.63097],[-111.90296,40.62816],[-111.8984,40.62808],[-111.89843,40.62614],[-111.89123,40.62693],[-111.88808,40.62956],[-111.88481,40.62987],[-111.88492,40.63117],[-111.87425,40.63006],[-111.8659,40.63006],[-111.86173,40.63005],[-111.85782,40.62582],[-111.8537,40.62606],[-111.8536,40.62304],[-111.85193,40.62289],[-111.85306,40.62018],[-111.8481,40.61522],[-111.85463,40.61634],[-111.85777,40.61635],[-111.85275,40.61122],[-111.8534,40.61055],[-111.85533,40.60964],[-111.87082,40.60953],[-111.87217,40.60872],[-111.87218,40.60954],[-111.87877,40.60954],[-111.87878,40.60585],[-111.87996,40.60584],[-111.88086,40.60954],[-111.88582,40.60955],[-111.88887,40.60583],[-111.89077,40.6015],[-111.89083,40.59447],[-111.896,40.59416],[-111.90285,40.59562],[-111.90451,40.6004],[-111.9076,40.60044],[-111.90761,40.59925],[-111.91025,40.59925],[-111.91024,40.59594],[-111.9124,40.59589],[-111.91365,40.5971],[-111.91839,40.59698],[-111.92017,40.60104],[-111.92059,40.60782],[-111.92129,40.60953],[-111.92589,40.60908],[-111.92574,40.61154],[-111.92702,40.61516],[-111.925,40.61586]]]}},{"type":"Feature","properties":{"zcta":"84107","d":2430},"geometry":{"type":"Polygon","coordinates":[[[-111.88825,40.68701],[-111.88749,40.68763],[-111.87773,40.68761],[-111.87699,40.68706],[-111.87137,40.68707],[-111.86837,40.68835],[-111.86552,40.68706],[-111.86554,40.6743],[-111.86542,40.67063],[-111.86786,40.67057],[-111.868,40.6664],[-111.86486,40.66578],[-111.86459,40.66275],[-111.86593,40.65944],[-111.86594,40.65702],[-111.86741,40.65672],[-111.86728,40.65355],[-111.86835,40.64958],[-111.86851,40.64536],[-111.86596,40.64427],[-111.86693,40.6339],[-111.86595,40.63359],[-111.8659,40.63006],[-111.87425,40.63006],[-111.88492,40.63117],[-111.88481,40.62987],[-111.88808,40.62956],[-111.89123,40.62693],[-111.89843,40.62614],[-111.8984,40.62808],[-111.90296,40.62816],[-111.90396,40.63097],[-111.90463,40.6362],[-111.90303,40.64052],[-111.90114,40.66074],[-111.90134,40.6744],[-111.90269,40.6867],[-111.88825,40.68701]]]}},{"type":"Feature","properties":{"zcta":"84070","d":2036},"geometry":{"type":"Polygon","coordinates":[[[-111.91695,40.58384],[-111.91385,40.58583],[-111.9127,40.58774],[-111.91317,40.5904],[-111.91174,40.59373],[-111.9124,40.59589],[-111.91024,40.59594],[-111.91025,40.59925],[-111.90761,40.59925],[-111.9076,40.60044],[-111.90451,40.6004],[-111.90285,40.59562],[-111.896,40.59416],[-111.89083,40.59447],[-111.89077,40.6015],[-111.88887,40.60583],[-111.88582,40.60955],[-111.88086,40.60954],[-111.87996,40.60584],[-111.87878,40.60585],[-111.87877,40.60954],[-111.87218,40.60954],[-111.87217,40.60872],[-111.87092,40.60803],[-111.87088,40.60527],[-111.87218,40.60493],[-111.87217,40.59499],[-111.87137,40.59501],[-111.87015,40.58665],[-111.87215,40.58653],[-111.87219,40.58396],[-111.87033,40.58394],[-111.872,40.57884],[-111.8685,40.57811],[-111.87172,40.57749],[-111.87166,40.57165],[-111.87217,40.57165],[-111.87222,40.54564],[-111.872,40.54431],[-111.89494,40.54431],[-111.89841,40.55889],[-111.9001,40.5697],[-111.90213,40.56972],[-111.90402,40.57329],[-111.91664,40.57327],[-111.9187,40.57638],[-111.92159,40.57902],[-111.91916,40.58052],[-111.91695,40.58384]]]}},{"type":"Feature","properties":{"zcta":"84123","d":2244},"geometry":{"type":"Polygon","coordinates":[[[-111.94019,40.68395],[-111.94309,40.68397],[-111.94313,40.68578],[-111.94099,40.68772],[-111.93889,40.68793],[-111.93888,40.68593],[-111.93683,40.68713],[-111.93365,40.68728],[-111.9323,40.68948],[-111.92694,40.68915],[-111.92462,40.68617],[-111.92513,40.68549],[-111.9178,40.68698],[-111.90865,40.68701],[-111.90269,40.6867],[-111.90134,40.6744],[-111.90114,40.66074],[-111.90303,40.64052],[-111.90463,40.6362],[-111.90396,40.63097],[-111.9061,40.62786],[-111.92141,40.62772],[-111.923,40.63002],[-111.92311,40.62629],[-111.92609,40.6286],[-111.93509,40.62934],[-111.93877,40.63131],[-111.94353,40.63131],[-111.94354,40.63494],[-111.9393,40.63496],[-111.94207,40.63858],[-111.93877,40.63853],[-111.93879,40.64451],[-111.94516,40.64514],[-111.94509,40.64707],[-111.94335,40.64709],[-111.94299,40.65225],[-111.93992,40.65316],[-111.93882,40.65513],[-111.93882,40.66105],[-111.94041,40.66101],[-111.94049,40.66367],[-111.93884,40.66765],[-111.93887,40.66982],[-111.94772,40.6701],[-111.94804,40.67513],[-111.9443,40.67514],[-111.93885,40.67376],[-111.93995,40.67544],[-111.93999,40.67934],[-111.93888,40.68212],[-111.94022,40.68212],[-111.94019,40.68395]]]}},{"type":"Feature","properties":{"zcta":"84115","d":2189},"geometry":{"type":"Polygon","coordinates":[[[-111.90846,40.7416],[-111.89966,40.74161],[-111.89691,40.74266],[-111.8968,40.74161],[-111.89107,40.74161],[-111.88821,40.74246],[-111.88248,40.74172],[-111.87742,40.7422],[-111.87712,40.7355],[-111.87742,40.7289],[-111.87678,40.72587],[-111.87686,40.71511],[-111.87757,40.7151],[-111.87791,40.70553],[-111.8769,40.70326],[-111.87694,40.6978],[-111.8797,40.69669],[-111.87743,40.69623],[-111.87695,40.69426],[-111.87814,40.69128],[-111.87773,40.68761],[-111.88749,40.68763],[-111.88825,40.68701],[-111.90269,40.6867],[-111.90865,40.68701],[-111.90839,40.69656],[-111.9072,40.69825],[-111.90948,40.69823],[-111.90944,40.69985],[-111.90406,40.69979],[-111.90831,40.71251],[-111.90845,40.72555],[-111.90846,40.7416]]]}}]}