{"type":"FeatureCollection","features":[{"type":"Feature","properties":{"id":"04019","name":"Pima Co."},"geometry":{"type":"Polygon","coordinates":[[[-113.0281,32.5051],[-112.9158,32.5054],[-112.7254,32.5054],[-112.5748,32.5061],[-112.5207,32.5068],[-112.2036,32.5067],[-112.1867,32.5068],[-111.9551,32.5067],[-111.7925,32.5066],[-111.5908,32.5067],[-111.5693,32.5068],[-111.5693,32.5014],[-111.3667,32.5013],[-111.2872,32.5016],[-111.2327,32.5017],[-111.2257,32.5019],[-111.1576,32.5016],[-111.1575,32.5113],[-111.0472,32.5114],[-110.9284,32.5112],[-110.8992,32.5117],[-110.8451,32.5111],[-110.8451,32.5139],[-110.6529,32.5138],[-110.5065,32.5139],[-110.5006,32.5142],[-110.4515,32.514],[-110.451,32.4275],[-110.4509,32.3409],[-110.451,32.2538],[-110.4477,32.2538],[-110.4484,32.1376],[-110.4499,32.0797],[-110.4515,32.0797],[-110.4515,31.9874],[-110.4508,31.9051],[-110.4511,31.8181],[-110.4523,31.8181],[-110.4523,31.7312],[-110.6596,31.7314],[-110.8071,31.7317],[-110.8558,31.7317],[-110.8558,31.7267],[-110.9575,31.7267],[-111.0388,31.7262],[-111.0787,31.7261],[-111.0842,31.7259],[-111.1642,31.7259],[-111.1646,31.6382],[-111.1643,31.6309],[-111.1643,31.5504],[-111.1628,31.5438],[-111.1637,31.5217],[-111.1837,31.5208],[-111.3669,31.5214],[-111.3662,31.4704],[-111.3664,31.4261],[-111.5602,31.4881],[-111.9794,31.6207],[-112.2461,31.7042],[-112.365,31.7411],[-112.3758,31.744],[-112.3994,31.7518],[-112.8671,31.8955],[-113.126,31.9728],[-113.2173,32.0021],[-113.3338,32.0388],[-113.3339,32.4187],[-113.3339,32.5052],[-113.0281,32.5051]]]}}]}