{"type":"FeatureCollection","features":[{"type":"Feature","properties":{"id":"48215","name":"Hidalgo Co."},"geometry":{"type":"Polygon","coordinates":[[[-98.5543,26.3208],[-98.5277,26.3738],[-98.5271,26.3753],[-98.4956,26.4381],[-98.4858,26.4578],[-98.4783,26.4698],[-98.4663,26.4945],[-98.4289,26.5652],[-98.3207,26.7831],[-98.0778,26.7818],[-97.9855,26.7809],[-97.9853,26.6158],[-97.9574,26.6118],[-97.9644,26.5688],[-97.9681,26.5689],[-97.9688,26.5514],[-97.9639,26.5335],[-97.9844,26.5366],[-97.9923,26.4913],[-97.9965,26.4919],[-98.0042,26.4488],[-97.9083,26.4349],[-97.9083,26.4332],[-97.8622,26.4336],[-97.8618,26.3858],[-97.8619,26.3712],[-97.8619,26.2301],[-97.8621,26.1718],[-97.8619,26.1495],[-97.8618,26.0701],[-97.8633,26.0692],[-97.8686,26.0572],[-97.8707,26.0576],[-97.8738,26.0621],[-97.8769,26.0646],[-97.8874,26.0667],[-97.8884,26.0624],[-97.8937,26.0602],[-97.8999,26.0612],[-97.9054,26.0595],[-97.9099,26.0569],[-97.9139,26.0565],[-97.9214,26.0578],[-97.9252,26.0557],[-97.928,26.0559],[-97.9322,26.0645],[-97.9362,26.0638],[-97.9355,26.0593],[-97.9318,26.0559],[-97.9354,26.0527],[-97.9388,26.0543],[-97.9443,26.0596],[-97.9501,26.0618],[-97.957,26.06],[-97.959,26.0573],[-97.9674,26.0517],[-97.975,26.0582],[-97.9788,26.0597],[-97.9799,26.066],[-97.9813,26.0672],[-97.9869,26.0658],[-97.9895,26.0604],[-97.9936,26.0592],[-97.9965,26.0633],[-98.0013,26.065],[-98.0059,26.0633],[-98.0118,26.056],[-98.011,26.0609],[-98.0119,26.0659],[-98.0142,26.066],[-98.0167,26.0607],[-98.0204,26.0588],[-98.0223,26.0598],[-98.0264,26.0665],[-98.0288,26.0665],[-98.0321,26.0632],[-98.0341,26.0576],[-98.0344,26.0514],[-98.0392,26.0413],[-98.047,26.0444],[-98.0535,26.0446],[-98.0619,26.0465],[-98.0649,26.0448],[-98.0701,26.038],[-98.0766,26.0364],[-98.08,26.042],[-98.0737,26.0431],[-98.0709,26.0459],[-98.07,26.0515],[-98.0713,26.0554],[-98.0751,26.0599],[-98.0765,26.068],[-98.0805,26.0709],[-98.0848,26.0708],[-98.0858,26.0692],[-98.0816,26.0661],[-98.0819,26.0637],[-98.091,26.0592],[-98.0944,26.0586],[-98.0976,26.0603],[-98.1022,26.0654],[-98.1055,26.0675],[-98.1198,26.0644],[-98.124,26.0624],[-98.1283,26.0619],[-98.1308,26.0637],[-98.131,26.0668],[-98.1284,26.0724],[-98.1315,26.0742],[-98.1352,26.0721],[-98.1368,26.0679],[-98.137,26.0617],[-98.1411,26.0544],[-98.1448,26.0496],[-98.1495,26.0516],[-98.1495,26.0558],[-98.1535,26.0581],[-98.1593,26.0537],[-98.1625,26.0561],[-98.1583,26.0606],[-98.1607,26.0642],[-98.1665,26.0624],[-98.1688,26.063],[-98.1716,26.0702],[-98.1763,26.0751],[-98.1802,26.0717],[-98.1798,26.065],[-98.1765,26.0616],[-98.1794,26.06],[-98.1843,26.0639],[-98.1891,26.0633],[-98.19,26.0581],[-98.1923,26.0535],[-98.1966,26.0541],[-98.1994,26.0569],[-98.205,26.0664],[-98.2136,26.0698],[-98.2168,26.0744],[-98.2207,26.0765],[-98.2301,26.0772],[-98.2487,26.072],[-98.251,26.0741],[-98.2519,26.0792],[-98.2632,26.0845],[-98.2684,26.0932],[-98.2772,26.0988],[-98.2865,26.1023],[-98.2885,26.1053],[-98.2869,26.1067],[-98.2812,26.1077],[-98.2726,26.1062],[-98.27,26.1071],[-98.2718,26.1114],[-98.2712,26.1142],[-98.2664,26.1167],[-98.2663,26.1207],[-98.2685,26.1206],[-98.2746,26.1159],[-98.2921,26.1206],[-98.2962,26.1203],[-98.299,26.1184],[-98.3028,26.1099],[-98.3023,26.1077],[-98.2982,26.105],[-98.2988,26.1026],[-98.3028,26.1024],[-98.3065,26.1043],[-98.3106,26.115],[-98.3203,26.1179],[-98.3238,26.1212],[-98.3352,26.1376],[-98.3342,26.1413],[-98.3274,26.1421],[-98.3281,26.1447],[-98.3348,26.146],[-98.3384,26.1513],[-98.3376,26.1538],[-98.3333,26.1588],[-98.3347,26.1656],[-98.3426,26.1672],[-98.3473,26.1645],[-98.3485,26.1608],[-98.3493,26.1526],[-98.3523,26.1511],[-98.3567,26.1563],[-98.3585,26.161],[-98.3575,26.1676],[-98.3598,26.1723],[-98.3622,26.1722],[-98.3666,26.1688],[-98.365,26.1633],[-98.365,26.1592],[-98.3691,26.1571],[-98.3729,26.1574],[-98.3839,26.1566],[-98.3872,26.1583],[-98.392,26.1666],[-98.3943,26.1686],[-98.4015,26.1716],[-98.4027,26.1733],[-98.4022,26.1795],[-98.4044,26.1826],[-98.4181,26.1846],[-98.4243,26.1909],[-98.4295,26.1941],[-98.4425,26.1992],[-98.4444,26.2014],[-98.4436,26.2057],[-98.4392,26.2109],[-98.4388,26.2142],[-98.4403,26.2194],[-98.4434,26.2237],[-98.4467,26.2244],[-98.453,26.22],[-98.4543,26.2171],[-98.4564,26.2184],[-98.4567,26.2229],[-98.4584,26.2253],[-98.4627,26.2258],[-98.4704,26.2207],[-98.4816,26.2194],[-98.4829,26.2139],[-98.479,26.2094],[-98.4784,26.2023],[-98.4827,26.2016],[-98.4818,26.206],[-98.4837,26.2116],[-98.4901,26.2132],[-98.4951,26.2121],[-98.5041,26.2088],[-98.5071,26.2117],[-98.5009,26.2222],[-98.5116,26.227],[-98.5148,26.2272],[-98.5191,26.2249],[-98.5234,26.2209],[-98.5264,26.2247],[-98.526,26.2287],[-98.5218,26.2325],[-98.5218,26.2356],[-98.5245,26.2356],[-98.5295,26.2277],[-98.5341,26.2256],[-98.5371,26.2277],[-98.538,26.2313],[-98.5435,26.2424],[-98.5453,26.2445],[-98.5554,26.2475],[-98.5588,26.2459],[-98.5582,26.244],[-98.5523,26.2412],[-98.5476,26.2414],[-98.546,26.2392],[-98.5473,26.2346],[-98.5576,26.231],[-98.5592,26.2263],[-98.5617,26.2248],[-98.565,26.2269],[-98.5643,26.2329],[-98.565,26.2386],[-98.5676,26.2416],[-98.5741,26.2386],[-98.5766,26.2338],[-98.58,26.235],[-98.5851,26.2437],[-98.58,26.2494],[-98.5801,26.2536],[-98.5863,26.2582],[-98.5543,26.3208]]]}}]}