{"type":"FeatureCollection","features":[{"type":"Feature","properties":{"zcta":"78558","d":0},"geometry":{"type":"Polygon","coordinates":[[[-98.00942,26.29651],[-98.00917,26.28588],[-98.01314,26.28582],[-98.01337,26.29307],[-98.02301,26.29294],[-98.02294,26.28927],[-98.03675,26.28923],[-98.03769,26.28899],[-98.03778,26.29637],[-98.00942,26.29651]]]}},{"type":"Feature","properties":{"zcta":"78579","d":0},"geometry":{"type":"Polygon","coordinates":[[[-97.92505,26.11133],[-97.92463,26.09106],[-97.92467,26.08278],[-97.92647,26.08196],[-97.93231,26.07666],[-97.93211,26.06844],[-97.9383,26.06702],[-97.93964,26.06473],[-97.94324,26.06519],[-97.94379,26.06321],[-97.94662,26.0636],[-97.94607,26.07442],[-97.95815,26.07769],[-97.9584,26.087],[-97.97943,26.08654],[-97.98811,26.08493],[-97.99274,26.08511],[-97.99282,26.08809],[-97.98563,26.08924],[-97.9859,26.10151],[-97.98217,26.10267],[-97.98186,26.08994],[-97.98047,26.08856],[-97.97452,26.08872],[-97.97469,26.09393],[-97.95856,26.09428],[-97.95868,26.10157],[-97.93838,26.10198],[-97.93861,26.11108],[-97.92505,26.11133]]]}},{"type":"Feature","properties":{"zcta":"78543","d":0},"geometry":{"type":"Polygon","coordinates":[[[-97.99848,26.31444],[-97.99169,26.31447],[-97.9875,26.30979],[-97.98748,26.30804],[-97.9774,26.3082],[-97.97696,26.28642],[-97.99308,26.28616],[-97.99293,26.27888],[-98.00399,26.27869],[-98.00701,26.28235],[-98.0091,26.28232],[-98.00917,26.28588],[-98.00942,26.29651],[-98.03778,26.29637],[-98.03781,26.30008],[-98.02961,26.30014],[-98.02966,26.3072],[-98.03686,26.30739],[-98.03781,26.30688],[-98.03784,26.31255],[-98.03253,26.31258],[-98.03254,26.31411],[-98.03783,26.31408],[-98.03559,26.31971],[-98.02766,26.31858],[-97.99848,26.31444]]]}},{"type":"Feature","properties":{"zcta":"78562","d":0},"geometry":{"type":"Polygon","coordinates":[[[-97.92553,26.34087],[-97.92384,26.34218],[-97.90775,26.34212],[-97.90775,26.33687],[-97.90685,26.33508],[-97.90684,26.32946],[-97.90626,26.32833],[-97.89423,26.32662],[-97.88603,26.32574],[-97.86189,26.31688],[-97.86191,26.23005],[-97.8919,26.22953],[-97.89689,26.24376],[-97.89728,26.25667],[-97.90345,26.26549],[-97.90482,26.26932],[-97.90414,26.27409],[-97.90527,26.28019],[-97.92059,26.27998],[-97.92074,26.28676],[-97.9286,26.28664],[-97.92861,26.28712],[-97.93664,26.28701],[-97.93709,26.30879],[-97.929,26.30893],[-97.92874,26.3191],[-97.92676,26.33098],[-97.92553,26.34087]]]}},{"type":"Feature","properties":{"zcta":"78541","d":64},"geometry":{"type":"Polygon","coordinates":[[[-98.4938,26.44119],[-98.49114,26.44723],[-98.48582,26.45784],[-98.47827,26.46981],[-98.46627,26.49446],[-98.43331,26.55689],[-98.37239,26.54803],[-98.37263,26.54647],[-98.35624,26.54425],[-98.35619,26.54258],[-98.34113,26.54018],[-98.34127,26.53939],[-98.33654,26.53343],[-98.33047,26.53506],[-98.3237,26.53499],[-98.30972,26.53659],[-98.30545,26.5388],[-98.28629,26.5466],[-98.2714,26.55328],[-98.26664,26.55663],[-98.2656,26.55872],[-98.26313,26.55894],[-98.25288,26.57232],[-98.24827,26.60604],[-98.21896,26.59629],[-98.19686,26.59155],[-98.19345,26.59004],[-98.18,26.57937],[-98.17696,26.57795],[-98.15344,26.57417],[-98.15987,26.54061],[-98.15951,26.52197],[-98.16003,26.51888],[-98.13057,26.51446],[-98.13457,26.49399],[-98.13304,26.48718],[-98.13495,26.47594],[-98.13294,26.46927],[-98.13424,26.457],[-98.13312,26.44583],[-98.13496,26.43359],[-98.14746,26.43539],[-98.15001,26.4222],[-98.14996,26.41895],[-98.15158,26.40958],[-98.13928,26.40774],[-98.13957,26.40227],[-98.14274,26.38534],[-98.14441,26.37439],[-98.14564,26.36854],[-98.14547,26.36537],[-98.14843,26.34904],[-98.14822,26.34477],[-98.1459,26.3388],[-98.14533,26.33385],[-98.14742,26.32115],[-98.14739,26.31872],[-98.14595,26.30564],[-98.14702,26.29917],[-98.21212,26.30854],[-98.23472,26.31176],[-98.2334,26.31947],[-98.24624,26.32131],[-98.24761,26.31358],[-98.26,26.31535],[-98.25797,26.32734],[-98.2636,26.32838],[-98.26192,26.33794],[-98.24618,26.33556],[-98.24373,26.34988],[-98.25941,26.35207],[-98.3015,26.35838],[-98.30269,26.35172],[-98.32653,26.35496],[-98.32529,26.362],[-98.33924,26.36411],[-98.3381,26.37065],[-98.34194,26.3712],[-98.34108,26.3773],[-98.34534,26.37792],[-98.34562,26.3763],[-98.34994,26.37691],[-98.34931,26.38067],[-98.34769,26.38431],[-98.35058,26.38485],[-98.35002,26.38951],[-98.36656,26.39168],[-98.36738,26.38714],[-98.37228,26.3879],[-98.37302,26.38364],[-98.38178,26.38487],[-98.38429,26.37052],[-98.4018,26.37302],[-98.39428,26.41604],[-98.39956,26.41683],[-98.40254,26.39984],[-98.40248,26.39815],[-98.40659,26.37539],[-98.42272,26.37766],[-98.45758,26.3826],[-98.46189,26.38365],[-98.45597,26.41714],[-98.46511,26.41841],[-98.46489,26.42218],[-98.47762,26.42431],[-98.47705,26.42748],[-98.47773,26.42999],[-98.49751,26.43293],[-98.49731,26.43471],[-98.4938,26.44119]]]}},{"type":"Feature","properties":{"zcta":"78516","d":375},"geometry":{"type":"Polygon","coordinates":[[[-98.08497,26.2351],[-98.08926,26.2104],[-98.0855,26.20942],[-98.08666,26.20248],[-98.08387,26.202],[-98.08667,26.2007],[-98.08417,26.2003],[-98.08452,26.19831],[-98.08748,26.19872],[-98.0881,26.19502],[-98.08514,26.19476],[-98.08589,26.19031],[-98.08581,26.18485],[-98.08653,26.18271],[-98.09034,26.18323],[-98.09107,26.17787],[-98.09508,26.15464],[-98.09226,26.15169],[-98.09392,26.15107],[-98.0917,26.14799],[-98.09522,26.14879],[-98.09664,26.15016],[-98.09979,26.14899],[-98.10158,26.13821],[-98.1034,26.13237],[-98.09745,26.12896],[-98.0955,26.12409],[-98.09082,26.12007],[-98.09287,26.12035],[-98.08848,26.1145],[-98.08769,26.10968],[-98.08688,26.1084],[-98.08982,26.09126],[-98.09084,26.0807],[-98.10432,26.08108],[-98.11166,26.08206],[-98.11311,26.07409],[-98.11428,26.06563],[-98.11976,26.06445],[-98.124,26.06238],[-98.12833,26.06193],[-98.13078,26.06369],[-98.13101,26.06684],[-98.12837,26.0724],[-98.12933,26.07396],[-98.13149,26.0742],[-98.13522,26.07215],[-98.1368,26.06786],[-98.13698,26.0617],[-98.14112,26.05439],[-98.14479,26.04961],[-98.1474,26.04948],[-98.14946,26.05158],[-98.14946,26.05581],[-98.15173,26.05819],[-98.15353,26.05811],[-98.15668,26.05498],[-98.15926,26.05374],[-98.16188,26.05454],[-98.16249,26.0561],[-98.15833,26.06058],[-98.15842,26.0627],[-98.16073,26.06423],[-98.16655,26.06236],[-98.16883,26.06299],[-98.17013,26.06636],[-98.16918,26.06696],[-98.16719,26.07462],[-98.16626,26.07988],[-98.16526,26.0804],[-98.16372,26.0894],[-98.1518,26.08774],[-98.15056,26.09492],[-98.16067,26.09633],[-98.15939,26.1035],[-98.14935,26.10211],[-98.14257,26.14155],[-98.12569,26.24078],[-98.08497,26.2351]]]}},{"type":"Feature","properties":{"zcta":"78538","d":74},"geometry":{"type":"Polygon","coordinates":[[[-98.01666,26.42514],[-98.00719,26.42349],[-98.00554,26.43435],[-98.00218,26.43385],[-98.00114,26.44107],[-97.98992,26.43956],[-97.98895,26.44298],[-97.98496,26.44242],[-97.98435,26.44593],[-97.9083,26.43491],[-97.91058,26.42205],[-97.89437,26.42212],[-97.89443,26.3858],[-97.90693,26.38584],[-97.91034,26.38373],[-97.91065,26.38098],[-97.91303,26.37874],[-97.91871,26.37759],[-97.92072,26.36951],[-97.92306,26.35619],[-97.93086,26.35732],[-97.93395,26.34253],[-97.93539,26.33226],[-97.92676,26.33098],[-97.92874,26.3191],[-97.929,26.30893],[-97.93709,26.30879],[-97.93664,26.28701],[-97.92861,26.28712],[-97.9286,26.28664],[-97.92848,26.27985],[-97.93646,26.27973],[-97.93641,26.27599],[-97.94449,26.27589],[-97.94456,26.27962],[-97.96041,26.27939],[-97.96031,26.26486],[-97.97252,26.26474],[-97.97259,26.26831],[-97.97472,26.26825],[-97.97484,26.2719],[-97.97666,26.27188],[-97.97683,26.27915],[-97.99293,26.27888],[-97.99308,26.28616],[-97.97696,26.28642],[-97.9774,26.3082],[-97.98748,26.30804],[-97.9875,26.30979],[-97.99169,26.31447],[-97.99848,26.31444],[-98.02766,26.31858],[-98.02484,26.33412],[-98.05668,26.33878],[-98.04896,26.38205],[-98.02518,26.37778],[-98.01733,26.42132],[-98.01666,26.42514]]]}},{"type":"Feature","properties":{"zcta":"78599","est":1,"d":0},"geometry":{"type":"Polygon","coordinates":[[[-98.00917,26.28588],[-98.0091,26.28232],[-98.00701,26.28235],[-98.00399,26.27869],[-97.99293,26.27888],[-97.97683,26.27915],[-97.97666,26.27188],[-97.97484,26.2719],[-97.97472,26.26825],[-97.97259,26.26831],[-97.97252,26.26474],[-97.97235,26.25592],[-97.97089,26.25374],[-97.97084,26.25017],[-97.99237,26.24985],[-97.9923,26.24599],[-97.99114,26.2462],[-97.98657,26.24268],[-97.97611,26.24284],[-97.97605,26.23909],[-97.97013,26.23927],[-97.96879,26.23569],[-97.96407,26.23576],[-97.96405,26.22849],[-97.96776,26.22842],[-97.9677,26.22521],[-97.96399,26.22528],[-97.96383,26.21785],[-97.96152,26.21596],[-97.95945,26.21596],[-97.95946,26.21401],[-97.95046,26.21413],[-97.95036,26.20332],[-97.95912,26.20298],[-97.95878,26.18497],[-97.9499,26.18506],[-97.94968,26.15672],[-97.95847,26.16114],[-97.97787,26.17166],[-97.98286,26.17263],[-97.99897,26.17276],[-98.00697,26.17236],[-98.00693,26.16968],[-98.00821,26.16965],[-98.00827,26.17236],[-98.01324,26.17237],[-98.02218,26.17486],[-98.02232,26.19996],[-98.02213,26.20715],[-98.02232,26.23482],[-98.02256,26.23995],[-98.02276,26.26384],[-98.01268,26.26403],[-98.01314,26.28582],[-98.00917,26.28588]]]}},{"type":"Feature","properties":{"zcta":"78542","d":186},"geometry":{"type":"Polygon","coordinates":[[[-98.14595,26.30564],[-98.14739,26.31872],[-98.14742,26.32115],[-98.14533,26.33385],[-98.1459,26.3388],[-98.14822,26.34477],[-98.14843,26.34904],[-98.14547,26.36537],[-98.14564,26.36854],[-98.14441,26.37439],[-98.14274,26.38534],[-98.13957,26.40227],[-98.13928,26.40774],[-98.15158,26.40958],[-98.14996,26.41895],[-98.15001,26.4222],[-98.14746,26.43539],[-98.13496,26.43359],[-98.13312,26.44583],[-98.13424,26.457],[-98.13294,26.46927],[-98.13495,26.47594],[-98.13304,26.48718],[-98.13457,26.49399],[-98.13057,26.51446],[-98.16003,26.51888],[-98.15951,26.52197],[-98.15987,26.54061],[-98.15344,26.57417],[-98.15005,26.5735],[-98.12457,26.55752],[-98.12237,26.55696],[-98.12188,26.56244],[-98.11794,26.56243],[-98.11712,26.56467],[-98.12048,26.56488],[-98.12096,26.56654],[-98.11986,26.57374],[-98.12092,26.57862],[-98.12048,26.58278],[-98.10952,26.64082],[-98.1099,26.6476],[-98.11604,26.6681],[-98.11627,26.67378],[-98.11198,26.69547],[-98.10078,26.69775],[-98.09663,26.69735],[-98.09543,26.69562],[-98.09338,26.68975],[-98.08967,26.68499],[-98.0877,26.68071],[-98.08401,26.67797],[-98.08503,26.67692],[-98.08349,26.67522],[-98.08464,26.66788],[-98.06032,26.66568],[-98.06181,26.65391],[-98.04615,26.65207],[-98.05289,26.63661],[-98.04444,26.63378],[-98.05299,26.61321],[-98.05536,26.60556],[-98.06186,26.59835],[-98.06414,26.59351],[-98.06844,26.57122],[-98.06374,26.5714],[-98.0654,26.56417],[-98.0601,26.56334],[-98.0569,26.57882],[-98.05573,26.5867],[-98.04724,26.59025],[-98.03589,26.58811],[-98.036,26.58623],[-98.02632,26.58482],[-98.02779,26.5785],[-98.0234,26.57785],[-98.02231,26.5702],[-98.01979,26.5713],[-98.01546,26.57104],[-98.0073,26.57314],[-98.0074,26.57206],[-97.99778,26.57065],[-97.9992,26.56324],[-97.99317,26.56263],[-97.99158,26.56188],[-97.99277,26.55515],[-98.01777,26.55865],[-98.01921,26.55014],[-98.02686,26.55118],[-98.02665,26.55368],[-98.02915,26.55343],[-98.0388,26.55477],[-98.04859,26.50002],[-98.05774,26.44928],[-98.03744,26.44633],[-98.03871,26.43916],[-98.0546,26.44147],[-98.05584,26.43427],[-98.03996,26.43199],[-98.0406,26.42848],[-98.02476,26.42617],[-98.02546,26.42251],[-98.01733,26.42132],[-98.02518,26.37778],[-98.04896,26.38205],[-98.05668,26.33878],[-98.02484,26.33412],[-98.02766,26.31858],[-98.03559,26.31971],[-98.03783,26.31408],[-98.03254,26.31411],[-98.03253,26.31258],[-98.03784,26.31255],[-98.03781,26.30688],[-98.03686,26.30739],[-98.02966,26.3072],[-98.02961,26.30014],[-98.03781,26.30008],[-98.03778,26.29637],[-98.03769,26.28899],[-98.03765,26.28428],[-98.03502,26.28244],[-98.03764,26.2825],[-98.03755,26.27104],[-98.05347,26.27095],[-98.05259,26.27635],[-98.05762,26.27715],[-98.05763,26.27428],[-98.07077,26.27422],[-98.07261,26.26358],[-98.08002,26.26387],[-98.08121,26.25672],[-98.07387,26.25633],[-98.07512,26.24904],[-98.08247,26.24937],[-98.08497,26.2351],[-98.12569,26.24078],[-98.15857,26.24534],[-98.15932,26.24094],[-98.16331,26.24482],[-98.16312,26.24597],[-98.17536,26.24763],[-98.17337,26.251],[-98.15275,26.27388],[-98.15115,26.27652],[-98.14957,26.28455],[-98.15288,26.28504],[-98.15161,26.2924],[-98.14829,26.29187],[-98.14702,26.29917],[-98.14595,26.30564]]]}},{"type":"Feature","properties":{"zcta":"78563","d":1},"geometry":{"type":"Polygon","coordinates":[[[-98.11627,26.67378],[-98.11604,26.6681],[-98.1099,26.6476],[-98.10952,26.64082],[-98.12048,26.58278],[-98.12092,26.57862],[-98.11986,26.57374],[-98.12096,26.56654],[-98.12048,26.56488],[-98.11712,26.56467],[-98.11794,26.56243],[-98.12188,26.56244],[-98.12237,26.55696],[-98.12457,26.55752],[-98.15005,26.5735],[-98.15344,26.57417],[-98.17696,26.57795],[-98.18,26.57937],[-98.19345,26.59004],[-98.19686,26.59155],[-98.21896,26.59629],[-98.24827,26.60604],[-98.25288,26.57232],[-98.26313,26.55894],[-98.2656,26.55872],[-98.26664,26.55663],[-98.2714,26.55328],[-98.28629,26.5466],[-98.30545,26.5388],[-98.30972,26.53659],[-98.3237,26.53499],[-98.33047,26.53506],[-98.33654,26.53343],[-98.34127,26.53939],[-98.34113,26.54018],[-98.35619,26.54258],[-98.35624,26.54425],[-98.37263,26.54647],[-98.37239,26.54803],[-98.43331,26.55689],[-98.39676,26.62534],[-98.37247,26.67541],[-98.3677,26.68577],[-98.37151,26.68621],[-98.37352,26.6848],[-98.3909,26.69901],[-98.39077,26.71179],[-98.38762,26.7111],[-98.38394,26.70864],[-98.3856,26.70607],[-98.38389,26.70306],[-98.38118,26.70053],[-98.37761,26.70402],[-98.37412,26.70544],[-98.37011,26.70522],[-98.3646,26.70374],[-98.3616,26.70436],[-98.36015,26.71157],[-98.35471,26.71274],[-98.32067,26.78308],[-98.24527,26.78271],[-98.10393,26.78194],[-98.10336,26.78197],[-98.09985,26.77656],[-98.09875,26.77322],[-98.09868,26.76822],[-98.11198,26.69547],[-98.11627,26.67378]]]}},{"type":"Feature","properties":{"zcta":"78570","d":181},"geometry":{"type":"Polygon","coordinates":[[[-97.96031,26.26486],[-97.96041,26.27939],[-97.94456,26.27962],[-97.94449,26.27589],[-97.93641,26.27599],[-97.93646,26.27973],[-97.92848,26.27985],[-97.9286,26.28664],[-97.92074,26.28676],[-97.92059,26.27998],[-97.90527,26.28019],[-97.90414,26.27409],[-97.90482,26.26932],[-97.90345,26.26549],[-97.89728,26.25667],[-97.89689,26.24376],[-97.8919,26.22953],[-97.86191,26.23005],[-97.86193,26.1864],[-97.8621,26.17184],[-97.86168,26.15174],[-97.86187,26.14645],[-97.86187,26.08438],[-97.86176,26.06975],[-97.86332,26.06918],[-97.86861,26.05716],[-97.87074,26.0576],[-97.87381,26.06214],[-97.87693,26.06458],[-97.88741,26.06675],[-97.88839,26.06243],[-97.89132,26.0605],[-97.89365,26.06017],[-97.8999,26.06122],[-97.9054,26.0595],[-97.90986,26.05686],[-97.91388,26.05654],[-97.91799,26.0579],[-97.92139,26.05777],[-97.92523,26.05569],[-97.92798,26.05591],[-97.93014,26.06111],[-97.93215,26.06448],[-97.93624,26.06376],[-97.93697,26.06193],[-97.9355,26.0593],[-97.9318,26.05594],[-97.93238,26.05432],[-97.93542,26.05269],[-97.93878,26.05432],[-97.94434,26.05962],[-97.947,26.06064],[-97.94662,26.0636],[-97.94379,26.06321],[-97.94324,26.06519],[-97.93964,26.06473],[-97.9383,26.06702],[-97.93211,26.06844],[-97.93231,26.07666],[-97.92647,26.08196],[-97.92467,26.08278],[-97.92463,26.09106],[-97.92505,26.11133],[-97.93861,26.11108],[-97.93886,26.11682],[-97.95345,26.11584],[-97.95929,26.11384],[-97.96099,26.11983],[-97.9561,26.12017],[-97.95019,26.12367],[-97.94592,26.12735],[-97.94639,26.13295],[-97.94951,26.13294],[-97.94955,26.13646],[-97.9463,26.13777],[-97.94953,26.1391],[-97.94963,26.14155],[-97.95644,26.14141],[-97.95649,26.14294],[-97.95414,26.14289],[-97.95408,26.14686],[-97.95014,26.14271],[-97.94962,26.14743],[-97.94968,26.15672],[-97.9499,26.18506],[-97.95878,26.18497],[-97.95912,26.20298],[-97.95036,26.20332],[-97.95046,26.21413],[-97.95946,26.21401],[-97.95945,26.21596],[-97.96152,26.21596],[-97.96383,26.21785],[-97.96399,26.22528],[-97.9677,26.22521],[-97.96776,26.22842],[-97.96405,26.22849],[-97.96407,26.23576],[-97.96879,26.23569],[-97.97013,26.23927],[-97.97605,26.23909],[-97.97611,26.24284],[-97.98657,26.24268],[-97.99114,26.2462],[-97.9923,26.24599],[-97.99237,26.24985],[-97.97084,26.25017],[-97.97089,26.25374],[-97.97235,26.25592],[-97.97252,26.26474],[-97.96031,26.26486]]]}},{"type":"Feature","properties":{"zcta":"78560","d":158},"geometry":{"type":"Polygon","coordinates":[[[-98.53363,26.25038],[-98.53067,26.26726],[-98.52528,26.26363],[-98.52112,26.26189],[-98.51674,26.28643],[-98.51368,26.286],[-98.47986,26.28133],[-98.48074,26.27628],[-98.46643,26.27418],[-98.45969,26.27112],[-98.45062,26.27196],[-98.4472,26.26855],[-98.44994,26.25254],[-98.45872,26.25361],[-98.46099,26.24389],[-98.46015,26.24253],[-98.46149,26.24126],[-98.46158,26.23899],[-98.46368,26.23641],[-98.46575,26.23588],[-98.4661,26.23435],[-98.46949,26.23245],[-98.47841,26.2317],[-98.48257,26.23265],[-98.50605,26.24286],[-98.50869,26.22549],[-98.51162,26.227],[-98.51485,26.22722],[-98.51906,26.22494],[-98.52192,26.22157],[-98.52341,26.22089],[-98.52637,26.22468],[-98.52596,26.22866],[-98.52179,26.23253],[-98.52181,26.23564],[-98.52446,26.23557],[-98.5269,26.23284],[-98.5295,26.22773],[-98.53408,26.2256],[-98.53558,26.226],[-98.5374,26.22888],[-98.53363,26.25038]]]}},{"type":"Feature","properties":{"zcta":"78565","d":0},"geometry":{"type":"Polygon","coordinates":[[[-98.57856,26.26283],[-98.57814,26.26338],[-98.57332,26.26263],[-98.57582,26.24864],[-98.57037,26.24785],[-98.5643,26.24821],[-98.56402,26.24945],[-98.55977,26.24882],[-98.55842,26.25572],[-98.55285,26.25498],[-98.54659,26.25158],[-98.538,26.25129],[-98.53363,26.25038],[-98.5374,26.22888],[-98.53802,26.23133],[-98.54355,26.24244],[-98.54533,26.24454],[-98.55541,26.24749],[-98.55735,26.24748],[-98.55882,26.24593],[-98.5582,26.24398],[-98.55233,26.24119],[-98.54757,26.24137],[-98.54602,26.2392],[-98.546,26.23689],[-98.54734,26.23465],[-98.55408,26.23285],[-98.55759,26.23104],[-98.55918,26.22627],[-98.5617,26.22481],[-98.56495,26.22691],[-98.56426,26.23285],[-98.56498,26.23862],[-98.56764,26.24157],[-98.57101,26.24047],[-98.57411,26.23859],[-98.57664,26.23383],[-98.57997,26.235],[-98.5811,26.23788],[-98.58512,26.24372],[-98.58467,26.24545],[-98.57996,26.24943],[-98.58011,26.25365],[-98.58292,26.25647],[-98.5867,26.25757],[-98.5827,26.26538],[-98.57856,26.26283]]]}},{"type":"Feature","properties":{"zcta":"78596","d":272},"geometry":{"type":"Polygon","coordinates":[[[-98.0744,26.06511],[-98.0709,26.05819],[-98.06806,26.05515],[-98.06728,26.05959],[-98.06565,26.06062],[-98.0625,26.06056],[-98.06196,26.07152],[-98.06466,26.07234],[-98.06448,26.07339],[-98.06022,26.07253],[-98.05948,26.07652],[-98.05792,26.0763],[-98.05849,26.07329],[-98.05544,26.07418],[-98.05607,26.07605],[-98.05458,26.08321],[-98.05074,26.08313],[-98.05044,26.08584],[-98.05771,26.08735],[-98.05651,26.095],[-98.0379,26.09187],[-98.03642,26.0924],[-98.03162,26.09791],[-98.02769,26.10141],[-98.02672,26.10327],[-98.02171,26.1083],[-98.02167,26.11644],[-98.02528,26.12315],[-98.02543,26.12824],[-98.03052,26.12671],[-98.03488,26.1271],[-98.03408,26.13174],[-98.02182,26.13005],[-98.02218,26.17486],[-98.01324,26.17237],[-98.00827,26.17236],[-98.00821,26.16965],[-98.00693,26.16968],[-98.00697,26.17236],[-97.99897,26.17276],[-97.98286,26.17263],[-97.97787,26.17166],[-97.95847,26.16114],[-97.94968,26.15672],[-97.94962,26.14743],[-97.95014,26.14271],[-97.95408,26.14686],[-97.95414,26.14289],[-97.95649,26.14294],[-97.95644,26.14141],[-97.94963,26.14155],[-97.94953,26.1391],[-97.9463,26.13777],[-97.94955,26.13646],[-97.94951,26.13294],[-97.94639,26.13295],[-97.94592,26.12735],[-97.95019,26.12367],[-97.9561,26.12017],[-97.96099,26.11983],[-97.95929,26.11384],[-97.95345,26.11584],[-97.93886,26.11682],[-97.93861,26.11108],[-97.93838,26.10198],[-97.95868,26.10157],[-97.95856,26.09428],[-97.97469,26.09393],[-97.97452,26.08872],[-97.98047,26.08856],[-97.98186,26.08994],[-97.98217,26.10267],[-97.9859,26.10151],[-97.98563,26.08924],[-97.99282,26.08809],[-97.99274,26.08511],[-97.98811,26.08493],[-97.97943,26.08654],[-97.9584,26.087],[-97.95815,26.07769],[-97.94607,26.07442],[-97.94662,26.0636],[-97.947,26.06064],[-97.95009,26.06183],[-97.95455,26.06118],[-97.957,26.05996],[-97.95899,26.05727],[-97.96434,26.05312],[-97.96736,26.05172],[-97.97182,26.05483],[-97.97504,26.05816],[-97.97877,26.05971],[-97.97997,26.06389],[-97.97987,26.066],[-97.98133,26.06718],[-97.98689,26.06583],[-97.98812,26.06464],[-97.98946,26.0604],[-97.99149,26.05859],[-97.99355,26.0592],[-97.99649,26.0633],[-97.99869,26.06472],[-98.00126,26.06499],[-98.00592,26.06329],[-98.01183,26.05602],[-98.01303,26.0564],[-98.01101,26.06092],[-98.01193,26.06586],[-98.01423,26.06602],[-98.01667,26.06066],[-98.02038,26.05876],[-98.02227,26.05979],[-98.02487,26.06494],[-98.02635,26.06654],[-98.02876,26.06647],[-98.0321,26.06324],[-98.03411,26.05756],[-98.0344,26.05138],[-98.03924,26.04128],[-98.04703,26.04438],[-98.05355,26.04456],[-98.06187,26.04646],[-98.06489,26.04479],[-98.07014,26.03797],[-98.07324,26.03648],[-98.07662,26.03642],[-98.08,26.04196],[-98.07366,26.04314],[-98.07086,26.04595],[-98.07002,26.04799],[-98.07002,26.05147],[-98.07126,26.05543],[-98.07507,26.05987],[-98.07634,26.0669],[-98.0744,26.06511]]]}},{"type":"Feature","properties":{"zcta":"78572","d":413},"geometry":{"type":"MultiPolygon","coordinates":[[[[-98.31532,26.23267],[-98.31488,26.23186],[-98.32276,26.23295],[-98.32264,26.23365],[-98.31532,26.23267]]],[[[-98.4263,26.27358],[-98.39317,26.26886],[-98.39819,26.24018],[-98.36192,26.23507],[-98.36159,26.23686],[-98.35762,26.23628],[-98.35794,26.2345],[-98.34982,26.23329],[-98.29156,26.22526],[-98.29102,26.22845],[-98.28205,26.22763],[-98.27501,26.22665],[-98.28029,26.19561],[-98.28719,26.15509],[-98.29517,26.15603],[-98.29802,26.13914],[-98.29568,26.13881],[-98.29798,26.13494],[-98.29798,26.13311],[-98.29825,26.13145],[-98.30556,26.13232],[-98.30831,26.13373],[-98.315,26.1291],[-98.31578,26.12471],[-98.31477,26.12158],[-98.31012,26.12016],[-98.30977,26.11829],[-98.31104,26.11516],[-98.31627,26.1162],[-98.32027,26.11786],[-98.32383,26.12125],[-98.3352,26.13762],[-98.3354,26.13983],[-98.3342,26.14131],[-98.32741,26.14213],[-98.32808,26.14466],[-98.33476,26.14596],[-98.3369,26.14751],[-98.33842,26.15134],[-98.33765,26.15383],[-98.33332,26.1588],[-98.33316,26.16234],[-98.33472,26.16556],[-98.33684,26.16643],[-98.34257,26.16716],[-98.34578,26.16602],[-98.34726,26.16446],[-98.34852,26.16085],[-98.34925,26.15259],[-98.35234,26.15112],[-98.35391,26.1521],[-98.3567,26.15631],[-98.35845,26.16102],[-98.35748,26.16765],[-98.35807,26.17011],[-98.35984,26.17229],[-98.36216,26.17224],[-98.3666,26.16878],[-98.36709,26.16685],[-98.36503,26.16332],[-98.36503,26.15916],[-98.36907,26.15709],[-98.37288,26.15744],[-98.38392,26.1566],[-98.38721,26.15832],[-98.39204,26.16658],[-98.39428,26.16859],[-98.39865,26.1709],[-98.40154,26.17165],[-98.40274,26.17326],[-98.40225,26.17952],[-98.40443,26.18256],[-98.41812,26.18465],[-98.42428,26.19088],[-98.42949,26.1941],[-98.44254,26.19915],[-98.44438,26.20141],[-98.44356,26.20573],[-98.4392,26.21092],[-98.43882,26.21422],[-98.44025,26.21944],[-98.44341,26.22365],[-98.44666,26.22439],[-98.44853,26.22362],[-98.44761,26.22791],[-98.4471,26.22676],[-98.44019,26.22492],[-98.43902,26.22612],[-98.43323,26.226],[-98.43279,26.23345],[-98.43175,26.23976],[-98.43325,26.24219],[-98.425,26.24107],[-98.41968,26.2399],[-98.4176,26.25166],[-98.42817,26.25316],[-98.42496,26.27228],[-98.42836,26.27305],[-98.42807,26.27471],[-98.4263,26.27358]],[[-98.27989,26.22464],[-98.28036,26.22706],[-98.28251,26.22721],[-98.28286,26.22504],[-98.27989,26.22464]]]]}},{"type":"Feature","properties":{"zcta":"78573","d":517},"geometry":{"type":"Polygon","coordinates":[[[-98.30269,26.35172],[-98.3015,26.35838],[-98.25941,26.35207],[-98.26192,26.33794],[-98.2636,26.32838],[-98.25797,26.32734],[-98.26,26.31535],[-98.26049,26.31239],[-98.26445,26.31292],[-98.26497,26.30978],[-98.26102,26.30924],[-98.27195,26.24468],[-98.27319,26.23743],[-98.29709,26.24074],[-98.29667,26.24324],[-98.30462,26.2443],[-98.30506,26.24181],[-98.35145,26.24821],[-98.34388,26.29126],[-98.33753,26.29035],[-98.33728,26.2918],[-98.33931,26.29208],[-98.33892,26.29421],[-98.34328,26.29481],[-98.33882,26.31993],[-98.33471,26.31936],[-98.33387,26.32379],[-98.33494,26.32394],[-98.33377,26.33054],[-98.33277,26.33046],[-98.3304,26.34448],[-98.3344,26.34507],[-98.33359,26.34969],[-98.33044,26.34922],[-98.3303,26.35076],[-98.33234,26.35115],[-98.33147,26.35342],[-98.32686,26.35293],[-98.32653,26.35496],[-98.30269,26.35172]]]}},{"type":"Feature","properties":{"zcta":"78574","d":421},"geometry":{"type":"MultiPolygon","coordinates":[[[[-98.28251,26.22721],[-98.28036,26.22706],[-98.27989,26.22464],[-98.28286,26.22504],[-98.28251,26.22721]]],[[[-98.40659,26.37539],[-98.40248,26.39815],[-98.40254,26.39984],[-98.39956,26.41683],[-98.39428,26.41604],[-98.4018,26.37302],[-98.38429,26.37052],[-98.38178,26.38487],[-98.37302,26.38364],[-98.37228,26.3879],[-98.36738,26.38714],[-98.36656,26.39168],[-98.35002,26.38951],[-98.35058,26.38485],[-98.34769,26.38431],[-98.34931,26.38067],[-98.34994,26.37691],[-98.34562,26.3763],[-98.34534,26.37792],[-98.34108,26.3773],[-98.34194,26.3712],[-98.3381,26.37065],[-98.33924,26.36411],[-98.32529,26.362],[-98.32653,26.35496],[-98.32686,26.35293],[-98.33147,26.35342],[-98.33234,26.35115],[-98.3303,26.35076],[-98.33044,26.34922],[-98.33359,26.34969],[-98.3344,26.34507],[-98.3304,26.34448],[-98.33277,26.33046],[-98.33377,26.33054],[-98.33494,26.32394],[-98.33387,26.32379],[-98.33471,26.31936],[-98.33882,26.31993],[-98.34328,26.29481],[-98.33892,26.29421],[-98.33931,26.29208],[-98.33728,26.2918],[-98.33753,26.29035],[-98.34388,26.29126],[-98.35145,26.24821],[-98.30506,26.24181],[-98.30462,26.2443],[-98.29667,26.24324],[-98.29709,26.24074],[-98.27319,26.23743],[-98.27501,26.22665],[-98.28205,26.22763],[-98.29102,26.22845],[-98.29156,26.22526],[-98.34982,26.23329],[-98.35794,26.2345],[-98.35762,26.23628],[-98.36159,26.23686],[-98.36192,26.23507],[-98.39819,26.24018],[-98.39317,26.26886],[-98.4263,26.27358],[-98.42807,26.27471],[-98.42603,26.28643],[-98.422,26.28724],[-98.41656,26.31645],[-98.41434,26.31639],[-98.4119,26.33034],[-98.43043,26.33297],[-98.43017,26.33786],[-98.42272,26.37766],[-98.40659,26.37539]],[[-98.32276,26.23295],[-98.31488,26.23186],[-98.31532,26.23267],[-98.32264,26.23365],[-98.32276,26.23295]]]]}},{"type":"Feature","properties":{"zcta":"78576","d":134},"geometry":{"type":"Polygon","coordinates":[[[-98.49731,26.43471],[-98.49751,26.43293],[-98.47773,26.42999],[-98.47705,26.42748],[-98.47762,26.42431],[-98.46489,26.42218],[-98.46511,26.41841],[-98.45597,26.41714],[-98.46189,26.38365],[-98.45758,26.3826],[-98.42272,26.37766],[-98.43017,26.33786],[-98.43043,26.33297],[-98.4119,26.33034],[-98.41434,26.31639],[-98.41656,26.31645],[-98.422,26.28724],[-98.42603,26.28643],[-98.42807,26.27471],[-98.42836,26.27305],[-98.42496,26.27228],[-98.42817,26.25316],[-98.4176,26.25166],[-98.41968,26.2399],[-98.425,26.24107],[-98.43325,26.24219],[-98.43175,26.23976],[-98.43279,26.23345],[-98.43323,26.226],[-98.43902,26.22612],[-98.44019,26.22492],[-98.4471,26.22676],[-98.44761,26.22791],[-98.44853,26.22362],[-98.45296,26.21998],[-98.45434,26.21709],[-98.45637,26.21843],[-98.45672,26.22288],[-98.4584,26.22532],[-98.46271,26.2258],[-98.47036,26.2207],[-98.47779,26.22019],[-98.48158,26.21938],[-98.48327,26.21644],[-98.48292,26.21387],[-98.47905,26.20937],[-98.47816,26.20651],[-98.47842,26.20226],[-98.48036,26.20131],[-98.48274,26.20164],[-98.48175,26.20597],[-98.48202,26.20859],[-98.48375,26.21163],[-98.48699,26.21292],[-98.49014,26.21318],[-98.49513,26.21213],[-98.50033,26.20975],[-98.50407,26.2088],[-98.50733,26.21017],[-98.5071,26.21168],[-98.50092,26.22221],[-98.50155,26.22308],[-98.50634,26.22414],[-98.50869,26.22549],[-98.50605,26.24286],[-98.48257,26.23265],[-98.47841,26.2317],[-98.46949,26.23245],[-98.4661,26.23435],[-98.46575,26.23588],[-98.46368,26.23641],[-98.46158,26.23899],[-98.46149,26.24126],[-98.46015,26.24253],[-98.46099,26.24389],[-98.45872,26.25361],[-98.44994,26.25254],[-98.4472,26.26855],[-98.45062,26.27196],[-98.45969,26.27112],[-98.46643,26.27418],[-98.48074,26.27628],[-98.47986,26.28133],[-98.51368,26.286],[-98.50608,26.32883],[-98.51339,26.32986],[-98.5142,26.33093],[-98.5192,26.33269],[-98.51742,26.34473],[-98.51463,26.34484],[-98.5035,26.34327],[-98.49987,26.36389],[-98.50109,26.36613],[-98.50434,26.3685],[-98.50508,26.37543],[-98.50446,26.37895],[-98.51121,26.37993],[-98.511,26.3816],[-98.51307,26.37969],[-98.5236,26.38234],[-98.49731,26.43471]]]}},{"type":"Feature","properties":{"zcta":"78577","d":1000},"geometry":{"type":"Polygon","coordinates":[[[-98.2067,26.18345],[-98.2044,26.19657],[-98.19782,26.23599],[-98.1954,26.25041],[-98.17536,26.24763],[-98.16312,26.24597],[-98.16331,26.24482],[-98.15932,26.24094],[-98.17238,26.1643],[-98.18551,26.08702],[-98.19697,26.08541],[-98.20061,26.08576],[-98.2034,26.07032],[-98.20216,26.06877],[-98.20352,26.06392],[-98.20496,26.06642],[-98.2061,26.06757],[-98.20277,26.08605],[-98.21835,26.08823],[-98.22248,26.08988],[-98.21342,26.14357],[-98.2067,26.18345]]]}},{"type":"Feature","properties":{"zcta":"78589","d":842},"geometry":{"type":"Polygon","coordinates":[[[-98.15857,26.24534],[-98.12569,26.24078],[-98.14257,26.14155],[-98.14935,26.10211],[-98.15939,26.1035],[-98.16067,26.09633],[-98.15056,26.09492],[-98.1518,26.08774],[-98.16372,26.0894],[-98.16526,26.0804],[-98.16626,26.07988],[-98.16719,26.07462],[-98.16918,26.06696],[-98.17013,26.06636],[-98.1716,26.07018],[-98.1763,26.07508],[-98.17938,26.07378],[-98.1802,26.07169],[-98.17983,26.06496],[-98.17654,26.06162],[-98.17941,26.06001],[-98.18432,26.06392],[-98.18649,26.06429],[-98.18906,26.06326],[-98.19001,26.05809],[-98.1923,26.05345],[-98.19657,26.05414],[-98.19945,26.05686],[-98.20352,26.06392],[-98.20216,26.06877],[-98.2034,26.07032],[-98.20061,26.08576],[-98.19697,26.08541],[-98.18551,26.08702],[-98.17238,26.1643],[-98.15932,26.24094],[-98.15857,26.24534]]]}},{"type":"Feature","properties":{"zcta":"78595","d":176},"geometry":{"type":"Polygon","coordinates":[[[-98.56826,26.29357],[-98.57964,26.2951],[-98.57154,26.33899],[-98.57083,26.34211],[-98.55852,26.34014],[-98.55625,26.34025],[-98.54982,26.34508],[-98.54679,26.36138],[-98.54305,26.36081],[-98.5454,26.36886],[-98.54339,26.37874],[-98.54154,26.37858],[-98.54031,26.385],[-98.53262,26.38384],[-98.5311,26.39202],[-98.52145,26.39407],[-98.5236,26.38234],[-98.51307,26.37969],[-98.511,26.3816],[-98.51121,26.37993],[-98.50446,26.37895],[-98.50508,26.37543],[-98.50434,26.3685],[-98.50109,26.36613],[-98.49987,26.36389],[-98.5035,26.34327],[-98.51463,26.34484],[-98.51742,26.34473],[-98.5192,26.33269],[-98.5142,26.33093],[-98.51339,26.32986],[-98.50608,26.32883],[-98.51368,26.286],[-98.51674,26.28643],[-98.52112,26.26189],[-98.52528,26.26363],[-98.53067,26.26726],[-98.53363,26.25038],[-98.538,26.25129],[-98.54659,26.25158],[-98.55285,26.25498],[-98.55842,26.25572],[-98.55977,26.24882],[-98.56402,26.24945],[-98.5643,26.24821],[-98.57037,26.24785],[-98.57582,26.24864],[-98.57332,26.26263],[-98.57814,26.26338],[-98.57856,26.26283],[-98.5827,26.26538],[-98.56826,26.29357]]]}},{"type":"Feature","properties":{"zcta":"78501","d":1559},"geometry":{"type":"Polygon","coordinates":[[[-98.27319,26.23743],[-98.27195,26.24468],[-98.25284,26.24191],[-98.24332,26.24071],[-98.23618,26.24073],[-98.23537,26.23853],[-98.23388,26.23831],[-98.23348,26.24061],[-98.22849,26.23904],[-98.2288,26.2373],[-98.22688,26.23704],[-98.22643,26.23968],[-98.21508,26.23824],[-98.21109,26.2369],[-98.21064,26.23778],[-98.19782,26.23599],[-98.2044,26.19657],[-98.20996,26.19128],[-98.21476,26.18815],[-98.21935,26.18761],[-98.2404,26.19059],[-98.24424,26.19191],[-98.27166,26.19574],[-98.27576,26.1961],[-98.28029,26.19561],[-98.27501,26.22665],[-98.27319,26.23743]]]}},{"type":"Feature","properties":{"zcta":"78503","d":556},"geometry":{"type":"Polygon","coordinates":[[[-98.27576,26.1961],[-98.27166,26.19574],[-98.24424,26.19191],[-98.2404,26.19059],[-98.21935,26.18761],[-98.21476,26.18815],[-98.20996,26.19128],[-98.2044,26.19657],[-98.2067,26.18345],[-98.21342,26.14357],[-98.22298,26.14421],[-98.23076,26.14269],[-98.23343,26.12848],[-98.24764,26.13057],[-98.25658,26.13218],[-98.25746,26.12824],[-98.26788,26.13023],[-98.2825,26.13218],[-98.28122,26.13966],[-98.28974,26.13636],[-98.29397,26.13586],[-98.29798,26.13311],[-98.29798,26.13494],[-98.29568,26.13881],[-98.29802,26.13914],[-98.29517,26.15603],[-98.28719,26.15509],[-98.28029,26.19561],[-98.27576,26.1961]]]}},{"type":"Feature","properties":{"zcta":"78549","d":0},"geometry":{"type":"Polygon","coordinates":[[[-98.02068,26.54195],[-97.98926,26.53743],[-97.98972,26.53604],[-97.99349,26.53647],[-97.99455,26.5304],[-98.00599,26.53271],[-98.01284,26.53315],[-98.01454,26.52364],[-98.00755,26.52263],[-98.0079,26.52412],[-98.00337,26.52342],[-98.00207,26.52212],[-97.98731,26.51998],[-97.99228,26.49131],[-97.99651,26.49191],[-98.00419,26.44878],[-97.98435,26.44593],[-97.98496,26.44242],[-97.98895,26.44298],[-97.98992,26.43956],[-98.00114,26.44107],[-98.00218,26.43385],[-98.00554,26.43435],[-98.00719,26.42349],[-98.01666,26.42514],[-98.01733,26.42132],[-98.02546,26.42251],[-98.02476,26.42617],[-98.0406,26.42848],[-98.03996,26.43199],[-98.05584,26.43427],[-98.0546,26.44147],[-98.03871,26.43916],[-98.03744,26.44633],[-98.05774,26.44928],[-98.04859,26.50002],[-98.0388,26.55477],[-98.02915,26.55343],[-98.02665,26.55368],[-98.02686,26.55118],[-98.01921,26.55014],[-98.02068,26.54195]]]}},{"type":"Feature","properties":{"zcta":"78557","d":625},"geometry":{"type":"Polygon","coordinates":[[[-98.29397,26.13586],[-98.28974,26.13636],[-98.28122,26.13966],[-98.2825,26.13218],[-98.26788,26.13023],[-98.25746,26.12824],[-98.25658,26.13218],[-98.24764,26.13057],[-98.23343,26.12848],[-98.23076,26.14269],[-98.22298,26.14421],[-98.21342,26.14357],[-98.22248,26.08988],[-98.21835,26.08823],[-98.20277,26.08605],[-98.2061,26.06757],[-98.20496,26.06642],[-98.20737,26.06788],[-98.21139,26.06851],[-98.21358,26.06975],[-98.21683,26.07444],[-98.22067,26.07647],[-98.2301,26.07716],[-98.24368,26.07375],[-98.2463,26.07229],[-98.24874,26.07204],[-98.25096,26.07409],[-98.25193,26.07922],[-98.26317,26.08449],[-98.26539,26.08701],[-98.26608,26.08991],[-98.26842,26.09317],[-98.27722,26.0988],[-98.28429,26.10109],[-98.28648,26.10229],[-98.28853,26.10531],[-98.28692,26.10673],[-98.28119,26.10773],[-98.2726,26.10624],[-98.27003,26.10709],[-98.2718,26.11138],[-98.27118,26.11421],[-98.26914,26.11597],[-98.26639,26.1167],[-98.26537,26.11869],[-98.26626,26.12072],[-98.26854,26.12061],[-98.27232,26.11674],[-98.27465,26.11594],[-98.28778,26.11968],[-98.2921,26.12065],[-98.29619,26.12032],[-98.299,26.11842],[-98.3028,26.10995],[-98.30234,26.10768],[-98.30036,26.1056],[-98.29818,26.10501],[-98.29882,26.10259],[-98.3028,26.10235],[-98.30651,26.10429],[-98.30964,26.11337],[-98.31104,26.11516],[-98.30977,26.11829],[-98.31012,26.12016],[-98.31477,26.12158],[-98.31578,26.12471],[-98.315,26.1291],[-98.30831,26.13373],[-98.30556,26.13232],[-98.29825,26.13145],[-98.29798,26.13311],[-98.29397,26.13586]]]}},{"type":"Feature","properties":{"zcta":"78537","d":327},"geometry":{"type":"Polygon","coordinates":[[[-98.08247,26.24937],[-98.07512,26.24904],[-98.07387,26.25633],[-98.08121,26.25672],[-98.08002,26.26387],[-98.07261,26.26358],[-98.07077,26.27422],[-98.05763,26.27428],[-98.05762,26.27715],[-98.05259,26.27635],[-98.05347,26.27095],[-98.03755,26.27104],[-98.03764,26.2825],[-98.03502,26.28244],[-98.03765,26.28428],[-98.03769,26.28899],[-98.03675,26.28923],[-98.02294,26.28927],[-98.02301,26.29294],[-98.01337,26.29307],[-98.01314,26.28582],[-98.01268,26.26403],[-98.02276,26.26384],[-98.02256,26.23995],[-98.02232,26.23482],[-98.02213,26.20715],[-98.02232,26.19996],[-98.02218,26.17486],[-98.02182,26.13005],[-98.03408,26.13174],[-98.03488,26.1271],[-98.03052,26.12671],[-98.02543,26.12824],[-98.02528,26.12315],[-98.02167,26.11644],[-98.02171,26.1083],[-98.02672,26.10327],[-98.02769,26.10141],[-98.03162,26.09791],[-98.03642,26.0924],[-98.0379,26.09187],[-98.05651,26.095],[-98.05771,26.08735],[-98.05044,26.08584],[-98.05074,26.08313],[-98.05458,26.08321],[-98.05607,26.07605],[-98.05544,26.07418],[-98.05849,26.07329],[-98.05792,26.0763],[-98.05948,26.07652],[-98.06022,26.07253],[-98.06448,26.07339],[-98.06466,26.07234],[-98.06196,26.07152],[-98.0625,26.06056],[-98.06565,26.06062],[-98.06728,26.05959],[-98.06806,26.05515],[-98.0709,26.05819],[-98.0744,26.06511],[-98.07634,26.0669],[-98.07654,26.06804],[-98.08049,26.07093],[-98.08475,26.07081],[-98.08585,26.06921],[-98.08157,26.06611],[-98.08188,26.06372],[-98.09104,26.05917],[-98.09443,26.05863],[-98.09764,26.06027],[-98.1022,26.06543],[-98.1055,26.06754],[-98.11428,26.06563],[-98.11311,26.07409],[-98.11166,26.08206],[-98.10432,26.08108],[-98.09084,26.0807],[-98.08982,26.09126],[-98.08688,26.1084],[-98.08769,26.10968],[-98.08848,26.1145],[-98.09287,26.12035],[-98.09082,26.12007],[-98.0955,26.12409],[-98.09745,26.12896],[-98.1034,26.13237],[-98.10158,26.13821],[-98.09979,26.14899],[-98.09664,26.15016],[-98.09522,26.14879],[-98.0917,26.14799],[-98.09392,26.15107],[-98.09226,26.15169],[-98.09508,26.15464],[-98.09107,26.17787],[-98.09034,26.18323],[-98.08653,26.18271],[-98.08581,26.18485],[-98.08589,26.19031],[-98.08514,26.19476],[-98.0881,26.19502],[-98.08748,26.19872],[-98.08452,26.19831],[-98.08417,26.2003],[-98.08667,26.2007],[-98.08387,26.202],[-98.08666,26.20248],[-98.0855,26.20942],[-98.08926,26.2104],[-98.08497,26.2351],[-98.08247,26.24937]]]}},{"type":"Feature","properties":{"zcta":"78504","d":1421},"geometry":{"type":"MultiPolygon","coordinates":[[[[-98.25941,26.35207],[-98.24373,26.34988],[-98.24618,26.33556],[-98.26192,26.33794],[-98.25941,26.35207]]],[[[-98.24761,26.31358],[-98.24624,26.32131],[-98.2334,26.31947],[-98.23472,26.31176],[-98.21212,26.30854],[-98.2159,26.28632],[-98.20711,26.28512],[-98.20846,26.27723],[-98.20414,26.27715],[-98.20595,26.26657],[-98.20585,26.26433],[-98.20795,26.25215],[-98.1954,26.25041],[-98.19782,26.23599],[-98.21064,26.23778],[-98.21109,26.2369],[-98.21508,26.23824],[-98.22643,26.23968],[-98.22688,26.23704],[-98.2288,26.2373],[-98.22849,26.23904],[-98.23348,26.24061],[-98.23388,26.23831],[-98.23537,26.23853],[-98.23618,26.24073],[-98.24332,26.24071],[-98.25284,26.24191],[-98.27195,26.24468],[-98.26102,26.30924],[-98.26497,26.30978],[-98.26445,26.31292],[-98.26049,26.31239],[-98.26,26.31535],[-98.24761,26.31358]]]]}},{"type":"Feature","properties":{"zcta":"78539","d":1178},"geometry":{"type":"Polygon","coordinates":[[[-98.14702,26.29917],[-98.14829,26.29187],[-98.15161,26.2924],[-98.15288,26.28504],[-98.14957,26.28455],[-98.15115,26.27652],[-98.15275,26.27388],[-98.17337,26.251],[-98.17536,26.24763],[-98.1954,26.25041],[-98.20795,26.25215],[-98.20585,26.26433],[-98.20595,26.26657],[-98.20414,26.27715],[-98.20846,26.27723],[-98.20711,26.28512],[-98.2159,26.28632],[-98.21212,26.30854],[-98.14702,26.29917]]]}}]}