{"type":"FeatureCollection","features":[{"type":"Feature","properties":{"id":"39109","name":"Miami Co."},"geometry":{"type":"Polygon","coordinates":[[[-84.1572,39.886],[-84.1576,39.8881],[-84.1635,39.8949],[-84.166,39.9049],[-84.1671,39.9122],[-84.1577,39.923],[-84.2321,39.9223],[-84.2861,39.9216],[-84.3172,39.9213],[-84.4259,39.9196],[-84.4266,39.9465],[-84.4263,39.9489],[-84.4266,39.9707],[-84.4273,39.9778],[-84.4277,40.0055],[-84.4287,40.0219],[-84.4288,40.0508],[-84.4296,40.0754],[-84.4299,40.0944],[-84.4323,40.1808],[-84.4363,40.1808],[-84.4327,40.1889],[-84.4326,40.197],[-84.3945,40.1976],[-84.3838,40.1973],[-84.2858,40.1984],[-84.2484,40.1991],[-84.2379,40.1997],[-84.2187,40.2],[-84.2191,40.1955],[-84.1932,40.1941],[-84.1365,40.1905],[-84.0229,40.1839],[-84.0272,40.1402],[-84.0319,40.0861],[-84.0444,39.9483],[-84.0485,39.9082],[-84.051,39.8798],[-84.1572,39.886]]]}},{"type":"Feature","properties":{"id":"39057","name":"Greene Co."},"geometry":{"type":"Polygon","coordinates":[[[-84.0373,39.8495],[-83.9939,39.8468],[-83.9532,39.8444],[-83.9398,39.8434],[-83.9413,39.8288],[-83.865,39.8249],[-83.8274,39.8226],[-83.8294,39.7978],[-83.7665,39.7917],[-83.7395,39.789],[-83.7409,39.7815],[-83.7201,39.7799],[-83.6759,39.7772],[-83.6477,39.7752],[-83.6489,39.7611],[-83.6522,39.7287],[-83.6522,39.7252],[-83.6538,39.7117],[-83.658,39.6703],[-83.6617,39.6383],[-83.6653,39.5988],[-83.6702,39.5503],[-83.7355,39.5543],[-83.7658,39.5559],[-83.7784,39.557],[-83.8321,39.5604],[-83.8587,39.5617],[-83.9225,39.5662],[-83.967,39.5685],[-83.977,39.5694],[-84.0676,39.5753],[-84.1142,39.5782],[-84.1137,39.5845],[-84.1096,39.626],[-84.1119,39.6264],[-84.1113,39.638],[-84.1087,39.6678],[-84.1077,39.675],[-84.1055,39.7064],[-84.1034,39.7282],[-84.0978,39.7802],[-84.0969,39.7958],[-84.0929,39.8383],[-84.0551,39.8362],[-84.0537,39.8507],[-84.0373,39.8495]]]}},{"type":"Feature","properties":{"id":"39113","name":"Montgomery Co."},"geometry":{"type":"Polygon","coordinates":[[[-84.3172,39.9213],[-84.2861,39.9216],[-84.2321,39.9223],[-84.1577,39.923],[-84.1671,39.9122],[-84.166,39.9049],[-84.1635,39.8949],[-84.1576,39.8881],[-84.1572,39.886],[-84.051,39.8798],[-84.0537,39.8507],[-84.0551,39.8362],[-84.0929,39.8383],[-84.0969,39.7958],[-84.0978,39.7802],[-84.1034,39.7282],[-84.1055,39.7064],[-84.1077,39.675],[-84.1087,39.6678],[-84.1113,39.638],[-84.1119,39.6264],[-84.1096,39.626],[-84.1137,39.5845],[-84.1142,39.5782],[-84.1535,39.5808],[-84.2857,39.5896],[-84.3652,39.5895],[-84.3652,39.5899],[-84.4129,39.5899],[-84.4354,39.5901],[-84.4631,39.59],[-84.4742,39.5902],[-84.4792,39.591],[-84.4801,39.6571],[-84.4827,39.7883],[-84.4842,39.8599],[-84.4854,39.9053],[-84.4854,39.9185],[-84.4259,39.9196],[-84.3172,39.9213]]]}}]}