{"type":"FeatureCollection","features":[{"type":"Feature","properties":{"zcta":"45354","d":0},"geometry":{"type":"Polygon","coordinates":[[[-84.40437,39.91996],[-84.39316,39.92015],[-84.39268,39.90482],[-84.39466,39.90307],[-84.39723,39.90296],[-84.39695,39.89916],[-84.39946,39.89914],[-84.40005,39.9012],[-84.40772,39.90133],[-84.40784,39.90585],[-84.40487,39.90594],[-84.40467,39.90796],[-84.40945,39.91284],[-84.40552,39.91327],[-84.40437,39.91996]]]}},{"type":"Feature","properties":{"zcta":"45361","d":0},"geometry":{"type":"Polygon","coordinates":[[[-84.40766,39.9596],[-84.41727,39.95935],[-84.42199,39.95952],[-84.422,39.96804],[-84.40767,39.96801],[-84.40762,39.96345],[-84.40766,39.9596]]]}},{"type":"Feature","properties":{"zcta":"45316","d":0},"geometry":{"type":"Polygon","coordinates":[[[-83.82187,39.80025],[-83.82218,39.79708],[-83.82248,39.79444],[-83.82821,39.79475],[-83.8278,39.79921],[-83.82915,39.80066],[-83.82187,39.80025]]]}},{"type":"Feature","properties":{"zcta":"45301","d":0},"geometry":{"type":"Polygon","coordinates":[[[-84.0194,39.70955],[-84.02087,39.71033],[-84.02568,39.7082],[-84.0279,39.7089],[-84.02734,39.71077],[-84.02121,39.71392],[-84.01809,39.71284],[-84.01842,39.71094],[-84.0194,39.70955]]]}},{"type":"Feature","properties":{"zcta":"45307","d":0},"geometry":{"type":"Polygon","coordinates":[[[-83.72642,39.58453],[-83.7229,39.58493],[-83.72301,39.5828],[-83.71804,39.58257],[-83.72018,39.58022],[-83.71916,39.57932],[-83.72371,39.57688],[-83.72655,39.57723],[-83.72655,39.5806],[-83.72642,39.58453]]]}},{"type":"Feature","properties":{"zcta":"45415","d":995},"geometry":{"type":"Polygon","coordinates":[[[-84.26695,39.85775],[-84.26641,39.8549],[-84.26443,39.85186],[-84.26129,39.84939],[-84.25539,39.84663],[-84.25346,39.84231],[-84.2462,39.83857],[-84.23903,39.83566],[-84.23194,39.83766],[-84.22964,39.83876],[-84.2256,39.83402],[-84.22394,39.83036],[-84.22194,39.82026],[-84.22224,39.81836],[-84.21763,39.81399],[-84.22152,39.81271],[-84.2292,39.81288],[-84.22917,39.81174],[-84.23426,39.81181],[-84.23526,39.81297],[-84.24057,39.81371],[-84.25037,39.81432],[-84.2506,39.8199],[-84.25484,39.81983],[-84.26041,39.81965],[-84.26049,39.82656],[-84.25968,39.83093],[-84.27046,39.83094],[-84.27064,39.83337],[-84.29202,39.83308],[-84.29079,39.8348],[-84.29083,39.83782],[-84.29207,39.83792],[-84.29227,39.84833],[-84.28947,39.84949],[-84.28954,39.85402],[-84.28399,39.85369],[-84.28343,39.85704],[-84.28136,39.85746],[-84.28114,39.85596],[-84.27829,39.857],[-84.28002,39.85853],[-84.26881,39.86129],[-84.26695,39.85775]]]}},{"type":"Feature","properties":{"zcta":"45410","d":2912},"geometry":{"type":"Polygon","coordinates":[[[-84.176,39.75414],[-84.1662,39.75522],[-84.1557,39.75432],[-84.15019,39.75422],[-84.14639,39.75332],[-84.14114,39.75062],[-84.13831,39.74975],[-84.12886,39.74797],[-84.12791,39.74503],[-84.12962,39.73958],[-84.1324,39.74096],[-84.13475,39.74031],[-84.14019,39.74085],[-84.14061,39.74275],[-84.15048,39.74385],[-84.15023,39.74632],[-84.1534,39.74609],[-84.1551,39.73961],[-84.15967,39.73945],[-84.16008,39.74152],[-84.16266,39.74167],[-84.16283,39.73923],[-84.16434,39.73731],[-84.16893,39.73761],[-84.16879,39.73997],[-84.17388,39.74029],[-84.17702,39.74123],[-84.17663,39.74514],[-84.18214,39.74537],[-84.18514,39.74945],[-84.18324,39.75076],[-84.18444,39.75225],[-84.18782,39.75146],[-84.18801,39.75238],[-84.18453,39.75298],[-84.18493,39.75409],[-84.1816,39.75534],[-84.18211,39.75714],[-84.17713,39.75794],[-84.176,39.75414]]]}},{"type":"Feature","properties":{"zcta":"45428","d":0},"geometry":{"type":"Polygon","coordinates":[[[-84.26634,39.74028],[-84.26676,39.7434],[-84.26482,39.74445],[-84.26041,39.74465],[-84.25772,39.74694],[-84.25915,39.7484],[-84.25308,39.74941],[-84.253,39.74067],[-84.25732,39.73745],[-84.26153,39.73677],[-84.26825,39.73781],[-84.2683,39.74027],[-84.26634,39.74028]]]}},{"type":"Feature","properties":{"zcta":"45385","d":137},"geometry":{"type":"Polygon","coordinates":[[[-84.02918,39.69151],[-84.02802,39.69388],[-84.0259,39.69571],[-84.01977,39.69736],[-84.01808,39.69894],[-84.01716,39.69748],[-84.01346,39.69907],[-84.01244,39.69784],[-84.00503,39.69868],[-83.99969,39.70116],[-84.00683,39.70371],[-84.01968,39.70628],[-84.0194,39.70955],[-84.01842,39.71094],[-84.01271,39.71087],[-84.01248,39.71242],[-84.00378,39.71157],[-84.00337,39.71551],[-84.0075,39.7157],[-84.00164,39.72128],[-84.00131,39.72272],[-84.00548,39.72296],[-84.00503,39.72647],[-84.00644,39.72948],[-84.01069,39.73583],[-84.01136,39.73785],[-84.00721,39.74165],[-84.00196,39.74316],[-83.99919,39.74563],[-83.99908,39.74973],[-84.00391,39.75519],[-84.00505,39.76064],[-84.00783,39.76528],[-84.00772,39.76739],[-84.00421,39.76737],[-84.00394,39.76995],[-83.99339,39.7692],[-83.99311,39.77357],[-83.97517,39.77246],[-83.97442,39.77958],[-83.98072,39.77994],[-83.98965,39.77993],[-83.98916,39.78471],[-83.98367,39.78557],[-83.98198,39.80126],[-83.97954,39.80046],[-83.97805,39.79689],[-83.97443,39.79274],[-83.97275,39.78741],[-83.96351,39.78903],[-83.96166,39.78578],[-83.94604,39.78489],[-83.94671,39.77734],[-83.94131,39.77703],[-83.94068,39.76929],[-83.94124,39.76071],[-83.9385,39.75586],[-83.93937,39.75005],[-83.93551,39.74992],[-83.93559,39.74837],[-83.93296,39.74607],[-83.93121,39.74829],[-83.92711,39.74618],[-83.92464,39.74729],[-83.92485,39.7511],[-83.92251,39.75642],[-83.91934,39.76096],[-83.91506,39.7601],[-83.91087,39.76181],[-83.90836,39.76135],[-83.90448,39.76374],[-83.903,39.76368],[-83.89817,39.76666],[-83.8934,39.76753],[-83.89261,39.76942],[-83.88451,39.76878],[-83.8838,39.77037],[-83.87061,39.77778],[-83.86849,39.77571],[-83.86727,39.77299],[-83.86596,39.7671],[-83.86514,39.76436],[-83.86018,39.7582],[-83.8641,39.75522],[-83.87003,39.74688],[-83.87102,39.74294],[-83.8651,39.73787],[-83.86906,39.72956],[-83.8626,39.73195],[-83.8599,39.73365],[-83.85752,39.73165],[-83.85506,39.73095],[-83.85244,39.73257],[-83.8517,39.72937],[-83.85013,39.72917],[-83.85032,39.72669],[-83.84702,39.7257],[-83.84705,39.72229],[-83.84535,39.72228],[-83.84538,39.7193],[-83.83866,39.71894],[-83.83945,39.71598],[-83.84188,39.703],[-83.83082,39.70528],[-83.81289,39.7095],[-83.81199,39.70352],[-83.8216,39.69727],[-83.82038,39.69591],[-83.81361,39.69492],[-83.80354,39.69396],[-83.80102,39.69223],[-83.79068,39.69793],[-83.78206,39.69993],[-83.77738,39.70298],[-83.77773,39.70391],[-83.77193,39.70807],[-83.76839,39.70467],[-83.76653,39.7057],[-83.76288,39.70296],[-83.75791,39.70027],[-83.7491,39.69732],[-83.75712,39.69541],[-83.75254,39.69122],[-83.75833,39.68653],[-83.75867,39.68415],[-83.76203,39.68421],[-83.76689,39.68175],[-83.77081,39.68144],[-83.7711,39.67821],[-83.7731,39.67821],[-83.78185,39.68018],[-83.78487,39.67563],[-83.77231,39.67075],[-83.77533,39.66144],[-83.79238,39.66278],[-83.79766,39.65945],[-83.80348,39.65887],[-83.80701,39.66004],[-83.80644,39.65852],[-83.80742,39.64994],[-83.79565,39.64575],[-83.80016,39.64351],[-83.80068,39.63866],[-83.79932,39.63686],[-83.80457,39.63674],[-83.80456,39.63146],[-83.80563,39.62901],[-83.80821,39.62629],[-83.81072,39.62555],[-83.81786,39.62181],[-83.82378,39.62042],[-83.82754,39.62123],[-83.82876,39.62036],[-83.83362,39.62108],[-83.83749,39.62084],[-83.83412,39.61706],[-83.83686,39.61535],[-83.83354,39.61201],[-83.83821,39.60925],[-83.84319,39.61408],[-83.84725,39.61177],[-83.84593,39.61055],[-83.84776,39.60679],[-83.85859,39.60691],[-83.85786,39.60376],[-83.85154,39.60182],[-83.84414,39.60046],[-83.8378,39.59878],[-83.83804,39.59621],[-83.83179,39.59585],[-83.83267,39.58892],[-83.82722,39.58861],[-83.82761,39.58089],[-83.82156,39.58205],[-83.82338,39.56732],[-83.82514,39.5674],[-83.82564,39.56438],[-83.82698,39.56242],[-83.8309,39.56276],[-83.83099,39.56036],[-83.84794,39.56133],[-83.85869,39.56169],[-83.8834,39.5635],[-83.92251,39.56619],[-83.96704,39.5685],[-83.97275,39.5689],[-83.97385,39.5708],[-83.97319,39.57408],[-83.97418,39.57618],[-83.97173,39.57805],[-83.9714,39.58071],[-83.97258,39.58253],[-83.97245,39.58926],[-83.97004,39.5903],[-83.96835,39.59255],[-83.9681,39.59574],[-83.96487,39.59931],[-83.97278,39.60094],[-83.97935,39.60352],[-83.97742,39.60669],[-83.98644,39.61137],[-83.9809,39.61866],[-83.98246,39.61891],[-83.98063,39.62125],[-83.98525,39.62369],[-83.98407,39.62493],[-83.98871,39.62585],[-83.98884,39.62809],[-83.99099,39.63052],[-83.99694,39.63011],[-84.00149,39.6269],[-84.0036,39.62949],[-84.00974,39.62939],[-84.01728,39.634],[-84.02635,39.63182],[-84.02815,39.63104],[-84.02704,39.63583],[-84.02875,39.63309],[-84.03583,39.63533],[-84.03316,39.63759],[-84.03645,39.64],[-84.03347,39.6415],[-84.03401,39.64348],[-84.03135,39.64608],[-84.03248,39.64766],[-84.03886,39.64906],[-84.03662,39.65264],[-84.03521,39.65306],[-84.03511,39.66196],[-84.03693,39.66523],[-84.04026,39.66205],[-84.04429,39.66441],[-84.04337,39.66868],[-84.04402,39.67254],[-84.04259,39.67631],[-84.04129,39.67722],[-84.04834,39.67746],[-84.04814,39.67975],[-84.05284,39.68],[-84.05433,39.68071],[-84.05415,39.6827],[-84.05563,39.68277],[-84.05727,39.68535],[-84.05811,39.68808],[-84.04716,39.69058],[-84.04703,39.69216],[-84.04497,39.69206],[-84.02918,39.69151]],[[-83.90228,39.70306],[-83.88452,39.70887],[-83.88871,39.70609],[-83.89312,39.70532],[-83.89129,39.70262],[-83.88545,39.7004],[-83.88421,39.69792],[-83.88064,39.69988],[-83.87793,39.7103],[-83.87872,39.71182],[-83.87485,39.71378],[-83.87236,39.71057],[-83.87303,39.71469],[-83.86242,39.72007],[-83.85947,39.72313],[-83.86699,39.72526],[-83.86887,39.72474],[-83.87221,39.72539],[-83.87533,39.72317],[-83.88005,39.72481],[-83.87998,39.72231],[-83.88209,39.72231],[-83.88418,39.7192],[-83.88422,39.71756],[-83.88699,39.7199],[-83.89481,39.723],[-83.89982,39.7275],[-83.90207,39.72776],[-83.90361,39.71424],[-83.90409,39.70732],[-83.90228,39.70306]]]}},{"type":"Feature","properties":{"zcta":"45315","d":225},"geometry":{"type":"Polygon","coordinates":[[[-84.35013,39.89071],[-84.34088,39.89111],[-84.34066,39.88343],[-84.33113,39.88358],[-84.33092,39.87681],[-84.32893,39.87526],[-84.31169,39.87682],[-84.31138,39.86202],[-84.32201,39.86189],[-84.32466,39.8587],[-84.32482,39.85674],[-84.33057,39.85795],[-84.33051,39.85497],[-84.31131,39.85499],[-84.31091,39.84085],[-84.30661,39.83832],[-84.30545,39.84004],[-84.29943,39.83955],[-84.29658,39.8365],[-84.29666,39.83301],[-84.31194,39.83282],[-84.3117,39.8182],[-84.32678,39.818],[-84.32704,39.81926],[-84.32994,39.81976],[-84.33194,39.82226],[-84.33027,39.82649],[-84.33391,39.82724],[-84.33386,39.83145],[-84.33648,39.8325],[-84.33934,39.83348],[-84.34125,39.83866],[-84.34494,39.84046],[-84.34494,39.84386],[-84.34655,39.84666],[-84.35333,39.84674],[-84.35448,39.84775],[-84.35789,39.84667],[-84.36199,39.84658],[-84.36223,39.8541],[-84.36763,39.85357],[-84.36765,39.85452],[-84.37195,39.85482],[-84.37711,39.86142],[-84.37907,39.87063],[-84.36812,39.87166],[-84.36852,39.89039],[-84.35013,39.89071]]]}},{"type":"Feature","properties":{"zcta":"45324","d":600},"geometry":{"type":"Polygon","coordinates":[[[-84.09675,39.79764],[-84.09157,39.79577],[-84.08523,39.79655],[-84.0845,39.79545],[-84.07858,39.79445],[-84.07846,39.78721],[-84.07614,39.78537],[-84.07087,39.78479],[-84.06704,39.78791],[-84.06899,39.79229],[-84.06567,39.79244],[-84.05665,39.79158],[-84.04982,39.793],[-84.04634,39.79457],[-84.03988,39.79943],[-84.03044,39.80734],[-84.02169,39.81506],[-84.03037,39.81682],[-84.0357,39.81495],[-84.03672,39.81689],[-84.03152,39.81928],[-84.03109,39.82128],[-84.0357,39.82178],[-84.03161,39.82444],[-84.02947,39.82672],[-84.03119,39.82684],[-84.03089,39.82935],[-84.02901,39.8292],[-84.0268,39.83082],[-84.02654,39.83452],[-84.02146,39.83841],[-84.02136,39.83959],[-84.02534,39.84123],[-84.03354,39.84127],[-84.04301,39.8419],[-84.04621,39.84164],[-84.053,39.83708],[-84.05503,39.83703],[-84.05374,39.85046],[-84.03486,39.84935],[-84.03106,39.8529],[-84.02772,39.85434],[-84.02293,39.86024],[-84.01913,39.86124],[-84.01918,39.86444],[-84.01109,39.86428],[-83.9978,39.86484],[-83.99398,39.86527],[-83.99326,39.87238],[-83.99534,39.87537],[-83.99109,39.87378],[-83.98582,39.8811],[-83.98149,39.88189],[-83.97811,39.88452],[-83.97268,39.88553],[-83.97075,39.88462],[-83.96661,39.88541],[-83.96559,39.87678],[-83.9456,39.88519],[-83.93905,39.88718],[-83.96198,39.86715],[-83.95681,39.86702],[-83.96024,39.86474],[-83.9592,39.86369],[-83.95758,39.86494],[-83.95606,39.86323],[-83.95271,39.86367],[-83.94076,39.85893],[-83.94027,39.85824],[-83.94543,39.85494],[-83.94191,39.85475],[-83.94239,39.85061],[-83.94095,39.85053],[-83.94124,39.84753],[-83.94276,39.84763],[-83.94306,39.84396],[-83.93981,39.84345],[-83.94322,39.84125],[-83.94633,39.84071],[-83.95108,39.84084],[-83.95245,39.83597],[-83.95233,39.83253],[-83.95557,39.82982],[-83.95233,39.82948],[-83.95097,39.82826],[-83.95144,39.82298],[-83.95225,39.82206],[-83.9474,39.82181],[-83.94812,39.81497],[-83.94301,39.81452],[-83.94409,39.79974],[-83.94506,39.79331],[-83.94731,39.79277],[-83.94687,39.79087],[-83.9493,39.79029],[-83.94952,39.78798],[-83.95491,39.78738],[-83.96148,39.78776],[-83.96166,39.78578],[-83.96351,39.78903],[-83.97275,39.78741],[-83.97443,39.79274],[-83.97805,39.79689],[-83.97954,39.80046],[-83.98198,39.80126],[-83.98367,39.78557],[-83.98916,39.78471],[-83.98965,39.77993],[-83.98072,39.77994],[-83.97442,39.77958],[-83.97517,39.77246],[-83.99311,39.77357],[-83.99339,39.7692],[-84.00394,39.76995],[-84.00421,39.76737],[-84.00772,39.76739],[-84.01605,39.76802],[-84.01539,39.77004],[-84.0198,39.77318],[-84.02143,39.77045],[-84.02794,39.77176],[-84.02784,39.77463],[-84.03709,39.77615],[-84.03896,39.77605],[-84.03944,39.77327],[-84.042,39.77518],[-84.04522,39.77431],[-84.04745,39.77496],[-84.0495,39.7735],[-84.04919,39.7711],[-84.04538,39.76966],[-84.05204,39.77005],[-84.0519,39.77533],[-84.07166,39.77338],[-84.07386,39.77494],[-84.07654,39.77469],[-84.07666,39.77307],[-84.07924,39.77294],[-84.0797,39.77517],[-84.08293,39.7754],[-84.08912,39.77465],[-84.08966,39.76961],[-84.09894,39.77006],[-84.09784,39.78016],[-84.09694,39.7935],[-84.09675,39.79764]],[[-84.05917,39.77822],[-84.06035,39.77994],[-84.05908,39.78274],[-84.06054,39.78449],[-84.06359,39.78522],[-84.06674,39.78358],[-84.06595,39.77709],[-84.05917,39.77822]]]}},{"type":"Feature","properties":{"zcta":"45458","d":949},"geometry":{"type":"Polygon","coordinates":[[[-84.20976,39.59769],[-84.20028,39.59538],[-84.20055,39.60015],[-84.20227,39.59934],[-84.20324,39.60067],[-84.20291,39.60395],[-84.20733,39.60521],[-84.20737,39.60827],[-84.20863,39.60927],[-84.20742,39.61546],[-84.20142,39.61422],[-84.20068,39.6166],[-84.20381,39.61759],[-84.20314,39.62213],[-84.20677,39.62358],[-84.20393,39.62586],[-84.20702,39.62626],[-84.20646,39.6313],[-84.20298,39.63267],[-84.19862,39.63122],[-84.19946,39.62944],[-84.19626,39.63046],[-84.18708,39.62753],[-84.16166,39.62832],[-84.15897,39.62799],[-84.15011,39.62818],[-84.14549,39.62863],[-84.14557,39.62746],[-84.14213,39.62734],[-84.14129,39.6285],[-84.12904,39.62813],[-84.11712,39.62678],[-84.11414,39.62766],[-84.10884,39.62817],[-84.10627,39.6257],[-84.10503,39.61832],[-84.10121,39.6174],[-84.10173,39.61158],[-84.10187,39.61007],[-84.10732,39.61083],[-84.11113,39.61137],[-84.11151,39.60736],[-84.11333,39.58874],[-84.11417,39.57823],[-84.1231,39.57879],[-84.12358,39.57479],[-84.12244,39.57211],[-84.12466,39.57167],[-84.12506,39.56741],[-84.13488,39.56846],[-84.15424,39.56907],[-84.17364,39.5677],[-84.18694,39.56849],[-84.18777,39.57179],[-84.19066,39.57198],[-84.19459,39.56923],[-84.19361,39.57255],[-84.19115,39.57291],[-84.18997,39.58126],[-84.18733,39.58308],[-84.21093,39.58461],[-84.21066,39.58867],[-84.20976,39.59769]]]}},{"type":"Feature","properties":{"zcta":"45405","d":1936},"geometry":{"type":"Polygon","coordinates":[[[-84.24475,39.8072],[-84.23511,39.80931],[-84.23526,39.81297],[-84.23426,39.81181],[-84.22917,39.81174],[-84.2292,39.81288],[-84.22152,39.81271],[-84.21763,39.81399],[-84.20646,39.80874],[-84.20546,39.80581],[-84.20564,39.80036],[-84.20647,39.79861],[-84.20421,39.78839],[-84.20469,39.78606],[-84.20154,39.77915],[-84.19934,39.77786],[-84.18982,39.77204],[-84.18749,39.76912],[-84.18803,39.76679],[-84.19317,39.76475],[-84.19951,39.76474],[-84.20225,39.76325],[-84.20726,39.76915],[-84.20651,39.77452],[-84.21041,39.77533],[-84.21756,39.77579],[-84.21919,39.77756],[-84.21922,39.78086],[-84.21574,39.78181],[-84.21927,39.78383],[-84.22254,39.78431],[-84.22253,39.78864],[-84.22062,39.78822],[-84.22055,39.79111],[-84.22211,39.79357],[-84.22005,39.79429],[-84.22441,39.79503],[-84.22538,39.79841],[-84.2303,39.79835],[-84.22945,39.79441],[-84.23159,39.79346],[-84.23515,39.79345],[-84.23522,39.79829],[-84.24479,39.79845],[-84.24476,39.80095],[-84.24475,39.8072]]]}},{"type":"Feature","properties":{"zcta":"45426","d":361},"geometry":{"type":"Polygon","coordinates":[[[-84.33386,39.83145],[-84.33391,39.82724],[-84.33027,39.82649],[-84.33194,39.82226],[-84.32994,39.81976],[-84.32704,39.81926],[-84.32678,39.818],[-84.3117,39.8182],[-84.31194,39.83282],[-84.29666,39.83301],[-84.29202,39.83308],[-84.27064,39.83337],[-84.27046,39.83094],[-84.25968,39.83093],[-84.26049,39.82656],[-84.26041,39.81965],[-84.25484,39.81983],[-84.25482,39.81468],[-84.27181,39.81467],[-84.27397,39.81578],[-84.27336,39.79776],[-84.27746,39.797],[-84.28069,39.79767],[-84.27693,39.79406],[-84.27121,39.79139],[-84.2705,39.78636],[-84.27057,39.78414],[-84.27284,39.78338],[-84.27719,39.78342],[-84.26773,39.77965],[-84.26651,39.77881],[-84.26655,39.77607],[-84.26779,39.77525],[-84.27343,39.77582],[-84.28039,39.77585],[-84.28091,39.77206],[-84.28826,39.76377],[-84.29185,39.76426],[-84.29239,39.77015],[-84.29766,39.77008],[-84.29766,39.76449],[-84.29239,39.76446],[-84.29241,39.7628],[-84.29505,39.7628],[-84.2962,39.76139],[-84.30183,39.76142],[-84.30177,39.7631],[-84.3106,39.76302],[-84.31138,39.77584],[-84.34897,39.77564],[-84.3506,39.7777],[-84.35785,39.77763],[-84.35781,39.77966],[-84.3624,39.77967],[-84.36374,39.78121],[-84.36678,39.78181],[-84.36692,39.79669],[-84.37558,39.79647],[-84.37817,39.79697],[-84.38324,39.80337],[-84.36692,39.80356],[-84.36705,39.81859],[-84.34883,39.81827],[-84.34964,39.83232],[-84.33648,39.8325],[-84.33386,39.83145]]]}},{"type":"Feature","properties":{"zcta":"45449","d":1404},"geometry":{"type":"Polygon","coordinates":[[[-84.26677,39.68297],[-84.2594,39.68894],[-84.24976,39.69014],[-84.24712,39.68908],[-84.24683,39.68771],[-84.24933,39.68207],[-84.24656,39.68035],[-84.23597,39.6804],[-84.23296,39.68155],[-84.23108,39.68547],[-84.22652,39.68352],[-84.22072,39.68716],[-84.22189,39.67319],[-84.21582,39.67255],[-84.2162,39.67063],[-84.21369,39.67035],[-84.2141,39.66764],[-84.213,39.66478],[-84.21417,39.65541],[-84.21629,39.65481],[-84.21826,39.65581],[-84.22036,39.65309],[-84.22379,39.65288],[-84.22395,39.65119],[-84.21919,39.65051],[-84.21964,39.64566],[-84.21558,39.64471],[-84.22251,39.64549],[-84.22279,39.64284],[-84.22158,39.6398],[-84.21995,39.63832],[-84.22178,39.63738],[-84.22516,39.63784],[-84.2348,39.64021],[-84.24356,39.64071],[-84.24316,39.64525],[-84.24551,39.64453],[-84.24706,39.64535],[-84.25073,39.65414],[-84.25848,39.65496],[-84.2584,39.65687],[-84.26329,39.65751],[-84.26321,39.65828],[-84.27689,39.65891],[-84.27337,39.66491],[-84.26614,39.66766],[-84.26323,39.67006],[-84.26094,39.67306],[-84.2666,39.67823],[-84.26736,39.68122],[-84.26677,39.68297]]]}},{"type":"Feature","properties":{"zcta":"45377","d":351},"geometry":{"type":"Polygon","coordinates":[[[-84.27808,39.92155],[-84.27482,39.92176],[-84.24631,39.92216],[-84.24602,39.91042],[-84.2382,39.91071],[-84.24054,39.91322],[-84.24201,39.92221],[-84.1987,39.92271],[-84.19918,39.91275],[-84.18843,39.91533],[-84.18522,39.91666],[-84.17824,39.91836],[-84.17515,39.91982],[-84.17697,39.91726],[-84.16984,39.91613],[-84.16901,39.90925],[-84.1659,39.89818],[-84.16725,39.88334],[-84.17114,39.87653],[-84.17284,39.87194],[-84.17347,39.86634],[-84.16661,39.86672],[-84.17172,39.85448],[-84.17066,39.85797],[-84.17281,39.85521],[-84.1746,39.85572],[-84.1737,39.86437],[-84.1797,39.86431],[-84.17963,39.85559],[-84.18705,39.8551],[-84.18954,39.85585],[-84.18857,39.86946],[-84.18935,39.8686],[-84.19516,39.8685],[-84.19915,39.86908],[-84.20276,39.86803],[-84.20824,39.86798],[-84.20861,39.8718],[-84.23152,39.87131],[-84.23497,39.87706],[-84.23581,39.87942],[-84.23581,39.88775],[-84.24482,39.887],[-84.24533,39.88759],[-84.25467,39.88616],[-84.27134,39.88476],[-84.27384,39.88301],[-84.27411,39.87536],[-84.27713,39.87541],[-84.28506,39.86989],[-84.29214,39.87426],[-84.29414,39.87646],[-84.29634,39.88076],[-84.29224,39.88486],[-84.29063,39.89695],[-84.29561,39.90021],[-84.29722,39.90464],[-84.29783,39.90945],[-84.29614,39.91347],[-84.29574,39.91714],[-84.29983,39.91925],[-84.30194,39.92135],[-84.27808,39.92155]]]}},{"type":"Feature","properties":{"zcta":"45309","d":88},"geometry":{"type":"Polygon","coordinates":[[[-84.45357,39.92677],[-84.44542,39.92626],[-84.44543,39.92683],[-84.42614,39.9269],[-84.4259,39.91962],[-84.41623,39.91975],[-84.4166,39.92145],[-84.417,39.93445],[-84.38852,39.93473],[-84.38811,39.92023],[-84.38483,39.91917],[-84.38471,39.91542],[-84.38632,39.91537],[-84.38634,39.9055],[-84.38754,39.90548],[-84.38732,39.89036],[-84.36852,39.89039],[-84.36812,39.87166],[-84.37907,39.87063],[-84.37711,39.86142],[-84.37195,39.85482],[-84.36765,39.85452],[-84.36763,39.85357],[-84.36223,39.8541],[-84.36199,39.84658],[-84.35789,39.84667],[-84.35448,39.84775],[-84.35333,39.84674],[-84.34655,39.84666],[-84.34494,39.84386],[-84.34494,39.84046],[-84.34125,39.83866],[-84.33934,39.83348],[-84.33648,39.8325],[-84.34964,39.83232],[-84.34883,39.81827],[-84.36705,39.81859],[-84.36692,39.80356],[-84.38324,39.80337],[-84.37817,39.79697],[-84.37558,39.79647],[-84.36692,39.79669],[-84.36678,39.78181],[-84.36374,39.78121],[-84.3624,39.77967],[-84.35781,39.77966],[-84.35785,39.77763],[-84.3506,39.7777],[-84.34897,39.77564],[-84.34829,39.76071],[-84.36237,39.76034],[-84.37012,39.76017],[-84.37335,39.76786],[-84.37339,39.76956],[-84.37611,39.76914],[-84.3761,39.76741],[-84.38896,39.76734],[-84.38933,39.76348],[-84.39241,39.76269],[-84.39198,39.76009],[-84.39483,39.76009],[-84.39478,39.75516],[-84.39807,39.75515],[-84.39805,39.75279],[-84.4029,39.75277],[-84.41362,39.75349],[-84.41366,39.7577],[-84.41439,39.75995],[-84.42309,39.75987],[-84.42417,39.7613],[-84.42779,39.76126],[-84.42781,39.76466],[-84.43252,39.76462],[-84.4326,39.76738],[-84.43572,39.76735],[-84.43579,39.77283],[-84.4404,39.77278],[-84.44043,39.77414],[-84.45854,39.77403],[-84.4586,39.77766],[-84.4514,39.77773],[-84.45143,39.78136],[-84.45459,39.78133],[-84.45467,39.78781],[-84.45533,39.78854],[-84.46093,39.78854],[-84.46124,39.81029],[-84.46336,39.81027],[-84.48285,39.79524],[-84.48176,39.80198],[-84.48027,39.80786],[-84.48058,39.81013],[-84.48315,39.81008],[-84.48374,39.8381],[-84.49266,39.83801],[-84.48871,39.8386],[-84.48723,39.83988],[-84.48732,39.84347],[-84.48386,39.84459],[-84.48493,39.88869],[-84.49354,39.88864],[-84.49425,39.89101],[-84.49261,39.89187],[-84.49438,39.89864],[-84.49366,39.90193],[-84.49188,39.90122],[-84.49185,39.89905],[-84.4874,39.8991],[-84.48737,39.8977],[-84.48516,39.89772],[-84.4846,39.90058],[-84.48045,39.90055],[-84.48046,39.90347],[-84.48276,39.90343],[-84.48537,39.9053],[-84.48565,39.91813],[-84.48298,39.91854],[-84.48314,39.92656],[-84.46443,39.92667],[-84.45357,39.92677]],[[-84.40945,39.91284],[-84.40467,39.90796],[-84.40487,39.90594],[-84.40784,39.90585],[-84.40772,39.90133],[-84.40005,39.9012],[-84.39946,39.89914],[-84.39695,39.89916],[-84.39723,39.90296],[-84.39466,39.90307],[-84.39268,39.90482],[-84.39316,39.92015],[-84.40437,39.91996],[-84.40552,39.91327],[-84.40945,39.91284]]]}},{"type":"Feature","properties":{"zcta":"45434","d":622},"geometry":{"type":"Polygon","coordinates":[[[-84.05528,39.71828],[-84.05351,39.71878],[-84.0587,39.72392],[-84.05724,39.72799],[-84.05187,39.7261],[-84.04929,39.72608],[-84.04784,39.72916],[-84.04627,39.7294],[-84.04559,39.73629],[-84.0412,39.73627],[-84.03913,39.73738],[-84.03997,39.74058],[-84.0398,39.74513],[-84.03505,39.7467],[-84.02539,39.74616],[-84.02507,39.74974],[-84.02328,39.74857],[-84.01806,39.74909],[-84.01789,39.75152],[-84.01523,39.75137],[-84.01304,39.75295],[-84.02302,39.75349],[-84.02275,39.75649],[-84.02432,39.75728],[-84.0237,39.76306],[-84.01728,39.76268],[-84.01813,39.76804],[-84.01605,39.76802],[-84.00772,39.76739],[-84.00783,39.76528],[-84.00505,39.76064],[-84.00391,39.75519],[-83.99908,39.74973],[-83.99919,39.74563],[-84.00196,39.74316],[-84.00721,39.74165],[-84.01136,39.73785],[-84.01069,39.73583],[-84.00644,39.72948],[-84.00503,39.72647],[-84.00548,39.72296],[-84.00131,39.72272],[-84.00164,39.72128],[-84.0075,39.7157],[-84.00337,39.71551],[-84.00378,39.71157],[-84.01248,39.71242],[-84.01271,39.71087],[-84.01842,39.71094],[-84.01809,39.71284],[-84.02121,39.71392],[-84.02734,39.71077],[-84.0279,39.7089],[-84.02568,39.7082],[-84.02087,39.71033],[-84.0194,39.70955],[-84.01968,39.70628],[-84.00683,39.70371],[-83.99969,39.70116],[-84.00503,39.69868],[-84.01244,39.69784],[-84.01346,39.69907],[-84.01716,39.69748],[-84.01808,39.69894],[-84.01977,39.69736],[-84.0259,39.69571],[-84.02802,39.69388],[-84.02918,39.69151],[-84.04497,39.69206],[-84.04481,39.6945],[-84.04934,39.69474],[-84.04916,39.69695],[-84.05147,39.69708],[-84.0516,39.69555],[-84.05638,39.69593],[-84.05666,39.69265],[-84.06041,39.69346],[-84.06633,39.69394],[-84.06572,39.70177],[-84.0636,39.70594],[-84.06341,39.71138],[-84.06254,39.71125],[-84.06178,39.71581],[-84.06444,39.71514],[-84.07229,39.71517],[-84.07102,39.71956],[-84.06622,39.71928],[-84.06524,39.72031],[-84.06171,39.72009],[-84.05986,39.72088],[-84.05528,39.71828]]]}},{"type":"Feature","properties":{"zcta":"45414","d":422},"geometry":{"type":"Polygon","coordinates":[[[-84.27713,39.87541],[-84.27411,39.87536],[-84.27384,39.88301],[-84.27134,39.88476],[-84.25467,39.88616],[-84.24533,39.88759],[-84.24482,39.887],[-84.23581,39.88775],[-84.23581,39.87942],[-84.23497,39.87706],[-84.23152,39.87131],[-84.20861,39.8718],[-84.20824,39.86798],[-84.20276,39.86803],[-84.19915,39.86908],[-84.19516,39.8685],[-84.18935,39.8686],[-84.18857,39.86946],[-84.18954,39.85585],[-84.18705,39.8551],[-84.17963,39.85559],[-84.1797,39.86431],[-84.1737,39.86437],[-84.1746,39.85572],[-84.17281,39.85521],[-84.17066,39.85797],[-84.17172,39.85448],[-84.17384,39.85136],[-84.17364,39.84396],[-84.1724,39.84036],[-84.17544,39.83696],[-84.17594,39.83206],[-84.17454,39.82846],[-84.16994,39.82566],[-84.16236,39.82955],[-84.15591,39.83133],[-84.1529,39.82705],[-84.15343,39.82249],[-84.15615,39.82011],[-84.15454,39.81346],[-84.15044,39.80966],[-84.15304,39.80496],[-84.15815,39.80012],[-84.16464,39.79806],[-84.17591,39.79629],[-84.18507,39.79116],[-84.19663,39.78565],[-84.19875,39.78203],[-84.19934,39.77786],[-84.20154,39.77915],[-84.20469,39.78606],[-84.20421,39.78839],[-84.20647,39.79861],[-84.20564,39.80036],[-84.20546,39.80581],[-84.20646,39.80874],[-84.21763,39.81399],[-84.22224,39.81836],[-84.22194,39.82026],[-84.22394,39.83036],[-84.2256,39.83402],[-84.22964,39.83876],[-84.23194,39.83766],[-84.23903,39.83566],[-84.2462,39.83857],[-84.25346,39.84231],[-84.25539,39.84663],[-84.26129,39.84939],[-84.26443,39.85186],[-84.26641,39.8549],[-84.26695,39.85775],[-84.26881,39.86129],[-84.27479,39.86649],[-84.28506,39.86989],[-84.27713,39.87541]]]}},{"type":"Feature","properties":{"zcta":"45326","d":24},"geometry":{"type":"Polygon","coordinates":[[[-84.13149,40.11702],[-84.13028,40.11813],[-84.1306,40.12061],[-84.13261,40.12156],[-84.13127,40.14606],[-84.12997,40.16065],[-84.11102,40.1595],[-84.10809,40.18882],[-84.07958,40.18693],[-84.04885,40.18536],[-84.04631,40.18274],[-84.04495,40.17688],[-84.04291,40.1748],[-84.04574,40.13979],[-84.04963,40.13901],[-84.05209,40.14028],[-84.05594,40.14013],[-84.05909,40.13917],[-84.0649,40.1398],[-84.06731,40.11344],[-84.05433,40.11271],[-84.05634,40.10658],[-84.05533,40.10389],[-84.05763,40.1019],[-84.05981,40.09847],[-84.12228,40.10204],[-84.12093,40.10058],[-84.12554,40.09507],[-84.12567,40.09349],[-84.129,40.09626],[-84.1308,40.09903],[-84.12975,40.1005],[-84.13087,40.10249],[-84.14423,40.10324],[-84.14333,40.11767],[-84.13149,40.11702]]]}},{"type":"Feature","properties":{"zcta":"45356","d":155},"geometry":{"type":"Polygon","coordinates":[[[-84.30828,40.19823],[-84.30881,40.2129],[-84.29936,40.21294],[-84.30019,40.23484],[-84.28646,40.23491],[-84.28619,40.23764],[-84.28139,40.23786],[-84.28027,40.23862],[-84.27181,40.23873],[-84.27232,40.25067],[-84.26829,40.24932],[-84.26821,40.24803],[-84.26582,40.24559],[-84.26361,40.24132],[-84.26019,40.24096],[-84.25587,40.2377],[-84.25278,40.23769],[-84.25274,40.23587],[-84.24836,40.23573],[-84.25071,40.23302],[-84.25381,40.23232],[-84.25629,40.23065],[-84.25548,40.227],[-84.25203,40.22621],[-84.25125,40.22319],[-84.25423,40.22181],[-84.25466,40.21836],[-84.2528,40.2164],[-84.24463,40.21515],[-84.24423,40.214],[-84.23796,40.21547],[-84.23756,40.21423],[-84.23364,40.21432],[-84.23366,40.22875],[-84.22528,40.22914],[-84.20765,40.22936],[-84.20553,40.22696],[-84.20481,40.22424],[-84.21043,40.22065],[-84.21271,40.21756],[-84.21474,40.21117],[-84.21647,40.20853],[-84.21632,40.20563],[-84.21866,40.2],[-84.21914,40.1955],[-84.18734,40.19371],[-84.18538,40.19531],[-84.17416,40.19441],[-84.17354,40.20006],[-84.1357,40.19779],[-84.13648,40.19051],[-84.10809,40.18882],[-84.11102,40.1595],[-84.12997,40.16065],[-84.13127,40.14606],[-84.13261,40.12156],[-84.1306,40.12061],[-84.13028,40.11813],[-84.13149,40.11702],[-84.14333,40.11767],[-84.16136,40.1187],[-84.16262,40.10437],[-84.1829,40.10542],[-84.20021,40.10654],[-84.20482,40.10773],[-84.20428,40.11396],[-84.209,40.11422],[-84.20888,40.11616],[-84.21447,40.11587],[-84.21643,40.1151],[-84.21804,40.12086],[-84.22654,40.10342],[-84.23096,40.10672],[-84.23158,40.10789],[-84.23506,40.10658],[-84.24006,40.10555],[-84.23986,40.09655],[-84.25893,40.09667],[-84.27794,40.09643],[-84.27805,40.10371],[-84.28557,40.10359],[-84.285,40.11088],[-84.29174,40.11077],[-84.29167,40.10927],[-84.29432,40.10917],[-84.29432,40.10688],[-84.3018,40.10689],[-84.3018,40.10913],[-84.29759,40.10913],[-84.29735,40.11073],[-84.30158,40.11044],[-84.30172,40.11522],[-84.30722,40.11545],[-84.30683,40.10325],[-84.31638,40.10312],[-84.3171,40.11794],[-84.31689,40.12447],[-84.31726,40.14687],[-84.32672,40.14676],[-84.32696,40.18344],[-84.32736,40.19799],[-84.30828,40.19823]]]}},{"type":"Feature","properties":{"zcta":"45342","d":536},"geometry":{"type":"Polygon","coordinates":[[[-84.31614,39.68366],[-84.31504,39.68546],[-84.3166,39.68766],[-84.30893,39.68767],[-84.30421,39.68592],[-84.30267,39.68445],[-84.2983,39.68896],[-84.29403,39.68975],[-84.29606,39.69135],[-84.29464,39.69328],[-84.29231,39.69154],[-84.29223,39.68944],[-84.29071,39.68942],[-84.29074,39.69525],[-84.28871,39.69645],[-84.28104,39.69653],[-84.27643,39.6954],[-84.27719,39.69317],[-84.27254,39.69073],[-84.27218,39.69334],[-84.26903,39.6955],[-84.26839,39.69036],[-84.2707,39.68326],[-84.27055,39.68165],[-84.26736,39.68122],[-84.2666,39.67823],[-84.26094,39.67306],[-84.26323,39.67006],[-84.26614,39.66766],[-84.27337,39.66491],[-84.27689,39.65891],[-84.26321,39.65828],[-84.26329,39.65751],[-84.2584,39.65687],[-84.25848,39.65496],[-84.25073,39.65414],[-84.24706,39.64535],[-84.24551,39.64453],[-84.24316,39.64525],[-84.24356,39.64071],[-84.2348,39.64021],[-84.22516,39.63784],[-84.22537,39.63581],[-84.22198,39.63649],[-84.21729,39.63542],[-84.21602,39.63409],[-84.21684,39.63101],[-84.21909,39.63005],[-84.21412,39.63025],[-84.21227,39.63374],[-84.21133,39.63129],[-84.20805,39.63068],[-84.20646,39.6313],[-84.20702,39.62626],[-84.20393,39.62586],[-84.20677,39.62358],[-84.20314,39.62213],[-84.20381,39.61759],[-84.20068,39.6166],[-84.20142,39.61422],[-84.20742,39.61546],[-84.20863,39.60927],[-84.20737,39.60827],[-84.20733,39.60521],[-84.20291,39.60395],[-84.20324,39.60067],[-84.20227,39.59934],[-84.20055,39.60015],[-84.20028,39.59538],[-84.20976,39.59769],[-84.21066,39.58867],[-84.22314,39.59025],[-84.22341,39.58544],[-84.23005,39.58588],[-84.23034,39.5828],[-84.24498,39.57993],[-84.24703,39.5779],[-84.24749,39.57573],[-84.25043,39.57612],[-84.25339,39.57977],[-84.25305,39.58204],[-84.25651,39.58234],[-84.25633,39.58469],[-84.24907,39.58371],[-84.24843,39.58708],[-84.28569,39.58955],[-84.29626,39.58954],[-84.29625,39.59235],[-84.29906,39.59242],[-84.2991,39.59352],[-84.30432,39.59362],[-84.3069,39.58953],[-84.32368,39.58952],[-84.32407,39.59593],[-84.32553,39.59918],[-84.32686,39.59923],[-84.32966,39.60269],[-84.33414,39.60467],[-84.33387,39.60615],[-84.32744,39.6066],[-84.32752,39.61483],[-84.32202,39.61477],[-84.32115,39.61656],[-84.31916,39.6171],[-84.32143,39.61818],[-84.32758,39.61877],[-84.32774,39.62875],[-84.33871,39.62863],[-84.3427,39.63891],[-84.34345,39.64269],[-84.34029,39.6458],[-84.33907,39.64466],[-84.33637,39.64467],[-84.33457,39.6435],[-84.33461,39.64619],[-84.33035,39.64624],[-84.33033,39.65569],[-84.32774,39.65825],[-84.32406,39.65948],[-84.32409,39.66078],[-84.32094,39.66067],[-84.3209,39.66438],[-84.31679,39.66441],[-84.3167,39.66176],[-84.31302,39.66164],[-84.31296,39.6683],[-84.31014,39.6683],[-84.31101,39.67317],[-84.31322,39.67318],[-84.31053,39.67603],[-84.31391,39.6779],[-84.31448,39.68147],[-84.31614,39.68366]]]}},{"type":"Feature","properties":{"zcta":"45312","d":26},"geometry":{"type":"Polygon","coordinates":[[[-84.12554,40.09507],[-84.12093,40.10058],[-84.12228,40.10204],[-84.05981,40.09847],[-84.0496,40.09953],[-84.05061,40.08793],[-84.04438,40.09046],[-84.04089,40.09024],[-84.03979,40.10234],[-84.03698,40.10294],[-84.03613,40.11174],[-84.02986,40.11143],[-84.03407,40.06129],[-84.02719,40.06085],[-84.02924,40.0585],[-84.03029,40.05389],[-84.02688,40.05333],[-84.02616,40.05219],[-84.02613,40.04748],[-84.02961,40.04305],[-84.02958,40.03984],[-84.03607,40.04018],[-84.03752,40.02472],[-84.04968,40.02545],[-84.05624,40.02577],[-84.05648,40.02288],[-84.06589,40.02336],[-84.06642,40.01723],[-84.07581,40.01764],[-84.07631,40.01249],[-84.11183,40.01461],[-84.11219,40.011],[-84.111,40.01093],[-84.11156,40.00553],[-84.11506,40.00573],[-84.1116,40.04331],[-84.13904,40.04447],[-84.14033,40.04868],[-84.1401,40.05018],[-84.13376,40.05206],[-84.13124,40.05203],[-84.12989,40.05615],[-84.1329,40.05754],[-84.12922,40.05896],[-84.12872,40.06081],[-84.12737,40.07371],[-84.12429,40.07468],[-84.12049,40.07471],[-84.11999,40.0774],[-84.11767,40.07709],[-84.11703,40.08325],[-84.12811,40.08046],[-84.13381,40.07762],[-84.13184,40.08002],[-84.1314,40.08322],[-84.12928,40.08807],[-84.12672,40.08973],[-84.12567,40.09349],[-84.12554,40.09507]]]}},{"type":"Feature","properties":{"zcta":"45314","d":32},"geometry":{"type":"Polygon","coordinates":[[[-83.84464,39.76621],[-83.84787,39.77542],[-83.84031,39.77686],[-83.84167,39.78087],[-83.83522,39.782],[-83.83661,39.786],[-83.83329,39.78728],[-83.83016,39.78751],[-83.82902,39.78937],[-83.8269,39.78952],[-83.8267,39.79198],[-83.82313,39.79319],[-83.82167,39.79453],[-83.81724,39.79347],[-83.81337,39.79515],[-83.80809,39.79356],[-83.80461,39.79345],[-83.80226,39.79467],[-83.80027,39.79396],[-83.7978,39.79453],[-83.76666,39.79114],[-83.7427,39.78911],[-83.73461,39.79212],[-83.72113,39.79642],[-83.71893,39.79348],[-83.72007,39.7799],[-83.71541,39.77963],[-83.70916,39.7747],[-83.70696,39.77366],[-83.7093,39.77143],[-83.70844,39.77037],[-83.70023,39.76466],[-83.69444,39.76343],[-83.68784,39.75475],[-83.68295,39.75309],[-83.67607,39.749],[-83.66346,39.74339],[-83.66989,39.73577],[-83.67154,39.73536],[-83.67197,39.73071],[-83.67517,39.73032],[-83.6758,39.72556],[-83.69156,39.72654],[-83.69838,39.71973],[-83.70089,39.71593],[-83.70988,39.71637],[-83.71025,39.71256],[-83.71319,39.71261],[-83.71358,39.70904],[-83.71704,39.71081],[-83.71953,39.71084],[-83.72517,39.70824],[-83.73265,39.7042],[-83.73552,39.70119],[-83.74216,39.69853],[-83.7491,39.69732],[-83.75791,39.70027],[-83.76288,39.70296],[-83.76653,39.7057],[-83.76839,39.70467],[-83.77193,39.70807],[-83.77773,39.70391],[-83.77738,39.70298],[-83.78206,39.69993],[-83.79068,39.69793],[-83.80102,39.69223],[-83.80354,39.69396],[-83.81361,39.69492],[-83.82038,39.69591],[-83.8216,39.69727],[-83.81199,39.70352],[-83.81289,39.7095],[-83.83082,39.70528],[-83.84188,39.703],[-83.83945,39.71598],[-83.83866,39.71894],[-83.84538,39.7193],[-83.84535,39.72228],[-83.84705,39.72229],[-83.84702,39.7257],[-83.85032,39.72669],[-83.85013,39.72917],[-83.8517,39.72937],[-83.85244,39.73257],[-83.85506,39.73095],[-83.85752,39.73165],[-83.8599,39.73365],[-83.8626,39.73195],[-83.86906,39.72956],[-83.8651,39.73787],[-83.87102,39.74294],[-83.87003,39.74688],[-83.8641,39.75522],[-83.86018,39.7582],[-83.86514,39.76436],[-83.86596,39.7671],[-83.84464,39.76621]]]}},{"type":"Feature","properties":{"zcta":"45384","d":0},"geometry":{"type":"Polygon","coordinates":[[[-83.90361,39.71424],[-83.90207,39.72776],[-83.89982,39.7275],[-83.89481,39.723],[-83.88699,39.7199],[-83.88422,39.71756],[-83.88418,39.7192],[-83.88209,39.72231],[-83.87998,39.72231],[-83.88005,39.72481],[-83.87533,39.72317],[-83.87221,39.72539],[-83.86887,39.72474],[-83.86699,39.72526],[-83.85947,39.72313],[-83.86242,39.72007],[-83.87303,39.71469],[-83.87236,39.71057],[-83.87485,39.71378],[-83.87872,39.71182],[-83.87793,39.7103],[-83.88064,39.69988],[-83.88421,39.69792],[-83.88545,39.7004],[-83.89129,39.70262],[-83.89312,39.70532],[-83.88871,39.70609],[-83.88452,39.70887],[-83.90228,39.70306],[-83.90409,39.70732],[-83.90361,39.71424]]]}},{"type":"Feature","properties":{"zcta":"45371","d":244},"geometry":{"type":"Polygon","coordinates":[[[-84.27104,39.95059],[-84.27092,39.96076],[-84.26766,39.96087],[-84.26632,39.96256],[-84.25677,39.96224],[-84.25696,39.96867],[-84.25237,39.96869],[-84.25249,39.97309],[-84.22832,39.97336],[-84.22815,39.96742],[-84.22578,39.96565],[-84.21834,39.96553],[-84.21836,39.96642],[-84.20887,39.96668],[-84.20923,39.97386],[-84.21552,39.9737],[-84.21627,39.98096],[-84.217,39.98309],[-84.21937,39.98308],[-84.2194,39.98729],[-84.22106,39.98727],[-84.22111,39.99065],[-84.20955,39.99097],[-84.20041,39.98386],[-84.20041,39.98778],[-84.19828,39.98776],[-84.19643,39.98523],[-84.19358,39.98429],[-84.19315,39.98127],[-84.18564,39.98139],[-84.18617,39.98436],[-84.19444,39.98477],[-84.19453,39.98871],[-84.1918,39.98876],[-84.19233,39.99212],[-84.19758,39.99204],[-84.20044,39.99294],[-84.19481,39.99552],[-84.18449,39.99541],[-84.18434,39.99362],[-84.1792,39.98612],[-84.17643,39.98482],[-84.17358,39.98467],[-84.17192,39.98258],[-84.1728,39.97827],[-84.16823,39.97566],[-84.16731,39.97435],[-84.14389,39.97294],[-84.14426,39.97471],[-84.13628,39.97926],[-84.13299,39.97921],[-84.11992,39.98229],[-84.12002,39.98605],[-84.10485,39.98529],[-84.10494,39.98325],[-84.10667,39.98335],[-84.10462,39.97796],[-84.10274,39.97786],[-84.10295,39.97565],[-84.09762,39.97529],[-84.09399,39.97263],[-84.09432,39.97009],[-84.08043,39.9692],[-84.08254,39.94865],[-84.07728,39.94738],[-84.07262,39.94414],[-84.06849,39.94044],[-84.06715,39.94028],[-84.06869,39.93775],[-84.07189,39.93465],[-84.07619,39.93173],[-84.07679,39.92685],[-84.07638,39.92516],[-84.07712,39.91787],[-84.07299,39.91766],[-84.07331,39.91403],[-84.07941,39.91436],[-84.07956,39.91185],[-84.09428,39.91301],[-84.09378,39.91519],[-84.09499,39.91718],[-84.09972,39.91748],[-84.10011,39.91299],[-84.10393,39.91321],[-84.10402,39.91204],[-84.10021,39.91183],[-84.10085,39.90474],[-84.10026,39.90112],[-84.09792,39.90139],[-84.09614,39.90434],[-84.09243,39.9052],[-84.09116,39.9063],[-84.08633,39.90602],[-84.08641,39.90273],[-84.07974,39.90355],[-84.08022,39.89609],[-84.07963,39.89605],[-84.07962,39.89582],[-84.09449,39.89178],[-84.09623,39.88973],[-84.09778,39.88623],[-84.09818,39.88253],[-84.15722,39.88599],[-84.15716,39.88466],[-84.16248,39.87491],[-84.16661,39.86672],[-84.17347,39.86634],[-84.17284,39.87194],[-84.17114,39.87653],[-84.16725,39.88334],[-84.1659,39.89818],[-84.16901,39.90925],[-84.16984,39.91613],[-84.17697,39.91726],[-84.17515,39.91982],[-84.17824,39.91836],[-84.18522,39.91666],[-84.18843,39.91533],[-84.19918,39.91275],[-84.1987,39.92271],[-84.24201,39.92221],[-84.24054,39.91322],[-84.2382,39.91071],[-84.24602,39.91042],[-84.24631,39.92216],[-84.27482,39.92176],[-84.27808,39.92155],[-84.27814,39.92439],[-84.2747,39.92372],[-84.27472,39.92642],[-84.27256,39.92687],[-84.27233,39.93124],[-84.27134,39.93125],[-84.27145,39.93505],[-84.27491,39.93565],[-84.27509,39.95028],[-84.27104,39.95059]]]}},{"type":"Feature","properties":{"zcta":"45403","d":1452},"geometry":{"type":"Polygon","coordinates":[[[-84.17359,39.75855],[-84.17126,39.76077],[-84.1746,39.7623],[-84.17412,39.76584],[-84.16917,39.76728],[-84.15889,39.77121],[-84.15987,39.77465],[-84.15694,39.77606],[-84.15564,39.77496],[-84.14474,39.77996],[-84.14203,39.78038],[-84.14026,39.7784],[-84.1384,39.77837],[-84.13541,39.77473],[-84.13561,39.77282],[-84.13724,39.77279],[-84.13781,39.76529],[-84.13928,39.76421],[-84.13804,39.76256],[-84.1427,39.76254],[-84.1429,39.76063],[-84.13769,39.7603],[-84.13585,39.7595],[-84.12715,39.75999],[-84.12203,39.75939],[-84.12332,39.75735],[-84.12682,39.75345],[-84.12923,39.75187],[-84.12807,39.74832],[-84.12886,39.74797],[-84.13831,39.74975],[-84.14114,39.75062],[-84.14639,39.75332],[-84.15019,39.75422],[-84.1557,39.75432],[-84.1662,39.75522],[-84.176,39.75414],[-84.17713,39.75794],[-84.17359,39.75855]]]}},{"type":"Feature","properties":{"zcta":"45459","d":1096},"geometry":{"type":"Polygon","coordinates":[[[-84.22178,39.63738],[-84.21995,39.63832],[-84.22158,39.6398],[-84.22279,39.64284],[-84.22251,39.64549],[-84.21558,39.64471],[-84.21964,39.64566],[-84.21919,39.65051],[-84.22395,39.65119],[-84.22379,39.65288],[-84.22036,39.65309],[-84.21826,39.65581],[-84.21629,39.65481],[-84.21417,39.65541],[-84.213,39.66478],[-84.2141,39.66764],[-84.21369,39.67035],[-84.2162,39.67063],[-84.21582,39.67255],[-84.2109,39.67192],[-84.21051,39.67456],[-84.20372,39.67233],[-84.20288,39.67017],[-84.20237,39.67477],[-84.19877,39.67536],[-84.1984,39.67699],[-84.19481,39.6764],[-84.19534,39.66929],[-84.19399,39.66783],[-84.1912,39.6679],[-84.19102,39.66662],[-84.18826,39.66731],[-84.18908,39.6644],[-84.18153,39.66418],[-84.18046,39.6678],[-84.17655,39.6688],[-84.17385,39.66704],[-84.17122,39.66842],[-84.17041,39.6665],[-84.16524,39.66667],[-84.16552,39.66368],[-84.1611,39.66354],[-84.15902,39.65896],[-84.14971,39.65828],[-84.14687,39.65866],[-84.13683,39.65837],[-84.1369,39.65785],[-84.12709,39.65746],[-84.12738,39.65389],[-84.10964,39.65625],[-84.1093,39.6602],[-84.10655,39.66003],[-84.10863,39.65908],[-84.10869,39.65736],[-84.10354,39.65819],[-84.10203,39.65615],[-84.09918,39.65608],[-84.10301,39.65039],[-84.09953,39.64975],[-84.0999,39.64543],[-84.11054,39.64594],[-84.11126,39.63802],[-84.11004,39.63799],[-84.10964,39.63437],[-84.11056,39.63102],[-84.10884,39.62817],[-84.11414,39.62766],[-84.11712,39.62678],[-84.12904,39.62813],[-84.14129,39.6285],[-84.14213,39.62734],[-84.14557,39.62746],[-84.14549,39.62863],[-84.15011,39.62818],[-84.15897,39.62799],[-84.16166,39.62832],[-84.18708,39.62753],[-84.19626,39.63046],[-84.19946,39.62944],[-84.19862,39.63122],[-84.20298,39.63267],[-84.20646,39.6313],[-84.20805,39.63068],[-84.21133,39.63129],[-84.21227,39.63374],[-84.21412,39.63025],[-84.21909,39.63005],[-84.21684,39.63101],[-84.21602,39.63409],[-84.21729,39.63542],[-84.22198,39.63649],[-84.22537,39.63581],[-84.22516,39.63784],[-84.22178,39.63738]]]}},{"type":"Feature","properties":{"zcta":"45325","d":48},"geometry":{"type":"Polygon","coordinates":[[[-84.47195,39.72124],[-84.46248,39.7216],[-84.44882,39.72128],[-84.44883,39.72489],[-84.44774,39.72852],[-84.44292,39.72846],[-84.44303,39.73685],[-84.43341,39.73686],[-84.43343,39.73967],[-84.42879,39.73976],[-84.42857,39.7335],[-84.42518,39.73357],[-84.42517,39.73207],[-84.42858,39.73198],[-84.42852,39.72886],[-84.42723,39.72672],[-84.42373,39.72683],[-84.42374,39.72148],[-84.41971,39.72153],[-84.41804,39.71774],[-84.41614,39.71834],[-84.41006,39.71415],[-84.39448,39.71423],[-84.39361,39.71819],[-84.38083,39.71841],[-84.38085,39.71432],[-84.37793,39.71379],[-84.37798,39.70998],[-84.37546,39.71151],[-84.36949,39.71354],[-84.36949,39.71443],[-84.36277,39.71396],[-84.35765,39.71426],[-84.35744,39.71617],[-84.35905,39.71986],[-84.35803,39.72236],[-84.36225,39.72716],[-84.36046,39.72692],[-84.34754,39.72703],[-84.34757,39.71647],[-84.34641,39.71648],[-84.34634,39.71269],[-84.34754,39.71044],[-84.34756,39.70188],[-84.36646,39.70179],[-84.37134,39.70083],[-84.37159,39.68525],[-84.38675,39.68513],[-84.38603,39.67239],[-84.39482,39.67228],[-84.39154,39.66606],[-84.39255,39.66237],[-84.38784,39.65826],[-84.38529,39.65871],[-84.38479,39.65688],[-84.39167,39.65689],[-84.39172,39.65778],[-84.46513,39.65727],[-84.48015,39.65705],[-84.48145,39.72448],[-84.47184,39.72435],[-84.47195,39.72124]]]}},{"type":"Feature","properties":{"zcta":"45402","d":1077},"geometry":{"type":"Polygon","coordinates":[[[-84.24124,39.769],[-84.23633,39.76701],[-84.23646,39.76916],[-84.23433,39.7689],[-84.23365,39.77094],[-84.22672,39.77144],[-84.2234,39.7704],[-84.21797,39.77063],[-84.21795,39.76951],[-84.21258,39.76956],[-84.2106,39.76821],[-84.20561,39.76283],[-84.20376,39.76174],[-84.20225,39.76325],[-84.19951,39.76474],[-84.19317,39.76475],[-84.18803,39.76679],[-84.18334,39.76816],[-84.17707,39.76856],[-84.16206,39.77415],[-84.15987,39.77465],[-84.15889,39.77121],[-84.16917,39.76728],[-84.17412,39.76584],[-84.1746,39.7623],[-84.17126,39.76077],[-84.17359,39.75855],[-84.17713,39.75794],[-84.18211,39.75714],[-84.1816,39.75534],[-84.18493,39.75409],[-84.18453,39.75298],[-84.18801,39.75238],[-84.18782,39.75146],[-84.18444,39.75225],[-84.18324,39.75076],[-84.18514,39.74945],[-84.18885,39.74863],[-84.18654,39.74042],[-84.19294,39.74005],[-84.19423,39.74505],[-84.19775,39.75008],[-84.20726,39.74762],[-84.20658,39.74965],[-84.20901,39.74784],[-84.2107,39.74783],[-84.21076,39.74961],[-84.21467,39.74747],[-84.21795,39.74781],[-84.22036,39.74598],[-84.22402,39.74688],[-84.22415,39.7542],[-84.22725,39.75855],[-84.2265,39.76046],[-84.23064,39.76166],[-84.23504,39.76112],[-84.24006,39.76154],[-84.24702,39.76148],[-84.24973,39.76102],[-84.25054,39.75964],[-84.25333,39.76142],[-84.25357,39.77209],[-84.25009,39.7709],[-84.24771,39.76897],[-84.24375,39.76781],[-84.2432,39.76904],[-84.24124,39.769]],[[-84.19002,39.75982],[-84.1922,39.76098],[-84.19181,39.75954],[-84.19002,39.75982]]]}},{"type":"Feature","properties":{"zcta":"45420","d":2015},"geometry":{"type":"Polygon","coordinates":[[[-84.16434,39.73731],[-84.16283,39.73923],[-84.16266,39.74167],[-84.16008,39.74152],[-84.15967,39.73945],[-84.1551,39.73961],[-84.1534,39.74609],[-84.15023,39.74632],[-84.15048,39.74385],[-84.14061,39.74275],[-84.14019,39.74085],[-84.13475,39.74031],[-84.1324,39.74096],[-84.12962,39.73958],[-84.12934,39.73574],[-84.12685,39.73263],[-84.12281,39.73038],[-84.12253,39.72778],[-84.11973,39.72776],[-84.11931,39.73051],[-84.11565,39.72954],[-84.10907,39.729],[-84.10952,39.72378],[-84.10828,39.72203],[-84.10404,39.7214],[-84.10546,39.7064],[-84.10588,39.69865],[-84.10699,39.69687],[-84.10667,39.69117],[-84.1112,39.68828],[-84.11641,39.6878],[-84.12072,39.68862],[-84.12448,39.68844],[-84.12354,39.69359],[-84.1236,39.69922],[-84.1287,39.69989],[-84.12607,39.70684],[-84.12316,39.707],[-84.12378,39.70804],[-84.13082,39.70824],[-84.1366,39.70949],[-84.14306,39.71014],[-84.14287,39.7123],[-84.15232,39.71336],[-84.15299,39.71713],[-84.15236,39.72418],[-84.15469,39.72587],[-84.15685,39.72578],[-84.15671,39.72785],[-84.15807,39.7285],[-84.1583,39.7318],[-84.16128,39.73283],[-84.16227,39.73592],[-84.16459,39.73492],[-84.16474,39.73269],[-84.16893,39.73292],[-84.16893,39.73761],[-84.16434,39.73731]]]}},{"type":"Feature","properties":{"zcta":"45424","d":798},"geometry":{"type":"Polygon","coordinates":[[[-84.16661,39.86672],[-84.16248,39.87491],[-84.15716,39.88466],[-84.15722,39.88599],[-84.09818,39.88253],[-84.09778,39.88623],[-84.09623,39.88973],[-84.09449,39.89178],[-84.07962,39.89582],[-84.07963,39.89605],[-84.07503,39.8958],[-84.07519,39.89409],[-84.07331,39.89388],[-84.07351,39.89089],[-84.06849,39.88821],[-84.06699,39.88667],[-84.06215,39.88452],[-84.06594,39.88068],[-84.05101,39.87981],[-84.05122,39.87694],[-84.05517,39.87238],[-84.05914,39.87211],[-84.05568,39.87014],[-84.05636,39.86554],[-84.05226,39.86529],[-84.05374,39.85046],[-84.05503,39.83703],[-84.05715,39.83447],[-84.05782,39.82809],[-84.06043,39.82692],[-84.06178,39.82497],[-84.06096,39.82271],[-84.06742,39.81831],[-84.07143,39.81465],[-84.08414,39.8086],[-84.08529,39.80623],[-84.08389,39.79667],[-84.08523,39.79655],[-84.09157,39.79577],[-84.09675,39.79764],[-84.10158,39.80041],[-84.11602,39.79737],[-84.12755,39.79322],[-84.12864,39.7952],[-84.13046,39.80284],[-84.13277,39.80353],[-84.1325,39.80603],[-84.13375,39.80608],[-84.13328,39.81129],[-84.13687,39.81275],[-84.14264,39.81292],[-84.14261,39.81414],[-84.14546,39.81439],[-84.14691,39.81556],[-84.14466,39.81891],[-84.14448,39.82166],[-84.14666,39.82179],[-84.15133,39.8201],[-84.15615,39.82011],[-84.15343,39.82249],[-84.1529,39.82705],[-84.15591,39.83133],[-84.16236,39.82955],[-84.16994,39.82566],[-84.17454,39.82846],[-84.17594,39.83206],[-84.17544,39.83696],[-84.1724,39.84036],[-84.17364,39.84396],[-84.17384,39.85136],[-84.17172,39.85448],[-84.16661,39.86672]]]}},{"type":"Feature","properties":{"zcta":"45337","d":42},"geometry":{"type":"Polygon","coordinates":[[[-84.40033,40.03666],[-84.40504,40.03661],[-84.40483,40.0221],[-84.39155,40.02208],[-84.39038,40.01489],[-84.38998,40.0077],[-84.38972,39.99441],[-84.39425,39.99274],[-84.38715,39.98962],[-84.38721,39.99204],[-84.38497,39.99281],[-84.38032,39.99286],[-84.37908,39.99052],[-84.379,39.98774],[-84.37167,39.98569],[-84.3708,39.98545],[-84.37058,39.97572],[-84.37389,39.97563],[-84.37598,39.97231],[-84.37939,39.97226],[-84.38094,39.9688],[-84.3827,39.96874],[-84.38926,39.97102],[-84.38879,39.94918],[-84.40253,39.94905],[-84.40169,39.95378],[-84.40256,39.95563],[-84.40054,39.95851],[-84.39856,39.95825],[-84.39837,39.95992],[-84.39279,39.96358],[-84.40762,39.96345],[-84.40767,39.96801],[-84.422,39.96804],[-84.42199,39.95952],[-84.41727,39.95935],[-84.41715,39.94892],[-84.42627,39.94887],[-84.42649,39.94256],[-84.4171,39.94253],[-84.417,39.93445],[-84.4166,39.92145],[-84.41623,39.91975],[-84.4259,39.91962],[-84.42614,39.9269],[-84.44543,39.92683],[-84.44542,39.92626],[-84.45357,39.92677],[-84.46443,39.92667],[-84.46488,39.96356],[-84.45941,39.96515],[-84.45561,39.96788],[-84.45494,39.9732],[-84.45657,39.97725],[-84.44639,39.9774],[-84.4467,39.99192],[-84.41814,39.99246],[-84.4183,40.00496],[-84.42238,40.00732],[-84.42896,40.00724],[-84.42842,40.01083],[-84.42873,40.02189],[-84.42878,40.05079],[-84.41488,40.05092],[-84.41473,40.05166],[-84.40937,40.05181],[-84.40842,40.05115],[-84.40062,40.051],[-84.40033,40.03666]]]}},{"type":"Feature","properties":{"zcta":"45416","d":1320},"geometry":{"type":"Polygon","coordinates":[[[-84.2506,39.8199],[-84.25037,39.81432],[-84.24057,39.81371],[-84.23526,39.81297],[-84.23511,39.80931],[-84.24475,39.8072],[-84.24476,39.80095],[-84.25017,39.80131],[-84.25359,39.80079],[-84.25345,39.79797],[-84.2625,39.79757],[-84.27336,39.79776],[-84.27397,39.81578],[-84.27181,39.81467],[-84.25482,39.81468],[-84.25484,39.81983],[-84.2506,39.8199]]]}},{"type":"Feature","properties":{"zcta":"45404","d":686},"geometry":{"type":"Polygon","coordinates":[[[-84.15133,39.8201],[-84.14666,39.82179],[-84.14448,39.82166],[-84.14466,39.81891],[-84.14691,39.81556],[-84.14546,39.81439],[-84.14261,39.81414],[-84.14264,39.81292],[-84.13687,39.81275],[-84.13328,39.81129],[-84.13375,39.80608],[-84.1325,39.80603],[-84.13277,39.80353],[-84.13046,39.80284],[-84.12864,39.7952],[-84.12755,39.79322],[-84.11602,39.79737],[-84.10158,39.80041],[-84.09675,39.79764],[-84.09694,39.7935],[-84.10598,39.79047],[-84.14026,39.7784],[-84.14203,39.78038],[-84.14474,39.77996],[-84.15564,39.77496],[-84.15694,39.77606],[-84.15987,39.77465],[-84.16206,39.77415],[-84.17707,39.76856],[-84.18334,39.76816],[-84.18803,39.76679],[-84.18749,39.76912],[-84.18982,39.77204],[-84.19934,39.77786],[-84.19875,39.78203],[-84.19663,39.78565],[-84.18507,39.79116],[-84.17591,39.79629],[-84.16464,39.79806],[-84.15815,39.80012],[-84.15304,39.80496],[-84.15044,39.80966],[-84.15454,39.81346],[-84.15615,39.82011],[-84.15133,39.8201]]]}},{"type":"Feature","properties":{"zcta":"45359","d":64},"geometry":{"type":"Polygon","coordinates":[[[-84.39126,40.05103],[-84.39114,40.04751],[-84.38638,40.04753],[-84.3863,40.04397],[-84.38164,40.04404],[-84.38169,40.04691],[-84.37985,40.04692],[-84.38001,40.05397],[-84.37923,40.05826],[-84.37251,40.0585],[-84.37275,40.07334],[-84.35434,40.07356],[-84.35426,40.0801],[-84.353,40.08054],[-84.35264,40.07792],[-84.34919,40.07714],[-84.32567,40.07747],[-84.31777,40.07607],[-84.31251,40.07655],[-84.30905,40.07762],[-84.29808,40.07785],[-84.29719,40.06343],[-84.29689,40.05252],[-84.31578,40.05224],[-84.31564,40.04406],[-84.32994,40.04893],[-84.33004,40.04468],[-84.33459,40.0445],[-84.3343,40.03244],[-84.33988,40.03243],[-84.33932,40.03609],[-84.34385,40.03607],[-84.34216,40.03061],[-84.34183,40.02503],[-84.34559,40.02418],[-84.35418,40.02318],[-84.36537,40.02076],[-84.37087,40.02034],[-84.37435,40.02202],[-84.38168,40.02204],[-84.3829,40.02325],[-84.38301,40.02589],[-84.38427,40.02695],[-84.39066,40.0276],[-84.39155,40.02208],[-84.40483,40.0221],[-84.40504,40.03661],[-84.40033,40.03666],[-84.40062,40.051],[-84.39126,40.05103]]]}},{"type":"Feature","properties":{"zcta":"45431","d":1163},"geometry":{"type":"Polygon","coordinates":[[[-84.10598,39.79047],[-84.09694,39.7935],[-84.09784,39.78016],[-84.09894,39.77006],[-84.08966,39.76961],[-84.08912,39.77465],[-84.08293,39.7754],[-84.0797,39.77517],[-84.07924,39.77294],[-84.07666,39.77307],[-84.07654,39.77469],[-84.07386,39.77494],[-84.07166,39.77338],[-84.0519,39.77533],[-84.05204,39.77005],[-84.04538,39.76966],[-84.04919,39.7711],[-84.0495,39.7735],[-84.04745,39.77496],[-84.04522,39.77431],[-84.042,39.77518],[-84.03944,39.77327],[-84.03896,39.77605],[-84.03709,39.77615],[-84.02784,39.77463],[-84.02794,39.77176],[-84.02143,39.77045],[-84.0198,39.77318],[-84.01539,39.77004],[-84.01605,39.76802],[-84.01813,39.76804],[-84.01728,39.76268],[-84.0237,39.76306],[-84.02432,39.75728],[-84.02275,39.75649],[-84.02302,39.75349],[-84.01304,39.75295],[-84.01523,39.75137],[-84.01789,39.75152],[-84.01806,39.74909],[-84.02328,39.74857],[-84.02507,39.74974],[-84.02539,39.74616],[-84.03505,39.7467],[-84.0398,39.74513],[-84.03994,39.74588],[-84.0446,39.7482],[-84.04407,39.75468],[-84.04702,39.75483],[-84.0476,39.74751],[-84.05058,39.74768],[-84.05233,39.73901],[-84.05407,39.73886],[-84.053,39.74783],[-84.05448,39.75016],[-84.06162,39.75045],[-84.06175,39.74914],[-84.07014,39.74967],[-84.07975,39.75101],[-84.08097,39.74955],[-84.10088,39.75084],[-84.10111,39.74894],[-84.10311,39.74907],[-84.10373,39.75082],[-84.11988,39.75189],[-84.12021,39.75714],[-84.12332,39.75735],[-84.12203,39.75939],[-84.12715,39.75999],[-84.13585,39.7595],[-84.13769,39.7603],[-84.1429,39.76063],[-84.1427,39.76254],[-84.13804,39.76256],[-84.13928,39.76421],[-84.13781,39.76529],[-84.13724,39.77279],[-84.13561,39.77282],[-84.13541,39.77473],[-84.1384,39.77837],[-84.14026,39.7784],[-84.10598,39.79047]]]}},{"type":"Feature","properties":{"zcta":"45406","d":1809},"geometry":{"type":"Polygon","coordinates":[[[-84.2625,39.79757],[-84.25345,39.79797],[-84.25359,39.80079],[-84.25017,39.80131],[-84.24476,39.80095],[-84.24479,39.79845],[-84.23522,39.79829],[-84.23515,39.79345],[-84.23159,39.79346],[-84.22945,39.79441],[-84.2303,39.79835],[-84.22538,39.79841],[-84.22441,39.79503],[-84.22005,39.79429],[-84.22211,39.79357],[-84.22055,39.79111],[-84.22062,39.78822],[-84.22253,39.78864],[-84.22254,39.78431],[-84.21927,39.78383],[-84.21574,39.78181],[-84.21922,39.78086],[-84.21919,39.77756],[-84.21756,39.77579],[-84.21041,39.77533],[-84.20651,39.77452],[-84.20726,39.76915],[-84.20225,39.76325],[-84.20376,39.76174],[-84.20561,39.76283],[-84.2106,39.76821],[-84.21258,39.76956],[-84.21795,39.76951],[-84.21797,39.77063],[-84.2234,39.7704],[-84.22672,39.77144],[-84.23365,39.77094],[-84.23433,39.7689],[-84.23646,39.76916],[-84.23633,39.76701],[-84.24124,39.769],[-84.2432,39.76904],[-84.24596,39.76917],[-84.24736,39.7706],[-84.24564,39.77334],[-84.25164,39.77486],[-84.25372,39.77716],[-84.25794,39.77686],[-84.26384,39.77839],[-84.26949,39.78641],[-84.2705,39.78636],[-84.27121,39.79139],[-84.27693,39.79406],[-84.28069,39.79767],[-84.27746,39.797],[-84.27336,39.79776],[-84.2625,39.79757]]]}},{"type":"Feature","properties":{"zcta":"45430","d":794},"geometry":{"type":"Polygon","coordinates":[[[-84.10161,39.72632],[-84.09758,39.72802],[-84.08973,39.72804],[-84.08955,39.73128],[-84.08768,39.73508],[-84.08338,39.73389],[-84.07427,39.73001],[-84.06754,39.72653],[-84.05986,39.72088],[-84.06171,39.72009],[-84.06524,39.72031],[-84.06622,39.71928],[-84.07102,39.71956],[-84.07229,39.71517],[-84.06444,39.71514],[-84.06178,39.71581],[-84.06254,39.71125],[-84.06341,39.71138],[-84.0636,39.70594],[-84.06572,39.70177],[-84.06633,39.69394],[-84.06813,39.69372],[-84.07484,39.69467],[-84.07595,39.69664],[-84.07902,39.69668],[-84.07884,39.69869],[-84.08197,39.69925],[-84.08351,39.69813],[-84.08682,39.69836],[-84.08711,39.69536],[-84.10022,39.69617],[-84.10069,39.69894],[-84.10588,39.69865],[-84.10546,39.7064],[-84.10404,39.7214],[-84.10161,39.72632]]]}},{"type":"Feature","properties":{"zcta":"45345","d":131},"geometry":{"type":"MultiPolygon","coordinates":[[[[-84.47194,39.74488],[-84.45944,39.74497],[-84.45841,39.74706],[-84.4586,39.7522],[-84.46052,39.75219],[-84.46061,39.75949],[-84.44596,39.75961],[-84.44505,39.76275],[-84.45224,39.76771],[-84.45187,39.77144],[-84.45449,39.77083],[-84.45542,39.77253],[-84.45854,39.77403],[-84.44043,39.77414],[-84.4404,39.77278],[-84.43579,39.77283],[-84.43572,39.76735],[-84.4326,39.76738],[-84.43252,39.76462],[-84.42781,39.76466],[-84.42779,39.76126],[-84.42417,39.7613],[-84.42309,39.75987],[-84.41439,39.75995],[-84.41366,39.7577],[-84.41362,39.75349],[-84.4029,39.75277],[-84.39805,39.75279],[-84.39807,39.75515],[-84.39478,39.75516],[-84.39483,39.76009],[-84.39198,39.76009],[-84.39241,39.76269],[-84.38933,39.76348],[-84.38896,39.76734],[-84.3761,39.76741],[-84.37611,39.76914],[-84.37339,39.76956],[-84.37335,39.76786],[-84.37012,39.76017],[-84.36237,39.76034],[-84.36207,39.75678],[-84.36028,39.7537],[-84.36657,39.75307],[-84.36555,39.75199],[-84.36552,39.74663],[-84.36653,39.74539],[-84.36403,39.74359],[-84.36401,39.74153],[-84.35703,39.74125],[-84.35703,39.7425],[-84.34897,39.74257],[-84.34897,39.74498],[-84.34755,39.74593],[-84.34315,39.74643],[-84.3434,39.7534],[-84.33429,39.75354],[-84.33413,39.74852],[-84.33079,39.74852],[-84.3297,39.74611],[-84.31924,39.74621],[-84.31854,39.74176],[-84.32294,39.74255],[-84.32854,39.73587],[-84.32073,39.73551],[-84.32006,39.72403],[-84.32717,39.724],[-84.32689,39.72019],[-84.32567,39.71792],[-84.32418,39.71795],[-84.32471,39.71264],[-84.32639,39.71264],[-84.32588,39.70933],[-84.32291,39.70935],[-84.32289,39.70597],[-84.32534,39.70552],[-84.32805,39.70766],[-84.32797,39.70197],[-84.34756,39.70188],[-84.34754,39.71044],[-84.34634,39.71269],[-84.34641,39.71648],[-84.34757,39.71647],[-84.34754,39.72703],[-84.36046,39.72692],[-84.36225,39.72716],[-84.35803,39.72236],[-84.35905,39.71986],[-84.35744,39.71617],[-84.35765,39.71426],[-84.36277,39.71396],[-84.36949,39.71443],[-84.36949,39.71354],[-84.37546,39.71151],[-84.37798,39.70998],[-84.37793,39.71379],[-84.38085,39.71432],[-84.38083,39.71841],[-84.39361,39.71819],[-84.39448,39.71423],[-84.41006,39.71415],[-84.41614,39.71834],[-84.41804,39.71774],[-84.41971,39.72153],[-84.42374,39.72148],[-84.42373,39.72683],[-84.42723,39.72672],[-84.42852,39.72886],[-84.42858,39.73198],[-84.42517,39.73207],[-84.42518,39.73357],[-84.42857,39.7335],[-84.42879,39.73976],[-84.43343,39.73967],[-84.43341,39.73686],[-84.44303,39.73685],[-84.44292,39.72846],[-84.44774,39.72852],[-84.44883,39.72489],[-84.44882,39.72128],[-84.46248,39.7216],[-84.47195,39.72124],[-84.47184,39.72435],[-84.47194,39.74488]]],[[[-84.46542,39.77398],[-84.46535,39.76672],[-84.46342,39.76673],[-84.46337,39.75946],[-84.46293,39.7576],[-84.46529,39.75759],[-84.46522,39.75204],[-84.46662,39.75202],[-84.46657,39.74685],[-84.46984,39.74543],[-84.47112,39.74851],[-84.47722,39.74846],[-84.47733,39.75545],[-84.47961,39.75542],[-84.47966,39.75808],[-84.48207,39.75806],[-84.48215,39.76344],[-84.47611,39.76349],[-84.47617,39.77027],[-84.48129,39.77026],[-84.4823,39.77096],[-84.48237,39.77389],[-84.46542,39.77398]]]]}},{"type":"Feature","properties":{"zcta":"45429","d":1401},"geometry":{"type":"Polygon","coordinates":[[[-84.19731,39.70041],[-84.19696,39.69892],[-84.19034,39.69904],[-84.18988,39.70061],[-84.1873,39.70013],[-84.19035,39.699],[-84.19102,39.69564],[-84.18807,39.69443],[-84.18786,39.69286],[-84.18311,39.69247],[-84.17879,39.69668],[-84.1776,39.70031],[-84.17857,39.7016],[-84.17707,39.70465],[-84.17235,39.70586],[-84.1697,39.70368],[-84.16276,39.70331],[-84.15834,39.7025],[-84.15592,39.70389],[-84.1483,39.70384],[-84.1484,39.70249],[-84.14541,39.70199],[-84.14342,39.70042],[-84.14194,39.70375],[-84.14306,39.71014],[-84.1366,39.70949],[-84.13082,39.70824],[-84.12378,39.70804],[-84.12316,39.707],[-84.12607,39.70684],[-84.1287,39.69989],[-84.1236,39.69922],[-84.12354,39.69359],[-84.12448,39.68844],[-84.13195,39.68885],[-84.13592,39.6882],[-84.13478,39.68544],[-84.13683,39.65837],[-84.14687,39.65866],[-84.14971,39.65828],[-84.15902,39.65896],[-84.1611,39.66354],[-84.16552,39.66368],[-84.16524,39.66667],[-84.17041,39.6665],[-84.17122,39.66842],[-84.17385,39.66704],[-84.17655,39.6688],[-84.18046,39.6678],[-84.18153,39.66418],[-84.18908,39.6644],[-84.18826,39.66731],[-84.19102,39.66662],[-84.1912,39.6679],[-84.19399,39.66783],[-84.19534,39.66929],[-84.19481,39.6764],[-84.1984,39.67699],[-84.19877,39.67536],[-84.20237,39.67477],[-84.20358,39.67746],[-84.20352,39.68273],[-84.20659,39.68282],[-84.20518,39.68887],[-84.2033,39.69114],[-84.20131,39.69078],[-84.20074,39.69541],[-84.19761,39.69666],[-84.19986,39.69785],[-84.20026,39.7007],[-84.19731,39.70041]]]}},{"type":"Feature","properties":{"zcta":"45318","d":58},"geometry":{"type":"Polygon","coordinates":[[[-84.32696,40.18344],[-84.32672,40.14676],[-84.31726,40.14687],[-84.31689,40.12447],[-84.3171,40.11794],[-84.31638,40.10312],[-84.30683,40.10325],[-84.30722,40.11545],[-84.30172,40.11522],[-84.30158,40.11044],[-84.29735,40.11073],[-84.29759,40.10913],[-84.3018,40.10913],[-84.3018,40.10689],[-84.29432,40.10688],[-84.29432,40.10917],[-84.29167,40.10927],[-84.29174,40.11077],[-84.285,40.11088],[-84.28557,40.10359],[-84.27805,40.10371],[-84.27794,40.09643],[-84.25893,40.09667],[-84.23986,40.09655],[-84.24105,40.0842],[-84.24132,40.07802],[-84.24674,40.07803],[-84.24779,40.07869],[-84.2519,40.07774],[-84.25817,40.07867],[-84.26036,40.07961],[-84.2602,40.07597],[-84.27888,40.07539],[-84.28132,40.07445],[-84.28704,40.07853],[-84.28851,40.07802],[-84.29808,40.07785],[-84.30905,40.07762],[-84.31251,40.07655],[-84.31777,40.07607],[-84.32567,40.07747],[-84.34919,40.07714],[-84.35264,40.07792],[-84.353,40.08054],[-84.35426,40.0801],[-84.35434,40.07356],[-84.37275,40.07334],[-84.37251,40.0585],[-84.37923,40.05826],[-84.38001,40.05397],[-84.37985,40.04692],[-84.38169,40.04691],[-84.38164,40.04404],[-84.3863,40.04397],[-84.38638,40.04753],[-84.39114,40.04751],[-84.39126,40.05103],[-84.40062,40.051],[-84.40116,40.0729],[-84.41209,40.07279],[-84.40864,40.07744],[-84.40487,40.07766],[-84.4029,40.07858],[-84.40326,40.0808],[-84.39987,40.08253],[-84.39434,40.08361],[-84.39243,40.08289],[-84.39259,40.09485],[-84.40151,40.09473],[-84.40191,40.10929],[-84.40468,40.10928],[-84.40397,40.11339],[-84.40259,40.11446],[-84.40231,40.1196],[-84.4039,40.11959],[-84.40402,40.12423],[-84.40109,40.12421],[-84.40064,40.12604],[-84.39288,40.12467],[-84.39335,40.14126],[-84.39329,40.14796],[-84.3995,40.14787],[-84.39961,40.15006],[-84.3963,40.14936],[-84.3907,40.14918],[-84.38933,40.14831],[-84.38956,40.15171],[-84.39341,40.15143],[-84.39352,40.15357],[-84.39505,40.15342],[-84.39929,40.15711],[-84.40444,40.16568],[-84.40625,40.166],[-84.41002,40.16483],[-84.412,40.16325],[-84.41302,40.16525],[-84.41312,40.18098],[-84.44126,40.18078],[-84.43862,40.18818],[-84.43772,40.19699],[-84.39448,40.19764],[-84.38385,40.19731],[-84.37544,40.19732],[-84.32736,40.19799],[-84.32696,40.18344]]]}},{"type":"Feature","properties":{"zcta":"45322","d":543},"geometry":{"type":"Polygon","coordinates":[[[-84.3838,39.93476],[-84.38393,39.94197],[-84.37452,39.94205],[-84.37444,39.93843],[-84.36729,39.93789],[-84.36732,39.94173],[-84.35075,39.94211],[-84.35072,39.93972],[-84.34124,39.93988],[-84.3393,39.9389],[-84.33913,39.93606],[-84.33263,39.93629],[-84.33636,39.93549],[-84.3362,39.92833],[-84.34097,39.92795],[-84.34084,39.92089],[-84.33131,39.92106],[-84.33142,39.92766],[-84.32494,39.92773],[-84.31828,39.9284],[-84.31361,39.92739],[-84.31414,39.929],[-84.31167,39.92917],[-84.31171,39.93574],[-84.30243,39.93584],[-84.30068,39.9367],[-84.29888,39.93215],[-84.29528,39.93132],[-84.29274,39.92867],[-84.29412,39.92551],[-84.2963,39.92404],[-84.29921,39.92583],[-84.30225,39.92514],[-84.30194,39.92135],[-84.29983,39.91925],[-84.29574,39.91714],[-84.29614,39.91347],[-84.29783,39.90945],[-84.29722,39.90464],[-84.29561,39.90021],[-84.29063,39.89695],[-84.29224,39.88486],[-84.29634,39.88076],[-84.29414,39.87646],[-84.29214,39.87426],[-84.28506,39.86989],[-84.27479,39.86649],[-84.26881,39.86129],[-84.28002,39.85853],[-84.27829,39.857],[-84.28114,39.85596],[-84.28136,39.85746],[-84.28343,39.85704],[-84.28399,39.85369],[-84.28954,39.85402],[-84.28947,39.84949],[-84.29227,39.84833],[-84.29207,39.83792],[-84.29083,39.83782],[-84.29079,39.8348],[-84.29202,39.83308],[-84.29666,39.83301],[-84.29658,39.8365],[-84.29943,39.83955],[-84.30545,39.84004],[-84.30661,39.83832],[-84.31091,39.84085],[-84.31131,39.85499],[-84.33051,39.85497],[-84.33057,39.85795],[-84.32482,39.85674],[-84.32466,39.8587],[-84.32201,39.86189],[-84.31138,39.86202],[-84.31169,39.87682],[-84.32893,39.87526],[-84.33092,39.87681],[-84.33113,39.88358],[-84.34066,39.88343],[-84.34088,39.89111],[-84.35013,39.89071],[-84.36852,39.89039],[-84.38732,39.89036],[-84.38754,39.90548],[-84.38634,39.9055],[-84.38632,39.91537],[-84.38471,39.91542],[-84.38483,39.91917],[-84.38811,39.92023],[-84.38852,39.93473],[-84.3838,39.93476]]]}},{"type":"Feature","properties":{"zcta":"45373","d":209},"geometry":{"type":"Polygon","coordinates":[[[-84.28851,40.07802],[-84.28704,40.07853],[-84.28132,40.07445],[-84.27888,40.07539],[-84.2602,40.07597],[-84.26036,40.07961],[-84.25817,40.07867],[-84.2519,40.07774],[-84.24779,40.07869],[-84.24674,40.07803],[-84.24132,40.07802],[-84.24105,40.0842],[-84.23986,40.09655],[-84.24006,40.10555],[-84.23506,40.10658],[-84.23158,40.10789],[-84.23096,40.10672],[-84.22654,40.10342],[-84.21804,40.12086],[-84.21643,40.1151],[-84.21447,40.11587],[-84.20888,40.11616],[-84.209,40.11422],[-84.20428,40.11396],[-84.20482,40.10773],[-84.20021,40.10654],[-84.1829,40.10542],[-84.16262,40.10437],[-84.16136,40.1187],[-84.14333,40.11767],[-84.14423,40.10324],[-84.13087,40.10249],[-84.12975,40.1005],[-84.1308,40.09903],[-84.129,40.09626],[-84.12567,40.09349],[-84.12672,40.08973],[-84.12928,40.08807],[-84.1314,40.08322],[-84.13184,40.08002],[-84.13381,40.07762],[-84.12811,40.08046],[-84.11703,40.08325],[-84.11767,40.07709],[-84.11999,40.0774],[-84.12049,40.07471],[-84.12429,40.07468],[-84.12737,40.07371],[-84.12872,40.06081],[-84.12922,40.05896],[-84.1329,40.05754],[-84.12989,40.05615],[-84.13124,40.05203],[-84.13376,40.05206],[-84.1401,40.05018],[-84.14033,40.04868],[-84.13904,40.04447],[-84.1116,40.04331],[-84.11506,40.00573],[-84.11156,40.00553],[-84.111,40.01093],[-84.11219,40.011],[-84.11183,40.01461],[-84.07631,40.01249],[-84.07581,40.01764],[-84.06642,40.01723],[-84.06589,40.02336],[-84.05648,40.02288],[-84.05624,40.02577],[-84.04968,40.02545],[-84.04831,40.02037],[-84.04559,40.01456],[-84.04739,40.01079],[-84.03926,40.0082],[-84.0395,40.00386],[-84.04076,40.00285],[-84.04145,39.99922],[-84.04252,39.99841],[-84.04387,39.99323],[-84.04723,39.99508],[-84.05292,39.99648],[-84.0621,39.99708],[-84.06268,39.99569],[-84.05956,39.992],[-84.06294,39.98768],[-84.06799,39.98869],[-84.07124,39.99335],[-84.07501,39.99559],[-84.07481,39.99788],[-84.07763,39.99805],[-84.08043,39.9692],[-84.09432,39.97009],[-84.09399,39.97263],[-84.09762,39.97529],[-84.10295,39.97565],[-84.10274,39.97786],[-84.10462,39.97796],[-84.10667,39.98335],[-84.10494,39.98325],[-84.10485,39.98529],[-84.12002,39.98605],[-84.11992,39.98229],[-84.13299,39.97921],[-84.13628,39.97926],[-84.14426,39.97471],[-84.14389,39.97294],[-84.16731,39.97435],[-84.16823,39.97566],[-84.1728,39.97827],[-84.17192,39.98258],[-84.17358,39.98467],[-84.17643,39.98482],[-84.1792,39.98612],[-84.18434,39.99362],[-84.18449,39.99541],[-84.19481,39.99552],[-84.20044,39.99294],[-84.19758,39.99204],[-84.19233,39.99212],[-84.1918,39.98876],[-84.19453,39.98871],[-84.19444,39.98477],[-84.18617,39.98436],[-84.18564,39.98139],[-84.19315,39.98127],[-84.19358,39.98429],[-84.19643,39.98523],[-84.19828,39.98776],[-84.20041,39.98778],[-84.20041,39.98386],[-84.20955,39.99097],[-84.22111,39.99065],[-84.22106,39.98727],[-84.2194,39.98729],[-84.21937,39.98308],[-84.217,39.98309],[-84.21627,39.98096],[-84.21552,39.9737],[-84.20923,39.97386],[-84.20887,39.96668],[-84.21836,39.96642],[-84.21834,39.96553],[-84.22578,39.96565],[-84.22815,39.96742],[-84.22832,39.97336],[-84.25249,39.97309],[-84.25237,39.96869],[-84.25696,39.96867],[-84.25677,39.96224],[-84.26632,39.96256],[-84.26766,39.96087],[-84.27092,39.96076],[-84.27104,39.95059],[-84.27509,39.95028],[-84.27559,39.95489],[-84.27734,39.95765],[-84.28497,39.95779],[-84.28501,39.95935],[-84.28975,39.96099],[-84.28981,39.9638],[-84.28691,39.96385],[-84.2862,39.96531],[-84.27949,39.96548],[-84.28003,39.97248],[-84.27403,39.97529],[-84.27369,39.98822],[-84.27512,39.9872],[-84.28766,39.9871],[-84.2882,39.99275],[-84.29388,39.99269],[-84.29515,39.99442],[-84.29524,40.00097],[-84.3046,39.99797],[-84.30466,39.99982],[-84.31019,39.99795],[-84.31032,40.00144],[-84.31187,40.00486],[-84.30926,40.00491],[-84.3093,40.00682],[-84.30708,40.00684],[-84.30713,40.00876],[-84.29595,40.00887],[-84.29626,40.02342],[-84.30744,40.02325],[-84.30894,40.02597],[-84.31169,40.02597],[-84.31174,40.03053],[-84.31526,40.0305],[-84.31564,40.04406],[-84.31578,40.05224],[-84.29689,40.05252],[-84.29719,40.06343],[-84.29808,40.07785],[-84.28851,40.07802]]]}},{"type":"Feature","properties":{"zcta":"45383","d":127},"geometry":{"type":"Polygon","coordinates":[[[-84.40766,39.9596],[-84.40762,39.96345],[-84.39279,39.96358],[-84.39837,39.95992],[-84.39856,39.95825],[-84.40054,39.95851],[-84.40256,39.95563],[-84.40169,39.95378],[-84.40253,39.94905],[-84.38879,39.94918],[-84.38926,39.97102],[-84.3827,39.96874],[-84.38094,39.9688],[-84.37939,39.97226],[-84.37598,39.97231],[-84.37389,39.97563],[-84.37058,39.97572],[-84.3708,39.98545],[-84.37167,39.98569],[-84.37182,39.99064],[-84.37091,39.9906],[-84.37109,39.99413],[-84.36574,39.99364],[-84.36152,39.99221],[-84.36136,39.98689],[-84.36278,39.98593],[-84.36206,39.9825],[-84.36481,39.98119],[-84.35669,39.9773],[-84.35154,39.97736],[-84.35156,39.97901],[-84.32643,39.97925],[-84.3237,39.98164],[-84.3182,39.98079],[-84.31648,39.98162],[-84.31476,39.98487],[-84.3159,39.9906],[-84.31553,39.99454],[-84.3046,39.99797],[-84.29524,40.00097],[-84.29515,39.99442],[-84.29388,39.99269],[-84.2882,39.99275],[-84.28766,39.9871],[-84.27512,39.9872],[-84.27369,39.98822],[-84.27403,39.97529],[-84.28003,39.97248],[-84.27949,39.96548],[-84.2862,39.96531],[-84.28691,39.96385],[-84.28981,39.9638],[-84.28975,39.96099],[-84.28501,39.95935],[-84.28497,39.95779],[-84.27734,39.95765],[-84.27559,39.95489],[-84.27509,39.95028],[-84.27491,39.93565],[-84.27145,39.93505],[-84.27134,39.93125],[-84.27233,39.93124],[-84.27256,39.92687],[-84.27472,39.92642],[-84.2747,39.92372],[-84.27814,39.92439],[-84.27808,39.92155],[-84.30194,39.92135],[-84.30225,39.92514],[-84.29921,39.92583],[-84.2963,39.92404],[-84.29412,39.92551],[-84.29274,39.92867],[-84.29528,39.93132],[-84.29888,39.93215],[-84.30068,39.9367],[-84.30243,39.93584],[-84.31171,39.93574],[-84.31167,39.92917],[-84.31414,39.929],[-84.31361,39.92739],[-84.31828,39.9284],[-84.32494,39.92773],[-84.33142,39.92766],[-84.33131,39.92106],[-84.34084,39.92089],[-84.34097,39.92795],[-84.3362,39.92833],[-84.33636,39.93549],[-84.33263,39.93629],[-84.33913,39.93606],[-84.3393,39.9389],[-84.34124,39.93988],[-84.35072,39.93972],[-84.35075,39.94211],[-84.36732,39.94173],[-84.36729,39.93789],[-84.37444,39.93843],[-84.37452,39.94205],[-84.38393,39.94197],[-84.3838,39.93476],[-84.38852,39.93473],[-84.417,39.93445],[-84.4171,39.94253],[-84.42649,39.94256],[-84.42627,39.94887],[-84.41715,39.94892],[-84.41727,39.95935],[-84.40766,39.9596]]]}},{"type":"Feature","properties":{"zcta":"45387","d":99},"geometry":{"type":"Polygon","coordinates":[[[-83.94129,39.82884],[-83.88851,39.82607],[-83.87289,39.82517],[-83.86833,39.83249],[-83.84322,39.83087],[-83.84389,39.82371],[-83.82744,39.82256],[-83.82915,39.80066],[-83.8278,39.79921],[-83.82821,39.79475],[-83.82248,39.79444],[-83.82218,39.79708],[-83.81101,39.79588],[-83.79774,39.8035],[-83.79206,39.80596],[-83.79008,39.80802],[-83.7854,39.81099],[-83.78126,39.81191],[-83.78138,39.80586],[-83.77757,39.80456],[-83.7764,39.80537],[-83.77351,39.8014],[-83.76372,39.80178],[-83.7637,39.79596],[-83.77131,39.79839],[-83.7662,39.79139],[-83.76666,39.79114],[-83.7978,39.79453],[-83.80027,39.79396],[-83.80226,39.79467],[-83.80461,39.79345],[-83.80809,39.79356],[-83.81337,39.79515],[-83.81724,39.79347],[-83.82167,39.79453],[-83.82313,39.79319],[-83.8267,39.79198],[-83.8269,39.78952],[-83.82902,39.78937],[-83.83016,39.78751],[-83.83329,39.78728],[-83.83661,39.786],[-83.83522,39.782],[-83.84167,39.78087],[-83.84031,39.77686],[-83.84787,39.77542],[-83.84464,39.76621],[-83.86596,39.7671],[-83.86727,39.77299],[-83.86849,39.77571],[-83.87061,39.77778],[-83.8838,39.77037],[-83.88451,39.76878],[-83.89261,39.76942],[-83.8934,39.76753],[-83.89817,39.76666],[-83.903,39.76368],[-83.90448,39.76374],[-83.90836,39.76135],[-83.91087,39.76181],[-83.91506,39.7601],[-83.91934,39.76096],[-83.92251,39.75642],[-83.92485,39.7511],[-83.92464,39.74729],[-83.92711,39.74618],[-83.93121,39.74829],[-83.93296,39.74607],[-83.93559,39.74837],[-83.93551,39.74992],[-83.93937,39.75005],[-83.9385,39.75586],[-83.94124,39.76071],[-83.94068,39.76929],[-83.94131,39.77703],[-83.94671,39.77734],[-83.94604,39.78489],[-83.96166,39.78578],[-83.96148,39.78776],[-83.95491,39.78738],[-83.94952,39.78798],[-83.9493,39.79029],[-83.94687,39.79087],[-83.94731,39.79277],[-83.94506,39.79331],[-83.94409,39.79974],[-83.94301,39.81452],[-83.94812,39.81497],[-83.9474,39.82181],[-83.95225,39.82206],[-83.95144,39.82298],[-83.95097,39.82826],[-83.95233,39.82948],[-83.95557,39.82982],[-83.95233,39.83253],[-83.95245,39.83597],[-83.95108,39.84084],[-83.94633,39.84071],[-83.94322,39.84125],[-83.93981,39.84345],[-83.94129,39.82884]]]}},{"type":"Feature","properties":{"zcta":"45370","d":56},"geometry":{"type":"MultiPolygon","coordinates":[[[[-84.09889,39.61118],[-84.09841,39.61326],[-84.09216,39.61242],[-84.0901,39.61085],[-84.08777,39.61163],[-84.09102,39.60841],[-84.10187,39.61007],[-84.10173,39.61158],[-84.09889,39.61118]]],[[[-84.10781,39.6069],[-84.11151,39.60736],[-84.11113,39.61137],[-84.10732,39.61083],[-84.10781,39.6069]]],[[[-84.10937,39.58842],[-84.10956,39.58647],[-84.1041,39.58576],[-84.10125,39.58465],[-84.10113,39.58609],[-84.09476,39.58495],[-84.09431,39.5894],[-84.08326,39.58697],[-84.08303,39.588],[-84.07505,39.58611],[-84.07357,39.60444],[-84.07118,39.63083],[-84.0697,39.63053],[-84.06034,39.64269],[-84.05772,39.64236],[-84.05629,39.64527],[-84.05138,39.64656],[-84.04841,39.64642],[-84.04298,39.64502],[-84.03645,39.64],[-84.03316,39.63759],[-84.03583,39.63533],[-84.02875,39.63309],[-84.02704,39.63583],[-84.02815,39.63104],[-84.02635,39.63182],[-84.01728,39.634],[-84.00974,39.62939],[-84.0036,39.62949],[-84.00149,39.6269],[-83.99694,39.63011],[-83.99099,39.63052],[-83.98884,39.62809],[-83.98871,39.62585],[-83.98407,39.62493],[-83.98525,39.62369],[-83.98063,39.62125],[-83.98246,39.61891],[-83.9809,39.61866],[-83.98644,39.61137],[-83.97742,39.60669],[-83.97935,39.60352],[-83.97278,39.60094],[-83.96487,39.59931],[-83.9681,39.59574],[-83.9764,39.59785],[-83.97668,39.59966],[-83.98128,39.60195],[-83.98361,39.59977],[-83.98687,39.60062],[-83.9852,39.6044],[-83.9878,39.60607],[-83.9997,39.60974],[-84.00103,39.61068],[-84.00605,39.60422],[-84.01393,39.60194],[-84.01423,39.59898],[-84.0134,39.59735],[-84.01368,39.59319],[-84.0172,39.58933],[-84.01806,39.59209],[-84.02169,39.5928],[-84.0229,39.59149],[-84.02575,39.59129],[-84.02931,39.58584],[-84.03054,39.5816],[-84.02954,39.57894],[-84.03277,39.58007],[-84.03354,39.57614],[-84.03209,39.57306],[-84.06757,39.57534],[-84.07013,39.57923],[-84.07546,39.58143],[-84.07556,39.57991],[-84.08059,39.58131],[-84.08213,39.583],[-84.08353,39.58192],[-84.08775,39.58159],[-84.09128,39.58317],[-84.09421,39.58259],[-84.10406,39.58348],[-84.10576,39.57921],[-84.11023,39.57798],[-84.11417,39.57823],[-84.11333,39.58874],[-84.10937,39.58842]]]]}},{"type":"Feature","properties":{"zcta":"45432","d":984},"geometry":{"type":"Polygon","coordinates":[[[-84.12807,39.74832],[-84.12923,39.75187],[-84.12682,39.75345],[-84.12332,39.75735],[-84.12021,39.75714],[-84.11988,39.75189],[-84.10373,39.75082],[-84.10311,39.74907],[-84.10111,39.74894],[-84.10088,39.75084],[-84.08097,39.74955],[-84.07975,39.75101],[-84.07014,39.74967],[-84.06175,39.74914],[-84.06162,39.75045],[-84.05448,39.75016],[-84.053,39.74783],[-84.05407,39.73886],[-84.05233,39.73901],[-84.05058,39.74768],[-84.0476,39.74751],[-84.04702,39.75483],[-84.04407,39.75468],[-84.0446,39.7482],[-84.03994,39.74588],[-84.0398,39.74513],[-84.03997,39.74058],[-84.03913,39.73738],[-84.0412,39.73627],[-84.04559,39.73629],[-84.04627,39.7294],[-84.04784,39.72916],[-84.04929,39.72608],[-84.05187,39.7261],[-84.05724,39.72799],[-84.0587,39.72392],[-84.05351,39.71878],[-84.05528,39.71828],[-84.05986,39.72088],[-84.06754,39.72653],[-84.07427,39.73001],[-84.08338,39.73389],[-84.08768,39.73508],[-84.08955,39.73128],[-84.08973,39.72804],[-84.09758,39.72802],[-84.10161,39.72632],[-84.10404,39.7214],[-84.10828,39.72203],[-84.10952,39.72378],[-84.10907,39.729],[-84.11565,39.72954],[-84.11931,39.73051],[-84.11973,39.72776],[-84.12253,39.72778],[-84.12281,39.73038],[-84.12685,39.73263],[-84.12934,39.73574],[-84.12962,39.73958],[-84.12791,39.74503],[-84.12886,39.74797],[-84.12807,39.74832]]]}},{"type":"Feature","properties":{"zcta":"45419","d":2053},"geometry":{"type":"Polygon","coordinates":[[[-84.18806,39.70134],[-84.18623,39.70594],[-84.18156,39.70476],[-84.18011,39.70796],[-84.18066,39.71164],[-84.18008,39.7133],[-84.18454,39.71677],[-84.18603,39.71877],[-84.18338,39.72439],[-84.18545,39.7256],[-84.18555,39.72999],[-84.1841,39.72899],[-84.18086,39.72945],[-84.17868,39.72784],[-84.1725,39.72533],[-84.17359,39.72756],[-84.17299,39.73029],[-84.16747,39.73147],[-84.16893,39.73292],[-84.16474,39.73269],[-84.16459,39.73492],[-84.16227,39.73592],[-84.16128,39.73283],[-84.1583,39.7318],[-84.15807,39.7285],[-84.15671,39.72785],[-84.15685,39.72578],[-84.15469,39.72587],[-84.15236,39.72418],[-84.15299,39.71713],[-84.15232,39.71336],[-84.14287,39.7123],[-84.14306,39.71014],[-84.14194,39.70375],[-84.14342,39.70042],[-84.14541,39.70199],[-84.1484,39.70249],[-84.1483,39.70384],[-84.15592,39.70389],[-84.15834,39.7025],[-84.16276,39.70331],[-84.1697,39.70368],[-84.17235,39.70586],[-84.17707,39.70465],[-84.17857,39.7016],[-84.1776,39.70031],[-84.17879,39.69668],[-84.18311,39.69247],[-84.18786,39.69286],[-84.18807,39.69443],[-84.19102,39.69564],[-84.19035,39.699],[-84.1873,39.70013],[-84.18988,39.70061],[-84.18806,39.70134]]]}},{"type":"Feature","properties":{"zcta":"45439","d":893},"geometry":{"type":"Polygon","coordinates":[[[-84.20589,39.72887],[-84.20773,39.72637],[-84.20834,39.71991],[-84.21051,39.72004],[-84.21072,39.71685],[-84.20762,39.7167],[-84.20928,39.71305],[-84.19992,39.71216],[-84.20107,39.70871],[-84.20115,39.70281],[-84.2025,39.70106],[-84.20026,39.7007],[-84.19986,39.69785],[-84.19761,39.69666],[-84.20074,39.69541],[-84.20131,39.69078],[-84.2033,39.69114],[-84.20518,39.68887],[-84.20659,39.68282],[-84.20352,39.68273],[-84.20358,39.67746],[-84.20237,39.67477],[-84.20288,39.67017],[-84.20372,39.67233],[-84.21051,39.67456],[-84.2109,39.67192],[-84.21582,39.67255],[-84.22189,39.67319],[-84.22072,39.68716],[-84.22652,39.68352],[-84.23108,39.68547],[-84.23296,39.68155],[-84.23597,39.6804],[-84.24656,39.68035],[-84.24933,39.68207],[-84.24683,39.68771],[-84.24712,39.68908],[-84.24976,39.69014],[-84.2594,39.68894],[-84.26677,39.68297],[-84.26736,39.68122],[-84.27055,39.68165],[-84.2707,39.68326],[-84.26839,39.69036],[-84.26903,39.6955],[-84.27218,39.69334],[-84.27254,39.69073],[-84.27719,39.69317],[-84.27643,39.6954],[-84.27577,39.70033],[-84.2788,39.70045],[-84.27881,39.70265],[-84.27208,39.70271],[-84.27151,39.70183],[-84.26717,39.70189],[-84.26687,39.70283],[-84.26314,39.70293],[-84.25931,39.70765],[-84.25224,39.70775],[-84.25222,39.703],[-84.23534,39.70316],[-84.22814,39.71476],[-84.22734,39.72353],[-84.22334,39.72816],[-84.21563,39.73246],[-84.21215,39.73162],[-84.21071,39.7291],[-84.20698,39.72901],[-84.20589,39.72887]]]}},{"type":"Feature","properties":{"zcta":"45433","d":49},"geometry":{"type":"Polygon","coordinates":[[[-84.08389,39.79667],[-84.08529,39.80623],[-84.08414,39.8086],[-84.07143,39.81465],[-84.06742,39.81831],[-84.06096,39.82271],[-84.06178,39.82497],[-84.06043,39.82692],[-84.05782,39.82809],[-84.05715,39.83447],[-84.05503,39.83703],[-84.053,39.83708],[-84.04621,39.84164],[-84.04301,39.8419],[-84.03354,39.84127],[-84.02534,39.84123],[-84.02136,39.83959],[-84.02146,39.83841],[-84.02654,39.83452],[-84.0268,39.83082],[-84.02901,39.8292],[-84.03089,39.82935],[-84.03119,39.82684],[-84.02947,39.82672],[-84.03161,39.82444],[-84.0357,39.82178],[-84.03109,39.82128],[-84.03152,39.81928],[-84.03672,39.81689],[-84.0357,39.81495],[-84.03037,39.81682],[-84.02169,39.81506],[-84.03044,39.80734],[-84.03988,39.79943],[-84.04634,39.79457],[-84.04982,39.793],[-84.05665,39.79158],[-84.06567,39.79244],[-84.06899,39.79229],[-84.06704,39.78791],[-84.07087,39.78479],[-84.07614,39.78537],[-84.07846,39.78721],[-84.07858,39.79445],[-84.0845,39.79545],[-84.08523,39.79655],[-84.08389,39.79667]]]}},{"type":"Feature","properties":{"zcta":"45440","d":1225},"geometry":{"type":"Polygon","coordinates":[[[-84.13478,39.68544],[-84.13592,39.6882],[-84.13195,39.68885],[-84.12448,39.68844],[-84.12072,39.68862],[-84.11641,39.6878],[-84.1112,39.68828],[-84.10667,39.69117],[-84.10699,39.69687],[-84.10588,39.69865],[-84.10069,39.69894],[-84.10022,39.69617],[-84.08711,39.69536],[-84.08682,39.69836],[-84.08351,39.69813],[-84.08197,39.69925],[-84.07884,39.69869],[-84.07902,39.69668],[-84.07595,39.69664],[-84.07484,39.69467],[-84.06813,39.69372],[-84.06633,39.69394],[-84.06041,39.69346],[-84.05666,39.69265],[-84.05638,39.69593],[-84.0516,39.69555],[-84.05147,39.69708],[-84.04916,39.69695],[-84.04934,39.69474],[-84.04481,39.6945],[-84.04497,39.69206],[-84.04703,39.69216],[-84.04716,39.69058],[-84.05811,39.68808],[-84.05727,39.68535],[-84.06696,39.68584],[-84.06703,39.6849],[-84.0703,39.68507],[-84.07052,39.68162],[-84.0774,39.68149],[-84.07992,39.67997],[-84.0823,39.65898],[-84.07527,39.6574],[-84.07333,39.65198],[-84.07728,39.65063],[-84.08222,39.64727],[-84.08312,39.64603],[-84.08121,39.64362],[-84.08881,39.64525],[-84.08824,39.65019],[-84.09048,39.65089],[-84.09041,39.65278],[-84.0993,39.6528],[-84.09953,39.64975],[-84.10301,39.65039],[-84.09918,39.65608],[-84.10203,39.65615],[-84.10354,39.65819],[-84.10869,39.65736],[-84.10863,39.65908],[-84.10655,39.66003],[-84.1093,39.6602],[-84.10964,39.65625],[-84.12738,39.65389],[-84.12709,39.65746],[-84.1369,39.65785],[-84.13683,39.65837],[-84.13478,39.68544]]]}},{"type":"Feature","properties":{"zcta":"45335","d":40},"geometry":{"type":"Polygon","coordinates":[[[-83.74216,39.69853],[-83.73552,39.70119],[-83.73265,39.7042],[-83.72517,39.70824],[-83.71953,39.71084],[-83.71704,39.71081],[-83.71358,39.70904],[-83.71319,39.71261],[-83.71025,39.71256],[-83.70988,39.71637],[-83.70089,39.71593],[-83.69838,39.71973],[-83.69156,39.72654],[-83.6758,39.72556],[-83.67517,39.73032],[-83.67197,39.73071],[-83.67154,39.73536],[-83.66989,39.73577],[-83.66346,39.74339],[-83.66036,39.74204],[-83.65105,39.73995],[-83.65224,39.72866],[-83.65216,39.72521],[-83.65339,39.71774],[-83.66464,39.71845],[-83.66946,39.71714],[-83.67008,39.71575],[-83.6766,39.71614],[-83.67758,39.70751],[-83.6751,39.70687],[-83.67516,39.70503],[-83.66286,39.70403],[-83.6626,39.70223],[-83.65494,39.70167],[-83.65803,39.67035],[-83.65981,39.65392],[-83.65037,39.65388],[-83.63361,39.65271],[-83.63537,39.63575],[-83.63704,39.63414],[-83.63945,39.62688],[-83.6406,39.62498],[-83.64086,39.62094],[-83.64206,39.61763],[-83.64456,39.61438],[-83.66112,39.61736],[-83.66373,39.61572],[-83.66646,39.58846],[-83.67333,39.5849],[-83.68262,39.57941],[-83.67796,39.57528],[-83.68422,39.57324],[-83.6872,39.57324],[-83.68931,39.57547],[-83.70059,39.56885],[-83.70472,39.56614],[-83.71916,39.57932],[-83.72018,39.58022],[-83.71804,39.58257],[-83.72301,39.5828],[-83.7229,39.58493],[-83.72642,39.58453],[-83.72655,39.5806],[-83.73067,39.58089],[-83.73303,39.58176],[-83.73402,39.57082],[-83.73525,39.56805],[-83.73523,39.56235],[-83.73935,39.557],[-83.73552,39.55434],[-83.72797,39.55386],[-83.7466,39.54797],[-83.74926,39.54467],[-83.75028,39.54613],[-83.75463,39.54928],[-83.75861,39.54942],[-83.76066,39.54845],[-83.76639,39.54843],[-83.77218,39.54624],[-83.77686,39.5429],[-83.7797,39.54235],[-83.78262,39.54651],[-83.78599,39.55026],[-83.78259,39.5522],[-83.78051,39.55213],[-83.78197,39.55485],[-83.78039,39.55586],[-83.78222,39.55695],[-83.78623,39.55666],[-83.7881,39.55753],[-83.78819,39.55352],[-83.78912,39.55447],[-83.79489,39.55459],[-83.7976,39.55162],[-83.79797,39.54876],[-83.80137,39.54927],[-83.80281,39.55125],[-83.80879,39.55364],[-83.81503,39.55464],[-83.81899,39.55341],[-83.82176,39.55433],[-83.8247,39.55136],[-83.82662,39.55152],[-83.82894,39.55327],[-83.83422,39.55393],[-83.83356,39.55631],[-83.82736,39.55702],[-83.82633,39.56004],[-83.83099,39.56036],[-83.8309,39.56276],[-83.82698,39.56242],[-83.82564,39.56438],[-83.82514,39.5674],[-83.82338,39.56732],[-83.82156,39.58205],[-83.82761,39.58089],[-83.82722,39.58861],[-83.83267,39.58892],[-83.83179,39.59585],[-83.83804,39.59621],[-83.8378,39.59878],[-83.84414,39.60046],[-83.85154,39.60182],[-83.85786,39.60376],[-83.85859,39.60691],[-83.84776,39.60679],[-83.84593,39.61055],[-83.84725,39.61177],[-83.84319,39.61408],[-83.83821,39.60925],[-83.83354,39.61201],[-83.83686,39.61535],[-83.83412,39.61706],[-83.83749,39.62084],[-83.83362,39.62108],[-83.82876,39.62036],[-83.82754,39.62123],[-83.82378,39.62042],[-83.81786,39.62181],[-83.81072,39.62555],[-83.80821,39.62629],[-83.80563,39.62901],[-83.80456,39.63146],[-83.80457,39.63674],[-83.79932,39.63686],[-83.80068,39.63866],[-83.80016,39.64351],[-83.79565,39.64575],[-83.80742,39.64994],[-83.80644,39.65852],[-83.80701,39.66004],[-83.80348,39.65887],[-83.79766,39.65945],[-83.79238,39.66278],[-83.77533,39.66144],[-83.77231,39.67075],[-83.78487,39.67563],[-83.78185,39.68018],[-83.7731,39.67821],[-83.7711,39.67821],[-83.77081,39.68144],[-83.76689,39.68175],[-83.76203,39.68421],[-83.75867,39.68415],[-83.75833,39.68653],[-83.75254,39.69122],[-83.75712,39.69541],[-83.7491,39.69732],[-83.74216,39.69853]]]}},{"type":"Feature","properties":{"zcta":"45339","d":41},"geometry":{"type":"Polygon","coordinates":[[[-84.39066,40.0276],[-84.38427,40.02695],[-84.38301,40.02589],[-84.3829,40.02325],[-84.38168,40.02204],[-84.37435,40.02202],[-84.37087,40.02034],[-84.36537,40.02076],[-84.35418,40.02318],[-84.34559,40.02418],[-84.34183,40.02503],[-84.34216,40.03061],[-84.34385,40.03607],[-84.33932,40.03609],[-84.33988,40.03243],[-84.3343,40.03244],[-84.33459,40.0445],[-84.33004,40.04468],[-84.32994,40.04893],[-84.31564,40.04406],[-84.31526,40.0305],[-84.31174,40.03053],[-84.31169,40.02597],[-84.30894,40.02597],[-84.30744,40.02325],[-84.29626,40.02342],[-84.29595,40.00887],[-84.30713,40.00876],[-84.30708,40.00684],[-84.3093,40.00682],[-84.30926,40.00491],[-84.31187,40.00486],[-84.31032,40.00144],[-84.31019,39.99795],[-84.30466,39.99982],[-84.3046,39.99797],[-84.31553,39.99454],[-84.3159,39.9906],[-84.31476,39.98487],[-84.31648,39.98162],[-84.3182,39.98079],[-84.3237,39.98164],[-84.32643,39.97925],[-84.35156,39.97901],[-84.35154,39.97736],[-84.35669,39.9773],[-84.36481,39.98119],[-84.36206,39.9825],[-84.36278,39.98593],[-84.36136,39.98689],[-84.36152,39.99221],[-84.36574,39.99364],[-84.37109,39.99413],[-84.37091,39.9906],[-84.37182,39.99064],[-84.37167,39.98569],[-84.379,39.98774],[-84.37908,39.99052],[-84.38032,39.99286],[-84.38497,39.99281],[-84.38721,39.99204],[-84.38715,39.98962],[-84.39425,39.99274],[-84.38972,39.99441],[-84.38998,40.0077],[-84.39038,40.01489],[-84.39155,40.02208],[-84.39066,40.0276]]]}},{"type":"Feature","properties":{"zcta":"45327","d":95},"geometry":{"type":"Polygon","coordinates":[[[-84.46513,39.65727],[-84.39172,39.65778],[-84.39167,39.65689],[-84.38479,39.65688],[-84.38529,39.65871],[-84.38784,39.65826],[-84.39255,39.66237],[-84.39154,39.66606],[-84.39482,39.67228],[-84.38603,39.67239],[-84.38675,39.68513],[-84.37159,39.68525],[-84.37134,39.70083],[-84.36646,39.70179],[-84.34756,39.70188],[-84.34755,39.68731],[-84.33822,39.6874],[-84.33585,39.68461],[-84.33144,39.68465],[-84.33143,39.67891],[-84.32859,39.67895],[-84.32859,39.68137],[-84.31448,39.68147],[-84.31391,39.6779],[-84.31053,39.67603],[-84.31322,39.67318],[-84.31101,39.67317],[-84.31014,39.6683],[-84.31296,39.6683],[-84.31302,39.66164],[-84.3167,39.66176],[-84.31679,39.66441],[-84.3209,39.66438],[-84.32094,39.66067],[-84.32409,39.66078],[-84.32406,39.65948],[-84.32774,39.65825],[-84.33033,39.65569],[-84.33035,39.64624],[-84.33461,39.64619],[-84.33457,39.6435],[-84.33637,39.64467],[-84.33907,39.64466],[-84.34029,39.6458],[-84.34345,39.64269],[-84.3427,39.63891],[-84.33871,39.62863],[-84.32774,39.62875],[-84.32758,39.61877],[-84.32143,39.61818],[-84.31916,39.6171],[-84.32115,39.61656],[-84.32202,39.61477],[-84.32752,39.61483],[-84.32744,39.6066],[-84.33387,39.60615],[-84.33414,39.60467],[-84.32966,39.60269],[-84.32686,39.59923],[-84.32679,39.58951],[-84.36523,39.58949],[-84.36453,39.58406],[-84.36603,39.58361],[-84.36653,39.57942],[-84.36827,39.58078],[-84.37082,39.58],[-84.37455,39.58389],[-84.3744,39.5786],[-84.37628,39.5786],[-84.37629,39.58045],[-84.37895,39.58042],[-84.38241,39.58384],[-84.38422,39.58383],[-84.38423,39.58572],[-84.38825,39.58567],[-84.38831,39.58986],[-84.40763,39.58986],[-84.40748,39.58605],[-84.41238,39.58354],[-84.41556,39.58353],[-84.41286,39.58986],[-84.43544,39.59006],[-84.43915,39.58996],[-84.4415,39.593],[-84.4409,39.59621],[-84.44227,39.59788],[-84.45515,39.59785],[-84.45569,39.59005],[-84.47425,39.59016],[-84.47921,39.59102],[-84.47948,39.60787],[-84.48902,39.608],[-84.48917,39.62652],[-84.4861,39.62655],[-84.48637,39.63514],[-84.49549,39.63732],[-84.49607,39.63938],[-84.49881,39.64004],[-84.49805,39.64291],[-84.4989,39.64777],[-84.49412,39.64895],[-84.49148,39.65111],[-84.48994,39.65572],[-84.48732,39.65696],[-84.48015,39.65705],[-84.46513,39.65727]]]}},{"type":"Feature","properties":{"zcta":"45409","d":904},"geometry":{"type":"Polygon","coordinates":[[[-84.20651,39.72968],[-84.1994,39.73192],[-84.19484,39.73566],[-84.19294,39.74005],[-84.18654,39.74042],[-84.18885,39.74863],[-84.18514,39.74945],[-84.18214,39.74537],[-84.17663,39.74514],[-84.17702,39.74123],[-84.17388,39.74029],[-84.16879,39.73997],[-84.16893,39.73761],[-84.16893,39.73292],[-84.16747,39.73147],[-84.17299,39.73029],[-84.17359,39.72756],[-84.1725,39.72533],[-84.17868,39.72784],[-84.18086,39.72945],[-84.1841,39.72899],[-84.18555,39.72999],[-84.18545,39.7256],[-84.18338,39.72439],[-84.18603,39.71877],[-84.18454,39.71677],[-84.18008,39.7133],[-84.18066,39.71164],[-84.18011,39.70796],[-84.18156,39.70476],[-84.18623,39.70594],[-84.18806,39.70134],[-84.18988,39.70061],[-84.19034,39.69904],[-84.19696,39.69892],[-84.19731,39.70041],[-84.20026,39.7007],[-84.2025,39.70106],[-84.20115,39.70281],[-84.20107,39.70871],[-84.19992,39.71216],[-84.20928,39.71305],[-84.20762,39.7167],[-84.21072,39.71685],[-84.21051,39.72004],[-84.20834,39.71991],[-84.20773,39.72637],[-84.20589,39.72887],[-84.20698,39.72901],[-84.20651,39.72968]],[[-84.17789,39.73948],[-84.178,39.74128],[-84.18055,39.74141],[-84.18003,39.73963],[-84.17789,39.73948]]]}},{"type":"Feature","properties":{"zcta":"45417","d":332},"geometry":{"type":"Polygon","coordinates":[[[-84.34829,39.76071],[-84.34897,39.77564],[-84.31138,39.77584],[-84.3106,39.76302],[-84.30177,39.7631],[-84.30183,39.76142],[-84.2962,39.76139],[-84.29505,39.7628],[-84.29241,39.7628],[-84.29239,39.76446],[-84.29766,39.76449],[-84.29766,39.77008],[-84.29239,39.77015],[-84.29185,39.76426],[-84.28826,39.76377],[-84.28091,39.77206],[-84.28039,39.77585],[-84.27343,39.77582],[-84.26779,39.77525],[-84.26655,39.77607],[-84.26651,39.77881],[-84.26773,39.77965],[-84.27719,39.78342],[-84.27284,39.78338],[-84.27057,39.78414],[-84.2705,39.78636],[-84.26949,39.78641],[-84.26384,39.77839],[-84.25794,39.77686],[-84.25372,39.77716],[-84.25164,39.77486],[-84.24564,39.77334],[-84.24736,39.7706],[-84.24596,39.76917],[-84.2432,39.76904],[-84.24375,39.76781],[-84.24771,39.76897],[-84.25009,39.7709],[-84.25357,39.77209],[-84.25333,39.76142],[-84.25054,39.75964],[-84.24973,39.76102],[-84.24702,39.76148],[-84.24006,39.76154],[-84.23504,39.76112],[-84.23064,39.76166],[-84.2265,39.76046],[-84.22725,39.75855],[-84.22415,39.7542],[-84.22402,39.74688],[-84.22036,39.74598],[-84.21795,39.74781],[-84.21467,39.74747],[-84.21076,39.74961],[-84.2107,39.74783],[-84.20901,39.74784],[-84.20658,39.74965],[-84.20726,39.74762],[-84.19775,39.75008],[-84.19423,39.74505],[-84.19294,39.74005],[-84.19484,39.73566],[-84.1994,39.73192],[-84.20651,39.72968],[-84.20698,39.72901],[-84.21071,39.7291],[-84.21215,39.73162],[-84.21563,39.73246],[-84.22334,39.72816],[-84.22734,39.72353],[-84.22814,39.71476],[-84.23534,39.70316],[-84.25222,39.703],[-84.25224,39.70775],[-84.25931,39.70765],[-84.26314,39.70293],[-84.26687,39.70283],[-84.26717,39.70189],[-84.27151,39.70183],[-84.27208,39.70271],[-84.27881,39.70265],[-84.2788,39.70045],[-84.27577,39.70033],[-84.27643,39.6954],[-84.28104,39.69653],[-84.28871,39.69645],[-84.29074,39.69525],[-84.29071,39.68942],[-84.29223,39.68944],[-84.29231,39.69154],[-84.29464,39.69328],[-84.29606,39.69135],[-84.29403,39.68975],[-84.2983,39.68896],[-84.30267,39.68445],[-84.30421,39.68592],[-84.30893,39.68767],[-84.3166,39.68766],[-84.31504,39.68546],[-84.31614,39.68366],[-84.31448,39.68147],[-84.32859,39.68137],[-84.32859,39.67895],[-84.33143,39.67891],[-84.33144,39.68465],[-84.33585,39.68461],[-84.33822,39.6874],[-84.34755,39.68731],[-84.34756,39.70188],[-84.32797,39.70197],[-84.32805,39.70766],[-84.32534,39.70552],[-84.32289,39.70597],[-84.32291,39.70935],[-84.32588,39.70933],[-84.32639,39.71264],[-84.32471,39.71264],[-84.32418,39.71795],[-84.32567,39.71792],[-84.32689,39.72019],[-84.32717,39.724],[-84.32006,39.72403],[-84.32073,39.73551],[-84.32854,39.73587],[-84.32294,39.74255],[-84.31854,39.74176],[-84.31924,39.74621],[-84.3297,39.74611],[-84.33079,39.74852],[-84.33413,39.74852],[-84.33429,39.75354],[-84.3434,39.7534],[-84.34315,39.74643],[-84.34755,39.74593],[-84.34897,39.74498],[-84.34897,39.74257],[-84.35703,39.7425],[-84.35703,39.74125],[-84.36401,39.74153],[-84.36403,39.74359],[-84.36653,39.74539],[-84.36552,39.74663],[-84.36555,39.75199],[-84.36657,39.75307],[-84.36028,39.7537],[-84.36207,39.75678],[-84.36237,39.76034],[-84.34829,39.76071]],[[-84.26825,39.73781],[-84.26153,39.73677],[-84.25732,39.73745],[-84.253,39.74067],[-84.25308,39.74941],[-84.25915,39.7484],[-84.25772,39.74694],[-84.26041,39.74465],[-84.26482,39.74445],[-84.26676,39.7434],[-84.26634,39.74028],[-84.2683,39.74027],[-84.26825,39.73781]]]}},{"type":"Feature","properties":{"zcta":"45305","d":408},"geometry":{"type":"Polygon","coordinates":[[[-84.10781,39.6069],[-84.10732,39.61083],[-84.10187,39.61007],[-84.09102,39.60841],[-84.08777,39.61163],[-84.0901,39.61085],[-84.09216,39.61242],[-84.09841,39.61326],[-84.09889,39.61118],[-84.10173,39.61158],[-84.10121,39.6174],[-84.10503,39.61832],[-84.10627,39.6257],[-84.10884,39.62817],[-84.11056,39.63102],[-84.10964,39.63437],[-84.11004,39.63799],[-84.11126,39.63802],[-84.11054,39.64594],[-84.0999,39.64543],[-84.09953,39.64975],[-84.0993,39.6528],[-84.09041,39.65278],[-84.09048,39.65089],[-84.08824,39.65019],[-84.08881,39.64525],[-84.08121,39.64362],[-84.08312,39.64603],[-84.08222,39.64727],[-84.07728,39.65063],[-84.07333,39.65198],[-84.07527,39.6574],[-84.0823,39.65898],[-84.07992,39.67997],[-84.0774,39.68149],[-84.07052,39.68162],[-84.0703,39.68507],[-84.06703,39.6849],[-84.06696,39.68584],[-84.05727,39.68535],[-84.05563,39.68277],[-84.05415,39.6827],[-84.05433,39.68071],[-84.05284,39.68],[-84.04814,39.67975],[-84.04834,39.67746],[-84.04129,39.67722],[-84.04259,39.67631],[-84.04402,39.67254],[-84.04337,39.66868],[-84.04429,39.66441],[-84.04026,39.66205],[-84.03693,39.66523],[-84.03511,39.66196],[-84.03521,39.65306],[-84.03662,39.65264],[-84.03886,39.64906],[-84.03248,39.64766],[-84.03135,39.64608],[-84.03401,39.64348],[-84.03347,39.6415],[-84.03645,39.64],[-84.04298,39.64502],[-84.04841,39.64642],[-84.05138,39.64656],[-84.05629,39.64527],[-84.05772,39.64236],[-84.06034,39.64269],[-84.0697,39.63053],[-84.07118,39.63083],[-84.07357,39.60444],[-84.07505,39.58611],[-84.08303,39.588],[-84.08326,39.58697],[-84.09431,39.5894],[-84.09476,39.58495],[-84.10113,39.58609],[-84.10125,39.58465],[-84.1041,39.58576],[-84.10956,39.58647],[-84.10937,39.58842],[-84.11333,39.58874],[-84.11151,39.60736],[-84.10781,39.6069]]]}}]}