{"type":"FeatureCollection","features":[{"type":"Feature","properties":{"id":"37157","name":"Rockingham Co."},"geometry":{"type":"Polygon","coordinates":[[[-79.6468,36.2448],[-79.7006,36.2459],[-79.8387,36.2506],[-79.881,36.2524],[-79.9231,36.2539],[-80.0351,36.2572],[-80.0273,36.5425],[-79.9047,36.5424],[-79.8873,36.5428],[-79.6673,36.5418],[-79.5136,36.5408],[-79.5324,36.2415],[-79.6468,36.2448]]]}},{"type":"Feature","properties":{"id":"37081","name":"Guilford Co."},"geometry":{"type":"Polygon","coordinates":[[[-79.9231,36.2539],[-79.881,36.2524],[-79.8387,36.2506],[-79.7006,36.2459],[-79.6468,36.2448],[-79.5324,36.2415],[-79.5338,36.2154],[-79.5351,36.1824],[-79.5364,36.1628],[-79.5379,36.115],[-79.5392,36.0826],[-79.5397,36.003],[-79.5407,35.9519],[-79.5417,35.8999],[-79.6279,35.9034],[-79.7383,35.9078],[-79.8789,35.914],[-79.9402,35.9165],[-79.941,35.9164],[-80.0469,35.9207],[-80.046,35.9455],[-80.0433,36.011],[-80.0401,36.109],[-80.0382,36.1596],[-80.0375,36.1609],[-80.037,36.174],[-80.0378,36.1764],[-80.037,36.1952],[-80.0369,36.2045],[-80.0351,36.2572],[-79.9231,36.2539]]]}},{"type":"Feature","properties":{"id":"37151","name":"Randolph Co."},"geometry":{"type":"Polygon","coordinates":[[[-79.5424,35.8433],[-79.5455,35.7426],[-79.5467,35.709],[-79.5496,35.6588],[-79.5514,35.6315],[-79.5532,35.5993],[-79.5558,35.515],[-79.6381,35.5137],[-79.768,35.5115],[-79.8322,35.5108],[-79.9014,35.5099],[-79.9708,35.5076],[-80.0668,35.5057],[-80.0629,35.6126],[-80.0604,35.6694],[-80.0564,35.7501],[-80.0546,35.7813],[-80.0495,35.8675],[-80.0469,35.9207],[-79.941,35.9164],[-79.9402,35.9165],[-79.8789,35.914],[-79.7383,35.9078],[-79.6279,35.9034],[-79.5417,35.8999],[-79.5424,35.8433]]]}}]}