{"type":"FeatureCollection","features":[{"type":"Feature","properties":{"id":"42095","name":"Northampton Co., PA"},"geometry":{"type":"Polygon","coordinates":[[[-75.4433,40.8183],[-75.4205,40.8235],[-75.4168,40.8261],[-75.3833,40.831],[-75.3398,40.8459],[-75.3209,40.8557],[-75.3006,40.8596],[-75.2949,40.8622],[-75.284,40.866],[-75.2735,40.8732],[-75.2672,40.8825],[-75.2442,40.8942],[-75.2325,40.8998],[-75.2411,40.9094],[-75.2218,40.9196],[-75.2182,40.9279],[-75.1955,40.9363],[-75.1875,40.9371],[-75.1781,40.9403],[-75.1768,40.9455],[-75.1695,40.948],[-75.1529,40.9493],[-75.1451,40.9516],[-75.1292,40.9589],[-75.1202,40.9687],[-75.1207,40.9625],[-75.1178,40.953],[-75.1117,40.9481],[-75.1062,40.9397],[-75.1055,40.9363],[-75.0955,40.9242],[-75.0793,40.9139],[-75.0761,40.907],[-75.0752,40.9002],[-75.076,40.8957],[-75.0739,40.8922],[-75.0654,40.8857],[-75.0587,40.8777],[-75.0537,40.8737],[-75.0508,40.8681],[-75.0516,40.864],[-75.0589,40.8604],[-75.0639,40.8554],[-75.0635,40.8495],[-75.066,40.8476],[-75.0708,40.8474],[-75.0767,40.8499],[-75.091,40.8492],[-75.0958,40.8471],[-75.0976,40.841],[-75.0949,40.8371],[-75.0855,40.8301],[-75.0839,40.8245],[-75.0905,40.8159],[-75.0961,40.8122],[-75.1003,40.8076],[-75.1008,40.7998],[-75.1085,40.7911],[-75.1168,40.7894],[-75.1231,40.7867],[-75.1259,40.784],[-75.1315,40.776],[-75.1344,40.7738],[-75.1391,40.7736],[-75.1494,40.7748],[-75.1636,40.7784],[-75.1716,40.7777],[-75.1756,40.7729],[-75.1775,40.7642],[-75.183,40.7593],[-75.1918,40.7558],[-75.1965,40.7516],[-75.1953,40.7455],[-75.1858,40.7373],[-75.1828,40.7337],[-75.1825,40.7299],[-75.1856,40.7264],[-75.1864,40.7203],[-75.1944,40.714],[-75.1987,40.7053],[-75.2039,40.6915],[-75.2009,40.6855],[-75.1969,40.6813],[-75.1906,40.6794],[-75.1845,40.68],[-75.1776,40.6777],[-75.1775,40.6726],[-75.1828,40.666],[-75.1909,40.6619],[-75.1967,40.6551],[-75.2005,40.6492],[-75.2005,40.6469],[-75.1954,40.6431],[-75.1907,40.6359],[-75.1886,40.6246],[-75.1907,40.62],[-75.1979,40.6193],[-75.2018,40.6172],[-75.2013,40.6146],[-75.1968,40.6086],[-75.2368,40.5907],[-75.2582,40.582],[-75.2935,40.562],[-75.3087,40.5526],[-75.333,40.5368],[-75.3335,40.5371],[-75.4044,40.5812],[-75.3913,40.5966],[-75.3886,40.6144],[-75.3781,40.6154],[-75.383,40.6174],[-75.3841,40.6202],[-75.3833,40.6242],[-75.3884,40.628],[-75.3875,40.6331],[-75.3925,40.6341],[-75.3998,40.6401],[-75.4109,40.6501],[-75.4191,40.6583],[-75.4301,40.6684],[-75.4304,40.6742],[-75.4815,40.6557],[-75.4839,40.6596],[-75.4836,40.6669],[-75.485,40.6715],[-75.4911,40.677],[-75.498,40.6792],[-75.5031,40.6897],[-75.5085,40.693],[-75.5156,40.7022],[-75.5222,40.7129],[-75.5255,40.7201],[-75.5262,40.7327],[-75.5301,40.7363],[-75.5374,40.7376],[-75.5403,40.7361],[-75.5418,40.7279],[-75.5443,40.7251],[-75.551,40.7221],[-75.5582,40.7209],[-75.5644,40.7235],[-75.5689,40.7274],[-75.5706,40.7325],[-75.5762,40.7352],[-75.5879,40.7339],[-75.5926,40.7361],[-75.5967,40.7436],[-75.6017,40.7496],[-75.6036,40.7568],[-75.6029,40.766],[-75.6067,40.7713],[-75.6047,40.7767],[-75.6055,40.7808],[-75.609,40.7874],[-75.6026,40.788],[-75.5984,40.7901],[-75.5955,40.7933],[-75.5775,40.7994],[-75.5748,40.7991],[-75.5651,40.8011],[-75.5575,40.8012],[-75.5514,40.8046],[-75.5415,40.8068],[-75.5284,40.8067],[-75.519,40.8088],[-75.508,40.8091],[-75.4853,40.8125],[-75.4785,40.8131],[-75.4742,40.8147],[-75.4433,40.8183]]]}},{"type":"Feature","properties":{"id":"34041","name":"Warren Co., NJ"},"geometry":{"type":"Polygon","coordinates":[[[-75.1226,40.9702],[-75.1291,40.969],[-75.1338,40.971],[-75.1355,40.9769],[-75.1331,40.9802],[-75.1306,40.9911],[-75.1234,40.9961],[-75.1106,41.0022],[-75.1091,41.0041],[-75.0926,41.0099],[-75.0842,41.016],[-75.075,41.0171],[-75.0418,41.0317],[-75.036,41.0362],[-75.0271,41.0395],[-75.0264,41.0464],[-75.0171,41.0568],[-75.0131,41.0665],[-75.0064,41.0675],[-74.9996,41.0739],[-74.9893,41.0783],[-74.9826,41.0792],[-74.971,41.0853],[-74.9684,41.0878],[-74.9669,41.0944],[-74.9393,41.0692],[-74.8866,41.0199],[-74.8603,40.9956],[-74.8227,40.9601],[-74.8061,40.9451],[-74.7694,40.9109],[-74.7761,40.9053],[-74.7791,40.9063],[-74.7798,40.9033],[-74.7869,40.8998],[-74.7903,40.8964],[-74.7917,40.8907],[-74.7942,40.8888],[-74.7991,40.888],[-74.8061,40.8838],[-74.807,40.8782],[-74.8063,40.8726],[-74.8083,40.8695],[-74.802,40.8637],[-74.8037,40.8611],[-74.8092,40.8602],[-74.81,40.8545],[-74.8141,40.8512],[-74.8208,40.8497],[-74.8238,40.8441],[-74.8198,40.841],[-74.8184,40.8369],[-74.8272,40.8323],[-74.832,40.8269],[-74.83,40.8255],[-74.8346,40.8222],[-74.8357,40.8186],[-74.839,40.8167],[-74.8428,40.8114],[-74.8469,40.8108],[-74.8503,40.8042],[-74.8549,40.8042],[-74.8604,40.8012],[-74.8644,40.8032],[-74.867,40.7968],[-74.8735,40.7947],[-74.8806,40.7907],[-74.8841,40.7914],[-74.8892,40.7888],[-74.8955,40.784],[-74.9046,40.7806],[-74.9024,40.7773],[-74.9027,40.7718],[-74.9133,40.7665],[-74.9152,40.7624],[-74.9226,40.7566],[-74.9273,40.7546],[-74.9308,40.749],[-74.9404,40.7409],[-74.9413,40.7386],[-74.9465,40.7348],[-74.9517,40.7277],[-74.9583,40.7254],[-74.9635,40.7205],[-74.968,40.7116],[-74.9706,40.7098],[-74.9793,40.7109],[-74.9813,40.706],[-74.9915,40.7029],[-74.9959,40.7002],[-75.0024,40.6938],[-75.0073,40.6931],[-75.01,40.6952],[-75.0126,40.693],[-75.0169,40.6946],[-75.0192,40.6921],[-75.0232,40.691],[-75.034,40.6836],[-75.0377,40.6836],[-75.044,40.6787],[-75.0492,40.6795],[-75.0602,40.673],[-75.0621,40.6697],[-75.0682,40.6686],[-75.077,40.6635],[-75.0796,40.6593],[-75.0894,40.6552],[-75.0958,40.6482],[-75.1055,40.6449],[-75.1094,40.6418],[-75.1084,40.6398],[-75.1142,40.6372],[-75.1275,40.6344],[-75.1363,40.6302],[-75.1453,40.629],[-75.1482,40.6257],[-75.1478,40.6225],[-75.1497,40.6205],[-75.1544,40.6217],[-75.1623,40.6171],[-75.1615,40.6148],[-75.1631,40.611],[-75.1657,40.6103],[-75.169,40.6063],[-75.1721,40.6053],[-75.1749,40.5989],[-75.1809,40.5972],[-75.181,40.5942],[-75.1855,40.5923],[-75.1904,40.5916],[-75.1923,40.6027],[-75.1968,40.6086],[-75.2013,40.6146],[-75.2018,40.6172],[-75.1979,40.6193],[-75.1907,40.62],[-75.1886,40.6246],[-75.1907,40.6359],[-75.1954,40.6431],[-75.2005,40.6469],[-75.2005,40.6492],[-75.1967,40.6551],[-75.1909,40.6619],[-75.1828,40.666],[-75.1775,40.6726],[-75.1776,40.6777],[-75.1845,40.68],[-75.1906,40.6794],[-75.1969,40.6813],[-75.2009,40.6855],[-75.2039,40.6915],[-75.1987,40.7053],[-75.1944,40.714],[-75.1864,40.7203],[-75.1856,40.7264],[-75.1825,40.7299],[-75.1828,40.7337],[-75.1858,40.7373],[-75.1953,40.7455],[-75.1965,40.7516],[-75.1918,40.7558],[-75.183,40.7593],[-75.1775,40.7642],[-75.1756,40.7729],[-75.1716,40.7777],[-75.1636,40.7784],[-75.1494,40.7748],[-75.1391,40.7736],[-75.1344,40.7738],[-75.1315,40.776],[-75.1259,40.784],[-75.1231,40.7867],[-75.1168,40.7894],[-75.1085,40.7911],[-75.1008,40.7998],[-75.1003,40.8076],[-75.0961,40.8122],[-75.0905,40.8159],[-75.0839,40.8245],[-75.0855,40.8301],[-75.0949,40.8371],[-75.0976,40.841],[-75.0958,40.8471],[-75.091,40.8492],[-75.0767,40.8499],[-75.0708,40.8474],[-75.066,40.8476],[-75.0635,40.8495],[-75.0639,40.8554],[-75.0589,40.8604],[-75.0516,40.864],[-75.0508,40.8681],[-75.0537,40.8737],[-75.0587,40.8777],[-75.0654,40.8857],[-75.0739,40.8922],[-75.076,40.8957],[-75.0752,40.9002],[-75.0761,40.907],[-75.0793,40.9139],[-75.0955,40.9242],[-75.1055,40.9363],[-75.1062,40.9397],[-75.1117,40.9481],[-75.1178,40.953],[-75.1207,40.9625],[-75.1202,40.9687],[-75.1226,40.9702]]]}},{"type":"Feature","properties":{"id":"42077","name":"Lehigh Co., PA"},"geometry":{"type":"Polygon","coordinates":[[[-75.7449,40.7403],[-75.7436,40.7435],[-75.7393,40.7442],[-75.7286,40.7539],[-75.7024,40.7622],[-75.7024,40.7633],[-75.6947,40.7701],[-75.6768,40.7749],[-75.6091,40.7875],[-75.609,40.7874],[-75.6055,40.7808],[-75.6047,40.7767],[-75.6067,40.7713],[-75.6029,40.766],[-75.6036,40.7568],[-75.6017,40.7496],[-75.5967,40.7436],[-75.5926,40.7361],[-75.5879,40.7339],[-75.5762,40.7352],[-75.5706,40.7325],[-75.5689,40.7274],[-75.5644,40.7235],[-75.5582,40.7209],[-75.551,40.7221],[-75.5443,40.7251],[-75.5418,40.7279],[-75.5403,40.7361],[-75.5374,40.7376],[-75.5301,40.7363],[-75.5262,40.7327],[-75.5255,40.7201],[-75.5222,40.7129],[-75.5156,40.7022],[-75.5085,40.693],[-75.5031,40.6897],[-75.498,40.6792],[-75.4911,40.677],[-75.485,40.6715],[-75.4836,40.6669],[-75.4839,40.6596],[-75.4815,40.6557],[-75.4304,40.6742],[-75.4301,40.6684],[-75.4191,40.6583],[-75.4109,40.6501],[-75.3998,40.6401],[-75.3925,40.6341],[-75.3875,40.6331],[-75.3884,40.628],[-75.3833,40.6242],[-75.3841,40.6202],[-75.383,40.6174],[-75.3781,40.6154],[-75.3886,40.6144],[-75.3913,40.5966],[-75.4044,40.5812],[-75.3335,40.5371],[-75.3386,40.5341],[-75.3586,40.5208],[-75.3804,40.5067],[-75.4097,40.488],[-75.4423,40.4576],[-75.4581,40.4426],[-75.4841,40.4185],[-75.4987,40.4277],[-75.566,40.4696],[-75.5898,40.4847],[-75.6415,40.5177],[-75.6522,40.5243],[-75.6822,40.5436],[-75.6943,40.5511],[-75.7394,40.5799],[-75.7774,40.6038],[-75.7793,40.6047],[-75.8453,40.6471],[-75.8915,40.6773],[-75.8548,40.6932],[-75.8447,40.693],[-75.8083,40.7073],[-75.7965,40.717],[-75.7829,40.7231],[-75.7797,40.725],[-75.7777,40.7295],[-75.7659,40.7309],[-75.7578,40.7354],[-75.7449,40.7403]]]}},{"type":"Feature","properties":{"id":"42025","name":"Carbon Co., PA"},"geometry":{"type":"Polygon","coordinates":[[[-75.4785,40.8131],[-75.4853,40.8125],[-75.508,40.8091],[-75.519,40.8088],[-75.5284,40.8067],[-75.5415,40.8068],[-75.5514,40.8046],[-75.5575,40.8012],[-75.5651,40.8011],[-75.5748,40.7991],[-75.5775,40.7994],[-75.5955,40.7933],[-75.5984,40.7901],[-75.6026,40.788],[-75.609,40.7874],[-75.6091,40.7875],[-75.6768,40.7749],[-75.6947,40.7701],[-75.7024,40.7633],[-75.7024,40.7622],[-75.7286,40.7539],[-75.7393,40.7442],[-75.7436,40.7435],[-75.7449,40.7403],[-75.7578,40.7354],[-75.787,40.7536],[-75.813,40.7703],[-75.8288,40.7801],[-75.8584,40.7988],[-75.8712,40.8072],[-75.886,40.8163],[-75.9083,40.8356],[-75.9264,40.8517],[-75.9579,40.8787],[-75.9949,40.9106],[-75.9976,40.9133],[-75.9646,40.9249],[-75.888,40.9523],[-75.8689,40.9593],[-75.848,40.9664],[-75.8485,40.9722],[-75.8241,40.9806],[-75.8192,40.9826],[-75.8012,40.9834],[-75.7322,41.0081],[-75.7356,41.0141],[-75.7385,41.0168],[-75.7391,41.028],[-75.7427,41.0314],[-75.7577,41.0316],[-75.7612,41.041],[-75.7655,41.044],[-75.7703,41.0501],[-75.7715,41.0612],[-75.7703,41.0619],[-75.7701,41.0688],[-75.772,41.0768],[-75.7657,41.0844],[-75.7675,41.0917],[-75.7635,41.0938],[-75.7601,41.0918],[-75.7534,41.0965],[-75.7547,41.1016],[-75.7536,41.1034],[-75.7474,41.1042],[-75.7392,41.1023],[-75.7326,41.1033],[-75.7293,41.1078],[-75.7237,41.1094],[-75.721,41.1116],[-75.7167,41.1181],[-75.7089,41.1156],[-75.7077,41.1173],[-75.7097,41.122],[-75.7028,41.1226],[-75.7006,41.1273],[-75.6919,41.1312],[-75.6849,41.13],[-75.6786,41.133],[-75.6758,41.1326],[-75.6675,41.134],[-75.6652,41.1303],[-75.6615,41.1292],[-75.6564,41.1229],[-75.6582,41.1186],[-75.6545,41.1166],[-75.6494,41.1223],[-75.6457,41.1181],[-75.6464,41.1133],[-75.6376,41.1134],[-75.6343,41.1122],[-75.633,41.1085],[-75.6282,41.1069],[-75.6248,41.1114],[-75.62,41.109],[-75.6206,41.1067],[-75.6159,41.1048],[-75.6127,41.0942],[-75.6075,41.0945],[-75.6041,41.0934],[-75.6061,41.0856],[-75.6008,41.0845],[-75.596,41.0807],[-75.583,41.0726],[-75.5805,41.0678],[-75.5772,41.0682],[-75.5749,41.0627],[-75.5689,41.0566],[-75.5698,41.0503],[-75.5614,41.049],[-75.5434,41.0316],[-75.5123,41.0021],[-75.496,40.9872],[-75.5462,40.9646],[-75.5746,40.9513],[-75.5564,40.9287],[-75.5268,40.8904],[-75.518,40.8782],[-75.5134,40.8727],[-75.4876,40.838],[-75.4826,40.8299],[-75.4742,40.8147],[-75.4785,40.8131]]]}}]}