{"type":"FeatureCollection","features":[{"type":"Feature","properties":{"id":"20015","name":"Butler Co."},"geometry":{"type":"Polygon","coordinates":[[[-97.1528,38.0004],[-97.1528,38.044],[-97.1529,38.0877],[-97.0422,38.0865],[-96.9321,38.0858],[-96.8408,38.0856],[-96.7883,38.0858],[-96.7858,38.0859],[-96.6394,38.0863],[-96.6221,38.0861],[-96.5228,38.0864],[-96.5234,37.9894],[-96.5239,37.9706],[-96.5238,37.9559],[-96.5253,37.8833],[-96.5253,37.8686],[-96.5259,37.7993],[-96.5256,37.7443],[-96.5253,37.7377],[-96.526,37.7132],[-96.5256,37.7053],[-96.5259,37.687],[-96.5256,37.6558],[-96.5259,37.6506],[-96.5253,37.6216],[-96.5255,37.5637],[-96.526,37.5346],[-96.5257,37.5277],[-96.5263,37.5],[-96.5257,37.4898],[-96.5257,37.4764],[-96.5446,37.4766],[-96.7151,37.4754],[-96.8351,37.4762],[-96.9351,37.4757],[-97.0439,37.4758],[-97.1078,37.4755],[-97.1533,37.4755],[-97.1528,37.563],[-97.1531,37.6282],[-97.1529,37.6649],[-97.1531,37.7019],[-97.1529,37.7379],[-97.1531,37.7962],[-97.1535,37.8252],[-97.1521,37.8252],[-97.1523,37.8469],[-97.1525,37.9127],[-97.1528,38.0004]]]}},{"type":"Feature","properties":{"id":"20173","name":"Sedgwick Co."},"geometry":{"type":"Polygon","coordinates":[[[-97.7018,37.9125],[-97.482,37.9123],[-97.4225,37.9123],[-97.3635,37.9122],[-97.2443,37.9124],[-97.1525,37.9127],[-97.1523,37.8469],[-97.1521,37.8252],[-97.1535,37.8252],[-97.1531,37.7962],[-97.1529,37.7379],[-97.1531,37.7019],[-97.1529,37.6649],[-97.1531,37.6282],[-97.1528,37.563],[-97.1533,37.4755],[-97.2081,37.4757],[-97.2594,37.4755],[-97.3228,37.4766],[-97.369,37.4773],[-97.4781,37.4758],[-97.4842,37.4754],[-97.4992,37.4757],[-97.5329,37.4755],[-97.6977,37.4745],[-97.8076,37.4742],[-97.8077,37.5618],[-97.8081,37.5885],[-97.8083,37.6468],[-97.8067,37.654],[-97.8078,37.7191],[-97.8078,37.7339],[-97.7859,37.7341],[-97.7806,37.7338],[-97.7083,37.7344],[-97.6987,37.7351],[-97.6994,37.808],[-97.6997,37.8252],[-97.7021,37.8252],[-97.702,37.9113],[-97.7018,37.9125]]]}},{"type":"Feature","properties":{"id":"20191","name":"Sumner Co."},"geometry":{"type":"Polygon","coordinates":[[[-97.1514,37.441],[-97.1495,37.3907],[-97.1508,37.3907],[-97.1506,37.3472],[-97.1509,37.3181],[-97.1507,37.2884],[-97.1504,37.25],[-97.1499,37.2497],[-97.1495,37.2232],[-97.15,37.2127],[-97.1495,37.2016],[-97.1494,37.1429],[-97.1488,37.093],[-97.1477,36.9991],[-97.3724,36.9989],[-97.4623,36.9987],[-97.5273,36.9988],[-97.6065,36.9987],[-97.6371,36.9991],[-97.6971,36.9988],[-97.8023,36.9987],[-97.802,37.125],[-97.8027,37.1545],[-97.8022,37.2055],[-97.8029,37.2731],[-97.8042,37.3572],[-97.8046,37.3863],[-97.8071,37.3863],[-97.8076,37.4742],[-97.6977,37.4745],[-97.5329,37.4755],[-97.4992,37.4757],[-97.4842,37.4754],[-97.4781,37.4758],[-97.369,37.4773],[-97.3228,37.4766],[-97.2594,37.4755],[-97.2081,37.4757],[-97.1533,37.4755],[-97.1514,37.441]]]}},{"type":"Feature","properties":{"id":"20079","name":"Harvey Co."},"geometry":{"type":"Polygon","coordinates":[[[-97.1528,38.044],[-97.1528,38.0004],[-97.1525,37.9127],[-97.2443,37.9124],[-97.3635,37.9122],[-97.4225,37.9123],[-97.482,37.9123],[-97.7018,37.9125],[-97.702,37.9113],[-97.702,37.9705],[-97.7022,37.9996],[-97.7019,38.0141],[-97.7019,38.0647],[-97.7022,38.0736],[-97.7017,38.0867],[-97.7018,38.1738],[-97.5921,38.1742],[-97.3959,38.1736],[-97.3717,38.1737],[-97.2909,38.1745],[-97.2635,38.1749],[-97.1909,38.1749],[-97.1799,38.1746],[-97.1531,38.1746],[-97.1529,38.0877],[-97.1528,38.044]]]}}]}