{"type":"FeatureCollection","features":[{"type":"Feature","properties":{"id":"47093","name":"Knox Co."},"geometry":{"type":"Polygon","coordinates":[[[-83.9345,36.179],[-83.9227,36.1694],[-83.9061,36.169],[-83.9059,36.1654],[-83.9097,36.1627],[-83.9052,36.1609],[-83.9005,36.1645],[-83.904,36.169],[-83.8678,36.1681],[-83.7995,36.1663],[-83.7327,36.1646],[-83.7307,36.1585],[-83.7229,36.1519],[-83.726,36.1496],[-83.7237,36.1475],[-83.7251,36.1424],[-83.7237,36.1375],[-83.721,36.1369],[-83.7126,36.1288],[-83.7064,36.1282],[-83.7067,36.1247],[-83.704,36.1207],[-83.7017,36.1201],[-83.7,36.1229],[-83.6914,36.122],[-83.6942,36.1209],[-83.6947,36.1158],[-83.699,36.1134],[-83.6994,36.1095],[-83.6946,36.1113],[-83.6872,36.1118],[-83.6872,36.1023],[-83.6812,36.1018],[-83.6793,36.0987],[-83.6757,36.0981],[-83.667,36.0862],[-83.6675,36.0806],[-83.6747,36.0818],[-83.6913,36.0946],[-83.6991,36.0962],[-83.708,36.0943],[-83.7101,36.0915],[-83.7099,36.087],[-83.7059,36.0816],[-83.7003,36.0712],[-83.6934,36.0645],[-83.692,36.061],[-83.6946,36.0582],[-83.6849,36.0575],[-83.6847,36.0545],[-83.6712,36.0531],[-83.6713,36.0489],[-83.6752,36.0482],[-83.6753,36.0445],[-83.6735,36.0427],[-83.6749,36.0296],[-83.6775,36.0281],[-83.6773,36.0256],[-83.6734,36.0255],[-83.67,36.0183],[-83.669,36.0087],[-83.6648,36.0001],[-83.6619,35.9915],[-83.6513,35.9896],[-83.651,35.9864],[-83.6597,35.9859],[-83.6546,35.9719],[-83.6624,35.9664],[-83.6687,35.9597],[-83.6778,35.9529],[-83.6856,35.9506],[-83.6874,35.9465],[-83.6831,35.9398],[-83.684,35.9367],[-83.6881,35.9386],[-83.6934,35.9447],[-83.6978,35.9398],[-83.7021,35.9387],[-83.7081,35.9341],[-83.7214,35.9272],[-83.7328,35.9196],[-83.7385,35.917],[-83.7407,35.921],[-83.7526,35.9183],[-83.758,35.9148],[-83.7672,35.9119],[-83.7681,35.9083],[-83.7742,35.9053],[-83.7773,35.9015],[-83.7789,35.8966],[-83.7837,35.8926],[-83.7916,35.8893],[-83.7943,35.8871],[-83.8118,35.8784],[-83.8122,35.8751],[-83.8183,35.8702],[-83.8242,35.8669],[-83.8296,35.8623],[-83.8437,35.8469],[-83.849,35.8444],[-83.8502,35.842],[-83.8535,35.8411],[-83.888,35.8445],[-83.8954,35.8484],[-83.9028,35.8483],[-83.9075,35.8466],[-83.9078,35.8541],[-83.9068,35.8544],[-83.9347,35.8691],[-83.9391,35.8676],[-83.9427,35.87],[-83.9457,35.8761],[-83.9577,35.8733],[-83.9614,35.8736],[-83.9652,35.8673],[-83.9687,35.867],[-83.9725,35.864],[-83.9754,35.8634],[-83.9816,35.8688],[-83.9831,35.8736],[-83.9872,35.8778],[-83.9926,35.8796],[-83.994,35.8832],[-83.9996,35.8832],[-84.003,35.8784],[-84.0086,35.8751],[-84.0172,35.8754],[-84.0228,35.8774],[-84.0268,35.8773],[-84.0287,35.8752],[-84.0271,35.8709],[-84.0244,35.8693],[-84.0181,35.869],[-84.0138,35.8672],[-84.0104,35.8641],[-84.0071,35.8569],[-84.0068,35.8493],[-84.0094,35.8442],[-84.0165,35.8395],[-84.0206,35.8393],[-84.0252,35.8417],[-84.0278,35.8486],[-84.0314,35.852],[-84.0357,35.8539],[-84.0396,35.8538],[-84.0499,35.8513],[-84.0519,35.8488],[-84.0522,35.8447],[-84.05,35.8384],[-84.05,35.834],[-84.055,35.8276],[-84.0583,35.8273],[-84.0679,35.8316],[-84.0702,35.8375],[-84.0701,35.8441],[-84.079,35.8508],[-84.0819,35.851],[-84.089,35.8492],[-84.1031,35.844],[-84.1066,35.842],[-84.1173,35.8324],[-84.1211,35.831],[-84.1246,35.8315],[-84.1265,35.836],[-84.1226,35.8408],[-84.123,35.8444],[-84.1281,35.8468],[-84.1301,35.8501],[-84.1343,35.8513],[-84.1457,35.8496],[-84.1471,35.845],[-84.1451,35.8426],[-84.1378,35.8385],[-84.1342,35.8342],[-84.1349,35.8313],[-84.1418,35.8236],[-84.1426,35.8185],[-84.1394,35.8103],[-84.1376,35.8089],[-84.1395,35.8001],[-84.1425,35.797],[-84.1524,35.7938],[-84.1597,35.7952],[-84.1621,35.8019],[-84.1663,35.8051],[-84.1654,35.8068],[-84.2026,35.8415],[-84.2057,35.844],[-84.241,35.8769],[-84.2612,35.8959],[-84.2634,35.8969],[-84.2684,35.9026],[-84.2713,35.9074],[-84.2716,35.9102],[-84.2679,35.9139],[-84.2616,35.9144],[-84.2554,35.9161],[-84.2527,35.9204],[-84.2564,35.9284],[-84.2638,35.9313],[-84.2729,35.9367],[-84.2735,35.9393],[-84.2715,35.9422],[-84.2647,35.9436],[-84.2543,35.9399],[-84.2515,35.938],[-84.2478,35.9329],[-84.2417,35.9292],[-84.2376,35.9296],[-84.2358,35.9317],[-84.2392,35.941],[-84.2378,35.9445],[-84.2399,35.948],[-84.2449,35.9487],[-84.2459,35.9505],[-84.244,35.955],[-84.2407,35.9557],[-84.233,35.9526],[-84.2277,35.9483],[-84.2214,35.9458],[-84.2178,35.9457],[-84.2141,35.9479],[-84.2145,35.9541],[-84.2159,35.9567],[-84.2205,35.9606],[-84.2165,35.9665],[-84.2158,35.9733],[-84.2134,35.9758],[-84.1989,35.9772],[-84.1966,35.9784],[-84.1943,35.9836],[-84.1957,35.9903],[-84.1923,35.9955],[-84.1846,35.9929],[-84.1618,35.9899],[-84.1579,35.9913],[-84.1504,35.9872],[-84.1472,35.9873],[-84.145,35.99],[-84.1389,35.99],[-84.1379,35.9935],[-84.1306,35.9942],[-84.1292,35.9967],[-84.1199,36.001],[-84.1146,35.9995],[-84.104,36.008],[-84.1036,36.0121],[-84.1015,36.0117],[-84.0935,36.0147],[-84.0851,36.0167],[-84.0799,36.0204],[-84.0766,36.02],[-84.0766,36.0235],[-84.0709,36.0263],[-84.069,36.0308],[-84.063,36.033],[-84.0586,36.0363],[-84.0843,36.0603],[-84.094,36.0689],[-84.0913,36.0714],[-84.093,36.0735],[-84.0887,36.077],[-84.0846,36.0755],[-84.0781,36.0809],[-84.0724,36.0833],[-84.0635,36.0937],[-84.052,36.101],[-84.0461,36.1038],[-84.0436,36.1084],[-84.0438,36.1116],[-84.0369,36.1117],[-84.0297,36.1165],[-84.0292,36.1208],[-84.0272,36.1239],[-84.0237,36.1251],[-84.0205,36.1289],[-84.0166,36.1286],[-84.0153,36.1354],[-84.0097,36.1344],[-83.9989,36.1408],[-83.9997,36.1444],[-83.9927,36.1509],[-83.9902,36.152],[-83.9796,36.1608],[-83.9755,36.1632],[-83.9763,36.1679],[-83.9699,36.1675],[-83.9686,36.1713],[-83.9649,36.1728],[-83.9628,36.1758],[-83.9572,36.1776],[-83.952,36.1817],[-83.9476,36.1819],[-83.9444,36.1864],[-83.9417,36.1864],[-83.9345,36.179]]]}},{"type":"Feature","properties":{"id":"47001","name":"Anderson Co."},"geometry":{"type":"Polygon","coordinates":[[[-84.4327,36.1654],[-84.4264,36.1647],[-84.4236,36.1687],[-84.4192,36.1692],[-84.4153,36.168],[-84.4116,36.17],[-84.4084,36.1739],[-84.4036,36.1748],[-84.4008,36.1785],[-84.4031,36.1858],[-84.3974,36.1893],[-84.3908,36.1965],[-84.3924,36.2017],[-84.391,36.2039],[-84.3833,36.2069],[-84.3782,36.2115],[-84.3758,36.2123],[-84.3727,36.2168],[-84.3657,36.2125],[-84.3577,36.2142],[-84.3467,36.2151],[-84.3339,36.2103],[-84.3307,36.2081],[-84.3211,36.2103],[-84.3249,36.2124],[-84.323,36.2136],[-84.3178,36.2134],[-84.3097,36.2161],[-84.3014,36.221],[-84.2969,36.2195],[-84.291,36.2153],[-84.2895,36.212],[-84.2854,36.2076],[-84.2823,36.2066],[-84.2745,36.2019],[-84.2714,36.1961],[-84.268,36.1938],[-84.2641,36.1882],[-84.2586,36.1901],[-84.2533,36.1866],[-84.2516,36.1829],[-84.2413,36.1776],[-84.2303,36.1821],[-84.2287,36.1874],[-84.2315,36.1918],[-84.2298,36.196],[-84.2297,36.2017],[-84.2342,36.2084],[-84.2325,36.2146],[-84.2263,36.2165],[-84.2256,36.2196],[-84.2293,36.2256],[-84.2275,36.2329],[-84.2289,36.2343],[-84.2275,36.2449],[-84.1829,36.2397],[-84.1708,36.2402],[-84.1613,36.2375],[-84.1503,36.2374],[-84.1401,36.2337],[-84.1309,36.234],[-84.1104,36.2339],[-84.1045,36.2321],[-84.1027,36.2244],[-84.0927,36.2224],[-84.093,36.2263],[-84.0915,36.2293],[-84.0858,36.2298],[-84.0768,36.2277],[-84.0737,36.2279],[-84.0699,36.2304],[-84.0692,36.2336],[-84.0712,36.2385],[-84.0759,36.2419],[-84.076,36.2479],[-84.0727,36.252],[-84.0707,36.2521],[-84.0631,36.247],[-84.0592,36.2479],[-84.0571,36.2506],[-84.0583,36.256],[-84.0554,36.2637],[-84.0452,36.2712],[-84.0414,36.2753],[-84.042,36.2826],[-84.0405,36.2851],[-84.0356,36.288],[-84.033,36.2938],[-84.0376,36.2991],[-84.0358,36.3013],[-84.0304,36.301],[-84.0265,36.2971],[-84.0252,36.2841],[-84.0259,36.2793],[-84.0215,36.2723],[-84.0184,36.2711],[-84.0109,36.2722],[-84.0043,36.2704],[-84.0098,36.2703],[-84.0069,36.266],[-84.0008,36.2592],[-83.9991,36.2586],[-83.9964,36.2533],[-83.9987,36.2524],[-83.9978,36.2499],[-83.993,36.2457],[-83.9942,36.2448],[-83.9876,36.2361],[-83.9774,36.2272],[-83.9691,36.2101],[-83.9605,36.2017],[-83.9465,36.1913],[-83.9417,36.1864],[-83.9444,36.1864],[-83.9476,36.1819],[-83.952,36.1817],[-83.9572,36.1776],[-83.9628,36.1758],[-83.9649,36.1728],[-83.9686,36.1713],[-83.9699,36.1675],[-83.9763,36.1679],[-83.9755,36.1632],[-83.9796,36.1608],[-83.9902,36.152],[-83.9927,36.1509],[-83.9997,36.1444],[-83.9989,36.1408],[-84.0097,36.1344],[-84.0153,36.1354],[-84.0166,36.1286],[-84.0205,36.1289],[-84.0237,36.1251],[-84.0272,36.1239],[-84.0292,36.1208],[-84.0297,36.1165],[-84.0369,36.1117],[-84.0438,36.1116],[-84.0436,36.1084],[-84.0461,36.1038],[-84.052,36.101],[-84.0635,36.0937],[-84.0724,36.0833],[-84.0781,36.0809],[-84.0846,36.0755],[-84.0887,36.077],[-84.093,36.0735],[-84.0913,36.0714],[-84.094,36.0689],[-84.0843,36.0603],[-84.0586,36.0363],[-84.063,36.033],[-84.069,36.0308],[-84.0709,36.0263],[-84.0766,36.0235],[-84.0766,36.02],[-84.0799,36.0204],[-84.0851,36.0167],[-84.0935,36.0147],[-84.1015,36.0117],[-84.1036,36.0121],[-84.104,36.008],[-84.1146,35.9995],[-84.1199,36.001],[-84.1292,35.9967],[-84.1306,35.9942],[-84.1379,35.9935],[-84.1389,35.99],[-84.145,35.99],[-84.1472,35.9873],[-84.1504,35.9872],[-84.1579,35.9913],[-84.1618,35.9899],[-84.1846,35.9929],[-84.1923,35.9955],[-84.1957,35.9903],[-84.1943,35.9836],[-84.1966,35.9784],[-84.1989,35.9772],[-84.2134,35.9758],[-84.2158,35.9733],[-84.2165,35.9665],[-84.2205,35.9606],[-84.2159,35.9567],[-84.2145,35.9541],[-84.2141,35.9479],[-84.2178,35.9457],[-84.2214,35.9458],[-84.2277,35.9483],[-84.233,35.9526],[-84.2407,35.9557],[-84.244,35.955],[-84.2459,35.9505],[-84.2449,35.9487],[-84.2399,35.948],[-84.2378,35.9445],[-84.2392,35.941],[-84.2358,35.9317],[-84.2376,35.9296],[-84.2417,35.9292],[-84.2478,35.9329],[-84.2515,35.938],[-84.2543,35.9399],[-84.2647,35.9436],[-84.2715,35.9422],[-84.2735,35.9393],[-84.2729,35.9367],[-84.2638,35.9313],[-84.2564,35.9284],[-84.2527,35.9204],[-84.2554,35.9161],[-84.2616,35.9144],[-84.2679,35.9139],[-84.2716,35.9102],[-84.2847,35.9294],[-84.3202,35.9919],[-84.3418,36.049],[-84.3611,36.07],[-84.379,36.0954],[-84.3869,36.0989],[-84.3932,36.1005],[-84.3964,36.1051],[-84.406,36.1036],[-84.4164,36.1083],[-84.4204,36.1084],[-84.4217,36.1153],[-84.4255,36.123],[-84.4255,36.1251],[-84.43,36.1319],[-84.4421,36.1355],[-84.443,36.1399],[-84.4444,36.1385],[-84.449,36.1396],[-84.4498,36.1423],[-84.4499,36.151],[-84.4453,36.1519],[-84.4408,36.156],[-84.4424,36.1608],[-84.441,36.1635],[-84.4327,36.1654]]]}},{"type":"Feature","properties":{"id":"47009","name":"Blount Co."},"geometry":{"type":"Polygon","coordinates":[[[-84.1854,35.611],[-84.1577,35.624],[-84.1517,35.6275],[-84.1454,35.6358],[-84.1449,35.6416],[-84.1418,35.6442],[-84.1345,35.6474],[-84.1375,35.6584],[-84.1332,35.6604],[-84.1347,35.6646],[-84.1418,35.6691],[-84.1476,35.6691],[-84.1538,35.6739],[-84.1608,35.6833],[-84.1621,35.6874],[-84.1606,35.6955],[-84.1728,35.7128],[-84.1724,35.7195],[-84.171,35.7254],[-84.1721,35.7321],[-84.168,35.7416],[-84.1638,35.7474],[-84.1625,35.7474],[-84.154,35.7539],[-84.152,35.7576],[-84.1637,35.7652],[-84.1795,35.7684],[-84.1777,35.773],[-84.1723,35.7798],[-84.1711,35.786],[-84.171,35.7979],[-84.1738,35.7999],[-84.1727,35.8044],[-84.1663,35.8051],[-84.1621,35.8019],[-84.1597,35.7952],[-84.1524,35.7938],[-84.1425,35.797],[-84.1395,35.8001],[-84.1376,35.8089],[-84.1394,35.8103],[-84.1426,35.8185],[-84.1418,35.8236],[-84.1349,35.8313],[-84.1342,35.8342],[-84.1378,35.8385],[-84.1451,35.8426],[-84.1471,35.845],[-84.1457,35.8496],[-84.1343,35.8513],[-84.1301,35.8501],[-84.1281,35.8468],[-84.123,35.8444],[-84.1226,35.8408],[-84.1265,35.836],[-84.1246,35.8315],[-84.1211,35.831],[-84.1173,35.8324],[-84.1066,35.842],[-84.1031,35.844],[-84.089,35.8492],[-84.0819,35.851],[-84.079,35.8508],[-84.0701,35.8441],[-84.0702,35.8375],[-84.0679,35.8316],[-84.0583,35.8273],[-84.055,35.8276],[-84.05,35.834],[-84.05,35.8384],[-84.0522,35.8447],[-84.0519,35.8488],[-84.0499,35.8513],[-84.0396,35.8538],[-84.0357,35.8539],[-84.0314,35.852],[-84.0278,35.8486],[-84.0252,35.8417],[-84.0206,35.8393],[-84.0165,35.8395],[-84.0094,35.8442],[-84.0068,35.8493],[-84.0071,35.8569],[-84.0104,35.8641],[-84.0138,35.8672],[-84.0181,35.869],[-84.0244,35.8693],[-84.0271,35.8709],[-84.0287,35.8752],[-84.0268,35.8773],[-84.0228,35.8774],[-84.0172,35.8754],[-84.0086,35.8751],[-84.003,35.8784],[-83.9996,35.8832],[-83.994,35.8832],[-83.9926,35.8796],[-83.9872,35.8778],[-83.9831,35.8736],[-83.9816,35.8688],[-83.9754,35.8634],[-83.9725,35.864],[-83.9687,35.867],[-83.9652,35.8673],[-83.9614,35.8736],[-83.9577,35.8733],[-83.9457,35.8761],[-83.9427,35.87],[-83.9391,35.8676],[-83.9347,35.8691],[-83.9068,35.8544],[-83.9078,35.8541],[-83.9075,35.8466],[-83.9028,35.8483],[-83.8954,35.8484],[-83.888,35.8445],[-83.8535,35.8411],[-83.8502,35.842],[-83.849,35.8444],[-83.8437,35.8469],[-83.8296,35.8623],[-83.8242,35.8669],[-83.8183,35.8702],[-83.8122,35.8751],[-83.8118,35.8784],[-83.7943,35.8871],[-83.7916,35.8841],[-83.7887,35.8841],[-83.7862,35.8799],[-83.7842,35.8792],[-83.7844,35.8687],[-83.7794,35.8593],[-83.7843,35.8567],[-83.7829,35.8548],[-83.7802,35.856],[-83.7776,35.8519],[-83.7738,35.8532],[-83.769,35.8475],[-83.7722,35.8457],[-83.7573,35.8175],[-83.756,35.8186],[-83.7499,35.8087],[-83.744,35.8078],[-83.7425,35.8108],[-83.7385,35.8111],[-83.7395,35.8068],[-83.7461,35.8021],[-83.7473,35.7984],[-83.7318,35.7679],[-83.731,35.7644],[-83.7287,35.7624],[-83.7261,35.7634],[-83.73,35.7586],[-83.73,35.7543],[-83.7282,35.7526],[-83.7243,35.7532],[-83.7246,35.7498],[-83.7189,35.7477],[-83.7165,35.729],[-83.713,35.7268],[-83.7083,35.7272],[-83.7081,35.7207],[-83.7013,35.7193],[-83.702,35.7153],[-83.7053,35.7116],[-83.7022,35.7092],[-83.6954,35.7075],[-83.6875,35.7101],[-83.6828,35.7097],[-83.6799,35.7065],[-83.6825,35.7007],[-83.6798,35.6934],[-83.6789,35.6879],[-83.6743,35.6855],[-83.6677,35.6866],[-83.6628,35.6906],[-83.6628,35.6251],[-83.6633,35.6169],[-83.663,35.5691],[-83.6731,35.569],[-83.6763,35.5703],[-83.6842,35.5688],[-83.6978,35.5684],[-83.7021,35.5676],[-83.7072,35.5685],[-83.7235,35.5619],[-83.7329,35.5631],[-83.7357,35.5655],[-83.7499,35.5611],[-83.7569,35.5636],[-83.7646,35.5615],[-83.7717,35.5621],[-83.7731,35.5575],[-83.7801,35.5504],[-83.7868,35.5472],[-83.8024,35.5416],[-83.8087,35.5364],[-83.8098,35.5343],[-83.8256,35.5238],[-83.8319,35.5248],[-83.8402,35.5216],[-83.8485,35.5193],[-83.8593,35.5219],[-83.8664,35.5209],[-83.8726,35.5211],[-83.8826,35.5172],[-83.8843,35.5128],[-83.8921,35.5031],[-83.8957,35.5019],[-83.9014,35.4966],[-83.9002,35.4942],[-83.9015,35.491],[-83.9056,35.4891],[-83.9093,35.4797],[-83.9118,35.476],[-83.9168,35.4736],[-83.9249,35.4739],[-83.937,35.4715],[-83.9422,35.4673],[-83.943,35.4651],[-83.9494,35.4612],[-83.9529,35.4606],[-83.9554,35.4635],[-83.9632,35.4645],[-83.9655,35.4669],[-83.9652,35.4711],[-83.9438,35.4807],[-83.9394,35.4853],[-83.9385,35.4878],[-83.9442,35.4907],[-83.95,35.4909],[-83.9577,35.4897],[-83.9618,35.4917],[-83.9689,35.499],[-83.972,35.5007],[-83.9759,35.5007],[-83.9783,35.4967],[-83.9807,35.4879],[-83.9844,35.4867],[-83.9894,35.4899],[-83.9892,35.4946],[-83.9919,35.4994],[-84.0017,35.5044],[-84.0098,35.511],[-84.0109,35.5161],[-84.008,35.5205],[-84.0026,35.5241],[-83.995,35.5263],[-83.9925,35.5307],[-83.9971,35.5411],[-83.9938,35.55],[-83.9959,35.5529],[-83.9999,35.5547],[-84.0055,35.5548],[-84.0088,35.5533],[-84.011,35.5479],[-84.0144,35.5463],[-84.03,35.5466],[-84.0388,35.5427],[-84.043,35.5422],[-84.0518,35.5464],[-84.0586,35.5456],[-84.0681,35.5464],[-84.0766,35.5439],[-84.0816,35.5412],[-84.0855,35.5414],[-84.0888,35.5437],[-84.0917,35.5502],[-84.0948,35.5533],[-84.0896,35.5598],[-84.0878,35.5599],[-84.0962,35.5689],[-84.0962,35.5755],[-84.1044,35.5751],[-84.107,35.5735],[-84.1104,35.5776],[-84.1098,35.5844],[-84.1123,35.5875],[-84.1209,35.5823],[-84.1252,35.5824],[-84.1275,35.5783],[-84.131,35.5763],[-84.1328,35.5802],[-84.1403,35.5808],[-84.14,35.5836],[-84.1487,35.5838],[-84.1489,35.5913],[-84.1709,35.5934],[-84.1819,35.5989],[-84.1883,35.6105],[-84.1854,35.611]]]}},{"type":"Feature","properties":{"id":"47105","name":"Loudon Co."},"geometry":{"type":"MultiPolygon","coordinates":[[[[-84.3493,35.6443],[-84.3429,35.6366],[-84.35,35.6329],[-84.3553,35.6409],[-84.3493,35.6443]]],[[[-84.5224,35.6186],[-84.5227,35.6078],[-84.526,35.6079],[-84.5256,35.6118],[-84.5403,35.6117],[-84.5404,35.6194],[-84.5224,35.6186]]],[[[-84.5488,35.6705],[-84.5488,35.6732],[-84.5445,35.6732],[-84.5442,35.6769],[-84.5398,35.6768],[-84.54,35.6705],[-84.5488,35.6705]]],[[[-84.531,35.6704],[-84.5308,35.6766],[-84.5219,35.6766],[-84.5218,35.6837],[-84.5319,35.684],[-84.5306,35.6912],[-84.5262,35.6912],[-84.5261,35.6948],[-84.5219,35.6948],[-84.5216,35.7051],[-84.5169,35.712],[-84.5105,35.7164],[-84.4945,35.7164],[-84.4679,35.7415],[-84.4486,35.7594],[-84.4463,35.7547],[-84.4411,35.7506],[-84.4352,35.7482],[-84.4314,35.7489],[-84.426,35.7533],[-84.4244,35.758],[-84.4239,35.7684],[-84.422,35.772],[-84.4164,35.7765],[-84.4067,35.777],[-84.4028,35.776],[-84.3886,35.7684],[-84.3808,35.7779],[-84.3887,35.7825],[-84.3772,35.7907],[-84.3819,35.7965],[-84.3799,35.7978],[-84.3812,35.8056],[-84.3797,35.8174],[-84.3753,35.8203],[-84.3756,35.8224],[-84.3715,35.8259],[-84.365,35.8253],[-84.3476,35.8324],[-84.3428,35.8319],[-84.3379,35.8399],[-84.3389,35.8503],[-84.3354,35.8695],[-84.3337,35.8771],[-84.3382,35.8772],[-84.3363,35.881],[-84.3332,35.8793],[-84.33,35.8929],[-84.3274,35.8894],[-84.323,35.8868],[-84.3192,35.8863],[-84.3091,35.8883],[-84.2937,35.8833],[-84.2856,35.8751],[-84.279,35.8772],[-84.2788,35.881],[-84.2858,35.8943],[-84.2846,35.901],[-84.2812,35.903],[-84.2771,35.902],[-84.2714,35.8967],[-84.2667,35.8941],[-84.2634,35.8969],[-84.2612,35.8959],[-84.241,35.8769],[-84.2057,35.844],[-84.2026,35.8415],[-84.1654,35.8068],[-84.1663,35.8051],[-84.1727,35.8044],[-84.1738,35.7999],[-84.171,35.7979],[-84.1711,35.786],[-84.1723,35.7798],[-84.1777,35.773],[-84.1795,35.7684],[-84.1637,35.7652],[-84.152,35.7576],[-84.154,35.7539],[-84.1625,35.7474],[-84.1638,35.7474],[-84.168,35.7416],[-84.1721,35.7321],[-84.171,35.7254],[-84.1724,35.7195],[-84.1728,35.7128],[-84.1606,35.6955],[-84.1621,35.6874],[-84.1608,35.6833],[-84.1538,35.6739],[-84.1476,35.6691],[-84.1418,35.6691],[-84.1347,35.6646],[-84.1332,35.6604],[-84.1375,35.6584],[-84.1345,35.6474],[-84.1418,35.6442],[-84.1449,35.6416],[-84.1454,35.6358],[-84.1517,35.6275],[-84.1577,35.624],[-84.1854,35.611],[-84.1883,35.6105],[-84.1926,35.6182],[-84.2215,35.6153],[-84.2265,35.6209],[-84.2306,35.6223],[-84.2349,35.6216],[-84.2425,35.6184],[-84.2499,35.6172],[-84.2542,35.6197],[-84.2543,35.6247],[-84.252,35.6302],[-84.2476,35.6338],[-84.2508,35.637],[-84.2541,35.6358],[-84.2564,35.6319],[-84.2613,35.6353],[-84.2818,35.6356],[-84.2822,35.6413],[-84.2908,35.6419],[-84.2909,35.643],[-84.2975,35.6432],[-84.2952,35.6502],[-84.2909,35.6503],[-84.2908,35.6549],[-84.2996,35.6549],[-84.2995,35.6577],[-84.3087,35.6578],[-84.3102,35.6593],[-84.3175,35.6602],[-84.3176,35.6721],[-84.3264,35.6722],[-84.3269,35.665],[-84.3576,35.6652],[-84.3576,35.6579],[-84.3533,35.6578],[-84.3533,35.6544],[-84.3622,35.6544],[-84.3623,35.6472],[-84.3713,35.647],[-84.3713,35.6435],[-84.3744,35.6417],[-84.3801,35.6414],[-84.385,35.6398],[-84.3981,35.6402],[-84.3979,35.651],[-84.4065,35.6512],[-84.4065,35.6546],[-84.4022,35.6547],[-84.4065,35.6656],[-84.4105,35.6667],[-84.4162,35.6622],[-84.42,35.6636],[-84.4248,35.6611],[-84.4257,35.6652],[-84.4239,35.6652],[-84.4235,35.6717],[-84.4334,35.672],[-84.4377,35.6711],[-84.4379,35.6679],[-84.4358,35.666],[-84.4572,35.6658],[-84.4572,35.6591],[-84.4614,35.6585],[-84.4868,35.6584],[-84.4873,35.6555],[-84.4956,35.6554],[-84.4955,35.6584],[-84.4991,35.6585],[-84.5001,35.6657],[-84.5043,35.6659],[-84.5046,35.651],[-84.5222,35.6514],[-84.5225,35.644],[-84.5137,35.644],[-84.5137,35.6422],[-84.5092,35.6422],[-84.5092,35.6395],[-84.5138,35.6395],[-84.5138,35.6368],[-84.5087,35.6367],[-84.5086,35.6294],[-84.5001,35.6294],[-84.5047,35.6197],[-84.5137,35.6195],[-84.5174,35.6242],[-84.5258,35.6242],[-84.526,35.6281],[-84.5314,35.6281],[-84.534,35.6296],[-84.5354,35.6337],[-84.539,35.6378],[-84.5401,35.6367],[-84.5476,35.6413],[-84.5492,35.6369],[-84.5579,35.637],[-84.5579,35.6297],[-84.5669,35.6298],[-84.5669,35.6332],[-84.5843,35.6331],[-84.5845,35.6444],[-84.5844,35.6516],[-84.5755,35.6516],[-84.5756,35.6589],[-84.5534,35.6588],[-84.5534,35.6624],[-84.5489,35.6624],[-84.5488,35.6661],[-84.5403,35.6659],[-84.54,35.6705],[-84.531,35.6704]]]]}},{"type":"Feature","properties":{"id":"47145","name":"Roane Co."},"geometry":{"type":"Polygon","coordinates":[[[-84.6753,35.9102],[-84.6725,35.9135],[-84.6745,35.9155],[-84.6704,35.9176],[-84.6664,35.9159],[-84.6618,35.9158],[-84.6604,35.9205],[-84.6567,35.9195],[-84.655,35.9242],[-84.6535,35.9239],[-84.6516,35.9287],[-84.6489,35.927],[-84.6431,35.9273],[-84.6431,35.9295],[-84.6385,35.9315],[-84.6337,35.9302],[-84.6284,35.9308],[-84.6272,35.9344],[-84.6209,35.9322],[-84.6156,35.9407],[-84.6098,35.941],[-84.6098,35.9431],[-84.606,35.9446],[-84.6067,35.9511],[-84.6035,35.9541],[-84.6027,35.9523],[-84.5956,35.9496],[-84.5934,35.9503],[-84.5883,35.9473],[-84.5848,35.9483],[-84.5862,35.9506],[-84.5807,35.9516],[-84.5754,35.9499],[-84.5637,35.9496],[-84.555,35.9504],[-84.5549,35.959],[-84.5558,35.9609],[-84.554,35.9645],[-84.5457,35.9689],[-84.532,35.973],[-84.5206,35.9749],[-84.5095,35.9777],[-84.495,35.983],[-84.4941,35.9843],[-84.4871,35.9852],[-84.4834,35.9839],[-84.4765,35.9846],[-84.4678,35.9836],[-84.4606,35.9854],[-84.4566,35.9841],[-84.4461,35.986],[-84.4401,35.9889],[-84.4343,35.9937],[-84.4202,36.0012],[-84.4154,36.0044],[-84.4114,36.0053],[-84.4066,36.0081],[-84.3948,36.0174],[-84.3901,36.0194],[-84.3826,36.0243],[-84.3731,36.034],[-84.3616,36.0434],[-84.346,36.0491],[-84.3418,36.049],[-84.3202,35.9919],[-84.2847,35.9294],[-84.2716,35.9102],[-84.2713,35.9074],[-84.2684,35.9026],[-84.2634,35.8969],[-84.2667,35.8941],[-84.2714,35.8967],[-84.2771,35.902],[-84.2812,35.903],[-84.2846,35.901],[-84.2858,35.8943],[-84.2788,35.881],[-84.279,35.8772],[-84.2856,35.8751],[-84.2937,35.8833],[-84.3091,35.8883],[-84.3192,35.8863],[-84.323,35.8868],[-84.3274,35.8894],[-84.33,35.8929],[-84.3332,35.8793],[-84.3363,35.881],[-84.3382,35.8772],[-84.3337,35.8771],[-84.3354,35.8695],[-84.3389,35.8503],[-84.3379,35.8399],[-84.3428,35.8319],[-84.3476,35.8324],[-84.365,35.8253],[-84.3715,35.8259],[-84.3756,35.8224],[-84.3753,35.8203],[-84.3797,35.8174],[-84.3812,35.8056],[-84.3799,35.7978],[-84.3819,35.7965],[-84.3772,35.7907],[-84.3887,35.7825],[-84.3808,35.7779],[-84.3886,35.7684],[-84.4028,35.776],[-84.4067,35.777],[-84.4164,35.7765],[-84.422,35.772],[-84.4239,35.7684],[-84.4244,35.758],[-84.426,35.7533],[-84.4314,35.7489],[-84.4352,35.7482],[-84.4411,35.7506],[-84.4463,35.7547],[-84.4486,35.7594],[-84.4679,35.7415],[-84.4945,35.7164],[-84.5105,35.7164],[-84.5169,35.712],[-84.5216,35.7051],[-84.5219,35.6948],[-84.5261,35.6948],[-84.5262,35.6912],[-84.5306,35.6912],[-84.5319,35.684],[-84.5218,35.6837],[-84.5219,35.6766],[-84.5308,35.6766],[-84.531,35.6704],[-84.54,35.6705],[-84.5403,35.6659],[-84.5488,35.6661],[-84.5489,35.6624],[-84.5534,35.6624],[-84.5534,35.6588],[-84.5756,35.6589],[-84.5755,35.6516],[-84.5844,35.6516],[-84.5845,35.6444],[-84.6199,35.6447],[-84.6199,35.6589],[-84.6259,35.6589],[-84.628,35.6622],[-84.6281,35.6901],[-84.6192,35.6948],[-84.6233,35.6999],[-84.619,35.7034],[-84.619,35.7079],[-84.623,35.7079],[-84.623,35.7118],[-84.6364,35.7204],[-84.6363,35.7243],[-84.6451,35.7244],[-84.6453,35.7171],[-84.6543,35.7173],[-84.6544,35.71],[-84.6632,35.7102],[-84.6635,35.7028],[-84.6722,35.7029],[-84.672,35.7104],[-84.6765,35.7105],[-84.6765,35.7175],[-84.6987,35.7179],[-84.6985,35.725],[-84.6953,35.7249],[-84.6951,35.7327],[-84.6984,35.7327],[-84.6984,35.7418],[-84.714,35.742],[-84.7155,35.7452],[-84.7216,35.7522],[-84.7301,35.7521],[-84.7323,35.7487],[-84.7388,35.7513],[-84.7423,35.7504],[-84.7472,35.7512],[-84.7545,35.7544],[-84.757,35.757],[-84.7576,35.7608],[-84.7522,35.7674],[-84.7538,35.7703],[-84.7506,35.7744],[-84.7409,35.7749],[-84.738,35.7793],[-84.7396,35.7875],[-84.742,35.7903],[-84.747,35.7921],[-84.7469,35.794],[-84.7578,35.7954],[-84.7655,35.7994],[-84.7717,35.8082],[-84.7815,35.8134],[-84.7849,35.8124],[-84.7892,35.8147],[-84.7874,35.8173],[-84.783,35.818],[-84.7852,35.823],[-84.7798,35.8269],[-84.7761,35.8268],[-84.7637,35.8337],[-84.7628,35.8365],[-84.7648,35.8384],[-84.7566,35.8435],[-84.7549,35.8421],[-84.7496,35.8495],[-84.7484,35.8486],[-84.7405,35.8523],[-84.7383,35.8511],[-84.7367,35.8561],[-84.7335,35.8583],[-84.7288,35.8592],[-84.7277,35.8638],[-84.7262,35.8642],[-84.7178,35.8751],[-84.7062,35.8961],[-84.7043,35.8939],[-84.6975,35.8996],[-84.6851,35.9029],[-84.6806,35.9085],[-84.6753,35.9102]],[[-84.5398,35.6768],[-84.5442,35.6769],[-84.5445,35.6732],[-84.5488,35.6732],[-84.5488,35.6705],[-84.54,35.6705],[-84.5398,35.6768]]]}},{"type":"Feature","properties":{"id":"47057","name":"Grainger Co."},"geometry":{"type":"Polygon","coordinates":[[[-83.725,36.169],[-83.723,36.1691],[-83.7147,36.1738],[-83.7219,36.1767],[-83.7227,36.1788],[-83.7284,36.1821],[-83.7298,36.1867],[-83.7211,36.1885],[-83.7158,36.192],[-83.7152,36.1939],[-83.7194,36.1955],[-83.7169,36.1998],[-83.703,36.205],[-83.7002,36.2076],[-83.6935,36.2375],[-83.6956,36.2544],[-83.7045,36.2502],[-83.7027,36.2732],[-83.7004,36.2748],[-83.6895,36.2791],[-83.6871,36.284],[-83.6882,36.2866],[-83.6866,36.2894],[-83.6821,36.292],[-83.683,36.2973],[-83.6891,36.296],[-83.6758,36.3265],[-83.6823,36.3316],[-83.6748,36.3375],[-83.6709,36.3355],[-83.6674,36.3444],[-83.6627,36.3399],[-83.6625,36.3337],[-83.6588,36.332],[-83.6545,36.3333],[-83.6529,36.3379],[-83.6471,36.3397],[-83.6403,36.3361],[-83.6325,36.3384],[-83.6262,36.3428],[-83.6148,36.3456],[-83.6126,36.3474],[-83.6099,36.3529],[-83.6067,36.3549],[-83.5973,36.3572],[-83.5953,36.3596],[-83.5942,36.3675],[-83.5901,36.3692],[-83.5851,36.3684],[-83.5785,36.3639],[-83.5702,36.3639],[-83.5684,36.37],[-83.5648,36.3726],[-83.5619,36.3719],[-83.5589,36.3679],[-83.5584,36.3635],[-83.5555,36.3614],[-83.5526,36.3623],[-83.5527,36.3672],[-83.5511,36.3683],[-83.5446,36.3582],[-83.5417,36.3551],[-83.5372,36.3527],[-83.5325,36.3534],[-83.5316,36.3555],[-83.5325,36.3651],[-83.5302,36.3663],[-83.5267,36.3636],[-83.5252,36.3594],[-83.5212,36.3567],[-83.5182,36.3569],[-83.5165,36.3608],[-83.5185,36.3628],[-83.5236,36.3627],[-83.5225,36.3662],[-83.5164,36.365],[-83.5118,36.3709],[-83.5065,36.3725],[-83.5042,36.367],[-83.5004,36.3623],[-83.4976,36.3619],[-83.4941,36.3645],[-83.4945,36.3689],[-83.4981,36.3751],[-83.4978,36.3782],[-83.493,36.3791],[-83.4873,36.3773],[-83.4826,36.3796],[-83.4781,36.3785],[-83.475,36.3747],[-83.4694,36.3704],[-83.466,36.3692],[-83.4492,36.3743],[-83.46,36.3892],[-83.4597,36.3927],[-83.456,36.392],[-83.4565,36.3876],[-83.4537,36.386],[-83.4495,36.3877],[-83.4512,36.3945],[-83.4564,36.3964],[-83.4592,36.3994],[-83.4568,36.4031],[-83.4523,36.3974],[-83.4483,36.3969],[-83.4414,36.4021],[-83.4416,36.4107],[-83.4391,36.4129],[-83.4302,36.4076],[-83.4281,36.4095],[-83.4297,36.4172],[-83.4259,36.418],[-83.4171,36.4114],[-83.414,36.4132],[-83.4172,36.4174],[-83.4154,36.4206],[-83.4065,36.4181],[-83.4042,36.4158],[-83.3935,36.4152],[-83.3904,36.413],[-83.3894,36.4082],[-83.3834,36.4096],[-83.3818,36.4089],[-83.3782,36.4115],[-83.3523,36.4197],[-83.341,36.4084],[-83.3368,36.4098],[-83.335,36.4076],[-83.3295,36.4081],[-83.3282,36.4097],[-83.3252,36.4079],[-83.323,36.4043],[-83.3185,36.4053],[-83.3153,36.3988],[-83.3086,36.3996],[-83.3075,36.3928],[-83.3042,36.3882],[-83.293,36.3925],[-83.2806,36.3947],[-83.2776,36.3884],[-83.2741,36.3847],[-83.2825,36.3824],[-83.2889,36.3788],[-83.2875,36.3751],[-83.2831,36.3715],[-83.2733,36.3702],[-83.2726,36.3664],[-83.2672,36.3531],[-83.2649,36.3512],[-83.2645,36.3448],[-83.2656,36.3278],[-83.2737,36.3227],[-83.2737,36.3191],[-83.2638,36.3054],[-83.2553,36.2891],[-83.2633,36.2885],[-83.2673,36.2851],[-83.2655,36.277],[-83.2671,36.2743],[-83.2724,36.274],[-83.2766,36.2767],[-83.2788,36.2757],[-83.2784,36.2643],[-83.2804,36.2626],[-83.2902,36.2627],[-83.2922,36.2667],[-83.2907,36.272],[-83.2916,36.2758],[-83.2949,36.278],[-83.299,36.2761],[-83.3051,36.2682],[-83.3103,36.2701],[-83.3123,36.2765],[-83.3175,36.2788],[-83.32,36.2837],[-83.318,36.2878],[-83.3184,36.2903],[-83.3223,36.295],[-83.329,36.2961],[-83.3318,36.2939],[-83.3335,36.2841],[-83.341,36.2795],[-83.3442,36.2792],[-83.3552,36.2826],[-83.3587,36.282],[-83.363,36.279],[-83.3644,36.276],[-83.3623,36.2717],[-83.3623,36.2676],[-83.3656,36.2658],[-83.3775,36.2653],[-83.3842,36.2657],[-83.3877,36.2646],[-83.3923,36.2602],[-83.3945,36.2555],[-83.3971,36.2532],[-83.4095,36.2488],[-83.4163,36.2413],[-83.4199,36.2363],[-83.4217,36.2317],[-83.4209,36.2287],[-83.4167,36.2231],[-83.4161,36.2194],[-83.4266,36.2115],[-83.4342,36.2099],[-83.4388,36.2123],[-83.438,36.2185],[-83.4419,36.2228],[-83.4495,36.218],[-83.4508,36.2133],[-83.4512,36.2032],[-83.4473,36.1963],[-83.4472,36.1926],[-83.4491,36.1903],[-83.4603,36.1881],[-83.4659,36.1889],[-83.4687,36.1854],[-83.4657,36.1785],[-83.4671,36.1747],[-83.4712,36.1723],[-83.4835,36.1671],[-83.4929,36.1661],[-83.5056,36.1691],[-83.5155,36.1781],[-83.5189,36.1782],[-83.5217,36.1747],[-83.5247,36.1644],[-83.5283,36.1626],[-83.5334,36.1656],[-83.5358,36.1707],[-83.536,36.1793],[-83.5392,36.1818],[-83.5448,36.1815],[-83.5493,36.1796],[-83.5573,36.1793],[-83.5593,36.1824],[-83.5595,36.188],[-83.563,36.192],[-83.5673,36.1901],[-83.5666,36.1828],[-83.5619,36.1735],[-83.5644,36.1665],[-83.569,36.1656],[-83.5793,36.1685],[-83.583,36.1662],[-83.5809,36.1604],[-83.5809,36.1555],[-83.5875,36.1544],[-83.5899,36.1569],[-83.5886,36.1632],[-83.5909,36.1665],[-83.5978,36.1642],[-83.5998,36.1604],[-83.6018,36.1509],[-83.5996,36.1429],[-83.6008,36.1398],[-83.6042,36.1383],[-83.6102,36.1413],[-83.6128,36.1399],[-83.6068,36.1326],[-83.6073,36.1304],[-83.6107,36.1306],[-83.6147,36.1356],[-83.6176,36.143],[-83.6199,36.1437],[-83.6249,36.1399],[-83.6294,36.139],[-83.6328,36.1445],[-83.6372,36.1444],[-83.6397,36.1325],[-83.6389,36.1286],[-83.6344,36.1259],[-83.6302,36.1255],[-83.6277,36.123],[-83.6287,36.106],[-83.6311,36.1002],[-83.6413,36.0971],[-83.6454,36.0972],[-83.6516,36.1],[-83.6546,36.1057],[-83.6499,36.1093],[-83.6479,36.1139],[-83.6521,36.1223],[-83.6515,36.1252],[-83.6595,36.1262],[-83.6604,36.121],[-83.6664,36.1218],[-83.6668,36.1267],[-83.6742,36.125],[-83.6757,36.1197],[-83.6676,36.099],[-83.66,36.0913],[-83.6594,36.0855],[-83.6621,36.0822],[-83.6675,36.0806],[-83.667,36.0862],[-83.6757,36.0981],[-83.6793,36.0987],[-83.6812,36.1018],[-83.6872,36.1023],[-83.6872,36.1118],[-83.6946,36.1113],[-83.6994,36.1095],[-83.699,36.1134],[-83.6947,36.1158],[-83.6942,36.1209],[-83.6914,36.122],[-83.7,36.1229],[-83.7017,36.1201],[-83.704,36.1207],[-83.7067,36.1247],[-83.7064,36.1282],[-83.7126,36.1288],[-83.721,36.1369],[-83.7237,36.1375],[-83.7251,36.1424],[-83.7237,36.1475],[-83.726,36.1496],[-83.7229,36.1519],[-83.7307,36.1585],[-83.7327,36.1646],[-83.725,36.169]]]}},{"type":"Feature","properties":{"id":"47173","name":"Union Co."},"geometry":{"type":"Polygon","coordinates":[[[-84.0007,36.2716],[-83.9993,36.2814],[-83.9927,36.2837],[-83.9857,36.2815],[-83.9838,36.2855],[-83.981,36.285],[-83.9831,36.2892],[-83.9784,36.2936],[-83.9793,36.2947],[-83.974,36.2983],[-83.9779,36.3057],[-83.974,36.3064],[-83.9745,36.3112],[-83.9728,36.3124],[-83.9716,36.3287],[-83.9699,36.3334],[-83.9714,36.3426],[-83.9698,36.3465],[-83.9631,36.3445],[-83.9617,36.3468],[-83.9684,36.3546],[-83.9576,36.3571],[-83.9577,36.3592],[-83.9625,36.3581],[-83.9651,36.3622],[-83.9607,36.3611],[-83.9534,36.3637],[-83.9499,36.37],[-83.9533,36.3758],[-83.9574,36.3777],[-83.9583,36.38],[-83.9536,36.3842],[-83.9559,36.3898],[-83.9556,36.3933],[-83.9509,36.4013],[-83.9449,36.3984],[-83.939,36.3943],[-83.9315,36.3932],[-83.9258,36.3879],[-83.9212,36.3879],[-83.915,36.394],[-83.9072,36.3991],[-83.9028,36.4054],[-83.9064,36.4103],[-83.9108,36.4134],[-83.9058,36.4133],[-83.9033,36.4183],[-83.9056,36.42],[-83.8984,36.4192],[-83.8937,36.4197],[-83.8895,36.424],[-83.8893,36.4259],[-83.8926,36.429],[-83.8905,36.4313],[-83.8881,36.4288],[-83.8847,36.4213],[-83.876,36.4271],[-83.8765,36.4305],[-83.8708,36.4311],[-83.8612,36.4347],[-83.8552,36.4315],[-83.8535,36.4319],[-83.8519,36.428],[-83.8393,36.4293],[-83.8403,36.4274],[-83.8346,36.4227],[-83.8333,36.4197],[-83.8201,36.4289],[-83.8128,36.4315],[-83.8055,36.4359],[-83.8033,36.4321],[-83.8005,36.4328],[-83.799,36.428],[-83.8034,36.426],[-83.8079,36.4224],[-83.805,36.4164],[-83.8012,36.4182],[-83.8004,36.4223],[-83.798,36.4241],[-83.7927,36.4231],[-83.7923,36.4199],[-83.796,36.4168],[-83.7951,36.4133],[-83.7903,36.4116],[-83.7873,36.4087],[-83.7824,36.4088],[-83.7804,36.4056],[-83.775,36.4049],[-83.778,36.4031],[-83.7724,36.4028],[-83.7645,36.3988],[-83.7658,36.3961],[-83.7593,36.3901],[-83.7583,36.3839],[-83.7544,36.3839],[-83.7536,36.3811],[-83.7507,36.3801],[-83.7493,36.3724],[-83.7434,36.3696],[-83.7447,36.3657],[-83.7436,36.3613],[-83.7466,36.3593],[-83.7442,36.3547],[-83.7456,36.354],[-83.7389,36.3525],[-83.7331,36.345],[-83.7218,36.3427],[-83.714,36.3442],[-83.7111,36.3462],[-83.7065,36.3559],[-83.7021,36.3627],[-83.698,36.3655],[-83.6951,36.3649],[-83.6907,36.3603],[-83.6824,36.3574],[-83.6782,36.3548],[-83.6674,36.3444],[-83.6709,36.3355],[-83.6748,36.3375],[-83.6823,36.3316],[-83.6758,36.3265],[-83.6891,36.296],[-83.683,36.2973],[-83.6821,36.292],[-83.6866,36.2894],[-83.6882,36.2866],[-83.6871,36.284],[-83.6895,36.2791],[-83.7004,36.2748],[-83.7027,36.2732],[-83.7045,36.2502],[-83.6956,36.2544],[-83.6935,36.2375],[-83.7002,36.2076],[-83.703,36.205],[-83.7169,36.1998],[-83.7194,36.1955],[-83.7152,36.1939],[-83.7158,36.192],[-83.7211,36.1885],[-83.7298,36.1867],[-83.7284,36.1821],[-83.7227,36.1788],[-83.7219,36.1767],[-83.7147,36.1738],[-83.723,36.1691],[-83.725,36.169],[-83.7327,36.1646],[-83.7995,36.1663],[-83.8678,36.1681],[-83.904,36.169],[-83.9005,36.1645],[-83.9052,36.1609],[-83.9097,36.1627],[-83.9059,36.1654],[-83.9061,36.169],[-83.9227,36.1694],[-83.9345,36.179],[-83.9417,36.1864],[-83.9465,36.1913],[-83.9605,36.2017],[-83.9691,36.2101],[-83.9774,36.2272],[-83.9876,36.2361],[-83.9942,36.2448],[-83.993,36.2457],[-83.9978,36.2499],[-83.9987,36.2524],[-83.9964,36.2533],[-83.9991,36.2586],[-84.0008,36.2592],[-84.0069,36.266],[-84.0098,36.2703],[-84.0043,36.2704],[-84.0007,36.2716]]]}},{"type":"Feature","properties":{"id":"47129","name":"Morgan Co."},"geometry":{"type":"Polygon","coordinates":[[[-84.4424,36.1608],[-84.4408,36.156],[-84.4453,36.1519],[-84.4499,36.151],[-84.4498,36.1423],[-84.449,36.1396],[-84.4444,36.1385],[-84.443,36.1399],[-84.4421,36.1355],[-84.43,36.1319],[-84.4255,36.1251],[-84.4255,36.123],[-84.4217,36.1153],[-84.4204,36.1084],[-84.4164,36.1083],[-84.406,36.1036],[-84.3964,36.1051],[-84.3932,36.1005],[-84.3869,36.0989],[-84.379,36.0954],[-84.3611,36.07],[-84.3418,36.049],[-84.346,36.0491],[-84.3616,36.0434],[-84.3731,36.034],[-84.3826,36.0243],[-84.3901,36.0194],[-84.3948,36.0174],[-84.4066,36.0081],[-84.4114,36.0053],[-84.4154,36.0044],[-84.4202,36.0012],[-84.4343,35.9937],[-84.4401,35.9889],[-84.4461,35.986],[-84.4566,35.9841],[-84.4606,35.9854],[-84.4678,35.9836],[-84.4765,35.9846],[-84.4834,35.9839],[-84.4871,35.9852],[-84.4941,35.9843],[-84.495,35.983],[-84.5095,35.9777],[-84.5206,35.9749],[-84.532,35.973],[-84.5457,35.9689],[-84.554,35.9645],[-84.5558,35.9609],[-84.5549,35.959],[-84.555,35.9504],[-84.5637,35.9496],[-84.5754,35.9499],[-84.5807,35.9516],[-84.5862,35.9506],[-84.5848,35.9483],[-84.5883,35.9473],[-84.5934,35.9503],[-84.5956,35.9496],[-84.6027,35.9523],[-84.6035,35.9541],[-84.6067,35.9511],[-84.606,35.9446],[-84.6098,35.9431],[-84.6098,35.941],[-84.6156,35.9407],[-84.6209,35.9322],[-84.6272,35.9344],[-84.6284,35.9308],[-84.6337,35.9302],[-84.6385,35.9315],[-84.6431,35.9295],[-84.6431,35.9273],[-84.6489,35.927],[-84.6516,35.9287],[-84.6535,35.9239],[-84.655,35.9242],[-84.6567,35.9195],[-84.6604,35.9205],[-84.6618,35.9158],[-84.6664,35.9159],[-84.6704,35.9176],[-84.6745,35.9155],[-84.6725,35.9135],[-84.6753,35.9102],[-84.6806,35.9085],[-84.7207,35.9949],[-84.7919,36.0594],[-84.8049,36.0886],[-84.8055,36.0905],[-84.8113,36.0871],[-84.8148,36.0899],[-84.8142,36.0934],[-84.8192,36.0954],[-84.8221,36.0924],[-84.8246,36.0946],[-84.8274,36.0899],[-84.8271,36.0875],[-84.8324,36.084],[-84.8681,36.1328],[-84.8709,36.1369],[-84.8749,36.1373],[-84.8788,36.1396],[-84.8822,36.1443],[-84.8871,36.146],[-84.8909,36.1457],[-84.8975,36.1472],[-84.8994,36.1504],[-84.9037,36.1518],[-84.9078,36.1563],[-84.9052,36.1593],[-84.905,36.167],[-84.9022,36.1684],[-84.9,36.1724],[-84.9026,36.1768],[-84.9042,36.1838],[-84.9105,36.1864],[-84.9118,36.1912],[-84.9086,36.1962],[-84.9114,36.198],[-84.9115,36.2019],[-84.9142,36.2083],[-84.9069,36.2158],[-84.9039,36.217],[-84.9039,36.2207],[-84.902,36.2237],[-84.8974,36.2241],[-84.8923,36.2328],[-84.8933,36.2355],[-84.8902,36.2398],[-84.8844,36.2386],[-84.8829,36.246],[-84.8848,36.2493],[-84.8826,36.2523],[-84.8831,36.2548],[-84.8818,36.2622],[-84.8761,36.2697],[-84.8786,36.2802],[-84.8752,36.2856],[-84.8708,36.2871],[-84.871,36.2892],[-84.8661,36.2929],[-84.8576,36.2922],[-84.8562,36.2936],[-84.8471,36.2901],[-84.8431,36.287],[-84.8386,36.2886],[-84.8369,36.2914],[-84.8324,36.2924],[-84.8308,36.295],[-84.8222,36.2995],[-84.8167,36.297],[-84.815,36.2934],[-84.8097,36.2946],[-84.8056,36.2969],[-84.7957,36.2977],[-84.7916,36.302],[-84.7953,36.3079],[-84.7915,36.3123],[-84.7893,36.3176],[-84.7819,36.3191],[-84.7864,36.3239],[-84.7855,36.326],[-84.7785,36.3267],[-84.775,36.3301],[-84.7748,36.3337],[-84.7727,36.3349],[-84.7685,36.3335],[-84.762,36.3285],[-84.7594,36.3283],[-84.7582,36.3326],[-84.7541,36.3347],[-84.75,36.3322],[-84.7463,36.3351],[-84.74,36.3366],[-84.7406,36.3409],[-84.7429,36.343],[-84.7435,36.3487],[-84.7455,36.3511],[-84.7424,36.354],[-84.7332,36.3505],[-84.7285,36.3514],[-84.7269,36.354],[-84.7316,36.3567],[-84.7327,36.3587],[-84.7325,36.3663],[-84.7291,36.3693],[-84.7234,36.3698],[-84.7247,36.3763],[-84.7187,36.3747],[-84.7154,36.3716],[-84.7095,36.3685],[-84.7062,36.368],[-84.7008,36.3708],[-84.6249,36.285],[-84.611,36.2704],[-84.6019,36.275],[-84.5939,36.2767],[-84.5918,36.2763],[-84.5873,36.2667],[-84.573,36.2666],[-84.5717,36.2504],[-84.5702,36.2482],[-84.5687,36.2371],[-84.5733,36.2298],[-84.5662,36.2262],[-84.5555,36.2283],[-84.5524,36.2338],[-84.533,36.2263],[-84.471,36.2038],[-84.472,36.198],[-84.4701,36.197],[-84.4681,36.1917],[-84.4645,36.1898],[-84.4586,36.1894],[-84.4591,36.1816],[-84.4504,36.1742],[-84.4466,36.173],[-84.4438,36.1683],[-84.4441,36.1648],[-84.441,36.1635],[-84.4424,36.1608]]]}},{"type":"Feature","properties":{"id":"47013","name":"Campbell Co."},"geometry":{"type":"Polygon","coordinates":[[[-83.9033,36.4183],[-83.9058,36.4133],[-83.9108,36.4134],[-83.9064,36.4103],[-83.9028,36.4054],[-83.9072,36.3991],[-83.915,36.394],[-83.9212,36.3879],[-83.9258,36.3879],[-83.9315,36.3932],[-83.939,36.3943],[-83.9449,36.3984],[-83.9509,36.4013],[-83.9556,36.3933],[-83.9559,36.3898],[-83.9536,36.3842],[-83.9583,36.38],[-83.9574,36.3777],[-83.9533,36.3758],[-83.9499,36.37],[-83.9534,36.3637],[-83.9607,36.3611],[-83.9651,36.3622],[-83.9625,36.3581],[-83.9577,36.3592],[-83.9576,36.3571],[-83.9684,36.3546],[-83.9617,36.3468],[-83.9631,36.3445],[-83.9698,36.3465],[-83.9714,36.3426],[-83.9699,36.3334],[-83.9716,36.3287],[-83.9728,36.3124],[-83.9745,36.3112],[-83.974,36.3064],[-83.9779,36.3057],[-83.974,36.2983],[-83.9793,36.2947],[-83.9784,36.2936],[-83.9831,36.2892],[-83.981,36.285],[-83.9838,36.2855],[-83.9857,36.2815],[-83.9927,36.2837],[-83.9993,36.2814],[-84.0007,36.2716],[-84.0043,36.2704],[-84.0109,36.2722],[-84.0184,36.2711],[-84.0215,36.2723],[-84.0259,36.2793],[-84.0252,36.2841],[-84.0265,36.2971],[-84.0304,36.301],[-84.0358,36.3013],[-84.0376,36.2991],[-84.033,36.2938],[-84.0356,36.288],[-84.0405,36.2851],[-84.042,36.2826],[-84.0414,36.2753],[-84.0452,36.2712],[-84.0554,36.2637],[-84.0583,36.256],[-84.0571,36.2506],[-84.0592,36.2479],[-84.0631,36.247],[-84.0707,36.2521],[-84.0727,36.252],[-84.076,36.2479],[-84.0759,36.2419],[-84.0712,36.2385],[-84.0692,36.2336],[-84.0699,36.2304],[-84.0737,36.2279],[-84.0768,36.2277],[-84.0858,36.2298],[-84.0915,36.2293],[-84.093,36.2263],[-84.0927,36.2224],[-84.1027,36.2244],[-84.1045,36.2321],[-84.1104,36.2339],[-84.1309,36.234],[-84.1401,36.2337],[-84.1503,36.2374],[-84.1613,36.2375],[-84.1708,36.2402],[-84.1829,36.2397],[-84.2275,36.2449],[-84.2289,36.2343],[-84.2275,36.2329],[-84.2293,36.2256],[-84.2256,36.2196],[-84.2263,36.2165],[-84.2325,36.2146],[-84.2342,36.2084],[-84.2297,36.2017],[-84.2298,36.196],[-84.2315,36.1918],[-84.2287,36.1874],[-84.2303,36.1821],[-84.2413,36.1776],[-84.2516,36.1829],[-84.2533,36.1866],[-84.2586,36.1901],[-84.2641,36.1882],[-84.268,36.1938],[-84.2714,36.1961],[-84.2745,36.2019],[-84.2823,36.2066],[-84.2854,36.2076],[-84.2895,36.212],[-84.291,36.2153],[-84.2969,36.2195],[-84.3014,36.221],[-84.3097,36.2161],[-84.3178,36.2134],[-84.323,36.2136],[-84.3249,36.2124],[-84.3211,36.2103],[-84.3307,36.2081],[-84.3339,36.2103],[-84.3467,36.2151],[-84.3577,36.2142],[-84.3657,36.2125],[-84.3727,36.2168],[-84.3727,36.2241],[-84.3687,36.2286],[-84.3757,36.2381],[-84.3739,36.246],[-84.3765,36.2523],[-84.3761,36.2601],[-84.3714,36.2659],[-84.3645,36.2683],[-84.3623,36.2716],[-84.3533,36.2755],[-84.3488,36.2755],[-84.3454,36.2777],[-84.3426,36.2772],[-84.3339,36.278],[-84.3335,36.2812],[-84.3299,36.2847],[-84.3331,36.3644],[-84.3284,36.3628],[-84.326,36.3664],[-84.331,36.3698],[-84.3333,36.37],[-84.3335,36.3729],[-84.3306,36.3748],[-84.3336,36.3787],[-84.334,36.3833],[-84.3319,36.385],[-84.3344,36.3881],[-84.3306,36.3903],[-84.3249,36.3909],[-84.321,36.3839],[-84.3194,36.3855],[-84.3143,36.3825],[-84.3121,36.3846],[-84.3222,36.3929],[-84.3264,36.3994],[-84.3274,36.4031],[-84.3366,36.4117],[-84.3447,36.4157],[-84.3462,36.4384],[-84.3437,36.4409],[-84.3464,36.4503],[-84.3491,36.4539],[-84.3557,36.4567],[-84.3529,36.4646],[-84.3472,36.4662],[-84.3413,36.4656],[-84.3415,36.4719],[-84.3375,36.4759],[-84.339,36.4805],[-84.3355,36.4853],[-84.3383,36.4871],[-84.3371,36.4913],[-84.3346,36.4932],[-84.3396,36.4985],[-84.3294,36.5036],[-84.3316,36.5063],[-84.3304,36.5095],[-84.3253,36.5094],[-84.3184,36.5074],[-84.3149,36.5079],[-84.3131,36.5057],[-84.3063,36.5069],[-84.295,36.5069],[-84.2865,36.5039],[-84.2831,36.5047],[-84.2714,36.5117],[-84.2638,36.511],[-84.2596,36.514],[-84.2581,36.522],[-84.2603,36.5269],[-84.2525,36.5302],[-84.2511,36.5342],[-84.2524,36.5396],[-84.2514,36.542],[-84.2527,36.5455],[-84.2499,36.5481],[-84.2499,36.5552],[-84.2522,36.5558],[-84.2492,36.5647],[-84.2637,36.5667],[-84.2645,36.5685],[-84.2617,36.5723],[-84.2613,36.592],[-84.2273,36.5922],[-84.1275,36.5914],[-83.9878,36.5896],[-83.9825,36.5853],[-83.9847,36.5749],[-83.9834,36.5703],[-83.9846,36.5612],[-83.9811,36.5568],[-83.978,36.5556],[-83.9801,36.5507],[-83.9608,36.5089],[-83.9364,36.4601],[-83.9303,36.46],[-83.9299,36.4556],[-83.9333,36.4533],[-83.9276,36.4411],[-83.9241,36.4369],[-83.9223,36.4321],[-83.9226,36.4278],[-83.9114,36.4263],[-83.9073,36.4291],[-83.9029,36.4275],[-83.8998,36.4232],[-83.9008,36.4214],[-83.9056,36.42],[-83.9033,36.4183]]]}}]}