{"type":"FeatureCollection","features":[{"type":"Feature","properties":{"id":"09110","name":"Capitol Region"},"geometry":{"type":"Polygon","coordinates":[[[-72.4743,41.5952],[-72.4818,41.6082],[-72.5049,41.6455],[-72.5054,41.647],[-72.5218,41.6455],[-72.5321,41.644],[-72.5772,41.639],[-72.6305,41.6333],[-72.6278,41.6402],[-72.6759,41.6331],[-72.7139,41.6277],[-72.7155,41.6228],[-72.7113,41.6177],[-72.7126,41.6167],[-72.7136,41.6107],[-72.7159,41.6064],[-72.7145,41.6043],[-72.7299,41.6015],[-72.7317,41.5958],[-72.7428,41.5944],[-72.7529,41.5925],[-72.7522,41.5789],[-72.7681,41.5773],[-72.8012,41.5731],[-72.8052,41.5666],[-72.8191,41.5543],[-72.8261,41.5559],[-72.8257,41.5643],[-72.8296,41.5624],[-72.8276,41.571],[-72.8402,41.5691],[-72.8485,41.5673],[-72.8443,41.5447],[-72.8678,41.549],[-72.8695,41.5545],[-72.8719,41.5549],[-72.874,41.5592],[-72.8798,41.5628],[-72.8839,41.5638],[-72.9156,41.5604],[-72.9463,41.5568],[-72.9336,41.6078],[-72.9381,41.6403],[-72.9385,41.6443],[-72.9286,41.6455],[-72.9278,41.6407],[-72.922,41.6411],[-72.9239,41.6455],[-72.8834,41.6495],[-72.8865,41.663],[-72.8919,41.6925],[-72.8937,41.6996],[-72.8956,41.7124],[-72.897,41.7173],[-72.8998,41.732],[-72.9042,41.7502],[-72.9049,41.7581],[-72.9085,41.776],[-72.9177,41.7777],[-72.9203,41.7794],[-72.9249,41.7878],[-72.9255,41.7987],[-72.9281,41.8028],[-72.9214,41.8052],[-72.9212,41.8071],[-72.9259,41.8092],[-72.949,41.8064],[-72.9365,41.8403],[-72.9391,41.8425],[-72.9465,41.8436],[-72.9512,41.8427],[-72.9537,41.8467],[-72.9536,41.8539],[-72.9463,41.874],[-72.9462,41.8772],[-72.9406,41.8952],[-72.9153,41.8968],[-72.8871,41.9731],[-72.8745,42.0088],[-72.873,42.0116],[-72.8638,42.0354],[-72.8636,42.0377],[-72.8471,42.0369],[-72.8135,42.0365],[-72.8167,41.9976],[-72.7667,42.003],[-72.7661,42.0077],[-72.7633,42.0097],[-72.7632,42.0128],[-72.7597,42.017],[-72.7622,42.0215],[-72.7575,42.0209],[-72.7517,42.0302],[-72.7575,42.0333],[-72.7558,42.0362],[-72.6959,42.0368],[-72.6431,42.0324],[-72.6079,42.0308],[-72.6069,42.025],[-72.5823,42.0247],[-72.5732,42.0301],[-72.5281,42.0343],[-72.4567,42.034],[-72.3171,42.0319],[-72.2495,42.0316],[-72.2051,42.0311],[-72.2149,42.0001],[-72.2233,41.9817],[-72.2349,41.9576],[-72.217,41.9582],[-72.2173,41.9494],[-72.2163,41.8928],[-72.2169,41.8845],[-72.2177,41.8352],[-72.1645,41.8349],[-72.1567,41.7537],[-72.1608,41.7501],[-72.1649,41.75],[-72.1685,41.7522],[-72.1716,41.7485],[-72.1741,41.7512],[-72.176,41.7499],[-72.1779,41.7554],[-72.1832,41.7561],[-72.1877,41.7552],[-72.1859,41.7524],[-72.1894,41.7501],[-72.1888,41.7476],[-72.1926,41.7446],[-72.1956,41.7396],[-72.1957,41.737],[-72.1913,41.733],[-72.1921,41.7304],[-72.1989,41.7314],[-72.1981,41.7282],[-72.2095,41.728],[-72.2526,41.7282],[-72.253,41.7249],[-72.2466,41.7229],[-72.2443,41.7171],[-72.2396,41.7142],[-72.2457,41.711],[-72.2473,41.7069],[-72.244,41.7065],[-72.246,41.7037],[-72.2512,41.7033],[-72.25,41.6997],[-72.2541,41.7005],[-72.2607,41.6986],[-72.2613,41.6953],[-72.2666,41.6907],[-72.2688,41.6924],[-72.2736,41.6929],[-72.2748,41.6907],[-72.2694,41.6857],[-72.2673,41.678],[-72.2684,41.6711],[-72.2787,41.672],[-72.3036,41.654],[-72.3342,41.6436],[-72.3292,41.6296],[-72.3245,41.6186],[-72.3281,41.6055],[-72.3433,41.5993],[-72.3524,41.5991],[-72.3559,41.5976],[-72.3616,41.6008],[-72.3714,41.5995],[-72.375,41.6014],[-72.3776,41.5962],[-72.3805,41.5955],[-72.3841,41.5887],[-72.3973,41.5947],[-72.4013,41.5956],[-72.4061,41.5988],[-72.4085,41.6023],[-72.4106,41.6018],[-72.4172,41.5906],[-72.4667,41.5839],[-72.4743,41.5952]]]}},{"type":"Feature","properties":{"id":"09130","name":"Lower Connecticut River Valley Region"},"geometry":{"type":"Polygon","coordinates":[[[-72.4518,41.5586],[-72.4439,41.5464],[-72.4308,41.5246],[-72.3831,41.529],[-72.3616,41.5308],[-72.3586,41.5314],[-72.3234,41.5343],[-72.3229,41.5181],[-72.3152,41.4781],[-72.3125,41.4784],[-72.3049,41.4327],[-72.2866,41.4391],[-72.2766,41.4404],[-72.2822,41.4059],[-72.2792,41.3882],[-72.2767,41.3663],[-72.2745,41.3561],[-72.2707,41.3504],[-72.2651,41.3393],[-72.2564,41.3259],[-72.258,41.3228],[-72.2548,41.3103],[-72.2506,41.3047],[-72.2488,41.2993],[-72.2519,41.2986],[-72.2505,41.2944],[-72.2513,41.29],[-72.2615,41.2829],[-72.2688,41.2844],[-72.278,41.2841],[-72.2847,41.2808],[-72.2988,41.2789],[-72.3178,41.2778],[-72.3276,41.2785],[-72.3339,41.2829],[-72.3417,41.2964],[-72.3465,41.3112],[-72.3505,41.3118],[-72.3562,41.2996],[-72.3564,41.2912],[-72.3493,41.2846],[-72.3426,41.2688],[-72.3481,41.2701],[-72.3591,41.2681],[-72.3676,41.2635],[-72.3786,41.2646],[-72.3866,41.2618],[-72.3987,41.2782],[-72.4057,41.2768],[-72.4177,41.2784],[-72.4217,41.2751],[-72.4262,41.2741],[-72.438,41.2787],[-72.4519,41.2789],[-72.4623,41.2745],[-72.4681,41.269],[-72.4725,41.2701],[-72.4857,41.2709],[-72.4995,41.2659],[-72.5071,41.2601],[-72.507,41.2569],[-72.5103,41.2566],[-72.5145,41.2585],[-72.518,41.2578],[-72.5213,41.2656],[-72.5294,41.2644],[-72.5332,41.2627],[-72.5363,41.2548],[-72.5458,41.2603],[-72.5477,41.2643],[-72.5464,41.2674],[-72.547,41.2716],[-72.5443,41.2737],[-72.548,41.2774],[-72.546,41.2803],[-72.5489,41.2819],[-72.555,41.2806],[-72.5611,41.2875],[-72.5639,41.2887],[-72.5676,41.2942],[-72.5701,41.2944],[-72.5707,41.298],[-72.576,41.3009],[-72.5763,41.3024],[-72.5856,41.3073],[-72.5857,41.3099],[-72.5886,41.3117],[-72.5849,41.3129],[-72.5894,41.3151],[-72.5853,41.3186],[-72.5873,41.3243],[-72.5918,41.3228],[-72.5957,41.328],[-72.6008,41.3258],[-72.6087,41.3282],[-72.6115,41.3275],[-72.6144,41.33],[-72.6144,41.337],[-72.6112,41.3432],[-72.6128,41.3502],[-72.6122,41.3627],[-72.6097,41.3634],[-72.6101,41.3671],[-72.6081,41.3674],[-72.6088,41.3735],[-72.614,41.3808],[-72.6123,41.3862],[-72.618,41.3917],[-72.6225,41.3936],[-72.6259,41.3972],[-72.625,41.3991],[-72.6308,41.4036],[-72.6323,41.4123],[-72.6378,41.4123],[-72.6505,41.4191],[-72.6424,41.4293],[-72.6496,41.431],[-72.6484,41.4351],[-72.653,41.4349],[-72.6537,41.4381],[-72.6787,41.4338],[-72.6827,41.4338],[-72.7104,41.4291],[-72.7461,41.4233],[-72.7391,41.4383],[-72.7354,41.4733],[-72.7339,41.4854],[-72.7433,41.4831],[-72.7448,41.4982],[-72.7471,41.5273],[-72.7489,41.5443],[-72.7522,41.5789],[-72.7529,41.5925],[-72.7428,41.5944],[-72.7317,41.5958],[-72.7299,41.6015],[-72.7145,41.6043],[-72.7159,41.6064],[-72.7136,41.6107],[-72.7126,41.6167],[-72.7113,41.6177],[-72.7155,41.6228],[-72.7139,41.6277],[-72.6759,41.6331],[-72.6278,41.6402],[-72.6305,41.6333],[-72.5772,41.639],[-72.5321,41.644],[-72.5218,41.6455],[-72.5054,41.647],[-72.5049,41.6455],[-72.4818,41.6082],[-72.4743,41.5952],[-72.4667,41.5839],[-72.4518,41.5586]]]}}]}