{"type":"FeatureCollection","features":[{"type":"Feature","properties":{"zcta":"06232","d":111},"geometry":{"type":"Polygon","coordinates":[[[-72.38092,41.76386],[-72.35488,41.76713],[-72.35327,41.76584],[-72.32887,41.73882],[-72.32949,41.73744],[-72.33438,41.73146],[-72.34262,41.72233],[-72.35072,41.71188],[-72.35648,41.7015],[-72.39875,41.69691],[-72.41239,41.7158],[-72.41391,41.71858],[-72.41911,41.7251],[-72.42173,41.73034],[-72.4215,41.73201],[-72.41842,41.73211],[-72.40362,41.73399],[-72.40511,41.7388],[-72.40533,41.7426],[-72.41025,41.7655],[-72.38092,41.76386]]]}},{"type":"Feature","properties":{"zcta":"06090","d":42},"geometry":{"type":"Polygon","coordinates":[[[-72.8784,41.98973],[-72.87752,41.98773],[-72.87563,41.98693],[-72.87349,41.98321],[-72.87087,41.98212],[-72.87015,41.97786],[-72.87187,41.97396],[-72.8658,41.9729],[-72.86407,41.972],[-72.86365,41.97469],[-72.8478,41.97625],[-72.84738,41.97531],[-72.8438,41.97628],[-72.83992,41.9757],[-72.83833,41.9741],[-72.83623,41.97415],[-72.83696,41.96121],[-72.83751,41.95954],[-72.8361,41.9559],[-72.83383,41.95579],[-72.82557,41.94244],[-72.82637,41.93437],[-72.82906,41.93142],[-72.82657,41.92971],[-72.82827,41.92346],[-72.82545,41.92004],[-72.82643,41.91891],[-72.85495,41.9203],[-72.87664,41.9208],[-72.90594,41.9217],[-72.90297,41.93136],[-72.90224,41.932],[-72.88706,41.97312],[-72.88094,41.99019],[-72.8784,41.98973]]]}},{"type":"Feature","properties":{"zcta":"06067","d":789},"geometry":{"type":"Polygon","coordinates":[[[-72.70907,41.65315],[-72.703,41.65427],[-72.70604,41.6688],[-72.69587,41.67006],[-72.6935,41.67097],[-72.68837,41.67099],[-72.68311,41.67185],[-72.68241,41.67084],[-72.67246,41.66964],[-72.66994,41.66989],[-72.66697,41.67264],[-72.66534,41.6801],[-72.64911,41.68498],[-72.63207,41.6868],[-72.61573,41.6881],[-72.61073,41.6842],[-72.60863,41.68113],[-72.60952,41.6746],[-72.61202,41.6725],[-72.6248,41.6693],[-72.62802,41.66604],[-72.62814,41.6617],[-72.62353,41.6503],[-72.62444,41.6451],[-72.62784,41.6402],[-72.64714,41.6372],[-72.65084,41.6369],[-72.67588,41.63309],[-72.68842,41.6314],[-72.7139,41.62771],[-72.71234,41.6306],[-72.71383,41.6362],[-72.71311,41.63885],[-72.70897,41.63924],[-72.70588,41.64239],[-72.70469,41.64456],[-72.71094,41.64487],[-72.71476,41.64673],[-72.7153,41.65271],[-72.70907,41.65315]]]}},{"type":"Feature","properties":{"zcta":"06066","d":905},"geometry":{"type":"Polygon","coordinates":[[[-72.50443,41.82467],[-72.49927,41.85027],[-72.49681,41.86062],[-72.49554,41.86599],[-72.48503,41.86726],[-72.42802,41.8746],[-72.42521,41.85527],[-72.42153,41.8255],[-72.41889,41.80656],[-72.42943,41.8049],[-72.44913,41.8021],[-72.45514,41.80145],[-72.47347,41.79826],[-72.47603,41.813],[-72.4854,41.81223],[-72.48736,41.81175],[-72.50753,41.8097],[-72.50543,41.8203],[-72.50443,41.82467]]]}},{"type":"Feature","properties":{"zcta":"06414","d":0},"geometry":{"type":"Polygon","coordinates":[[[-72.54257,41.5956],[-72.54417,41.59188],[-72.54431,41.58919],[-72.54596,41.58611],[-72.54499,41.58367],[-72.54738,41.58221],[-72.54988,41.57711],[-72.55278,41.57584],[-72.5532,41.57461],[-72.55145,41.57113],[-72.54824,41.5675],[-72.54767,41.56373],[-72.54861,41.56205],[-72.5562,41.56243],[-72.55384,41.55833],[-72.55981,41.55865],[-72.56199,41.55618],[-72.56277,41.55843],[-72.55952,41.56235],[-72.5584,41.56892],[-72.55767,41.57804],[-72.55409,41.58152],[-72.5469,41.59174],[-72.54659,41.59357],[-72.54834,41.5957],[-72.55176,41.59567],[-72.55659,41.59381],[-72.55458,41.59882],[-72.55012,41.59888],[-72.54294,41.59707],[-72.54257,41.5956]]]}},{"type":"Feature","properties":{"zcta":"06422","d":159},"geometry":{"type":"Polygon","coordinates":[[[-72.73104,41.48599],[-72.6901,41.49332],[-72.67916,41.49459],[-72.6779,41.49623],[-72.67759,41.49484],[-72.65467,41.49774],[-72.6337,41.5002],[-72.6295,41.48872],[-72.62792,41.48546],[-72.63704,41.46383],[-72.63136,41.45968],[-72.62265,41.45461],[-72.61917,41.45146],[-72.60896,41.44309],[-72.61479,41.44174],[-72.62689,41.44054],[-72.64503,41.4392],[-72.65367,41.43813],[-72.66683,41.43569],[-72.67109,41.43536],[-72.67874,41.4338],[-72.68267,41.43378],[-72.70552,41.43008],[-72.71042,41.42907],[-72.73047,41.42593],[-72.74614,41.4233],[-72.74024,41.4365],[-72.73912,41.43829],[-72.73544,41.47327],[-72.73389,41.48537],[-72.73104,41.48599]]]}},{"type":"Feature","properties":{"zcta":"06417","d":178},"geometry":{"type":"Polygon","coordinates":[[[-72.42634,41.39878],[-72.42575,41.39597],[-72.42351,41.39189],[-72.42168,41.39051],[-72.41621,41.38935],[-72.41175,41.38952],[-72.40529,41.38844],[-72.40202,41.38855],[-72.39489,41.38755],[-72.38718,41.38605],[-72.38483,41.38519],[-72.38259,41.38248],[-72.39415,41.37822],[-72.39854,41.37751],[-72.41294,41.37411],[-72.4243,41.36503],[-72.42713,41.36372],[-72.43497,41.36053],[-72.44606,41.35618],[-72.46894,41.34538],[-72.47272,41.33421],[-72.47693,41.3345],[-72.49823,41.3476],[-72.51395,41.3464],[-72.52406,41.37618],[-72.51603,41.37655],[-72.51121,41.37741],[-72.49395,41.37917],[-72.45457,41.38238],[-72.45997,41.38659],[-72.44231,41.39259],[-72.43707,41.39776],[-72.43661,41.40037],[-72.43356,41.4018],[-72.42566,41.40081],[-72.42634,41.39878]]]}},{"type":"Feature","properties":{"zcta":"06035","d":260},"geometry":{"type":"Polygon","coordinates":[[[-72.83415,41.97792],[-72.83339,41.98082],[-72.82434,41.98565],[-72.82224,41.98513],[-72.82432,41.98812],[-72.82703,41.99415],[-72.8265,41.99687],[-72.81961,41.99791],[-72.81202,41.99606],[-72.81278,41.99463],[-72.81035,41.99371],[-72.81121,41.99254],[-72.81005,41.99044],[-72.8086,41.99847],[-72.77476,42.00213],[-72.77841,41.98944],[-72.76294,41.9859],[-72.76727,41.9741],[-72.77546,41.94841],[-72.78201,41.92891],[-72.78464,41.9202],[-72.78294,41.9181],[-72.82643,41.91891],[-72.82545,41.92004],[-72.82827,41.92346],[-72.82657,41.92971],[-72.82906,41.93142],[-72.82637,41.93437],[-72.82557,41.94244],[-72.83383,41.95579],[-72.8361,41.9559],[-72.83751,41.95954],[-72.83696,41.96121],[-72.83623,41.97415],[-72.83415,41.97792]]]}},{"type":"Feature","properties":{"zcta":"06052","d":1631},"geometry":{"type":"Polygon","coordinates":[[[-72.80942,41.66629],[-72.80196,41.66463],[-72.79347,41.66842],[-72.78887,41.66965],[-72.78599,41.66955],[-72.78494,41.66683],[-72.78638,41.66502],[-72.78707,41.66658],[-72.78945,41.66407],[-72.78788,41.66201],[-72.78471,41.66214],[-72.78431,41.65795],[-72.78723,41.65777],[-72.78843,41.65522],[-72.7879,41.65089],[-72.79097,41.64749],[-72.80961,41.64605],[-72.81499,41.64448],[-72.81419,41.64571],[-72.81805,41.64502],[-72.81943,41.6461],[-72.82074,41.65572],[-72.82257,41.65571],[-72.82537,41.66734],[-72.82542,41.66894],[-72.80942,41.66629]]]}},{"type":"Feature","properties":{"zcta":"06444","d":0},"geometry":{"type":"Polygon","coordinates":[[[-72.93924,41.56964],[-72.93369,41.56626],[-72.9313,41.56597],[-72.92445,41.56676],[-72.92353,41.56909],[-72.91813,41.56778],[-72.90998,41.56873],[-72.91567,41.56152],[-72.91781,41.56004],[-72.94635,41.5568],[-72.94261,41.57113],[-72.93924,41.56964]]]}},{"type":"Feature","properties":{"zcta":"06020","d":0},"geometry":{"type":"Polygon","coordinates":[[[-72.91099,41.86654],[-72.90527,41.86428],[-72.90699,41.86216],[-72.91317,41.85854],[-72.91325,41.86064],[-72.91099,41.86654]]]}},{"type":"Feature","properties":{"zcta":"06376","d":0},"geometry":{"type":"Polygon","coordinates":[[[-72.25205,41.29262],[-72.25508,41.29549],[-72.25162,41.29563],[-72.25205,41.29262]]]}},{"type":"Feature","properties":{"zcta":"06456","d":0},"geometry":{"type":"Polygon","coordinates":[[[-72.55981,41.55865],[-72.55384,41.55833],[-72.5562,41.56243],[-72.54861,41.56205],[-72.54295,41.56322],[-72.5465,41.56071],[-72.54845,41.55812],[-72.5504,41.55397],[-72.54974,41.5523],[-72.54507,41.55274],[-72.5405,41.55044],[-72.53697,41.52988],[-72.54571,41.52723],[-72.54982,41.52666],[-72.54863,41.52436],[-72.55302,41.52487],[-72.5533,41.51716],[-72.55258,41.51141],[-72.55491,41.51105],[-72.55619,41.51932],[-72.55586,41.52496],[-72.5538,41.53047],[-72.55134,41.5353],[-72.55094,41.53807],[-72.55158,41.5455],[-72.55439,41.55065],[-72.5608,41.55405],[-72.56199,41.55618],[-72.55981,41.55865]]]}},{"type":"Feature","properties":{"zcta":"06118","d":1477},"geometry":{"type":"Polygon","coordinates":[[[-72.64773,41.75714],[-72.64387,41.75858],[-72.6453,41.76141],[-72.64331,41.76373],[-72.63986,41.7632],[-72.6319,41.76366],[-72.61852,41.76743],[-72.61861,41.76778],[-72.60598,41.77096],[-72.60203,41.77123],[-72.59082,41.7728],[-72.58259,41.77305],[-72.57848,41.77404],[-72.57562,41.75706],[-72.57123,41.7338],[-72.59297,41.73113],[-72.59931,41.72987],[-72.60395,41.72945],[-72.61649,41.72758],[-72.63633,41.7249],[-72.64784,41.7279],[-72.64264,41.7352],[-72.64254,41.7399],[-72.64464,41.7457],[-72.64904,41.7502],[-72.65399,41.75306],[-72.64773,41.75714]]]}},{"type":"Feature","properties":{"zcta":"06060","d":102},"geometry":{"type":"Polygon","coordinates":[[[-72.81005,41.99044],[-72.81121,41.99254],[-72.81035,41.99371],[-72.81278,41.99463],[-72.81202,41.99606],[-72.81961,41.99791],[-72.8265,41.99687],[-72.82703,41.99415],[-72.82432,41.98812],[-72.82224,41.98513],[-72.82434,41.98565],[-72.83339,41.98082],[-72.83415,41.97792],[-72.83623,41.97415],[-72.83833,41.9741],[-72.83992,41.9757],[-72.8438,41.97628],[-72.84738,41.97531],[-72.8478,41.97625],[-72.86365,41.97469],[-72.86407,41.972],[-72.8658,41.9729],[-72.87187,41.97396],[-72.87015,41.97786],[-72.87087,41.98212],[-72.87349,41.98321],[-72.87563,41.98693],[-72.87752,41.98773],[-72.8784,41.98973],[-72.88094,41.99019],[-72.87762,41.99899],[-72.87762,42.00016],[-72.87454,42.00882],[-72.873,42.01163],[-72.86382,42.03538],[-72.86364,42.03771],[-72.84714,42.03689],[-72.81354,42.03649],[-72.81674,41.9976],[-72.8086,41.99847],[-72.81005,41.99044]]]}},{"type":"Feature","properties":{"zcta":"06459","d":0},"geometry":{"type":"Polygon","coordinates":[[[-72.6595,41.55302],[-72.66115,41.55375],[-72.66102,41.55601],[-72.65817,41.55737],[-72.65909,41.55909],[-72.66118,41.55895],[-72.65432,41.56117],[-72.65493,41.55943],[-72.65369,41.55729],[-72.65427,41.55417],[-72.65843,41.55357],[-72.65993,41.5439],[-72.66651,41.54322],[-72.66446,41.55095],[-72.6595,41.55302]]]}},{"type":"Feature","properties":{"zcta":"06023","d":797},"geometry":{"type":"Polygon","coordinates":[[[-72.71553,41.62282],[-72.71329,41.62084],[-72.71127,41.61769],[-72.71257,41.61668],[-72.71364,41.61074],[-72.71592,41.60642],[-72.71454,41.60431],[-72.72368,41.60305],[-72.72717,41.60199],[-72.7287,41.60912],[-72.7282,41.61457],[-72.72857,41.61657],[-72.72455,41.62283],[-72.71571,41.62535],[-72.71553,41.62282]]]}},{"type":"Feature","properties":{"zcta":"06071","d":161},"geometry":{"type":"Polygon","coordinates":[[[-72.45668,42.034],[-72.39743,42.03311],[-72.39971,42.01742],[-72.39856,42.01626],[-72.39474,42.01527],[-72.3941,42.00846],[-72.39716,42.00853],[-72.39963,42.00755],[-72.40066,42.00962],[-72.40352,41.98816],[-72.40065,41.98823],[-72.39533,41.98979],[-72.39664,41.98606],[-72.3981,41.98476],[-72.39898,41.98188],[-72.39268,41.98324],[-72.393,41.98161],[-72.39016,41.97738],[-72.39587,41.979],[-72.40449,41.9798],[-72.40442,41.97907],[-72.40675,41.95716],[-72.41212,41.95688],[-72.44733,41.95311],[-72.48089,41.94918],[-72.49273,41.9475],[-72.49893,41.97789],[-72.49972,41.98422],[-72.5039,42.00648],[-72.50539,42.01357],[-72.5092,42.03422],[-72.45668,42.034]],[[-72.48414,41.98611],[-72.49061,41.98502],[-72.48812,41.98273],[-72.48414,41.98611]]]}},{"type":"Feature","properties":{"zcta":"06469","d":167},"geometry":{"type":"Polygon","coordinates":[[[-72.40235,41.52724],[-72.40127,41.52606],[-72.40081,41.52265],[-72.39868,41.51785],[-72.39868,41.51416],[-72.40731,41.50995],[-72.40822,41.50873],[-72.41322,41.50702],[-72.4149,41.50939],[-72.42106,41.50844],[-72.4242,41.50712],[-72.42244,41.50627],[-72.4219,41.50304],[-72.42502,41.49991],[-72.42811,41.49563],[-72.43193,41.4931],[-72.43133,41.49051],[-72.43422,41.48778],[-72.43953,41.48457],[-72.44148,41.48452],[-72.4452,41.48154],[-72.44758,41.48055],[-72.45443,41.4796],[-72.45464,41.48047],[-72.46545,41.4842],[-72.47687,41.48421],[-72.47727,41.48865],[-72.47901,41.48959],[-72.48306,41.48953],[-72.48569,41.49141],[-72.48791,41.50036],[-72.48785,41.50224],[-72.48572,41.50499],[-72.48193,41.51254],[-72.48304,41.51635],[-72.48259,41.51844],[-72.48037,41.51946],[-72.47944,41.52184],[-72.47553,41.52425],[-72.46862,41.53108],[-72.46356,41.53352],[-72.45884,41.53958],[-72.45866,41.53682],[-72.4554,41.53102],[-72.44955,41.52253],[-72.43077,41.52457],[-72.40235,41.52724]]]}},{"type":"Feature","properties":{"zcta":"06409","d":288},"geometry":{"type":"MultiPolygon","coordinates":[[[[-72.42713,41.36372],[-72.41454,41.3566],[-72.40829,41.35435],[-72.40897,41.35302],[-72.40564,41.35059],[-72.40815,41.34982],[-72.41649,41.33827],[-72.4186,41.33902],[-72.42268,41.34308],[-72.42143,41.34443],[-72.42147,41.34729],[-72.42378,41.34862],[-72.4316,41.34734],[-72.43231,41.35047],[-72.43003,41.35569],[-72.42779,41.35628],[-72.42983,41.35932],[-72.43175,41.3586],[-72.43497,41.36053],[-72.42713,41.36372]]],[[[-72.43646,41.3474],[-72.44048,41.34677],[-72.44033,41.34825],[-72.43646,41.3474]]]]}},{"type":"Feature","properties":{"zcta":"06062","d":1098},"geometry":{"type":"Polygon","coordinates":[[[-72.87779,41.6981],[-72.86384,41.69543],[-72.83251,41.69043],[-72.83487,41.68567],[-72.83665,41.67991],[-72.83486,41.67541],[-72.83345,41.67391],[-72.8336,41.67157],[-72.82542,41.66894],[-72.82537,41.66734],[-72.82257,41.65571],[-72.84677,41.65341],[-72.86621,41.65109],[-72.88339,41.64947],[-72.88511,41.65798],[-72.88676,41.66262],[-72.88666,41.66601],[-72.88921,41.67808],[-72.8919,41.69254],[-72.89288,41.69669],[-72.87779,41.6981]]]}},{"type":"Feature","properties":{"zcta":"06089","d":798},"geometry":{"type":"Polygon","coordinates":[[[-72.80674,41.84514],[-72.8101,41.84177],[-72.80916,41.83203],[-72.81236,41.82886],[-72.81856,41.82502],[-72.81968,41.82233],[-72.84003,41.82022],[-72.84082,41.82214],[-72.83868,41.83216],[-72.83134,41.83982],[-72.83031,41.84186],[-72.8336,41.84294],[-72.83786,41.84566],[-72.83667,41.84638],[-72.8347,41.85076],[-72.82815,41.84951],[-72.82745,41.85441],[-72.82885,41.85604],[-72.82457,41.85534],[-72.82282,41.8578],[-72.82067,41.8571],[-72.81863,41.85425],[-72.81253,41.85457],[-72.81157,41.85596],[-72.80934,41.85469],[-72.81032,41.85185],[-72.80727,41.84716],[-72.80674,41.84514]]]}},{"type":"Feature","properties":{"zcta":"06088","d":234},"geometry":{"type":"Polygon","coordinates":[[[-72.60389,41.93631],[-72.57737,41.93866],[-72.57643,41.93624],[-72.57285,41.93716],[-72.5702,41.93457],[-72.56984,41.92777],[-72.5671,41.92471],[-72.56769,41.92326],[-72.56318,41.92182],[-72.56221,41.91608],[-72.56448,41.91398],[-72.56235,41.91222],[-72.56646,41.91],[-72.56815,41.90603],[-72.57154,41.9042],[-72.57252,41.90263],[-72.57059,41.90194],[-72.57285,41.8991],[-72.57165,41.89831],[-72.57313,41.89633],[-72.57282,41.89421],[-72.57406,41.88656],[-72.57794,41.88679],[-72.57887,41.88332],[-72.57781,41.88278],[-72.58182,41.88002],[-72.58506,41.88078],[-72.58799,41.88013],[-72.58993,41.87727],[-72.58594,41.87405],[-72.58808,41.87239],[-72.58799,41.86831],[-72.6056,41.86804],[-72.6166,41.8686],[-72.61926,41.8683],[-72.61969,41.88284],[-72.62044,41.8904],[-72.62138,41.89314],[-72.62068,41.89771],[-72.62173,41.9046],[-72.62268,41.91711],[-72.62409,41.9292],[-72.62343,41.9343],[-72.60389,41.93631]]]}},{"type":"Feature","properties":{"zcta":"06051","d":3449},"geometry":{"type":"MultiPolygon","coordinates":[[[[-72.777,41.684],[-72.77603,41.68453],[-72.77621,41.68266],[-72.777,41.684]]],[[[-72.78602,41.67342],[-72.78729,41.67733],[-72.78883,41.67939],[-72.78573,41.67831],[-72.78056,41.67977],[-72.78097,41.68215],[-72.77621,41.68266],[-72.7754,41.68125],[-72.77344,41.68233],[-72.77251,41.68117],[-72.76931,41.68338],[-72.7619,41.68416],[-72.75755,41.68874],[-72.75522,41.67705],[-72.75191,41.65916],[-72.75055,41.65395],[-72.75036,41.65017],[-72.75815,41.64972],[-72.77131,41.64839],[-72.77857,41.64824],[-72.79097,41.64749],[-72.7879,41.65089],[-72.78843,41.65522],[-72.78723,41.65777],[-72.78431,41.65795],[-72.78471,41.66214],[-72.78788,41.66201],[-72.78945,41.66407],[-72.78707,41.66658],[-72.78638,41.66502],[-72.78494,41.66683],[-72.78599,41.66955],[-72.78602,41.67342]]]]}},{"type":"Feature","properties":{"zcta":"06053","d":2068},"geometry":{"type":"Polygon","coordinates":[[[-72.81544,41.68782],[-72.8147,41.68814],[-72.80497,41.70166],[-72.80198,41.70686],[-72.7994,41.70614],[-72.79595,41.7034],[-72.78299,41.71284],[-72.7684,41.71494],[-72.76464,41.713],[-72.76339,41.71562],[-72.76197,41.7158],[-72.76133,41.71161],[-72.75906,41.69876],[-72.75755,41.68874],[-72.7619,41.68416],[-72.76931,41.68338],[-72.77251,41.68117],[-72.77344,41.68233],[-72.7754,41.68125],[-72.77621,41.68266],[-72.78097,41.68215],[-72.78056,41.67977],[-72.78573,41.67831],[-72.78883,41.67939],[-72.78729,41.67733],[-72.78602,41.67342],[-72.78599,41.66955],[-72.78887,41.66965],[-72.79347,41.66842],[-72.80196,41.66463],[-72.80942,41.66629],[-72.82542,41.66894],[-72.8336,41.67157],[-72.83345,41.67391],[-72.83486,41.67541],[-72.83665,41.67991],[-72.83487,41.68567],[-72.83251,41.69043],[-72.81544,41.68782]],[[-72.77603,41.68453],[-72.777,41.684],[-72.77621,41.68266],[-72.77603,41.68453]]]}},{"type":"Feature","properties":{"zcta":"06268","d":120},"geometry":{"type":"Polygon","coordinates":[[[-72.30066,41.8359],[-72.29658,41.83626],[-72.26979,41.83602],[-72.21772,41.83518],[-72.19043,41.835],[-72.19585,41.82852],[-72.19693,41.82787],[-72.19462,41.82176],[-72.19585,41.82222],[-72.19151,41.80124],[-72.19316,41.79876],[-72.19581,41.79697],[-72.19483,41.79938],[-72.19539,41.80164],[-72.19873,41.80534],[-72.19997,41.80786],[-72.20108,41.80677],[-72.19997,41.8045],[-72.20385,41.80365],[-72.20035,41.80136],[-72.20092,41.79971],[-72.20323,41.80011],[-72.20754,41.79724],[-72.20976,41.7929],[-72.20815,41.79093],[-72.20665,41.78729],[-72.20295,41.78385],[-72.20266,41.78137],[-72.19859,41.77793],[-72.19486,41.77727],[-72.19737,41.7768],[-72.20114,41.77479],[-72.20147,41.77615],[-72.20485,41.77948],[-72.20561,41.78221],[-72.20911,41.78732],[-72.20933,41.78638],[-72.20317,41.772],[-72.20374,41.77115],[-72.19841,41.76543],[-72.2012,41.76413],[-72.2028,41.75987],[-72.20745,41.75589],[-72.21045,41.75115],[-72.2214,41.74752],[-72.22518,41.74662],[-72.22607,41.75065],[-72.23771,41.74974],[-72.24139,41.74893],[-72.24586,41.74581],[-72.24834,41.74689],[-72.25141,41.747],[-72.25296,41.74856],[-72.25778,41.75113],[-72.25738,41.75376],[-72.25815,41.75666],[-72.26085,41.75632],[-72.26464,41.76308],[-72.26886,41.76252],[-72.2709,41.76412],[-72.27241,41.76716],[-72.27198,41.7712],[-72.27519,41.77378],[-72.27536,41.7761],[-72.28022,41.77922],[-72.28059,41.78418],[-72.29156,41.79533],[-72.29599,41.79501],[-72.29987,41.79716],[-72.30272,41.79746],[-72.30592,41.79539],[-72.31283,41.79831],[-72.30976,41.80062],[-72.31022,41.80293],[-72.31603,41.80556],[-72.31672,41.80822],[-72.31532,41.80929],[-72.31501,41.81316],[-72.31668,41.8145],[-72.31678,41.81636],[-72.31382,41.81852],[-72.31307,41.82043],[-72.314,41.82246],[-72.31307,41.82941],[-72.31096,41.8294],[-72.30851,41.83314],[-72.31015,41.83606],[-72.30066,41.8359]],[[-72.26384,41.80911],[-72.2622,41.81115],[-72.26106,41.80935],[-72.25811,41.80825],[-72.2598,41.80607],[-72.25799,41.8028],[-72.25576,41.80276],[-72.25535,41.80002],[-72.26095,41.79939],[-72.26074,41.79813],[-72.2557,41.79495],[-72.25124,41.79531],[-72.24778,41.79716],[-72.24998,41.79939],[-72.25167,41.80362],[-72.24777,41.80609],[-72.24585,41.80495],[-72.24587,41.80326],[-72.24211,41.80592],[-72.24334,41.80727],[-72.24585,41.80694],[-72.24683,41.80815],[-72.24584,41.81037],[-72.24832,41.81095],[-72.24335,41.8143],[-72.23863,41.81463],[-72.23889,41.81698],[-72.2404,41.81899],[-72.24201,41.81775],[-72.24366,41.81996],[-72.24764,41.82215],[-72.25729,41.81688],[-72.26582,41.81743],[-72.26568,41.81292],[-72.26384,41.80911]],[[-72.25078,41.76003],[-72.24578,41.76128],[-72.25221,41.76227],[-72.26065,41.76231],[-72.26119,41.7616],[-72.25078,41.76003]]]}},{"type":"Feature","properties":{"zcta":"06237","d":132},"geometry":{"type":"Polygon","coordinates":[[[-72.35072,41.71188],[-72.34262,41.72233],[-72.33438,41.73146],[-72.32949,41.73744],[-72.32887,41.73882],[-72.32713,41.73448],[-72.32182,41.73381],[-72.32075,41.73238],[-72.31505,41.73115],[-72.3116,41.73166],[-72.30698,41.72904],[-72.30256,41.7277],[-72.3003,41.72521],[-72.29802,41.72615],[-72.29461,41.72499],[-72.28476,41.72511],[-72.28447,41.7226],[-72.28061,41.72238],[-72.27819,41.72388],[-72.27552,41.72159],[-72.27551,41.72037],[-72.27245,41.72113],[-72.26833,41.71995],[-72.26485,41.71757],[-72.26152,41.7195],[-72.25918,41.72217],[-72.25355,41.72101],[-72.24918,41.72319],[-72.2466,41.7229],[-72.24431,41.71715],[-72.23956,41.71419],[-72.24285,41.71326],[-72.2457,41.71095],[-72.2473,41.70693],[-72.24402,41.70653],[-72.24598,41.70372],[-72.25125,41.70332],[-72.25135,41.70122],[-72.25004,41.69965],[-72.25201,41.69908],[-72.25409,41.7005],[-72.25772,41.69979],[-72.25842,41.69844],[-72.26073,41.69865],[-72.26128,41.69535],[-72.26394,41.69183],[-72.26656,41.69067],[-72.26883,41.69239],[-72.27082,41.69145],[-72.2736,41.69293],[-72.27476,41.69068],[-72.26939,41.68571],[-72.26725,41.67805],[-72.26614,41.67727],[-72.26749,41.67559],[-72.26842,41.67114],[-72.27867,41.67198],[-72.29051,41.6633],[-72.30364,41.65398],[-72.33423,41.6436],[-72.34401,41.66871],[-72.35147,41.68716],[-72.35648,41.7015],[-72.35072,41.71188]]]}},{"type":"Feature","properties":{"zcta":"06106","d":3644},"geometry":{"type":"Polygon","coordinates":[[[-72.71478,41.75643],[-72.71373,41.75796],[-72.71409,41.76093],[-72.70417,41.76233],[-72.70101,41.76218],[-72.69383,41.76514],[-72.69376,41.76395],[-72.68795,41.76594],[-72.68661,41.76366],[-72.68645,41.76577],[-72.68359,41.76619],[-72.68183,41.76786],[-72.68043,41.76767],[-72.6783,41.76532],[-72.67631,41.76514],[-72.67459,41.76183],[-72.66803,41.76024],[-72.66579,41.75811],[-72.66357,41.75743],[-72.65957,41.7537],[-72.65907,41.75208],[-72.66413,41.75043],[-72.66279,41.7519],[-72.66511,41.75439],[-72.67313,41.75458],[-72.67362,41.7564],[-72.67638,41.75537],[-72.67939,41.75213],[-72.6831,41.75119],[-72.68331,41.74735],[-72.69624,41.74006],[-72.69675,41.73455],[-72.69454,41.72589],[-72.69595,41.72505],[-72.70594,41.7243],[-72.71456,41.72363],[-72.71451,41.73097],[-72.715,41.73136],[-72.71515,41.74974],[-72.71478,41.75643]]]}},{"type":"Feature","properties":{"zcta":"06084","d":186},"geometry":{"type":"Polygon","coordinates":[[[-72.32806,41.93825],[-72.32422,41.93003],[-72.32157,41.92815],[-72.3069,41.92963],[-72.30628,41.92596],[-72.30172,41.92055],[-72.29905,41.91947],[-72.29747,41.91593],[-72.29682,41.91109],[-72.29381,41.90892],[-72.29095,41.90556],[-72.29268,41.90052],[-72.29109,41.89697],[-72.29304,41.89559],[-72.29922,41.89399],[-72.30126,41.89296],[-72.30277,41.88912],[-72.29816,41.88803],[-72.30125,41.88688],[-72.3026,41.88387],[-72.30696,41.88247],[-72.30652,41.88134],[-72.30898,41.87805],[-72.30844,41.87478],[-72.31188,41.87365],[-72.31022,41.87042],[-72.31018,41.86776],[-72.30792,41.86494],[-72.30645,41.86035],[-72.30718,41.85611],[-72.30377,41.85332],[-72.30406,41.85078],[-72.30655,41.85032],[-72.30968,41.84794],[-72.30891,41.84486],[-72.30954,41.84293],[-72.30893,41.83928],[-72.30974,41.83777],[-72.31272,41.8376],[-72.33735,41.83431],[-72.35763,41.83218],[-72.37608,41.82996],[-72.40516,41.82702],[-72.42153,41.8255],[-72.42521,41.85527],[-72.42802,41.8746],[-72.42962,41.8919],[-72.42932,41.89369],[-72.43122,41.91448],[-72.42952,41.91502],[-72.41154,41.91765],[-72.37793,41.92124],[-72.33576,41.92639],[-72.33856,41.92892],[-72.33482,41.93765],[-72.32806,41.93825]]]}},{"type":"Feature","properties":{"zcta":"06019","d":222},"geometry":{"type":"Polygon","coordinates":[[[-72.87664,41.9208],[-72.87651,41.91811],[-72.87434,41.87093],[-72.87302,41.83739],[-72.8702,41.81613],[-72.88584,41.81389],[-72.88795,41.8139],[-72.91435,41.81058],[-72.91536,41.80756],[-72.92118,41.80712],[-72.9259,41.80916],[-72.94902,41.80643],[-72.9404,41.82923],[-72.9365,41.84026],[-72.93909,41.84251],[-72.94224,41.84345],[-72.94653,41.84363],[-72.95119,41.8427],[-72.95365,41.84668],[-72.95364,41.85392],[-72.95193,41.85823],[-72.94634,41.87403],[-72.94618,41.87723],[-72.94065,41.8952],[-72.91535,41.8968],[-72.90664,41.9202],[-72.90594,41.9217],[-72.87664,41.9208]],[[-72.91502,41.86141],[-72.91559,41.86447],[-72.91843,41.86781],[-72.9177,41.86954],[-72.92108,41.87267],[-72.92153,41.87436],[-72.92488,41.87767],[-72.92605,41.88067],[-72.92819,41.88185],[-72.93161,41.88161],[-72.93473,41.879],[-72.93369,41.8774],[-72.93453,41.87537],[-72.93679,41.8739],[-72.93793,41.87186],[-72.93685,41.86816],[-72.93763,41.86534],[-72.93566,41.86057],[-72.93757,41.85739],[-72.93803,41.85335],[-72.9339,41.85378],[-72.93361,41.85217],[-72.93111,41.85216],[-72.93031,41.85457],[-72.92706,41.8547],[-72.9174,41.85692],[-72.91521,41.85651],[-72.91317,41.85854],[-72.90699,41.86216],[-72.90527,41.86428],[-72.91099,41.86654],[-72.91325,41.86064],[-72.91502,41.86141]],[[-72.88698,41.88611],[-72.88645,41.88745],[-72.88091,41.88992],[-72.88406,41.89321],[-72.88621,41.89337],[-72.89253,41.89561],[-72.89383,41.88713],[-72.88698,41.88611]]]}},{"type":"Feature","properties":{"zcta":"06040","d":1072},"geometry":{"type":"Polygon","coordinates":[[[-72.57357,41.78024],[-72.56681,41.78014],[-72.55963,41.78121],[-72.5497,41.781],[-72.5478,41.78223],[-72.54269,41.7807],[-72.54022,41.78078],[-72.53348,41.78284],[-72.53221,41.78233],[-72.52651,41.78299],[-72.52592,41.78399],[-72.51966,41.7837],[-72.51637,41.78445],[-72.51637,41.78598],[-72.5118,41.78689],[-72.51065,41.78366],[-72.50547,41.78477],[-72.4979,41.78496],[-72.49921,41.78663],[-72.49642,41.78664],[-72.49737,41.785],[-72.49224,41.78615],[-72.49188,41.78746],[-72.48915,41.78782],[-72.48852,41.78576],[-72.48368,41.78631],[-72.47833,41.7857],[-72.47585,41.78857],[-72.47446,41.78855],[-72.47228,41.79096],[-72.46509,41.75003],[-72.4639,41.74557],[-72.50078,41.74188],[-72.51626,41.73982],[-72.5319,41.73834],[-72.54923,41.73611],[-72.56766,41.73435],[-72.57123,41.7338],[-72.57562,41.75706],[-72.57848,41.77404],[-72.57995,41.78219],[-72.57357,41.78024]]]}},{"type":"Feature","properties":{"zcta":"06074","d":481},"geometry":{"type":"Polygon","coordinates":[[[-72.64424,41.81311],[-72.64039,41.82524],[-72.63893,41.82875],[-72.62993,41.8372],[-72.62561,41.84573],[-72.61926,41.8683],[-72.6166,41.8686],[-72.6056,41.86804],[-72.58799,41.86831],[-72.57149,41.86878],[-72.53083,41.86969],[-72.51733,41.8699],[-72.51833,41.8569],[-72.50193,41.85946],[-72.49681,41.86062],[-72.49927,41.85027],[-72.50443,41.82467],[-72.50543,41.8203],[-72.51669,41.81721],[-72.52108,41.81655],[-72.55534,41.80809],[-72.57592,41.80289],[-72.58349,41.80064],[-72.6168,41.79913],[-72.62779,41.79891],[-72.63989,41.79829],[-72.64603,41.7976],[-72.64564,41.80583],[-72.64424,41.81311]]]}},{"type":"Feature","properties":{"zcta":"06441","d":111},"geometry":{"type":"Polygon","coordinates":[[[-72.58933,41.5063],[-72.5635,41.51013],[-72.55491,41.51105],[-72.55162,41.50471],[-72.54758,41.50174],[-72.53417,41.49854],[-72.52975,41.49697],[-72.53171,41.49515],[-72.54138,41.49884],[-72.54425,41.49856],[-72.54277,41.49552],[-72.54648,41.49456],[-72.54467,41.48477],[-72.54222,41.48732],[-72.53979,41.48811],[-72.53873,41.48721],[-72.53938,41.48431],[-72.53864,41.48206],[-72.53986,41.47879],[-72.5384,41.47764],[-72.54007,41.47301],[-72.53789,41.46781],[-72.53831,41.46496],[-72.54039,41.46445],[-72.53674,41.46291],[-72.5278,41.45667],[-72.53095,41.45408],[-72.53757,41.45205],[-72.54113,41.44857],[-72.54113,41.44462],[-72.54466,41.43576],[-72.54744,41.43095],[-72.54703,41.4279],[-72.5413,41.42654],[-72.53749,41.42683],[-72.53314,41.42808],[-72.53029,41.42599],[-72.52866,41.42658],[-72.52917,41.42372],[-72.53878,41.42149],[-72.54892,41.4192],[-72.55534,41.41815],[-72.57,41.41477],[-72.60896,41.44309],[-72.61917,41.45146],[-72.62265,41.45461],[-72.63136,41.45968],[-72.63704,41.46383],[-72.62792,41.48546],[-72.6295,41.48872],[-72.6337,41.5002],[-72.58933,41.5063]]]}},{"type":"Feature","properties":{"zcta":"06442","d":429},"geometry":{"type":"Polygon","coordinates":[[[-72.46894,41.34538],[-72.44606,41.35618],[-72.43497,41.36053],[-72.43175,41.3586],[-72.42983,41.35932],[-72.42779,41.35628],[-72.43003,41.35569],[-72.43231,41.35047],[-72.4316,41.34734],[-72.42378,41.34862],[-72.42147,41.34729],[-72.42143,41.34443],[-72.42268,41.34308],[-72.4186,41.33902],[-72.42233,41.33706],[-72.42445,41.33362],[-72.42731,41.33691],[-72.42985,41.33747],[-72.42975,41.3335],[-72.42746,41.33439],[-72.42417,41.33142],[-72.42771,41.32823],[-72.42888,41.32571],[-72.43203,41.32655],[-72.43578,41.33096],[-72.47206,41.33403],[-72.47272,41.33421],[-72.46894,41.34538]],[[-72.44048,41.34677],[-72.43646,41.3474],[-72.44033,41.34825],[-72.44048,41.34677]]]}},{"type":"Feature","properties":{"zcta":"06078","d":210},"geometry":{"type":"Polygon","coordinates":[[[-72.64313,42.0324],[-72.60793,42.0308],[-72.60696,42.02513],[-72.6049,42.01191],[-72.60753,41.9993],[-72.60358,41.98977],[-72.60703,41.9738],[-72.60953,41.9649],[-72.61163,41.96079],[-72.6131,41.94697],[-72.61396,41.94347],[-72.63768,41.94472],[-72.65174,41.94608],[-72.65951,41.94631],[-72.68764,41.9481],[-72.70432,41.94927],[-72.69931,41.95317],[-72.69734,41.95563],[-72.69823,41.9575],[-72.69523,41.95957],[-72.69684,41.96194],[-72.69337,41.96713],[-72.69025,41.96836],[-72.69026,41.97214],[-72.68637,41.97618],[-72.68685,41.97992],[-72.68203,41.98141],[-72.6864,41.98299],[-72.68599,41.98759],[-72.68642,41.99235],[-72.68805,41.99772],[-72.69071,42.0003],[-72.68863,42.01216],[-72.68646,42.01292],[-72.68766,42.01613],[-72.68565,42.01928],[-72.68661,42.02299],[-72.68525,42.02481],[-72.68434,42.02826],[-72.68403,42.03306],[-72.68201,42.03563],[-72.64313,42.0324]],[[-72.63933,41.9508],[-72.63869,41.94816],[-72.63694,41.94901],[-72.62832,41.94782],[-72.62811,41.94884],[-72.63409,41.95259],[-72.64094,41.95282],[-72.64138,41.95141],[-72.63933,41.9508]]]}},{"type":"Feature","properties":{"zcta":"06093","d":109},"geometry":{"type":"Polygon","coordinates":[[[-72.76674,42.003],[-72.76614,42.0077],[-72.76326,42.00974],[-72.76324,42.0128],[-72.75974,42.017],[-72.76231,42.01978],[-72.76215,42.02153],[-72.75747,42.02095],[-72.75404,42.0254],[-72.75174,42.0302],[-72.75354,42.0321],[-72.75754,42.0333],[-72.75584,42.0362],[-72.69593,42.03679],[-72.68201,42.03563],[-72.68403,42.03306],[-72.68434,42.02826],[-72.68525,42.02481],[-72.68661,42.02299],[-72.68565,42.01928],[-72.68766,42.01613],[-72.68646,42.01292],[-72.68863,42.01216],[-72.69071,42.0003],[-72.68805,41.99772],[-72.68642,41.99235],[-72.68599,41.98759],[-72.6864,41.98299],[-72.68203,41.98141],[-72.68685,41.97992],[-72.68637,41.97618],[-72.69026,41.97214],[-72.69025,41.96836],[-72.69337,41.96713],[-72.69684,41.96194],[-72.69523,41.95957],[-72.69823,41.9575],[-72.69734,41.95563],[-72.69931,41.95317],[-72.70432,41.94927],[-72.71617,41.9498],[-72.71184,41.96082],[-72.70762,41.97335],[-72.71772,41.97604],[-72.76294,41.9859],[-72.77841,41.98944],[-72.77476,42.00213],[-72.76674,42.003]]]}},{"type":"Feature","properties":{"zcta":"06250","d":144},"geometry":{"type":"MultiPolygon","coordinates":[[[[-72.26065,41.76231],[-72.25221,41.76227],[-72.24578,41.76128],[-72.25078,41.76003],[-72.26119,41.7616],[-72.26065,41.76231]]],[[[-72.26464,41.76308],[-72.26085,41.75632],[-72.25815,41.75666],[-72.25738,41.75376],[-72.25778,41.75113],[-72.25296,41.74856],[-72.25141,41.747],[-72.24834,41.74689],[-72.24586,41.74581],[-72.24139,41.74893],[-72.23771,41.74974],[-72.22607,41.75065],[-72.22518,41.74662],[-72.2214,41.74752],[-72.21045,41.75115],[-72.20745,41.75589],[-72.2028,41.75987],[-72.2012,41.76413],[-72.19841,41.76543],[-72.20374,41.77115],[-72.20317,41.772],[-72.20933,41.78638],[-72.20911,41.78732],[-72.20561,41.78221],[-72.20485,41.77948],[-72.20147,41.77615],[-72.20114,41.77479],[-72.19737,41.7768],[-72.19486,41.77727],[-72.19859,41.77793],[-72.20266,41.78137],[-72.20295,41.78385],[-72.20665,41.78729],[-72.20815,41.79093],[-72.20976,41.7929],[-72.20754,41.79724],[-72.20323,41.80011],[-72.20092,41.79971],[-72.20035,41.80136],[-72.20385,41.80365],[-72.19997,41.8045],[-72.20108,41.80677],[-72.19997,41.80786],[-72.19873,41.80534],[-72.19539,41.80164],[-72.19483,41.79938],[-72.19581,41.79697],[-72.19316,41.79876],[-72.19151,41.80124],[-72.19585,41.82222],[-72.19462,41.82176],[-72.19693,41.82787],[-72.19585,41.82852],[-72.19043,41.835],[-72.15614,41.83489],[-72.15801,41.83222],[-72.16392,41.82891],[-72.16322,41.82203],[-72.15672,41.75372],[-72.15931,41.75069],[-72.16342,41.74974],[-72.16764,41.75233],[-72.17182,41.74857],[-72.17413,41.75118],[-72.17571,41.74976],[-72.17799,41.75266],[-72.17787,41.75537],[-72.18162,41.75612],[-72.18766,41.75518],[-72.18798,41.75374],[-72.18589,41.75235],[-72.1894,41.7501],[-72.18877,41.74763],[-72.19258,41.74457],[-72.19564,41.73961],[-72.19569,41.73703],[-72.194,41.73477],[-72.1925,41.73453],[-72.19096,41.7314],[-72.1921,41.73041],[-72.19554,41.73006],[-72.19888,41.73149],[-72.20369,41.73085],[-72.21599,41.7299],[-72.21644,41.72804],[-72.25264,41.7282],[-72.254,41.72952],[-72.2597,41.72962],[-72.26135,41.73275],[-72.26068,41.73414],[-72.2625,41.73834],[-72.26577,41.74368],[-72.26947,41.74583],[-72.26599,41.75],[-72.26613,41.75335],[-72.2679,41.75638],[-72.27087,41.75976],[-72.26886,41.76252],[-72.26464,41.76308]]]]}},{"type":"Feature","properties":{"zcta":"06085","d":761},"geometry":{"type":"Polygon","coordinates":[[[-72.90298,41.77571],[-72.90108,41.77163],[-72.90122,41.7687],[-72.89594,41.76486],[-72.88419,41.76559],[-72.88251,41.76278],[-72.88334,41.76152],[-72.88098,41.75887],[-72.87897,41.76087],[-72.87602,41.76227],[-72.87545,41.76451],[-72.86703,41.76372],[-72.86799,41.7617],[-72.86535,41.76016],[-72.8685,41.75898],[-72.86596,41.75782],[-72.86709,41.75659],[-72.87004,41.75726],[-72.87248,41.75435],[-72.87,41.75405],[-72.87152,41.75142],[-72.86835,41.74704],[-72.86574,41.74463],[-72.85985,41.74055],[-72.86372,41.74192],[-72.86595,41.74395],[-72.86815,41.74438],[-72.87227,41.7414],[-72.87393,41.73707],[-72.87539,41.7353],[-72.87746,41.73552],[-72.87925,41.73421],[-72.88147,41.7345],[-72.88738,41.72424],[-72.8861,41.72169],[-72.88301,41.71895],[-72.89703,41.71727],[-72.89983,41.73205],[-72.902,41.73957],[-72.90289,41.74534],[-72.90425,41.75024],[-72.90493,41.75809],[-72.90848,41.77604],[-72.90298,41.77571]]]}},{"type":"Feature","properties":{"zcta":"06114","d":2892},"geometry":{"type":"Polygon","coordinates":[[[-72.65707,41.75124],[-72.65399,41.75306],[-72.64904,41.7502],[-72.64464,41.7457],[-72.64254,41.7399],[-72.64264,41.7352],[-72.64784,41.7279],[-72.6556,41.72991],[-72.69354,41.72519],[-72.69595,41.72505],[-72.69454,41.72589],[-72.69675,41.73455],[-72.69624,41.74006],[-72.68331,41.74735],[-72.6831,41.75119],[-72.67939,41.75213],[-72.67638,41.75537],[-72.67362,41.7564],[-72.67313,41.75458],[-72.66511,41.75439],[-72.66279,41.7519],[-72.66413,41.75043],[-72.65907,41.75208],[-72.65707,41.75124]]]}},{"type":"Feature","properties":{"zcta":"06117","d":760},"geometry":{"type":"Polygon","coordinates":[[[-72.7531,41.80558],[-72.75062,41.80595],[-72.71759,41.80662],[-72.71802,41.80219],[-72.71708,41.80103],[-72.71571,41.79381],[-72.71754,41.79302],[-72.71708,41.78822],[-72.7152,41.78716],[-72.71397,41.77716],[-72.71838,41.7778],[-72.72458,41.77857],[-72.73711,41.77896],[-72.73704,41.77854],[-72.74605,41.7789],[-72.75101,41.77842],[-72.7542,41.77582],[-72.75785,41.77459],[-72.75861,41.77062],[-72.76148,41.7701],[-72.76186,41.7716],[-72.76405,41.77125],[-72.76517,41.76943],[-72.76525,41.77415],[-72.76707,41.77344],[-72.76846,41.77116],[-72.77085,41.7737],[-72.7724,41.77359],[-72.77382,41.77007],[-72.77665,41.77053],[-72.77949,41.76452],[-72.78131,41.7639],[-72.78216,41.76097],[-72.78483,41.76208],[-72.7877,41.76137],[-72.78809,41.75693],[-72.78963,41.7545],[-72.79416,41.7543],[-72.79244,41.75164],[-72.79276,41.74759],[-72.79497,41.74747],[-72.79674,41.7588],[-72.80004,41.79183],[-72.79894,41.79193],[-72.79794,41.79667],[-72.79724,41.8047],[-72.78538,41.80495],[-72.7531,41.80558]]]}},{"type":"Feature","properties":{"zcta":"06026","d":160},"geometry":{"type":"Polygon","coordinates":[[[-72.71772,41.97604],[-72.70762,41.97335],[-72.71184,41.96082],[-72.71617,41.9498],[-72.70432,41.94927],[-72.68764,41.9481],[-72.69343,41.9296],[-72.69591,41.92243],[-72.7035,41.9247],[-72.71364,41.927],[-72.72221,41.92793],[-72.72922,41.91559],[-72.73781,41.89238],[-72.74393,41.89574],[-72.74943,41.89692],[-72.7556,41.90003],[-72.76098,41.90347],[-72.76059,41.9057],[-72.75893,41.90814],[-72.76219,41.91183],[-72.7649,41.91324],[-72.76478,41.91496],[-72.76709,41.91505],[-72.76815,41.91772],[-72.76941,41.91783],[-72.77823,41.91777],[-72.78294,41.9181],[-72.78464,41.9202],[-72.78201,41.92891],[-72.77546,41.94841],[-72.76727,41.9741],[-72.76294,41.9859],[-72.71772,41.97604]]]}},{"type":"Feature","properties":{"zcta":"06498","d":233},"geometry":{"type":"Polygon","coordinates":[[[-72.49823,41.3476],[-72.47693,41.3345],[-72.47272,41.33421],[-72.47206,41.33403],[-72.43578,41.33096],[-72.43203,41.32655],[-72.42888,41.32571],[-72.42837,41.32461],[-72.42552,41.32422],[-72.42647,41.32181],[-72.43189,41.31712],[-72.43313,41.31519],[-72.43261,41.31325],[-72.42147,41.28357],[-72.41666,41.27829],[-72.4177,41.27844],[-72.42168,41.27507],[-72.42616,41.27413],[-72.43797,41.27874],[-72.45192,41.27889],[-72.46226,41.27448],[-72.4681,41.26901],[-72.47254,41.2701],[-72.48569,41.27088],[-72.48623,41.27069],[-72.49266,41.28759],[-72.49558,41.29154],[-72.49421,41.29205],[-72.49881,41.30455],[-72.49956,41.30743],[-72.51203,41.3416],[-72.51395,41.3464],[-72.49823,41.3476]]]}},{"type":"Feature","properties":{"zcta":"06424","d":165},"geometry":{"type":"Polygon","coordinates":[[[-72.55258,41.51141],[-72.5533,41.51716],[-72.55302,41.52487],[-72.54863,41.52436],[-72.54982,41.52666],[-72.54571,41.52723],[-72.53697,41.52988],[-72.5405,41.55044],[-72.54507,41.55274],[-72.54974,41.5523],[-72.5504,41.55397],[-72.54845,41.55812],[-72.5465,41.56071],[-72.54295,41.56322],[-72.54861,41.56205],[-72.54767,41.56373],[-72.54824,41.5675],[-72.55145,41.57113],[-72.5532,41.57461],[-72.55278,41.57584],[-72.54988,41.57711],[-72.54738,41.58221],[-72.54499,41.58367],[-72.54596,41.58611],[-72.54431,41.58919],[-72.54417,41.59188],[-72.54257,41.5956],[-72.54294,41.59707],[-72.5408,41.60537],[-72.54449,41.61582],[-72.52929,41.61744],[-72.53123,41.62111],[-72.54423,41.6427],[-72.53213,41.644],[-72.52183,41.6455],[-72.50543,41.647],[-72.50487,41.64553],[-72.48184,41.60818],[-72.47434,41.59516],[-72.46673,41.5839],[-72.44906,41.55394],[-72.44794,41.55286],[-72.43077,41.52457],[-72.44955,41.52253],[-72.4554,41.53102],[-72.45866,41.53682],[-72.45884,41.53958],[-72.46356,41.53352],[-72.46862,41.53108],[-72.47553,41.52425],[-72.47944,41.52184],[-72.48037,41.51946],[-72.48259,41.51844],[-72.48304,41.51635],[-72.48193,41.51254],[-72.48572,41.50499],[-72.48785,41.50224],[-72.48791,41.50036],[-72.48569,41.49141],[-72.48306,41.48953],[-72.47901,41.48959],[-72.47727,41.48865],[-72.47687,41.48421],[-72.47782,41.47555],[-72.47194,41.47206],[-72.46956,41.46875],[-72.46808,41.46239],[-72.47497,41.46762],[-72.5,41.47879],[-72.50492,41.48213],[-72.5121,41.4883],[-72.51938,41.49026],[-72.52369,41.49392],[-72.52367,41.49512],[-72.52975,41.49697],[-72.53417,41.49854],[-72.54758,41.50174],[-72.55162,41.50471],[-72.55491,41.51105],[-72.55258,41.51141]]]}},{"type":"Feature","properties":{"zcta":"06076","d":70},"geometry":{"type":"Polygon","coordinates":[[[-72.40442,41.97907],[-72.40449,41.9798],[-72.39587,41.979],[-72.39016,41.97738],[-72.393,41.98161],[-72.39268,41.98324],[-72.39898,41.98188],[-72.3981,41.98476],[-72.39664,41.98606],[-72.39533,41.98979],[-72.40065,41.98823],[-72.40352,41.98816],[-72.40066,42.00962],[-72.39963,42.00755],[-72.39716,42.00853],[-72.3941,42.00846],[-72.39474,42.01527],[-72.39856,42.01626],[-72.39971,42.01742],[-72.39743,42.03311],[-72.31715,42.03191],[-72.24952,42.03163],[-72.13569,42.03025],[-72.10217,42.0289],[-72.10188,42.0168],[-72.10032,41.985],[-72.09952,41.96604],[-72.10282,41.96738],[-72.1044,41.9693],[-72.10824,41.97021],[-72.11005,41.97194],[-72.11246,41.97179],[-72.11226,41.96945],[-72.11432,41.96694],[-72.11907,41.96508],[-72.12479,41.96224],[-72.1281,41.95913],[-72.15165,41.9593],[-72.19066,41.95914],[-72.19528,41.95932],[-72.21698,41.95816],[-72.2349,41.95758],[-72.23679,41.95829],[-72.2367,41.93986],[-72.29066,41.94063],[-72.30625,41.94071],[-72.30922,41.93354],[-72.30887,41.93109],[-72.3069,41.92963],[-72.32157,41.92815],[-72.32422,41.93003],[-72.32806,41.93825],[-72.33482,41.93765],[-72.33841,41.93911],[-72.33677,41.94121],[-72.36679,41.9415],[-72.37176,41.9418],[-72.39152,41.9417],[-72.40723,41.9414],[-72.40675,41.95716],[-72.40442,41.97907]]]}},{"type":"Feature","properties":{"zcta":"06371","d":95},"geometry":{"type":"Polygon","coordinates":[[[-72.42761,41.42329],[-72.40948,41.4253],[-72.40303,41.42477],[-72.39979,41.42611],[-72.38613,41.42766],[-72.30553,41.43628],[-72.30487,41.43273],[-72.28658,41.43907],[-72.27664,41.44045],[-72.2776,41.43338],[-72.27906,41.42606],[-72.2791,41.42181],[-72.27995,41.4186],[-72.28215,41.4059],[-72.28003,41.39168],[-72.27925,41.38821],[-72.27672,41.3663],[-72.2745,41.35609],[-72.27072,41.35045],[-72.26631,41.34221],[-72.26509,41.33927],[-72.26133,41.334],[-72.25931,41.32969],[-72.2564,41.3259],[-72.25832,41.32185],[-72.25656,41.31903],[-72.25474,41.31253],[-72.25482,41.31031],[-72.25328,41.30953],[-72.25062,41.30472],[-72.24881,41.29934],[-72.25189,41.29862],[-72.25051,41.29439],[-72.25132,41.29],[-72.26149,41.28293],[-72.2688,41.28443],[-72.27798,41.28406],[-72.28469,41.28081],[-72.2988,41.27892],[-72.31776,41.27778],[-72.32759,41.27846],[-72.33389,41.28292],[-72.34171,41.29639],[-72.34646,41.31121],[-72.34904,41.31156],[-72.34744,41.3188],[-72.34912,41.32449],[-72.35124,41.32637],[-72.35338,41.32983],[-72.35783,41.33514],[-72.36249,41.33894],[-72.36915,41.34234],[-72.37216,41.34343],[-72.37769,41.34647],[-72.3794,41.34975],[-72.37737,41.36448],[-72.37643,41.3691],[-72.37491,41.37331],[-72.376,41.37626],[-72.3816,41.38061],[-72.38259,41.38248],[-72.38483,41.38519],[-72.38718,41.38605],[-72.39489,41.38755],[-72.40202,41.38855],[-72.40529,41.38844],[-72.41175,41.38952],[-72.41621,41.38935],[-72.42168,41.39051],[-72.42351,41.39189],[-72.42575,41.39597],[-72.42634,41.39878],[-72.42566,41.40081],[-72.4251,41.40857],[-72.4261,41.41307],[-72.43371,41.424],[-72.42761,41.42329]],[[-72.40802,41.4123],[-72.40524,41.41261],[-72.39804,41.40821],[-72.38822,41.41155],[-72.38903,41.41601],[-72.39046,41.41756],[-72.40183,41.42346],[-72.40648,41.4218],[-72.40406,41.42044],[-72.41072,41.42122],[-72.41152,41.41986],[-72.40802,41.4123]],[[-72.25508,41.29549],[-72.25205,41.29262],[-72.25162,41.29563],[-72.25508,41.29549]]]}},{"type":"Feature","properties":{"zcta":"06279","d":83},"geometry":{"type":"Polygon","coordinates":[[[-72.30887,41.93109],[-72.30922,41.93354],[-72.30625,41.94071],[-72.29066,41.94063],[-72.2367,41.93986],[-72.23679,41.95829],[-72.2349,41.95758],[-72.21698,41.95816],[-72.21726,41.94935],[-72.21665,41.91866],[-72.21631,41.89282],[-72.2169,41.88446],[-72.21772,41.83518],[-72.26979,41.83602],[-72.29658,41.83626],[-72.30066,41.8359],[-72.31015,41.83606],[-72.30974,41.83777],[-72.30893,41.83928],[-72.30954,41.84293],[-72.30891,41.84486],[-72.30968,41.84794],[-72.30655,41.85032],[-72.30406,41.85078],[-72.30377,41.85332],[-72.30718,41.85611],[-72.30645,41.86035],[-72.30792,41.86494],[-72.31018,41.86776],[-72.31022,41.87042],[-72.31188,41.87365],[-72.30844,41.87478],[-72.30898,41.87805],[-72.30652,41.88134],[-72.30696,41.88247],[-72.3026,41.88387],[-72.30125,41.88688],[-72.29816,41.88803],[-72.30277,41.88912],[-72.30126,41.89296],[-72.29922,41.89399],[-72.29304,41.89559],[-72.29109,41.89697],[-72.29268,41.90052],[-72.29095,41.90556],[-72.29381,41.90892],[-72.29682,41.91109],[-72.29747,41.91593],[-72.29905,41.91947],[-72.30172,41.92055],[-72.30628,41.92596],[-72.3069,41.92963],[-72.30887,41.93109]]]}},{"type":"Feature","properties":{"zcta":"06423","d":68},"geometry":{"type":"Polygon","coordinates":[[[-72.46545,41.4842],[-72.45464,41.48047],[-72.45443,41.4796],[-72.44758,41.48055],[-72.4452,41.48154],[-72.44148,41.48452],[-72.43953,41.48457],[-72.43422,41.48778],[-72.43133,41.49051],[-72.43193,41.4931],[-72.42811,41.49563],[-72.42502,41.49991],[-72.4219,41.50304],[-72.42244,41.50627],[-72.4242,41.50712],[-72.42106,41.50844],[-72.4149,41.50939],[-72.41322,41.50702],[-72.40822,41.50873],[-72.40731,41.50995],[-72.39868,41.51416],[-72.39868,41.51785],[-72.40081,41.52265],[-72.40127,41.52606],[-72.40235,41.52724],[-72.38306,41.529],[-72.38371,41.52692],[-72.38509,41.51779],[-72.38254,41.51621],[-72.37421,41.51777],[-72.3676,41.51778],[-72.36013,41.5072],[-72.35681,41.50093],[-72.35228,41.4987],[-72.35056,41.49938],[-72.34789,41.49654],[-72.34647,41.49641],[-72.34448,41.49412],[-72.3393,41.49423],[-72.33631,41.49273],[-72.33531,41.48851],[-72.33816,41.4879],[-72.33907,41.48495],[-72.3415,41.48435],[-72.33753,41.48384],[-72.33546,41.48238],[-72.33181,41.48182],[-72.32646,41.48236],[-72.3229,41.48097],[-72.32286,41.47856],[-72.3203,41.47554],[-72.31468,41.47626],[-72.31552,41.47176],[-72.31715,41.46837],[-72.32015,41.46602],[-72.32302,41.46606],[-72.32539,41.46468],[-72.32288,41.46058],[-72.30848,41.45403],[-72.30553,41.43628],[-72.38613,41.42766],[-72.39979,41.42611],[-72.40303,41.42477],[-72.40948,41.4253],[-72.42761,41.42329],[-72.43371,41.424],[-72.4379,41.42828],[-72.445,41.43166],[-72.45098,41.43367],[-72.45423,41.43534],[-72.4572,41.43866],[-72.46308,41.45012],[-72.46489,41.45254],[-72.46808,41.46239],[-72.46956,41.46875],[-72.47194,41.47206],[-72.47782,41.47555],[-72.47687,41.48421],[-72.46545,41.4842]]]}},{"type":"Feature","properties":{"zcta":"06455","d":152},"geometry":{"type":"Polygon","coordinates":[[[-72.74253,41.54407],[-72.73486,41.54433],[-72.73358,41.54616],[-72.72262,41.54796],[-72.71227,41.54861],[-72.71142,41.54561],[-72.70323,41.5467],[-72.7036,41.54431],[-72.70816,41.54362],[-72.70793,41.53412],[-72.70899,41.53306],[-72.71224,41.53298],[-72.71359,41.52882],[-72.71283,41.52043],[-72.69791,41.52057],[-72.69698,41.52515],[-72.69523,41.5286],[-72.69214,41.52822],[-72.68665,41.53063],[-72.68578,41.53332],[-72.68643,41.53513],[-72.68257,41.53109],[-72.68086,41.52271],[-72.68127,41.51687],[-72.67905,41.50799],[-72.6779,41.49623],[-72.67916,41.49459],[-72.6901,41.49332],[-72.73104,41.48599],[-72.73389,41.48537],[-72.74333,41.48311],[-72.74478,41.49818],[-72.74706,41.52729],[-72.74888,41.54428],[-72.74253,41.54407]]]}},{"type":"Feature","properties":{"zcta":"06426","d":338},"geometry":{"type":"Polygon","coordinates":[[[-72.41649,41.33827],[-72.40815,41.34982],[-72.40564,41.35059],[-72.40897,41.35302],[-72.40829,41.35435],[-72.41454,41.3566],[-72.42713,41.36372],[-72.4243,41.36503],[-72.41294,41.37411],[-72.39854,41.37751],[-72.39415,41.37822],[-72.38259,41.38248],[-72.3816,41.38061],[-72.376,41.37626],[-72.37491,41.37331],[-72.37643,41.3691],[-72.37737,41.36448],[-72.3794,41.34975],[-72.37769,41.34647],[-72.37216,41.34343],[-72.36915,41.34234],[-72.37453,41.3376],[-72.38387,41.33198],[-72.39136,41.33223],[-72.40273,41.3316],[-72.42073,41.3254],[-72.42552,41.32422],[-72.42837,41.32461],[-72.42888,41.32571],[-72.42771,41.32823],[-72.42417,41.33142],[-72.42746,41.33439],[-72.42975,41.3335],[-72.42985,41.33747],[-72.42731,41.33691],[-72.42445,41.33362],[-72.42233,41.33706],[-72.4186,41.33902],[-72.41649,41.33827]]]}},{"type":"Feature","properties":{"zcta":"06269","d":0},"geometry":{"type":"Polygon","coordinates":[[[-72.26582,41.81743],[-72.25729,41.81688],[-72.24764,41.82215],[-72.24366,41.81996],[-72.24201,41.81775],[-72.2404,41.81899],[-72.23889,41.81698],[-72.23863,41.81463],[-72.24335,41.8143],[-72.24832,41.81095],[-72.24584,41.81037],[-72.24683,41.80815],[-72.24585,41.80694],[-72.24334,41.80727],[-72.24211,41.80592],[-72.24587,41.80326],[-72.24585,41.80495],[-72.24777,41.80609],[-72.25167,41.80362],[-72.24998,41.79939],[-72.24778,41.79716],[-72.25124,41.79531],[-72.2557,41.79495],[-72.26074,41.79813],[-72.26095,41.79939],[-72.25535,41.80002],[-72.25576,41.80276],[-72.25799,41.8028],[-72.2598,41.80607],[-72.25811,41.80825],[-72.26106,41.80935],[-72.2622,41.81115],[-72.26384,41.80911],[-72.26568,41.81292],[-72.26582,41.81743]]]}},{"type":"Feature","properties":{"zcta":"06002","d":480},"geometry":{"type":"Polygon","coordinates":[[[-72.78334,41.82691],[-72.78444,41.83331],[-72.78349,41.83656],[-72.78427,41.83778],[-72.78516,41.84341],[-72.78444,41.8557],[-72.77221,41.87817],[-72.7704,41.88079],[-72.77139,41.88512],[-72.76695,41.89589],[-72.76642,41.89827],[-72.76505,41.90261],[-72.76059,41.9057],[-72.76098,41.90347],[-72.7556,41.90003],[-72.74943,41.89692],[-72.74393,41.89574],[-72.73781,41.89238],[-72.74296,41.87735],[-72.72797,41.87432],[-72.72404,41.87323],[-72.69964,41.86802],[-72.68969,41.86624],[-72.68807,41.83707],[-72.68704,41.82659],[-72.68656,41.81751],[-72.68081,41.81754],[-72.6771,41.81459],[-72.67553,41.81174],[-72.67053,41.80905],[-72.66863,41.8072],[-72.66423,41.80774],[-72.66348,41.80653],[-72.68614,41.8029],[-72.68604,41.80017],[-72.69008,41.80084],[-72.69139,41.80757],[-72.69782,41.80715],[-72.71759,41.80662],[-72.75062,41.80595],[-72.7531,41.80558],[-72.78538,41.80495],[-72.78476,41.8143],[-72.78377,41.81659],[-72.78306,41.82129],[-72.78394,41.82243],[-72.78455,41.82659],[-72.78334,41.82691]]]}},{"type":"Feature","properties":{"zcta":"06108","d":1507},"geometry":{"type":"Polygon","coordinates":[[[-72.66416,41.77219],[-72.65794,41.7769],[-72.65184,41.779],[-72.64593,41.7859],[-72.64523,41.7913],[-72.64603,41.7976],[-72.63989,41.79829],[-72.62779,41.79891],[-72.6168,41.79913],[-72.58349,41.80064],[-72.57995,41.78219],[-72.57848,41.77404],[-72.58259,41.77305],[-72.59082,41.7728],[-72.60203,41.77123],[-72.60598,41.77096],[-72.61861,41.76778],[-72.61852,41.76743],[-72.6319,41.76366],[-72.63986,41.7632],[-72.64331,41.76373],[-72.6453,41.76141],[-72.64387,41.75858],[-72.64773,41.75714],[-72.65399,41.75306],[-72.66134,41.7587],[-72.66511,41.76576],[-72.66491,41.76953],[-72.66416,41.77219]]]}},{"type":"Feature","properties":{"zcta":"06120","d":1338},"geometry":{"type":"Polygon","coordinates":[[[-72.68614,41.8029],[-72.66348,41.80653],[-72.65867,41.80732],[-72.65833,41.80587],[-72.66274,41.80563],[-72.66286,41.80149],[-72.66,41.80175],[-72.65574,41.80599],[-72.64564,41.80583],[-72.64603,41.7976],[-72.64523,41.7913],[-72.64593,41.7859],[-72.65184,41.779],[-72.65794,41.7769],[-72.66416,41.77219],[-72.66491,41.76953],[-72.67511,41.7697],[-72.67294,41.77057],[-72.67273,41.77597],[-72.68068,41.77237],[-72.67863,41.77143],[-72.68242,41.7702],[-72.68227,41.77189],[-72.68665,41.77475],[-72.68379,41.78008],[-72.68386,41.78297],[-72.68035,41.78225],[-72.67966,41.78484],[-72.68194,41.78618],[-72.68107,41.79123],[-72.67924,41.79635],[-72.67732,41.79748],[-72.6783,41.79891],[-72.68604,41.80017],[-72.68614,41.8029]]]}},{"type":"Feature","properties":{"zcta":"06489","d":623},"geometry":{"type":"Polygon","coordinates":[[[-72.86621,41.65109],[-72.84677,41.65341],[-72.82257,41.65571],[-72.82074,41.65572],[-72.81943,41.6461],[-72.81805,41.64502],[-72.81419,41.64571],[-72.81499,41.64448],[-72.82333,41.63361],[-72.82524,41.62985],[-72.82525,41.62767],[-72.81799,41.62759],[-72.82225,41.62159],[-72.82023,41.62115],[-72.82056,41.6193],[-72.82281,41.61762],[-72.81937,41.6156],[-72.81833,41.60687],[-72.8202,41.6069],[-72.82346,41.60433],[-72.82408,41.59701],[-72.82646,41.58686],[-72.83387,41.58324],[-72.83653,41.58053],[-72.84024,41.5691],[-72.84854,41.56733],[-72.84573,41.55335],[-72.84529,41.54853],[-72.84699,41.54524],[-72.85975,41.54773],[-72.86781,41.54898],[-72.86823,41.55224],[-72.86951,41.55453],[-72.87014,41.55667],[-72.87391,41.56301],[-72.86822,41.56149],[-72.86562,41.56316],[-72.86333,41.56622],[-72.85963,41.56666],[-72.86055,41.57097],[-72.86792,41.57158],[-72.86645,41.57348],[-72.86986,41.57458],[-72.86884,41.57712],[-72.87096,41.57694],[-72.87412,41.57832],[-72.87844,41.57771],[-72.88118,41.57994],[-72.88359,41.57967],[-72.88158,41.58737],[-72.88193,41.59016],[-72.88517,41.58985],[-72.88874,41.59244],[-72.88561,41.5971],[-72.89249,41.59574],[-72.89697,41.59533],[-72.89829,41.59863],[-72.90153,41.59752],[-72.91066,41.59643],[-72.91381,41.59523],[-72.91509,41.59367],[-72.91942,41.5907],[-72.92273,41.59247],[-72.93177,41.58962],[-72.93326,41.59025],[-72.93648,41.58949],[-72.93804,41.59063],[-72.9358,41.59838],[-72.93364,41.60779],[-72.93815,41.6403],[-72.9385,41.64431],[-72.9286,41.64545],[-72.92778,41.64073],[-72.92195,41.64114],[-72.92,41.63742],[-72.92111,41.63309],[-72.91765,41.63327],[-72.91864,41.63474],[-72.91768,41.63747],[-72.92042,41.64099],[-72.91934,41.64312],[-72.92116,41.64579],[-72.91012,41.64712],[-72.90301,41.6475],[-72.88339,41.64947],[-72.86621,41.65109]]]}},{"type":"Feature","properties":{"zcta":"06413","d":441},"geometry":{"type":"Polygon","coordinates":[[[-72.57358,41.31483],[-72.55882,41.32231],[-72.53173,41.33676],[-72.5262,41.33832],[-72.51203,41.3416],[-72.49956,41.30743],[-72.49881,41.30455],[-72.49421,41.29205],[-72.49558,41.29154],[-72.49266,41.28759],[-72.48623,41.27069],[-72.49953,41.26587],[-72.50713,41.26015],[-72.50697,41.2569],[-72.51031,41.25661],[-72.51453,41.25853],[-72.51802,41.25776],[-72.52131,41.2656],[-72.52942,41.26442],[-72.53325,41.26269],[-72.53603,41.25753],[-72.53633,41.25481],[-72.54573,41.26024],[-72.54766,41.26432],[-72.54636,41.2674],[-72.54703,41.2716],[-72.54434,41.2737],[-72.54805,41.27742],[-72.54599,41.28034],[-72.54889,41.28186],[-72.55113,41.28058],[-72.55503,41.28061],[-72.55724,41.28199],[-72.55743,41.2837],[-72.56113,41.2875],[-72.56393,41.2887],[-72.56563,41.29239],[-72.56756,41.29417],[-72.57015,41.29442],[-72.5707,41.298],[-72.57595,41.30092],[-72.57634,41.30243],[-72.57987,41.304],[-72.5825,41.30639],[-72.5856,41.30735],[-72.58566,41.30985],[-72.57358,41.31483]]]}},{"type":"Feature","properties":{"zcta":"06479","d":715},"geometry":{"type":"Polygon","coordinates":[[[-72.93648,41.58949],[-72.93326,41.59025],[-72.93177,41.58962],[-72.92273,41.59247],[-72.91942,41.5907],[-72.91509,41.59367],[-72.91381,41.59523],[-72.91066,41.59643],[-72.90153,41.59752],[-72.89829,41.59863],[-72.89697,41.59533],[-72.89249,41.59574],[-72.88561,41.5971],[-72.88874,41.59244],[-72.88517,41.58985],[-72.88193,41.59016],[-72.88158,41.58737],[-72.88359,41.57967],[-72.88118,41.57994],[-72.87844,41.57771],[-72.87412,41.57832],[-72.87096,41.57694],[-72.86884,41.57712],[-72.86986,41.57458],[-72.86645,41.57348],[-72.86792,41.57158],[-72.86055,41.57097],[-72.85963,41.56666],[-72.86333,41.56622],[-72.86562,41.56316],[-72.86822,41.56149],[-72.87391,41.56301],[-72.87014,41.55667],[-72.86951,41.55453],[-72.87331,41.55649],[-72.87396,41.55915],[-72.87942,41.56225],[-72.87926,41.56315],[-72.88389,41.56381],[-72.90141,41.56201],[-72.90075,41.56434],[-72.89111,41.56487],[-72.89601,41.56925],[-72.89655,41.57061],[-72.90032,41.56947],[-72.90184,41.56759],[-72.90288,41.56426],[-72.90963,41.56376],[-72.91006,41.56101],[-72.91781,41.56004],[-72.91567,41.56152],[-72.90998,41.56873],[-72.91813,41.56778],[-72.92353,41.56909],[-72.92445,41.56676],[-72.9313,41.56597],[-72.93369,41.56626],[-72.93924,41.56964],[-72.94261,41.57113],[-72.93804,41.59063],[-72.93648,41.58949]]]}},{"type":"Feature","properties":{"zcta":"06095","d":554},"geometry":{"type":"Polygon","coordinates":[[[-72.72922,41.91559],[-72.72221,41.92793],[-72.71364,41.927],[-72.7035,41.9247],[-72.69591,41.92243],[-72.69322,41.92009],[-72.68614,41.9181],[-72.67738,41.91711],[-72.67433,41.916],[-72.66398,41.90892],[-72.66205,41.9079],[-72.65252,41.90453],[-72.64275,41.9001],[-72.63983,41.8976],[-72.63543,41.90331],[-72.62173,41.9046],[-72.62068,41.89771],[-72.62138,41.89314],[-72.62044,41.8904],[-72.61969,41.88284],[-72.61926,41.8683],[-72.62561,41.84573],[-72.62993,41.8372],[-72.63893,41.82875],[-72.64039,41.82524],[-72.64424,41.81311],[-72.64564,41.80583],[-72.65574,41.80599],[-72.66,41.80175],[-72.66286,41.80149],[-72.66274,41.80563],[-72.65833,41.80587],[-72.65867,41.80732],[-72.66348,41.80653],[-72.66423,41.80774],[-72.66863,41.8072],[-72.67053,41.80905],[-72.67553,41.81174],[-72.6771,41.81459],[-72.68081,41.81754],[-72.68656,41.81751],[-72.68704,41.82659],[-72.68807,41.83707],[-72.68969,41.86624],[-72.69964,41.86802],[-72.72404,41.87323],[-72.72797,41.87432],[-72.74296,41.87735],[-72.73781,41.89238],[-72.72922,41.91559]]]}},{"type":"Feature","properties":{"zcta":"06231","d":126},"geometry":{"type":"Polygon","coordinates":[[[-72.41107,41.64716],[-72.40775,41.653],[-72.40393,41.65059],[-72.3954,41.6521],[-72.39355,41.65095],[-72.39008,41.65166],[-72.38409,41.65447],[-72.38264,41.6511],[-72.38405,41.64884],[-72.38367,41.64708],[-72.38115,41.64577],[-72.38059,41.6436],[-72.37084,41.64838],[-72.36689,41.65166],[-72.3656,41.65011],[-72.36662,41.64829],[-72.3674,41.64334],[-72.35759,41.645],[-72.35983,41.65002],[-72.36251,41.65343],[-72.35,41.65654],[-72.35198,41.66148],[-72.34883,41.66333],[-72.34808,41.66266],[-72.3445,41.66363],[-72.34376,41.66496],[-72.34526,41.66638],[-72.34401,41.66871],[-72.33423,41.6436],[-72.32923,41.6296],[-72.32702,41.6251],[-72.32451,41.61857],[-72.3281,41.60547],[-72.34335,41.59933],[-72.35237,41.59905],[-72.35585,41.59761],[-72.35888,41.59828],[-72.36159,41.60079],[-72.36372,41.60116],[-72.36522,41.59978],[-72.36782,41.6002],[-72.37137,41.59948],[-72.37545,41.60132],[-72.37761,41.59624],[-72.38052,41.59546],[-72.38386,41.59078],[-72.38415,41.58865],[-72.38558,41.58959],[-72.39314,41.59251],[-72.39728,41.59474],[-72.40127,41.59563],[-72.40606,41.59879],[-72.40848,41.60233],[-72.41037,41.60258],[-72.40948,41.6086],[-72.40951,41.62005],[-72.40788,41.6251],[-72.40922,41.63075],[-72.41377,41.63487],[-72.41385,41.63692],[-72.42084,41.64805],[-72.41107,41.64716]]]}},{"type":"Feature","properties":{"zcta":"06096","d":730},"geometry":{"type":"Polygon","coordinates":[[[-72.69343,41.9296],[-72.68764,41.9481],[-72.65951,41.94631],[-72.65174,41.94608],[-72.63768,41.94472],[-72.61396,41.94347],[-72.62343,41.9343],[-72.62409,41.9292],[-72.62268,41.91711],[-72.62173,41.9046],[-72.63543,41.90331],[-72.63983,41.8976],[-72.64275,41.9001],[-72.65252,41.90453],[-72.66205,41.9079],[-72.66398,41.90892],[-72.67433,41.916],[-72.67738,41.91711],[-72.68614,41.9181],[-72.69322,41.92009],[-72.69591,41.92243],[-72.69343,41.9296]]]}},{"type":"Feature","properties":{"zcta":"06467","d":0},"geometry":{"type":"Polygon","coordinates":[[[-72.91006,41.56101],[-72.90963,41.56376],[-72.90288,41.56426],[-72.90184,41.56759],[-72.90032,41.56947],[-72.89655,41.57061],[-72.89601,41.56925],[-72.89111,41.56487],[-72.90075,41.56434],[-72.90141,41.56201],[-72.91006,41.56101]]]}},{"type":"Feature","properties":{"zcta":"06022","d":0},"geometry":{"type":"Polygon","coordinates":[[[-72.91521,41.85651],[-72.9174,41.85692],[-72.92706,41.8547],[-72.93031,41.85457],[-72.93111,41.85216],[-72.93361,41.85217],[-72.9339,41.85378],[-72.93803,41.85335],[-72.93757,41.85739],[-72.93566,41.86057],[-72.93763,41.86534],[-72.93685,41.86816],[-72.93793,41.87186],[-72.93679,41.8739],[-72.93453,41.87537],[-72.93369,41.8774],[-72.93473,41.879],[-72.93161,41.88161],[-72.92819,41.88185],[-72.92605,41.88067],[-72.92488,41.87767],[-72.92153,41.87436],[-72.92108,41.87267],[-72.9177,41.86954],[-72.91843,41.86781],[-72.91559,41.86447],[-72.91502,41.86141],[-72.91325,41.86064],[-72.91317,41.85854],[-72.91521,41.85651]]]}},{"type":"Feature","properties":{"zcta":"06107","d":1478},"geometry":{"type":"Polygon","coordinates":[[[-72.73644,41.77436],[-72.73726,41.76943],[-72.73943,41.76844],[-72.7387,41.76281],[-72.73743,41.75874],[-72.7353,41.75466],[-72.73627,41.75446],[-72.73522,41.74924],[-72.73482,41.74314],[-72.73543,41.74139],[-72.74126,41.73578],[-72.75102,41.7334],[-72.75281,41.73236],[-72.7571,41.72781],[-72.76235,41.72685],[-72.76254,41.73269],[-72.76515,41.73205],[-72.76704,41.73414],[-72.76921,41.73935],[-72.77283,41.73685],[-72.77764,41.73109],[-72.77906,41.73022],[-72.78123,41.74609],[-72.7822,41.74822],[-72.79276,41.74759],[-72.79244,41.75164],[-72.79416,41.7543],[-72.78963,41.7545],[-72.78809,41.75693],[-72.7877,41.76137],[-72.78483,41.76208],[-72.78216,41.76097],[-72.78131,41.7639],[-72.77949,41.76452],[-72.77665,41.77053],[-72.77382,41.77007],[-72.7724,41.77359],[-72.77085,41.7737],[-72.76846,41.77116],[-72.76707,41.77344],[-72.76525,41.77415],[-72.76517,41.76943],[-72.76405,41.77125],[-72.76186,41.7716],[-72.76148,41.7701],[-72.75861,41.77062],[-72.75785,41.77459],[-72.7542,41.77582],[-72.75101,41.77842],[-72.74605,41.7789],[-72.73704,41.77854],[-72.73644,41.77436]]]}},{"type":"Feature","properties":{"zcta":"06081","d":1063},"geometry":{"type":"Polygon","coordinates":[[[-72.76815,41.91772],[-72.76709,41.91505],[-72.76478,41.91496],[-72.7649,41.91324],[-72.76219,41.91183],[-72.75893,41.90814],[-72.76059,41.9057],[-72.76505,41.90261],[-72.76642,41.89827],[-72.76835,41.89938],[-72.76878,41.89766],[-72.77427,41.89846],[-72.7742,41.90158],[-72.77623,41.90403],[-72.77545,41.90702],[-72.77239,41.91165],[-72.77202,41.91501],[-72.76941,41.91783],[-72.76815,41.91772]]]}},{"type":"Feature","properties":{"zcta":"06016","d":219},"geometry":{"type":"Polygon","coordinates":[[[-72.55989,41.94033],[-72.53861,41.94303],[-72.5251,41.94447],[-72.51333,41.9454],[-72.51413,41.93256],[-72.51523,41.89947],[-72.51692,41.87364],[-72.51733,41.8699],[-72.53083,41.86969],[-72.57149,41.86878],[-72.58799,41.86831],[-72.58808,41.87239],[-72.58594,41.87405],[-72.58993,41.87727],[-72.58799,41.88013],[-72.58506,41.88078],[-72.58182,41.88002],[-72.57781,41.88278],[-72.57887,41.88332],[-72.57794,41.88679],[-72.57406,41.88656],[-72.57282,41.89421],[-72.57313,41.89633],[-72.57165,41.89831],[-72.57285,41.8991],[-72.57059,41.90194],[-72.57252,41.90263],[-72.57154,41.9042],[-72.56815,41.90603],[-72.56646,41.91],[-72.56235,41.91222],[-72.56448,41.91398],[-72.56221,41.91608],[-72.56318,41.92182],[-72.56769,41.92326],[-72.5671,41.92471],[-72.56984,41.92777],[-72.5702,41.93457],[-72.57285,41.93716],[-72.57643,41.93624],[-72.57737,41.93866],[-72.55989,41.94033]]]}},{"type":"Feature","properties":{"zcta":"06001","d":403},"geometry":{"type":"Polygon","coordinates":[[[-72.91536,41.80756],[-72.91435,41.81058],[-72.88795,41.8139],[-72.88584,41.81389],[-72.8702,41.81613],[-72.86741,41.8164],[-72.8447,41.81934],[-72.84003,41.82022],[-72.81968,41.82233],[-72.81856,41.82502],[-72.81236,41.82886],[-72.80916,41.83203],[-72.8101,41.84177],[-72.80674,41.84514],[-72.80727,41.84716],[-72.80644,41.84459],[-72.80895,41.84034],[-72.80934,41.8383],[-72.80843,41.83381],[-72.80926,41.82853],[-72.81283,41.82473],[-72.80949,41.82369],[-72.78455,41.82659],[-72.78394,41.82243],[-72.78306,41.82129],[-72.78377,41.81659],[-72.78476,41.8143],[-72.78538,41.80495],[-72.79724,41.8047],[-72.79794,41.79667],[-72.79894,41.79193],[-72.80004,41.79183],[-72.79674,41.7588],[-72.80413,41.75869],[-72.82046,41.75795],[-72.82774,41.75912],[-72.85314,41.7621],[-72.85929,41.7626],[-72.86703,41.76372],[-72.87545,41.76451],[-72.87602,41.76227],[-72.87897,41.76087],[-72.88098,41.75887],[-72.88334,41.76152],[-72.88251,41.76278],[-72.88419,41.76559],[-72.89594,41.76486],[-72.90122,41.7687],[-72.90108,41.77163],[-72.90298,41.77571],[-72.90848,41.77604],[-72.91765,41.77774],[-72.92033,41.77938],[-72.92309,41.78522],[-72.92495,41.78779],[-72.92466,41.79262],[-72.92552,41.7987],[-72.9281,41.80284],[-72.92741,41.80371],[-72.92139,41.80519],[-72.92118,41.80712],[-72.91536,41.80756]]]}},{"type":"Feature","properties":{"zcta":"06248","d":136},"geometry":{"type":"Polygon","coordinates":[[[-72.41911,41.7251],[-72.41391,41.71858],[-72.41239,41.7158],[-72.39875,41.69691],[-72.35648,41.7015],[-72.35147,41.68716],[-72.34401,41.66871],[-72.34526,41.66638],[-72.34376,41.66496],[-72.3445,41.66363],[-72.34808,41.66266],[-72.34883,41.66333],[-72.35198,41.66148],[-72.35,41.65654],[-72.36251,41.65343],[-72.35983,41.65002],[-72.35759,41.645],[-72.3674,41.64334],[-72.36662,41.64829],[-72.3656,41.65011],[-72.36689,41.65166],[-72.37084,41.64838],[-72.38059,41.6436],[-72.38115,41.64577],[-72.38367,41.64708],[-72.38405,41.64884],[-72.38264,41.6511],[-72.38409,41.65447],[-72.39008,41.65166],[-72.39355,41.65095],[-72.3954,41.6521],[-72.40393,41.65059],[-72.40775,41.653],[-72.41107,41.64716],[-72.42084,41.64805],[-72.42753,41.6597],[-72.42943,41.6623],[-72.43733,41.6666],[-72.44813,41.6719],[-72.45163,41.6871],[-72.45223,41.6888],[-72.45297,41.69205],[-72.46013,41.7273],[-72.45373,41.7282],[-72.43547,41.73027],[-72.42282,41.73196],[-72.42173,41.73034],[-72.41911,41.7251]]]}},{"type":"Feature","properties":{"zcta":"06447","d":134},"geometry":{"type":"Polygon","coordinates":[[[-72.50178,41.65447],[-72.49731,41.6624],[-72.486,41.66625],[-72.47732,41.66876],[-72.47894,41.67345],[-72.48272,41.68129],[-72.4768,41.68609],[-72.46098,41.68797],[-72.45223,41.6888],[-72.45163,41.6871],[-72.44813,41.6719],[-72.43733,41.6666],[-72.42943,41.6623],[-72.42753,41.6597],[-72.42084,41.64805],[-72.41385,41.63692],[-72.41377,41.63487],[-72.40922,41.63075],[-72.40788,41.6251],[-72.40951,41.62005],[-72.40948,41.6086],[-72.41037,41.60258],[-72.41723,41.5906],[-72.46673,41.5839],[-72.47434,41.59516],[-72.48184,41.60818],[-72.50487,41.64553],[-72.50543,41.647],[-72.50178,41.65447]]]}},{"type":"Feature","properties":{"zcta":"06033","d":436},"geometry":{"type":"Polygon","coordinates":[[[-72.61649,41.72758],[-72.60395,41.72945],[-72.59931,41.72987],[-72.59297,41.73113],[-72.57123,41.7338],[-72.56766,41.73435],[-72.54923,41.73611],[-72.5319,41.73834],[-72.51626,41.73982],[-72.50078,41.74188],[-72.4639,41.74557],[-72.46013,41.7273],[-72.45297,41.69205],[-72.45223,41.6888],[-72.46098,41.68797],[-72.4768,41.68609],[-72.48272,41.68129],[-72.47894,41.67345],[-72.47732,41.66876],[-72.486,41.66625],[-72.49731,41.6624],[-72.50178,41.65447],[-72.50395,41.6569],[-72.50666,41.65845],[-72.50956,41.65896],[-72.50855,41.66006],[-72.5031,41.66922],[-72.50262,41.67172],[-72.51738,41.67603],[-72.52201,41.67439],[-72.52538,41.67573],[-72.52751,41.67876],[-72.53842,41.67766],[-72.54173,41.67901],[-72.54156,41.68159],[-72.54321,41.67868],[-72.54706,41.68104],[-72.55101,41.68157],[-72.55242,41.68325],[-72.55526,41.68177],[-72.55529,41.68576],[-72.55891,41.68145],[-72.56152,41.68095],[-72.56341,41.67915],[-72.56368,41.67699],[-72.56679,41.67225],[-72.57243,41.67145],[-72.5786,41.66659],[-72.5836,41.66476],[-72.58447,41.66749],[-72.58592,41.6657],[-72.59047,41.66431],[-72.59032,41.66673],[-72.58796,41.66702],[-72.58743,41.67146],[-72.59087,41.67142],[-72.59265,41.6746],[-72.59877,41.67485],[-72.60044,41.6738],[-72.60955,41.67214],[-72.60752,41.67645],[-72.60863,41.68113],[-72.61073,41.6842],[-72.61573,41.6881],[-72.63268,41.68986],[-72.63674,41.6932],[-72.63533,41.69866],[-72.62689,41.70104],[-72.61972,41.70247],[-72.61761,41.70403],[-72.61594,41.7071],[-72.62203,41.7122],[-72.64057,41.71453],[-72.64887,41.7231],[-72.63633,41.7249],[-72.61649,41.72758]]]}},{"type":"Feature","properties":{"zcta":"06412","d":126},"geometry":{"type":"Polygon","coordinates":[[[-72.52416,41.42481],[-72.50302,41.427],[-72.45098,41.43367],[-72.445,41.43166],[-72.4379,41.42828],[-72.43371,41.424],[-72.4261,41.41307],[-72.4251,41.40857],[-72.42566,41.40081],[-72.43356,41.4018],[-72.43661,41.40037],[-72.43707,41.39776],[-72.44231,41.39259],[-72.45997,41.38659],[-72.45457,41.38238],[-72.49395,41.37917],[-72.51121,41.37741],[-72.51603,41.37655],[-72.52406,41.37618],[-72.53878,41.42149],[-72.52917,41.42372],[-72.52416,41.42481]]]}},{"type":"Feature","properties":{"zcta":"06112","d":3655},"geometry":{"type":"Polygon","coordinates":[[[-72.69782,41.80715],[-72.69139,41.80757],[-72.69008,41.80084],[-72.68604,41.80017],[-72.6783,41.79891],[-72.67732,41.79748],[-72.67924,41.79635],[-72.68107,41.79123],[-72.68194,41.78618],[-72.67966,41.78484],[-72.68035,41.78225],[-72.68386,41.78297],[-72.68379,41.78008],[-72.68665,41.77475],[-72.69588,41.7772],[-72.70167,41.78007],[-72.70341,41.78192],[-72.7041,41.78452],[-72.70813,41.78494],[-72.70785,41.78715],[-72.71026,41.79012],[-72.70975,41.79206],[-72.71502,41.79284],[-72.71571,41.79381],[-72.71708,41.80103],[-72.71802,41.80219],[-72.71759,41.80662],[-72.69782,41.80715]]]}},{"type":"Feature","properties":{"zcta":"06480","d":212},"geometry":{"type":"Polygon","coordinates":[[[-72.58805,41.63778],[-72.54423,41.6427],[-72.53123,41.62111],[-72.52929,41.61744],[-72.54449,41.61582],[-72.5408,41.60537],[-72.54294,41.59707],[-72.55012,41.59888],[-72.55458,41.59882],[-72.55659,41.59381],[-72.55176,41.59567],[-72.54834,41.5957],[-72.54659,41.59357],[-72.5469,41.59174],[-72.55409,41.58152],[-72.55767,41.57804],[-72.5584,41.56892],[-72.55952,41.56235],[-72.56277,41.55843],[-72.56199,41.55618],[-72.5608,41.55405],[-72.56573,41.55485],[-72.57347,41.5571],[-72.57985,41.55794],[-72.59521,41.55809],[-72.60315,41.56049],[-72.60809,41.56276],[-72.6099,41.56284],[-72.62385,41.56056],[-72.62892,41.56098],[-72.63868,41.56039],[-72.6443,41.56291],[-72.64845,41.56784],[-72.6488,41.57524],[-72.64893,41.57592],[-72.64564,41.58235],[-72.64377,41.58411],[-72.63814,41.59402],[-72.63585,41.59605],[-72.62745,41.60081],[-72.62233,41.60235],[-72.61947,41.60424],[-72.61746,41.60771],[-72.61764,41.61194],[-72.61892,41.6141],[-72.62552,41.61933],[-72.63077,41.62766],[-72.63052,41.63328],[-72.58805,41.63778]]]}},{"type":"Feature","properties":{"zcta":"06092","d":229},"geometry":{"type":"Polygon","coordinates":[[[-72.87206,41.91627],[-72.86629,41.91709],[-72.85974,41.90662],[-72.85712,41.90084],[-72.85297,41.8996],[-72.85339,41.89826],[-72.84688,41.89464],[-72.84751,41.88993],[-72.84651,41.88574],[-72.84847,41.88347],[-72.84709,41.88173],[-72.84978,41.87935],[-72.84814,41.87697],[-72.83495,41.87835],[-72.83262,41.87586],[-72.82405,41.87427],[-72.82444,41.87277],[-72.81966,41.87402],[-72.81985,41.87288],[-72.82333,41.8729],[-72.82489,41.87007],[-72.83349,41.8706],[-72.83633,41.86889],[-72.84275,41.86932],[-72.84363,41.86699],[-72.84762,41.86628],[-72.84244,41.86321],[-72.84005,41.86264],[-72.85343,41.85749],[-72.85764,41.84796],[-72.85914,41.84635],[-72.85449,41.84407],[-72.85461,41.84177],[-72.85078,41.84057],[-72.85347,41.84038],[-72.86149,41.83633],[-72.86077,41.83345],[-72.86308,41.83206],[-72.86371,41.82965],[-72.86701,41.83061],[-72.86665,41.82852],[-72.86364,41.82721],[-72.8633,41.82415],[-72.86681,41.82163],[-72.86741,41.8164],[-72.8702,41.81613],[-72.87302,41.83739],[-72.87434,41.87093],[-72.87651,41.91811],[-72.87206,41.91627]]]}},{"type":"Feature","properties":{"zcta":"06481","d":334},"geometry":{"type":"Polygon","coordinates":[[[-72.71133,41.54789],[-72.7009,41.54903],[-72.69434,41.5492],[-72.6882,41.53863],[-72.68643,41.53513],[-72.68578,41.53332],[-72.68665,41.53063],[-72.69214,41.52822],[-72.69523,41.5286],[-72.69698,41.52515],[-72.69791,41.52057],[-72.71283,41.52043],[-72.71359,41.52882],[-72.71224,41.53298],[-72.70899,41.53306],[-72.70793,41.53412],[-72.70816,41.54362],[-72.7036,41.54431],[-72.70323,41.5467],[-72.71142,41.54561],[-72.71227,41.54861],[-72.71133,41.54789]]]}},{"type":"Feature","properties":{"zcta":"06082","d":633},"geometry":{"type":"Polygon","coordinates":[[[-72.6131,41.94697],[-72.61163,41.96079],[-72.60953,41.9649],[-72.60703,41.9738],[-72.60358,41.98977],[-72.60753,41.9993],[-72.6049,42.01191],[-72.60696,42.02513],[-72.59023,42.0247],[-72.58233,42.0247],[-72.57323,42.03014],[-72.52813,42.0343],[-72.5092,42.03422],[-72.50539,42.01357],[-72.5039,42.00648],[-72.49972,41.98422],[-72.49893,41.97789],[-72.49273,41.9475],[-72.50553,41.9464],[-72.51333,41.9454],[-72.5251,41.94447],[-72.53861,41.94303],[-72.55989,41.94033],[-72.57737,41.93866],[-72.60389,41.93631],[-72.62343,41.9343],[-72.61396,41.94347],[-72.6131,41.94697]]]}},{"type":"Feature","properties":{"zcta":"06037","d":405},"geometry":{"type":"Polygon","coordinates":[[[-72.80961,41.64605],[-72.79097,41.64749],[-72.77857,41.64824],[-72.77131,41.64839],[-72.75815,41.64972],[-72.75036,41.65017],[-72.74987,41.64697],[-72.72716,41.64948],[-72.72736,41.6522],[-72.7153,41.65271],[-72.71476,41.64673],[-72.71094,41.64487],[-72.70469,41.64456],[-72.70588,41.64239],[-72.70897,41.63924],[-72.71311,41.63885],[-72.71383,41.6362],[-72.71234,41.6306],[-72.7139,41.62771],[-72.71571,41.62535],[-72.72455,41.62283],[-72.72857,41.61657],[-72.7282,41.61457],[-72.7287,41.60912],[-72.72717,41.60199],[-72.72994,41.6015],[-72.73161,41.59587],[-72.74284,41.5944],[-72.75294,41.5925],[-72.75218,41.57889],[-72.76808,41.57731],[-72.77972,41.57594],[-72.80124,41.5731],[-72.80524,41.5666],[-72.80924,41.562],[-72.80996,41.56228],[-72.81915,41.5543],[-72.82124,41.5542],[-72.82614,41.5559],[-72.82574,41.5643],[-72.82964,41.5624],[-72.82764,41.571],[-72.84024,41.5691],[-72.83653,41.58053],[-72.83387,41.58324],[-72.82646,41.58686],[-72.82408,41.59701],[-72.82346,41.60433],[-72.8202,41.6069],[-72.81833,41.60687],[-72.81937,41.6156],[-72.82281,41.61762],[-72.82056,41.6193],[-72.82023,41.62115],[-72.82225,41.62159],[-72.81799,41.62759],[-72.82525,41.62767],[-72.82524,41.62985],[-72.82333,41.63361],[-72.81499,41.64448],[-72.80961,41.64605]]]}},{"type":"Feature","properties":{"zcta":"06073","d":173},"geometry":{"type":"Polygon","coordinates":[[[-72.62444,41.6451],[-72.62353,41.6503],[-72.62814,41.6617],[-72.62802,41.66604],[-72.6248,41.6693],[-72.61202,41.6725],[-72.60952,41.6746],[-72.60863,41.68113],[-72.60752,41.67645],[-72.60955,41.67214],[-72.60044,41.6738],[-72.59877,41.67485],[-72.59265,41.6746],[-72.59087,41.67142],[-72.58743,41.67146],[-72.58796,41.66702],[-72.59032,41.66673],[-72.59047,41.66431],[-72.58592,41.6657],[-72.58447,41.66749],[-72.5836,41.66476],[-72.5786,41.66659],[-72.57243,41.67145],[-72.56679,41.67225],[-72.56368,41.67699],[-72.56341,41.67915],[-72.56152,41.68095],[-72.55891,41.68145],[-72.55529,41.68576],[-72.55526,41.68177],[-72.55242,41.68325],[-72.55101,41.68157],[-72.54706,41.68104],[-72.54321,41.67868],[-72.54156,41.68159],[-72.54173,41.67901],[-72.53842,41.67766],[-72.52751,41.67876],[-72.52538,41.67573],[-72.52201,41.67439],[-72.51738,41.67603],[-72.50262,41.67172],[-72.5031,41.66922],[-72.50855,41.66006],[-72.50956,41.65896],[-72.50666,41.65845],[-72.50395,41.6569],[-72.50178,41.65447],[-72.50543,41.647],[-72.52183,41.6455],[-72.53213,41.644],[-72.54423,41.6427],[-72.58805,41.63778],[-72.63052,41.63328],[-72.62784,41.6402],[-72.62444,41.6451]]]}},{"type":"Feature","properties":{"zcta":"06438","d":114},"geometry":{"type":"Polygon","coordinates":[[[-72.52367,41.49512],[-72.52369,41.49392],[-72.51938,41.49026],[-72.5121,41.4883],[-72.50492,41.48213],[-72.5,41.47879],[-72.47497,41.46762],[-72.46808,41.46239],[-72.46489,41.45254],[-72.46308,41.45012],[-72.4572,41.43866],[-72.45423,41.43534],[-72.45098,41.43367],[-72.50302,41.427],[-72.52416,41.42481],[-72.52917,41.42372],[-72.52866,41.42658],[-72.53029,41.42599],[-72.53314,41.42808],[-72.53749,41.42683],[-72.5413,41.42654],[-72.54703,41.4279],[-72.54744,41.43095],[-72.54466,41.43576],[-72.54113,41.44462],[-72.54113,41.44857],[-72.53757,41.45205],[-72.53095,41.45408],[-72.5278,41.45667],[-72.53674,41.46291],[-72.54039,41.46445],[-72.53831,41.46496],[-72.53789,41.46781],[-72.54007,41.47301],[-72.5384,41.47764],[-72.53986,41.47879],[-72.53864,41.48206],[-72.53938,41.48431],[-72.53873,41.48721],[-72.53979,41.48811],[-72.54222,41.48732],[-72.54467,41.48477],[-72.54648,41.49456],[-72.54277,41.49552],[-72.54425,41.49856],[-72.54138,41.49884],[-72.53171,41.49515],[-72.52975,41.49697],[-72.52367,41.49512]]]}},{"type":"Feature","properties":{"zcta":"06457","d":565},"geometry":{"type":"Polygon","coordinates":[[[-72.72368,41.60305],[-72.71454,41.60431],[-72.71245,41.60242],[-72.70849,41.60378],[-72.70774,41.60266],[-72.70517,41.60325],[-72.69651,41.60034],[-72.6943,41.60142],[-72.68921,41.60077],[-72.68407,41.60186],[-72.68096,41.60049],[-72.68032,41.59737],[-72.6771,41.598],[-72.67434,41.5998],[-72.67181,41.59763],[-72.6732,41.59469],[-72.67036,41.59173],[-72.668,41.5919],[-72.66729,41.58924],[-72.66538,41.5871],[-72.6679,41.58625],[-72.6681,41.58355],[-72.66545,41.58188],[-72.66113,41.58026],[-72.66025,41.5787],[-72.65789,41.57896],[-72.65514,41.57746],[-72.65623,41.57608],[-72.6561,41.5734],[-72.65403,41.57229],[-72.65155,41.57311],[-72.6488,41.57524],[-72.64845,41.56784],[-72.6443,41.56291],[-72.63868,41.56039],[-72.62892,41.56098],[-72.62385,41.56056],[-72.6099,41.56284],[-72.60809,41.56276],[-72.60315,41.56049],[-72.59521,41.55809],[-72.57985,41.55794],[-72.57347,41.5571],[-72.56573,41.55485],[-72.5608,41.55405],[-72.55439,41.55065],[-72.55158,41.5455],[-72.55094,41.53807],[-72.55134,41.5353],[-72.5538,41.53047],[-72.55586,41.52496],[-72.55619,41.51932],[-72.55491,41.51105],[-72.5635,41.51013],[-72.58933,41.5063],[-72.6337,41.5002],[-72.65467,41.49774],[-72.67759,41.49484],[-72.6779,41.49623],[-72.67905,41.50799],[-72.68127,41.51687],[-72.68086,41.52271],[-72.68257,41.53109],[-72.68643,41.53513],[-72.6882,41.53863],[-72.69434,41.5492],[-72.7009,41.54903],[-72.71133,41.54789],[-72.71227,41.54861],[-72.72262,41.54796],[-72.73358,41.54616],[-72.73486,41.54433],[-72.74253,41.54407],[-72.74888,41.54428],[-72.75218,41.57889],[-72.75294,41.5925],[-72.74284,41.5944],[-72.73161,41.59587],[-72.72994,41.6015],[-72.72717,41.60199],[-72.72368,41.60305]],[[-72.66651,41.54322],[-72.65993,41.5439],[-72.65843,41.55357],[-72.65427,41.55417],[-72.65369,41.55729],[-72.65493,41.55943],[-72.65432,41.56117],[-72.66118,41.55895],[-72.65909,41.55909],[-72.65817,41.55737],[-72.66102,41.55601],[-72.66115,41.55375],[-72.6595,41.55302],[-72.66446,41.55095],[-72.66651,41.54322]]]}},{"type":"Feature","properties":{"zcta":"06042","d":1213},"geometry":{"type":"Polygon","coordinates":[[[-72.57592,41.80289],[-72.55534,41.80809],[-72.52108,41.81655],[-72.51669,41.81721],[-72.50543,41.8203],[-72.50753,41.8097],[-72.48736,41.81175],[-72.4854,41.81223],[-72.47603,41.813],[-72.47347,41.79826],[-72.47228,41.79096],[-72.47446,41.78855],[-72.47585,41.78857],[-72.47833,41.7857],[-72.48368,41.78631],[-72.48852,41.78576],[-72.48915,41.78782],[-72.49188,41.78746],[-72.49224,41.78615],[-72.49737,41.785],[-72.49642,41.78664],[-72.49921,41.78663],[-72.4979,41.78496],[-72.50547,41.78477],[-72.51065,41.78366],[-72.5118,41.78689],[-72.51637,41.78598],[-72.51637,41.78445],[-72.51966,41.7837],[-72.52592,41.78399],[-72.52651,41.78299],[-72.53221,41.78233],[-72.53348,41.78284],[-72.54022,41.78078],[-72.54269,41.7807],[-72.5478,41.78223],[-72.5497,41.781],[-72.55963,41.78121],[-72.56681,41.78014],[-72.57357,41.78024],[-72.57995,41.78219],[-72.58349,41.80064],[-72.57592,41.80289]]]}},{"type":"Feature","properties":{"zcta":"06238","d":170},"geometry":{"type":"Polygon","coordinates":[[[-72.40516,41.82702],[-72.37608,41.82996],[-72.35763,41.83218],[-72.33735,41.83431],[-72.31272,41.8376],[-72.30974,41.83777],[-72.31015,41.83606],[-72.30851,41.83314],[-72.31096,41.8294],[-72.31307,41.82941],[-72.314,41.82246],[-72.31307,41.82043],[-72.31382,41.81852],[-72.31678,41.81636],[-72.31668,41.8145],[-72.31501,41.81316],[-72.31532,41.80929],[-72.31672,41.80822],[-72.31603,41.80556],[-72.31022,41.80293],[-72.30976,41.80062],[-72.31283,41.79831],[-72.30592,41.79539],[-72.30272,41.79746],[-72.29987,41.79716],[-72.29599,41.79501],[-72.29156,41.79533],[-72.28059,41.78418],[-72.28022,41.77922],[-72.27536,41.7761],[-72.27519,41.77378],[-72.27198,41.7712],[-72.27241,41.76716],[-72.2709,41.76412],[-72.26886,41.76252],[-72.27087,41.75976],[-72.2679,41.75638],[-72.26613,41.75335],[-72.26599,41.75],[-72.26947,41.74583],[-72.26577,41.74368],[-72.2625,41.73834],[-72.26068,41.73414],[-72.26135,41.73275],[-72.2597,41.72962],[-72.254,41.72952],[-72.25264,41.7282],[-72.25299,41.72492],[-72.24932,41.72439],[-72.2466,41.7229],[-72.24918,41.72319],[-72.25355,41.72101],[-72.25918,41.72217],[-72.26152,41.7195],[-72.26485,41.71757],[-72.26833,41.71995],[-72.27245,41.72113],[-72.27551,41.72037],[-72.27552,41.72159],[-72.27819,41.72388],[-72.28061,41.72238],[-72.28447,41.7226],[-72.28476,41.72511],[-72.29461,41.72499],[-72.29802,41.72615],[-72.3003,41.72521],[-72.30256,41.7277],[-72.30698,41.72904],[-72.3116,41.73166],[-72.31505,41.73115],[-72.32075,41.73238],[-72.32182,41.73381],[-72.32713,41.73448],[-72.32887,41.73882],[-72.35327,41.76584],[-72.35488,41.76713],[-72.38092,41.76386],[-72.41025,41.7655],[-72.41627,41.79577],[-72.41889,41.80656],[-72.42153,41.8255],[-72.40516,41.82702]]]}},{"type":"Feature","properties":{"zcta":"06419","d":94},"geometry":{"type":"Polygon","coordinates":[[[-72.64503,41.4392],[-72.62689,41.44054],[-72.61479,41.44174],[-72.60896,41.44309],[-72.57,41.41477],[-72.55534,41.41815],[-72.54892,41.4192],[-72.53878,41.42149],[-72.52406,41.37618],[-72.51395,41.3464],[-72.51203,41.3416],[-72.5262,41.33832],[-72.53173,41.33676],[-72.55882,41.32231],[-72.57358,41.31483],[-72.58566,41.30985],[-72.58857,41.3117],[-72.58488,41.31293],[-72.58941,41.31513],[-72.58532,41.31862],[-72.58577,41.32298],[-72.58734,41.32433],[-72.58944,41.32266],[-72.5918,41.32278],[-72.59571,41.32804],[-72.59719,41.32853],[-72.60078,41.32581],[-72.60523,41.32761],[-72.60865,41.32818],[-72.61152,41.32751],[-72.61208,41.32922],[-72.61441,41.32997],[-72.61496,41.33359],[-72.6136,41.33622],[-72.61441,41.337],[-72.61121,41.34323],[-72.61139,41.3471],[-72.61283,41.35022],[-72.6116,41.35233],[-72.61265,41.35383],[-72.61223,41.36267],[-72.60975,41.36337],[-72.61014,41.36715],[-72.60813,41.3674],[-72.60924,41.37053],[-72.60884,41.37351],[-72.61152,41.3765],[-72.61401,41.38078],[-72.61384,41.3844],[-72.61233,41.38618],[-72.61603,41.38874],[-72.61801,41.39166],[-72.62246,41.39359],[-72.62591,41.39717],[-72.62503,41.39909],[-72.62902,41.40123],[-72.63083,41.40359],[-72.63059,41.40694],[-72.63227,41.40812],[-72.63232,41.41232],[-72.6378,41.41232],[-72.64163,41.41374],[-72.64507,41.4158],[-72.64687,41.41574],[-72.65048,41.41912],[-72.64879,41.422],[-72.64235,41.42932],[-72.64684,41.43115],[-72.64959,41.43101],[-72.64836,41.43515],[-72.65302,41.43491],[-72.65456,41.43626],[-72.65367,41.43813],[-72.64503,41.4392]]]}},{"type":"Feature","properties":{"zcta":"06029","d":252},"geometry":{"type":"Polygon","coordinates":[[[-72.51692,41.87364],[-72.51523,41.89947],[-72.51413,41.93256],[-72.51333,41.9454],[-72.50553,41.9464],[-72.49273,41.9475],[-72.48089,41.94918],[-72.44733,41.95311],[-72.41212,41.95688],[-72.40675,41.95716],[-72.40723,41.9414],[-72.39152,41.9417],[-72.37176,41.9418],[-72.36679,41.9415],[-72.33677,41.94121],[-72.33841,41.93911],[-72.33482,41.93765],[-72.33856,41.92892],[-72.33576,41.92639],[-72.37793,41.92124],[-72.41154,41.91765],[-72.42952,41.91502],[-72.43122,41.91448],[-72.42932,41.89369],[-72.42962,41.8919],[-72.42802,41.8746],[-72.48503,41.86726],[-72.49554,41.86599],[-72.49681,41.86062],[-72.50193,41.85946],[-72.51833,41.8569],[-72.51733,41.8699],[-72.51692,41.87364]]]}},{"type":"Feature","properties":{"zcta":"06119","d":3689},"geometry":{"type":"Polygon","coordinates":[[[-72.73711,41.77896],[-72.72458,41.77857],[-72.71838,41.7778],[-72.72034,41.77606],[-72.72075,41.77035],[-72.71734,41.77071],[-72.71693,41.7638],[-72.71579,41.76341],[-72.71478,41.75643],[-72.71515,41.74974],[-72.72824,41.74994],[-72.73327,41.74881],[-72.73522,41.74924],[-72.73627,41.75446],[-72.7353,41.75466],[-72.73743,41.75874],[-72.7387,41.76281],[-72.73943,41.76844],[-72.73726,41.76943],[-72.73644,41.77436],[-72.73704,41.77854],[-72.73711,41.77896]]]}},{"type":"Feature","properties":{"zcta":"06070","d":361},"geometry":{"type":"Polygon","coordinates":[[[-72.85495,41.9203],[-72.82643,41.91891],[-72.78294,41.9181],[-72.77823,41.91777],[-72.76941,41.91783],[-72.77202,41.91501],[-72.77239,41.91165],[-72.77545,41.90702],[-72.77623,41.90403],[-72.7742,41.90158],[-72.77427,41.89846],[-72.76878,41.89766],[-72.76835,41.89938],[-72.76642,41.89827],[-72.76695,41.89589],[-72.77139,41.88512],[-72.7704,41.88079],[-72.77221,41.87817],[-72.78444,41.8557],[-72.78516,41.84341],[-72.78427,41.83778],[-72.78349,41.83656],[-72.78444,41.83331],[-72.78334,41.82691],[-72.78455,41.82659],[-72.80949,41.82369],[-72.81283,41.82473],[-72.80926,41.82853],[-72.80843,41.83381],[-72.80934,41.8383],[-72.80895,41.84034],[-72.80644,41.84459],[-72.80727,41.84716],[-72.81032,41.85185],[-72.80934,41.85469],[-72.81157,41.85596],[-72.81253,41.85457],[-72.81863,41.85425],[-72.82067,41.8571],[-72.82282,41.8578],[-72.82457,41.85534],[-72.82885,41.85604],[-72.82745,41.85441],[-72.82815,41.84951],[-72.8347,41.85076],[-72.83667,41.84638],[-72.83786,41.84566],[-72.8336,41.84294],[-72.83031,41.84186],[-72.83134,41.83982],[-72.83868,41.83216],[-72.84082,41.82214],[-72.84003,41.82022],[-72.8447,41.81934],[-72.86741,41.8164],[-72.86681,41.82163],[-72.8633,41.82415],[-72.86364,41.82721],[-72.86665,41.82852],[-72.86701,41.83061],[-72.86371,41.82965],[-72.86308,41.83206],[-72.86077,41.83345],[-72.86149,41.83633],[-72.85347,41.84038],[-72.85078,41.84057],[-72.85461,41.84177],[-72.85449,41.84407],[-72.85914,41.84635],[-72.85764,41.84796],[-72.85343,41.85749],[-72.84005,41.86264],[-72.84244,41.86321],[-72.84762,41.86628],[-72.84363,41.86699],[-72.84275,41.86932],[-72.83633,41.86889],[-72.83349,41.8706],[-72.82489,41.87007],[-72.82333,41.8729],[-72.81985,41.87288],[-72.81966,41.87402],[-72.82444,41.87277],[-72.82405,41.87427],[-72.83262,41.87586],[-72.83495,41.87835],[-72.84814,41.87697],[-72.84978,41.87935],[-72.84709,41.88173],[-72.84847,41.88347],[-72.84651,41.88574],[-72.84751,41.88993],[-72.84688,41.89464],[-72.85339,41.89826],[-72.85297,41.8996],[-72.85712,41.90084],[-72.85974,41.90662],[-72.86629,41.91709],[-72.87206,41.91627],[-72.87651,41.91811],[-72.87664,41.9208],[-72.85495,41.9203]]]}},{"type":"Feature","properties":{"zcta":"06111","d":1253},"geometry":{"type":"Polygon","coordinates":[[[-72.75781,41.70832],[-72.75744,41.71525],[-72.75946,41.71672],[-72.75945,41.71838],[-72.74052,41.72106],[-72.73164,41.7218],[-72.71456,41.72363],[-72.70594,41.7243],[-72.70804,41.71037],[-72.70485,41.69698],[-72.70524,41.6953],[-72.70324,41.68892],[-72.70036,41.67457],[-72.70694,41.67371],[-72.70604,41.6688],[-72.703,41.65427],[-72.70907,41.65315],[-72.7153,41.65271],[-72.72736,41.6522],[-72.72716,41.64948],[-72.74987,41.64697],[-72.75036,41.65017],[-72.75055,41.65395],[-72.75191,41.65916],[-72.75522,41.67705],[-72.75755,41.68874],[-72.75906,41.69876],[-72.76133,41.71161],[-72.75781,41.70832]]]}},{"type":"Feature","properties":{"zcta":"06105","d":3460},"geometry":{"type":"Polygon","coordinates":[[[-72.71397,41.77716],[-72.7152,41.78716],[-72.71708,41.78822],[-72.71754,41.79302],[-72.71571,41.79381],[-72.71502,41.79284],[-72.70975,41.79206],[-72.71026,41.79012],[-72.70785,41.78715],[-72.70813,41.78494],[-72.7041,41.78452],[-72.70341,41.78192],[-72.70167,41.78007],[-72.69588,41.7772],[-72.68665,41.77475],[-72.68227,41.77189],[-72.68242,41.7702],[-72.68352,41.76807],[-72.68183,41.76786],[-72.68359,41.76619],[-72.68645,41.76577],[-72.68661,41.76366],[-72.68795,41.76594],[-72.69376,41.76395],[-72.69383,41.76514],[-72.70101,41.76218],[-72.70417,41.76233],[-72.71409,41.76093],[-72.71373,41.75796],[-72.71478,41.75643],[-72.71579,41.76341],[-72.71693,41.7638],[-72.71734,41.77071],[-72.72075,41.77035],[-72.72034,41.77606],[-72.71838,41.7778],[-72.71397,41.77716]]]}},{"type":"Feature","properties":{"zcta":"06416","d":693},"geometry":{"type":"Polygon","coordinates":[[[-72.7139,41.62771],[-72.68842,41.6314],[-72.67588,41.63309],[-72.65084,41.6369],[-72.64714,41.6372],[-72.62784,41.6402],[-72.63052,41.63328],[-72.63077,41.62766],[-72.62552,41.61933],[-72.61892,41.6141],[-72.61764,41.61194],[-72.61746,41.60771],[-72.61947,41.60424],[-72.62233,41.60235],[-72.62745,41.60081],[-72.63585,41.59605],[-72.63814,41.59402],[-72.64377,41.58411],[-72.64564,41.58235],[-72.64893,41.57592],[-72.6488,41.57524],[-72.65155,41.57311],[-72.65403,41.57229],[-72.6561,41.5734],[-72.65623,41.57608],[-72.65514,41.57746],[-72.65789,41.57896],[-72.66025,41.5787],[-72.66113,41.58026],[-72.66545,41.58188],[-72.6681,41.58355],[-72.6679,41.58625],[-72.66538,41.5871],[-72.66729,41.58924],[-72.668,41.5919],[-72.67036,41.59173],[-72.6732,41.59469],[-72.67181,41.59763],[-72.67434,41.5998],[-72.6771,41.598],[-72.68032,41.59737],[-72.68096,41.60049],[-72.68407,41.60186],[-72.68921,41.60077],[-72.6943,41.60142],[-72.69651,41.60034],[-72.70517,41.60325],[-72.70774,41.60266],[-72.70849,41.60378],[-72.71245,41.60242],[-72.71454,41.60431],[-72.71592,41.60642],[-72.71364,41.61074],[-72.71257,41.61668],[-72.71127,41.61769],[-72.71329,41.62084],[-72.71553,41.62282],[-72.71571,41.62535],[-72.7139,41.62771]]]}},{"type":"Feature","properties":{"zcta":"06109","d":1188},"geometry":{"type":"Polygon","coordinates":[[[-72.69595,41.72505],[-72.69354,41.72519],[-72.6556,41.72991],[-72.64784,41.7279],[-72.63633,41.7249],[-72.64887,41.7231],[-72.64057,41.71453],[-72.62203,41.7122],[-72.61594,41.7071],[-72.61761,41.70403],[-72.61972,41.70247],[-72.62689,41.70104],[-72.63533,41.69866],[-72.63674,41.6932],[-72.63268,41.68986],[-72.61573,41.6881],[-72.63207,41.6868],[-72.64911,41.68498],[-72.66534,41.6801],[-72.66697,41.67264],[-72.66994,41.66989],[-72.67246,41.66964],[-72.68241,41.67084],[-72.68311,41.67185],[-72.68837,41.67099],[-72.6935,41.67097],[-72.69587,41.67006],[-72.70604,41.6688],[-72.70694,41.67371],[-72.70036,41.67457],[-72.70324,41.68892],[-72.70524,41.6953],[-72.70485,41.69698],[-72.70804,41.71037],[-72.70594,41.7243],[-72.69595,41.72505]]]}},{"type":"Feature","properties":{"zcta":"06475","d":392},"geometry":{"type":"Polygon","coordinates":[[[-72.42073,41.3254],[-72.40273,41.3316],[-72.39136,41.33223],[-72.38387,41.33198],[-72.37453,41.3376],[-72.36915,41.34234],[-72.36249,41.33894],[-72.35783,41.33514],[-72.35338,41.32983],[-72.35124,41.32637],[-72.34912,41.32449],[-72.34744,41.3188],[-72.34904,41.31156],[-72.3505,41.31175],[-72.35621,41.29961],[-72.35645,41.29122],[-72.34932,41.28461],[-72.34261,41.26885],[-72.3481,41.27014],[-72.35906,41.26811],[-72.36762,41.26353],[-72.37857,41.26458],[-72.38663,41.2618],[-72.39869,41.27817],[-72.40572,41.2768],[-72.41666,41.27829],[-72.42147,41.28357],[-72.43261,41.31325],[-72.43313,41.31519],[-72.43189,41.31712],[-72.42647,41.32181],[-72.42552,41.32422],[-72.42073,41.3254]]]}},{"type":"Feature","properties":{"zcta":"06043","d":179},"geometry":{"type":"Polygon","coordinates":[[[-72.41627,41.79577],[-72.41025,41.7655],[-72.40533,41.7426],[-72.40511,41.7388],[-72.40362,41.73399],[-72.41842,41.73211],[-72.4215,41.73201],[-72.42173,41.73034],[-72.42282,41.73196],[-72.43547,41.73027],[-72.45373,41.7282],[-72.46013,41.7273],[-72.4639,41.74557],[-72.46509,41.75003],[-72.47228,41.79096],[-72.47347,41.79826],[-72.45514,41.80145],[-72.44913,41.8021],[-72.42943,41.8049],[-72.41889,41.80656],[-72.41627,41.79577]]]}},{"type":"Feature","properties":{"zcta":"06110","d":2017},"geometry":{"type":"Polygon","coordinates":[[[-72.7571,41.72781],[-72.75281,41.73236],[-72.75102,41.7334],[-72.74126,41.73578],[-72.73543,41.74139],[-72.73482,41.74314],[-72.73522,41.74924],[-72.73327,41.74881],[-72.72824,41.74994],[-72.71515,41.74974],[-72.715,41.73136],[-72.71451,41.73097],[-72.71456,41.72363],[-72.73164,41.7218],[-72.74052,41.72106],[-72.75945,41.71838],[-72.76218,41.71834],[-72.76235,41.72685],[-72.7571,41.72781]]]}},{"type":"Feature","properties":{"zcta":"06103","d":4000},"geometry":{"type":"Polygon","coordinates":[[[-72.67863,41.77143],[-72.68068,41.77237],[-72.67273,41.77597],[-72.67294,41.77057],[-72.67511,41.7697],[-72.66491,41.76953],[-72.66511,41.76576],[-72.66134,41.7587],[-72.65399,41.75306],[-72.65707,41.75124],[-72.65907,41.75208],[-72.65957,41.7537],[-72.66357,41.75743],[-72.66579,41.75811],[-72.66803,41.76024],[-72.67459,41.76183],[-72.67631,41.76514],[-72.6783,41.76532],[-72.68043,41.76767],[-72.68183,41.76786],[-72.68352,41.76807],[-72.68242,41.7702],[-72.67863,41.77143]]]}},{"type":"Feature","properties":{"zcta":"06032","d":423},"geometry":{"type":"Polygon","coordinates":[[[-72.85929,41.7626],[-72.85314,41.7621],[-72.82774,41.75912],[-72.82046,41.75795],[-72.80413,41.75869],[-72.79674,41.7588],[-72.79497,41.74747],[-72.79276,41.74759],[-72.7822,41.74822],[-72.78123,41.74609],[-72.77906,41.73022],[-72.77764,41.73109],[-72.77283,41.73685],[-72.76921,41.73935],[-72.76704,41.73414],[-72.76515,41.73205],[-72.76254,41.73269],[-72.76235,41.72685],[-72.76218,41.71834],[-72.75945,41.71838],[-72.75946,41.71672],[-72.75744,41.71525],[-72.75781,41.70832],[-72.76133,41.71161],[-72.76197,41.7158],[-72.76339,41.71562],[-72.76464,41.713],[-72.7684,41.71494],[-72.78299,41.71284],[-72.79595,41.7034],[-72.7994,41.70614],[-72.80198,41.70686],[-72.80497,41.70166],[-72.8147,41.68814],[-72.81544,41.68782],[-72.83251,41.69043],[-72.86384,41.69543],[-72.87779,41.6981],[-72.89288,41.69669],[-72.89371,41.69958],[-72.89564,41.7124],[-72.89703,41.71727],[-72.88301,41.71895],[-72.8861,41.72169],[-72.88738,41.72424],[-72.88147,41.7345],[-72.87925,41.73421],[-72.87746,41.73552],[-72.87539,41.7353],[-72.87393,41.73707],[-72.87227,41.7414],[-72.86815,41.74438],[-72.86595,41.74395],[-72.86372,41.74192],[-72.85985,41.74055],[-72.86574,41.74463],[-72.86835,41.74704],[-72.87152,41.75142],[-72.87,41.75405],[-72.87248,41.75435],[-72.87004,41.75726],[-72.86709,41.75659],[-72.86596,41.75782],[-72.8685,41.75898],[-72.86535,41.76016],[-72.86799,41.7617],[-72.86703,41.76372],[-72.85929,41.7626]]]}}]}