{"type":"FeatureCollection","features":[{"type":"Feature","properties":{"id":"39095","name":"Lucas Co."},"geometry":{"type":"MultiPolygon","coordinates":[[[[-83.1056,41.7425],[-83.1021,41.7418],[-83.1033,41.7384],[-83.107,41.7367],[-83.1106,41.7379],[-83.1056,41.7425]]],[[[-83.4276,41.7117],[-83.4213,41.7034],[-83.4345,41.6971],[-83.4384,41.6943],[-83.4451,41.701],[-83.4434,41.7045],[-83.4276,41.7117]]],[[[-83.4493,41.7105],[-83.4469,41.707],[-83.4608,41.7013],[-83.4612,41.7057],[-83.4493,41.7105]]],[[[-83.8829,41.5159],[-83.8825,41.589],[-83.8824,41.6175],[-83.8774,41.6175],[-83.8784,41.6578],[-83.8804,41.7201],[-83.8595,41.7213],[-83.763,41.7236],[-83.7089,41.7252],[-83.6853,41.7264],[-83.6659,41.7269],[-83.5952,41.7291],[-83.4554,41.7328],[-83.456,41.7276],[-83.4608,41.7274],[-83.4677,41.7226],[-83.4717,41.7157],[-83.4746,41.7044],[-83.4788,41.7028],[-83.4778,41.6985],[-83.47,41.6962],[-83.4723,41.6933],[-83.4784,41.6903],[-83.4776,41.689],[-83.4841,41.6848],[-83.4802,41.6821],[-83.4722,41.6872],[-83.4674,41.688],[-83.4602,41.6919],[-83.4586,41.6969],[-83.4557,41.6981],[-83.4473,41.6956],[-83.4428,41.6956],[-83.4396,41.6926],[-83.4319,41.6905],[-83.4284,41.6909],[-83.4232,41.6894],[-83.4159,41.6899],[-83.4117,41.689],[-83.4095,41.6912],[-83.4,41.6909],[-83.395,41.692],[-83.391,41.6913],[-83.389,41.6891],[-83.3797,41.6856],[-83.3722,41.6852],[-83.3715,41.6863],[-83.3652,41.6857],[-83.3517,41.687],[-83.3496,41.6897],[-83.343,41.692],[-83.338,41.6987],[-83.3382,41.7035],[-83.3359,41.7055],[-83.3295,41.7027],[-83.3239,41.6975],[-83.3178,41.6951],[-83.3058,41.6877],[-83.31,41.6829],[-83.309,41.6792],[-83.3062,41.6766],[-83.3002,41.6756],[-83.2886,41.6758],[-83.2863,41.6735],[-83.2833,41.6757],[-83.2789,41.6726],[-83.2634,41.6646],[-83.2378,41.6509],[-83.2367,41.649],[-83.2082,41.6352],[-83.2013,41.6339],[-83.1874,41.6283],[-83.1695,41.6233],[-83.2994,41.6218],[-83.3381,41.6209],[-83.3703,41.6204],[-83.3752,41.6202],[-83.4159,41.6191],[-83.4771,41.6183],[-83.4932,41.6183],[-83.5126,41.6179],[-83.5429,41.6179],[-83.5645,41.6177],[-83.5699,41.6172],[-83.5783,41.611],[-83.582,41.6051],[-83.588,41.601],[-83.5909,41.5946],[-83.5931,41.5931],[-83.5944,41.5891],[-83.6007,41.5863],[-83.6084,41.578],[-83.6095,41.5733],[-83.6127,41.5708],[-83.6187,41.5698],[-83.6256,41.5701],[-83.6313,41.5628],[-83.6361,41.5603],[-83.6434,41.5612],[-83.6483,41.5588],[-83.652,41.5557],[-83.6598,41.5535],[-83.6656,41.5493],[-83.6801,41.5469],[-83.6941,41.5386],[-83.6997,41.534],[-83.7033,41.5291],[-83.7092,41.5231],[-83.7112,41.5063],[-83.7136,41.5002],[-83.7115,41.4955],[-83.7128,41.4925],[-83.7174,41.4886],[-83.7222,41.4866],[-83.7326,41.4847],[-83.7403,41.4776],[-83.7458,41.4679],[-83.7545,41.4628],[-83.7649,41.4623],[-83.7733,41.4636],[-83.7785,41.462],[-83.7799,41.4596],[-83.7792,41.4528],[-83.7808,41.4501],[-83.791,41.4455],[-83.8065,41.4365],[-83.8093,41.4365],[-83.8175,41.4323],[-83.8287,41.4302],[-83.8339,41.4278],[-83.8456,41.425],[-83.8498,41.4223],[-83.8523,41.4157],[-83.8543,41.4144],[-83.8674,41.4147],[-83.8729,41.4164],[-83.8832,41.4145],[-83.8829,41.4386],[-83.8829,41.4875],[-83.8829,41.5159]]]]}},{"type":"Feature","properties":{"id":"39173","name":"Wood Co."},"geometry":{"type":"Polygon","coordinates":[[[-83.4146,41.515],[-83.4146,41.5002],[-83.4154,41.428],[-83.4173,41.3413],[-83.4189,41.2831],[-83.4198,41.254],[-83.4203,41.2249],[-83.4211,41.1668],[-83.4647,41.1664],[-83.4999,41.1658],[-83.5447,41.1663],[-83.5819,41.1672],[-83.6493,41.1677],[-83.6788,41.1681],[-83.7261,41.1684],[-83.7271,41.1685],[-83.8811,41.1678],[-83.8821,41.226],[-83.8823,41.2551],[-83.8834,41.3282],[-83.8835,41.3571],[-83.8832,41.4145],[-83.8729,41.4164],[-83.8674,41.4147],[-83.8543,41.4144],[-83.8523,41.4157],[-83.8498,41.4223],[-83.8456,41.425],[-83.8339,41.4278],[-83.8287,41.4302],[-83.8175,41.4323],[-83.8093,41.4365],[-83.8065,41.4365],[-83.791,41.4455],[-83.7808,41.4501],[-83.7792,41.4528],[-83.7799,41.4596],[-83.7785,41.462],[-83.7733,41.4636],[-83.7649,41.4623],[-83.7545,41.4628],[-83.7458,41.4679],[-83.7403,41.4776],[-83.7326,41.4847],[-83.7222,41.4866],[-83.7174,41.4886],[-83.7128,41.4925],[-83.7115,41.4955],[-83.7136,41.5002],[-83.7112,41.5063],[-83.7092,41.5231],[-83.7033,41.5291],[-83.6997,41.534],[-83.6941,41.5386],[-83.6801,41.5469],[-83.6656,41.5493],[-83.6598,41.5535],[-83.652,41.5557],[-83.6483,41.5588],[-83.6434,41.5612],[-83.6361,41.5603],[-83.6313,41.5628],[-83.6256,41.5701],[-83.6187,41.5698],[-83.6127,41.5708],[-83.6095,41.5733],[-83.6084,41.578],[-83.6007,41.5863],[-83.5944,41.5891],[-83.5931,41.5931],[-83.5909,41.5946],[-83.588,41.601],[-83.582,41.6051],[-83.5783,41.611],[-83.5699,41.6172],[-83.5645,41.6177],[-83.5429,41.6179],[-83.5126,41.6179],[-83.4932,41.6183],[-83.4771,41.6183],[-83.4159,41.6191],[-83.4146,41.515]]]}},{"type":"Feature","properties":{"id":"39051","name":"Fulton Co."},"geometry":{"type":"Polygon","coordinates":[[[-83.9413,41.4872],[-84.0765,41.4861],[-84.1149,41.486],[-84.1149,41.4863],[-84.1872,41.4858],[-84.2289,41.4856],[-84.2289,41.4859],[-84.2819,41.4857],[-84.3255,41.4858],[-84.3419,41.4855],[-84.3421,41.5141],[-84.3807,41.5139],[-84.3809,41.572],[-84.3813,41.6167],[-84.3984,41.617],[-84.3992,41.6732],[-84.3995,41.7059],[-84.3605,41.7066],[-84.1344,41.7129],[-84.0194,41.7167],[-83.9988,41.7168],[-83.8998,41.72],[-83.8804,41.7201],[-83.8784,41.6578],[-83.8774,41.6175],[-83.8824,41.6175],[-83.8825,41.589],[-83.8829,41.5159],[-83.8829,41.4875],[-83.9413,41.4872]]]}}]}