{"type":"FeatureCollection","features":[{"type":"Feature","properties":{"zcta":"43553","d":0},"geometry":{"type":"Polygon","coordinates":[[[-84.22222,41.53389],[-84.22222,41.53203],[-84.21127,41.53206],[-84.21126,41.52908],[-84.22096,41.52898],[-84.2239,41.52994],[-84.22393,41.52896],[-84.22932,41.52893],[-84.23448,41.5289],[-84.23453,41.53254],[-84.22222,41.53389]]]}},{"type":"Feature","properties":{"zcta":"43525","d":475},"geometry":{"type":"Polygon","coordinates":[[[-83.69285,41.4737],[-83.69285,41.4667],[-83.69401,41.46666],[-83.69404,41.45917],[-83.70885,41.45931],[-83.70891,41.4739],[-83.69285,41.4737]]]}},{"type":"Feature","properties":{"zcta":"43605","d":1372},"geometry":{"type":"Polygon","coordinates":[[[-83.5334,41.64101],[-83.53233,41.64775],[-83.52755,41.65224],[-83.52254,41.65517],[-83.51106,41.65996],[-83.49703,41.67115],[-83.49214,41.67595],[-83.48269,41.68378],[-83.48021,41.68208],[-83.47222,41.68721],[-83.4711,41.68658],[-83.46524,41.68909],[-83.46532,41.68601],[-83.46871,41.67862],[-83.47162,41.67588],[-83.47798,41.66863],[-83.47792,41.66598],[-83.46902,41.6661],[-83.47286,41.66009],[-83.47287,41.65876],[-83.47766,41.65869],[-83.49184,41.64726],[-83.49171,41.64388],[-83.49652,41.64377],[-83.49633,41.63656],[-83.50606,41.63644],[-83.50551,41.61805],[-83.5126,41.61791],[-83.51253,41.61582],[-83.52277,41.61572],[-83.52473,41.61796],[-83.54124,41.61792],[-83.54043,41.61607],[-83.54294,41.61435],[-83.54288,41.61791],[-83.56391,41.61769],[-83.56993,41.61715],[-83.57074,41.61814],[-83.56686,41.61839],[-83.55881,41.62065],[-83.54205,41.62453],[-83.53581,41.62627],[-83.53223,41.62905],[-83.53193,41.63255],[-83.5334,41.64101]]]}},{"type":"Feature","properties":{"zcta":"43403","d":0},"geometry":{"type":"Polygon","coordinates":[[[-83.64121,41.38265],[-83.64112,41.38084],[-83.63212,41.38088],[-83.62965,41.38005],[-83.62945,41.37453],[-83.64321,41.37473],[-83.64305,41.38267],[-83.64121,41.38265]]]}},{"type":"Feature","properties":{"zcta":"43541","d":0},"geometry":{"type":"Polygon","coordinates":[[[-83.82572,41.30629],[-83.8247,41.30761],[-83.82465,41.29525],[-83.83439,41.29516],[-83.83437,41.30619],[-83.82572,41.30629]]]}},{"type":"Feature","properties":{"zcta":"43434","d":0},"geometry":{"type":"Polygon","coordinates":[[[-83.44417,41.69563],[-83.44402,41.69076],[-83.44531,41.69074],[-83.44546,41.69563],[-83.44417,41.69563]]]}},{"type":"Feature","properties":{"zcta":"43437","d":0},"geometry":{"type":"Polygon","coordinates":[[[-83.5929,41.26095],[-83.59298,41.25365],[-83.5924,41.25364],[-83.59245,41.24642],[-83.60782,41.24644],[-83.60958,41.24963],[-83.60982,41.25276],[-83.61206,41.25382],[-83.61201,41.26098],[-83.5929,41.26095]]]}},{"type":"Feature","properties":{"zcta":"43463","d":0},"geometry":{"type":"Polygon","coordinates":[[[-83.51087,41.51469],[-83.49627,41.51474],[-83.50192,41.50759],[-83.50434,41.50869],[-83.50681,41.50852],[-83.50638,41.5061],[-83.50856,41.5062],[-83.50851,41.50756],[-83.5119,41.50917],[-83.5109,41.5115],[-83.51087,41.51469]]]}},{"type":"Feature","properties":{"zcta":"43511","d":9},"geometry":{"type":"Polygon","coordinates":[[[-83.86848,41.3352],[-83.86391,41.33559],[-83.86383,41.3286],[-83.82459,41.32824],[-83.82465,41.31365],[-83.80527,41.3138],[-83.80535,41.2992],[-83.78598,41.29924],[-83.78569,41.27006],[-83.76619,41.27017],[-83.76601,41.25557],[-83.76566,41.22649],[-83.7463,41.22642],[-83.74587,41.2037],[-83.74432,41.20408],[-83.74214,41.20665],[-83.74006,41.20722],[-83.74132,41.20454],[-83.73896,41.2023],[-83.73835,41.19995],[-83.73956,41.19744],[-83.75652,41.19735],[-83.76143,41.19302],[-83.76104,41.19213],[-83.76524,41.18952],[-83.76837,41.18907],[-83.77139,41.18286],[-83.77932,41.18279],[-83.77947,41.18652],[-83.77474,41.18652],[-83.77477,41.19377],[-83.77954,41.1937],[-83.7796,41.19723],[-83.7893,41.19708],[-83.78931,41.19362],[-83.79413,41.19303],[-83.81322,41.19494],[-83.81334,41.20459],[-83.82282,41.20455],[-83.82312,41.22629],[-83.83882,41.22636],[-83.83234,41.23213],[-83.83276,41.23853],[-83.84073,41.23528],[-83.84249,41.2351],[-83.84248,41.24089],[-83.86204,41.24085],[-83.86232,41.2552],[-83.88226,41.2551],[-83.8825,41.26961],[-83.89418,41.26955],[-83.88924,41.27383],[-83.88995,41.27475],[-83.88762,41.2783],[-83.88659,41.27808],[-83.88534,41.28074],[-83.88633,41.28418],[-83.89069,41.28416],[-83.891,41.28315],[-83.89742,41.27932],[-83.89919,41.28007],[-83.90191,41.27742],[-83.90239,41.31326],[-83.89731,41.31327],[-83.89525,41.31691],[-83.89381,41.31774],[-83.88773,41.31776],[-83.88764,41.32788],[-83.88338,41.32816],[-83.88341,41.33529],[-83.86848,41.3352]],[[-83.83439,41.29516],[-83.82465,41.29525],[-83.8247,41.30761],[-83.82572,41.30629],[-83.83437,41.30619],[-83.83439,41.29516]]]}},{"type":"Feature","properties":{"zcta":"43614","d":1650},"geometry":{"type":"Polygon","coordinates":[[[-83.67135,41.61028],[-83.66947,41.61282],[-83.66768,41.61205],[-83.66637,41.6133],[-83.66462,41.61119],[-83.66192,41.61074],[-83.65968,41.61204],[-83.65781,41.61517],[-83.65547,41.6134],[-83.65224,41.61266],[-83.65013,41.61371],[-83.6495,41.61261],[-83.64724,41.6146],[-83.64195,41.61407],[-83.64069,41.61567],[-83.64258,41.61665],[-83.64129,41.61934],[-83.63272,41.61573],[-83.63253,41.6179],[-83.63078,41.6197],[-83.62827,41.61951],[-83.62754,41.62024],[-83.62367,41.6188],[-83.6227,41.62063],[-83.61946,41.62155],[-83.61403,41.62132],[-83.61038,41.62184],[-83.60747,41.6231],[-83.59688,41.62324],[-83.59839,41.62079],[-83.59623,41.62198],[-83.59376,41.62151],[-83.59186,41.61692],[-83.58697,41.61977],[-83.58699,41.61702],[-83.58215,41.62028],[-83.58227,41.61547],[-83.58628,41.61234],[-83.57605,41.61263],[-83.57833,41.61095],[-83.58203,41.60505],[-83.58453,41.60435],[-83.58803,41.60095],[-83.59093,41.59455],[-83.59313,41.59315],[-83.59443,41.58905],[-83.60073,41.58625],[-83.60641,41.58027],[-83.60966,41.58265],[-83.62011,41.58572],[-83.64119,41.59081],[-83.65642,41.59134],[-83.66466,41.59243],[-83.66797,41.59249],[-83.67052,41.59358],[-83.67108,41.59234],[-83.68202,41.59231],[-83.68574,41.59588],[-83.68419,41.5978],[-83.68414,41.59976],[-83.68554,41.60344],[-83.68285,41.60456],[-83.67747,41.60305],[-83.67743,41.60561],[-83.67448,41.6056],[-83.67415,41.6102],[-83.67135,41.61028]]]}},{"type":"Feature","properties":{"zcta":"43617","d":709},"geometry":{"type":"Polygon","coordinates":[[[-83.74807,41.65917],[-83.74803,41.66032],[-83.7449,41.66031],[-83.74504,41.66778],[-83.74674,41.66955],[-83.74423,41.66955],[-83.74284,41.67361],[-83.74128,41.67467],[-83.73731,41.67469],[-83.73613,41.67737],[-83.72813,41.67748],[-83.72801,41.68493],[-83.72305,41.68498],[-83.72292,41.68097],[-83.70328,41.68244],[-83.70339,41.68714],[-83.7059,41.68812],[-83.70229,41.69017],[-83.70212,41.6825],[-83.69542,41.68297],[-83.68329,41.68362],[-83.6831,41.68117],[-83.69306,41.6806],[-83.69324,41.6826],[-83.69723,41.68231],[-83.69635,41.67559],[-83.7031,41.67526],[-83.70215,41.6604],[-83.72219,41.65944],[-83.72222,41.65381],[-83.72311,41.6538],[-83.72299,41.64653],[-83.73138,41.64648],[-83.73136,41.64564],[-83.7357,41.64564],[-83.73566,41.64283],[-83.74049,41.6428],[-83.74056,41.64583],[-83.74238,41.64642],[-83.75191,41.64625],[-83.75875,41.64449],[-83.76179,41.64435],[-83.76195,41.6516],[-83.76028,41.6535],[-83.76054,41.659],[-83.74807,41.65917]]]}},{"type":"Feature","properties":{"zcta":"43443","d":81},"geometry":{"type":"Polygon","coordinates":[[[-83.52913,41.47773],[-83.52897,41.47894],[-83.51182,41.47892],[-83.51188,41.48728],[-83.50459,41.48832],[-83.49645,41.49061],[-83.49323,41.48493],[-83.4906,41.47543],[-83.45386,41.4754],[-83.45383,41.48756],[-83.44493,41.484],[-83.4448,41.46904],[-83.44196,41.4686],[-83.44044,41.46981],[-83.43733,41.46863],[-83.43506,41.47128],[-83.42645,41.47226],[-83.42323,41.47301],[-83.42224,41.4747],[-83.41502,41.47172],[-83.4152,41.44942],[-83.41732,41.44597],[-83.42134,41.44261],[-83.44468,41.44264],[-83.44463,41.44995],[-83.45383,41.44995],[-83.45374,41.45359],[-83.4635,41.45351],[-83.45742,41.42785],[-83.47316,41.42776],[-83.47315,41.44245],[-83.49238,41.44231],[-83.49242,41.45701],[-83.50173,41.45698],[-83.50163,41.44231],[-83.5116,41.44232],[-83.51174,41.45694],[-83.51517,41.45692],[-83.5122,41.45911],[-83.5118,41.47165],[-83.53195,41.47176],[-83.53189,41.47774],[-83.52913,41.47773]]]}},{"type":"Feature","properties":{"zcta":"43467","d":0},"geometry":{"type":"Polygon","coordinates":[[[-83.48697,41.24769],[-83.48694,41.23923],[-83.49029,41.23886],[-83.49357,41.24104],[-83.49376,41.24268],[-83.49622,41.24093],[-83.4963,41.24607],[-83.49234,41.24618],[-83.48697,41.24769]]]}},{"type":"Feature","properties":{"zcta":"43529","d":0},"geometry":{"type":"Polygon","coordinates":[[[-83.78907,41.18272],[-83.78903,41.18638],[-83.79385,41.18638],[-83.79413,41.19303],[-83.78931,41.19362],[-83.7893,41.19708],[-83.7796,41.19723],[-83.77954,41.1937],[-83.77477,41.19377],[-83.77474,41.18652],[-83.77947,41.18652],[-83.77932,41.18279],[-83.78907,41.18272]]]}},{"type":"Feature","properties":{"zcta":"43608","d":1337},"geometry":{"type":"Polygon","coordinates":[[[-83.55172,41.68691],[-83.55035,41.68496],[-83.54746,41.68612],[-83.54463,41.68868],[-83.53802,41.68921],[-83.53804,41.69115],[-83.53534,41.69347],[-83.51146,41.69359],[-83.50881,41.68748],[-83.51136,41.68294],[-83.5079,41.68144],[-83.50773,41.67916],[-83.51576,41.67914],[-83.51542,41.6754],[-83.5163,41.67409],[-83.5237,41.66829],[-83.53484,41.66036],[-83.53537,41.66098],[-83.53819,41.66429],[-83.5418,41.66421],[-83.5392,41.66552],[-83.54028,41.6668],[-83.54437,41.66658],[-83.54452,41.67109],[-83.5441,41.67132],[-83.55655,41.68597],[-83.5557,41.68716],[-83.55172,41.68691]]]}},{"type":"Feature","properties":{"zcta":"43402","d":128},"geometry":{"type":"Polygon","coordinates":[[[-83.74577,41.46791],[-83.74026,41.47758],[-83.73642,41.482],[-83.73265,41.48468],[-83.72854,41.48595],[-83.72223,41.48664],[-83.71742,41.4886],[-83.71284,41.49249],[-83.71106,41.49244],[-83.71603,41.48722],[-83.71182,41.48508],[-83.68518,41.48488],[-83.67538,41.4852],[-83.67522,41.47369],[-83.64995,41.47306],[-83.64996,41.47479],[-83.64612,41.47491],[-83.64613,41.47789],[-83.62884,41.47786],[-83.60959,41.47801],[-83.60969,41.45879],[-83.609,41.45778],[-83.59506,41.48347],[-83.60212,41.48346],[-83.60214,41.48707],[-83.59735,41.48708],[-83.59737,41.48891],[-83.59496,41.48889],[-83.5942,41.49145],[-83.59254,41.49147],[-83.59208,41.48895],[-83.58767,41.48894],[-83.58771,41.48526],[-83.59013,41.48527],[-83.58999,41.4779],[-83.57412,41.47785],[-83.56911,41.47047],[-83.56411,41.47221],[-83.55746,41.47156],[-83.54545,41.4755],[-83.54323,41.4778],[-83.53189,41.47774],[-83.53195,41.47176],[-83.5118,41.47165],[-83.5122,41.45911],[-83.51517,41.45692],[-83.52074,41.45379],[-83.52896,41.44726],[-83.53233,41.44635],[-83.53244,41.44965],[-83.55533,41.45005],[-83.55023,41.44252],[-83.55171,41.44253],[-83.55181,41.42803],[-83.54042,41.42781],[-83.53642,41.42195],[-83.53952,41.42157],[-83.54702,41.41867],[-83.54727,41.41411],[-83.55205,41.41405],[-83.55217,41.39214],[-83.54686,41.39491],[-83.54248,41.39628],[-83.54261,41.38525],[-83.53283,41.38525],[-83.53345,41.38362],[-83.54095,41.37941],[-83.54102,41.37768],[-83.56191,41.37766],[-83.56223,41.36214],[-83.54303,41.3619],[-83.54336,41.34858],[-83.54354,41.34461],[-83.5462,41.34127],[-83.55303,41.34137],[-83.55257,41.33839],[-83.55585,41.3358],[-83.56122,41.33569],[-83.56468,41.33322],[-83.56974,41.33331],[-83.57426,41.3321],[-83.58099,41.32821],[-83.58291,41.32585],[-83.59177,41.32581],[-83.59168,41.34153],[-83.61086,41.34159],[-83.6111,41.32572],[-83.62594,41.32564],[-83.62588,41.33773],[-83.62508,41.34172],[-83.62705,41.34175],[-83.62923,41.33776],[-83.63061,41.33909],[-83.64223,41.33948],[-83.6457,41.34093],[-83.64584,41.33475],[-83.64766,41.33597],[-83.65041,41.33595],[-83.65042,41.34215],[-83.68912,41.34277],[-83.68939,41.32714],[-83.70873,41.32733],[-83.70856,41.31274],[-83.70859,41.30539],[-83.72073,41.30561],[-83.72778,41.30519],[-83.72774,41.3093],[-83.72812,41.33503],[-83.70875,41.33463],[-83.70853,41.34302],[-83.72801,41.34321],[-83.72773,41.3467],[-83.72813,41.35767],[-83.73052,41.35753],[-83.747,41.35777],[-83.75311,41.36414],[-83.75183,41.36832],[-83.75187,41.37225],[-83.73746,41.37227],[-83.73829,41.40135],[-83.75307,41.40129],[-83.75755,41.39564],[-83.75792,41.3969],[-83.75481,41.39924],[-83.75688,41.40102],[-83.76695,41.40105],[-83.7679,41.40141],[-83.78794,41.40127],[-83.78791,41.40375],[-83.78658,41.40375],[-83.78645,41.43029],[-83.80586,41.43035],[-83.80584,41.43398],[-83.79666,41.43984],[-83.78795,41.4445],[-83.78334,41.44483],[-83.78126,41.44562],[-83.77792,41.44949],[-83.77797,41.45398],[-83.77879,41.45626],[-83.77852,41.4595],[-83.7765,41.46158],[-83.77391,41.46199],[-83.7656,41.46103],[-83.76175,41.46019],[-83.75616,41.46115],[-83.74761,41.46492],[-83.74814,41.46585],[-83.74577,41.46791]],[[-83.73771,41.41584],[-83.73777,41.42505],[-83.74272,41.42496],[-83.74257,41.41581],[-83.73771,41.41584]],[[-83.70885,41.45931],[-83.69404,41.45917],[-83.69401,41.46666],[-83.69285,41.4667],[-83.69285,41.4737],[-83.70891,41.4739],[-83.70885,41.45931]],[[-83.64321,41.37473],[-83.62945,41.37453],[-83.62965,41.38005],[-83.63212,41.38088],[-83.64112,41.38084],[-83.64121,41.38265],[-83.64305,41.38267],[-83.64321,41.37473]],[[-83.62161,41.44343],[-83.61682,41.44336],[-83.60971,41.45647],[-83.6097,41.45778],[-83.62204,41.45799],[-83.62208,41.44767],[-83.62161,41.44343]]]}},{"type":"Feature","properties":{"zcta":"43537","d":839},"geometry":{"type":"Polygon","coordinates":[[[-83.74713,41.603],[-83.74714,41.60119],[-83.74232,41.60119],[-83.74233,41.59837],[-83.7399,41.59836],[-83.73992,41.59703],[-83.73749,41.59701],[-83.73724,41.594],[-83.73262,41.59287],[-83.73034,41.59385],[-83.73079,41.59159],[-83.72508,41.59201],[-83.71333,41.59209],[-83.71332,41.59944],[-83.71123,41.60016],[-83.71183,41.60294],[-83.70943,41.60294],[-83.70948,41.60106],[-83.69869,41.60112],[-83.69593,41.6041],[-83.6915,41.60057],[-83.6916,41.613],[-83.6842,41.61371],[-83.67907,41.61474],[-83.67626,41.60999],[-83.67415,41.6102],[-83.67448,41.6056],[-83.67743,41.60561],[-83.67747,41.60305],[-83.68285,41.60456],[-83.68554,41.60344],[-83.68414,41.59976],[-83.68419,41.5978],[-83.68574,41.59588],[-83.68202,41.59231],[-83.67108,41.59234],[-83.67052,41.59358],[-83.66797,41.59249],[-83.66466,41.59243],[-83.65642,41.59134],[-83.64119,41.59081],[-83.62011,41.58572],[-83.60966,41.58265],[-83.60641,41.58027],[-83.60843,41.57795],[-83.60953,41.57325],[-83.61273,41.57075],[-83.61873,41.56975],[-83.62563,41.57005],[-83.63133,41.56275],[-83.63613,41.56025],[-83.64343,41.56115],[-83.64834,41.55885],[-83.65203,41.55565],[-83.65983,41.55345],[-83.66563,41.54925],[-83.68008,41.54686],[-83.69414,41.53855],[-83.69639,41.5367],[-83.69818,41.5408],[-83.69935,41.54003],[-83.70614,41.53808],[-83.70928,41.53663],[-83.71191,41.53691],[-83.71623,41.54057],[-83.71618,41.54402],[-83.71826,41.54405],[-83.71818,41.54819],[-83.72091,41.54704],[-83.72295,41.54875],[-83.723,41.55147],[-83.72458,41.55147],[-83.72539,41.55366],[-83.72414,41.55665],[-83.7245,41.56184],[-83.72536,41.56492],[-83.72839,41.56625],[-83.73264,41.5667],[-83.7326,41.5713],[-83.73749,41.57131],[-83.73747,41.58831],[-83.75829,41.58832],[-83.75497,41.59106],[-83.75232,41.59019],[-83.74659,41.59109],[-83.76138,41.59272],[-83.7614,41.59647],[-83.7591,41.59654],[-83.75906,41.60019],[-83.75695,41.60149],[-83.75065,41.60305],[-83.74713,41.603]]]}},{"type":"Feature","properties":{"zcta":"43547","d":0},"geometry":{"type":"Polygon","coordinates":[[[-83.88045,41.49761],[-83.87762,41.49609],[-83.86683,41.49528],[-83.86573,41.49574],[-83.86518,41.49522],[-83.87036,41.49366],[-83.86817,41.48988],[-83.87095,41.48889],[-83.87021,41.48774],[-83.87467,41.48767],[-83.88294,41.48754],[-83.88293,41.49759],[-83.88045,41.49761]]]}},{"type":"Feature","properties":{"zcta":"43515","d":49},"geometry":{"type":"Polygon","coordinates":[[[-84.07251,41.65386],[-84.06919,41.6548],[-84.06923,41.65587],[-84.05479,41.65606],[-84.05581,41.68508],[-84.01692,41.6856],[-83.99771,41.68524],[-83.99696,41.66532],[-83.98992,41.66546],[-83.98622,41.66604],[-83.98344,41.66727],[-83.98385,41.67036],[-83.98294,41.67115],[-83.95132,41.67149],[-83.95092,41.65719],[-83.95183,41.65718],[-83.95059,41.64987],[-83.94336,41.64979],[-83.94303,41.64276],[-83.93575,41.64282],[-83.93545,41.63349],[-83.93621,41.6343],[-83.94048,41.63443],[-83.94052,41.63531],[-83.94527,41.63531],[-83.9451,41.62813],[-83.94688,41.62811],[-83.94687,41.62075],[-83.93997,41.62086],[-83.93999,41.6191],[-83.935,41.61923],[-83.93494,41.61748],[-83.94056,41.61748],[-83.94078,41.56133],[-83.94622,41.56261],[-83.95074,41.56313],[-83.96022,41.56306],[-83.96024,41.55729],[-83.95506,41.55748],[-83.94994,41.55537],[-83.94635,41.55057],[-83.94077,41.54992],[-83.94092,41.5303],[-83.94454,41.53029],[-83.94507,41.52303],[-83.95063,41.52302],[-83.95066,41.51569],[-83.95112,41.51352],[-83.956,41.51353],[-83.95597,41.50898],[-83.95278,41.50897],[-83.95364,41.50634],[-83.94992,41.50349],[-83.95058,41.501],[-83.94889,41.49419],[-83.94757,41.49238],[-83.9498,41.49077],[-83.95835,41.4908],[-83.96085,41.48712],[-83.97035,41.48704],[-83.97211,41.49],[-83.97519,41.48997],[-83.97515,41.487],[-84.0136,41.48661],[-84.01361,41.49393],[-84.03289,41.49407],[-84.03289,41.48682],[-84.03782,41.48682],[-84.03771,41.50139],[-84.05687,41.50059],[-84.05694,41.55568],[-84.07627,41.55556],[-84.07626,41.5878],[-84.10051,41.58793],[-84.10053,41.59156],[-84.09591,41.59153],[-84.09466,41.59388],[-84.09225,41.59379],[-84.08905,41.596],[-84.08842,41.59878],[-84.08623,41.59886],[-84.08591,41.60283],[-84.08594,41.61737],[-84.06657,41.61745],[-84.06801,41.61963],[-84.0675,41.62089],[-84.07044,41.62254],[-84.07641,41.62086],[-84.07592,41.62357],[-84.07803,41.62438],[-84.07812,41.62657],[-84.07329,41.62663],[-84.07335,41.62904],[-84.06851,41.62983],[-84.06885,41.64129],[-84.06398,41.64137],[-84.06409,41.64608],[-84.07051,41.64499],[-84.0732,41.64592],[-84.07395,41.65216],[-84.07251,41.65386]]]}},{"type":"Feature","properties":{"zcta":"43560","d":831},"geometry":{"type":"Polygon","coordinates":[[[-83.65017,41.72106],[-83.6535,41.72204],[-83.65352,41.72017],[-83.65598,41.71909],[-83.66093,41.71847],[-83.66254,41.71755],[-83.66234,41.71279],[-83.66056,41.70962],[-83.65563,41.70954],[-83.65549,41.70554],[-83.6604,41.70557],[-83.66048,41.70747],[-83.66539,41.70748],[-83.66698,41.70561],[-83.67247,41.70629],[-83.67476,41.70557],[-83.67723,41.70921],[-83.67974,41.70907],[-83.67972,41.70059],[-83.68059,41.70119],[-83.68497,41.70084],[-83.6852,41.6993],[-83.69167,41.69902],[-83.69359,41.70126],[-83.69591,41.69674],[-83.69658,41.68638],[-83.69568,41.68367],[-83.69542,41.68297],[-83.70212,41.6825],[-83.70229,41.69017],[-83.7059,41.68812],[-83.70339,41.68714],[-83.70328,41.68244],[-83.72292,41.68097],[-83.72305,41.68498],[-83.72801,41.68493],[-83.72813,41.67748],[-83.73613,41.67737],[-83.73731,41.67469],[-83.74128,41.67467],[-83.74284,41.67361],[-83.74423,41.66955],[-83.74674,41.66955],[-83.74504,41.66778],[-83.7449,41.66031],[-83.74803,41.66032],[-83.74807,41.65917],[-83.76054,41.659],[-83.76155,41.66041],[-83.7649,41.66037],[-83.76495,41.66167],[-83.76787,41.66174],[-83.76917,41.6628],[-83.76994,41.67266],[-83.77222,41.67182],[-83.7756,41.67206],[-83.78026,41.67086],[-83.78286,41.67117],[-83.79017,41.6698],[-83.79114,41.66855],[-83.79494,41.66866],[-83.79505,41.67329],[-83.80013,41.67327],[-83.80062,41.68699],[-83.78585,41.68717],[-83.78514,41.67338],[-83.78035,41.67344],[-83.78093,41.69455],[-83.78602,41.69473],[-83.78611,41.70063],[-83.79115,41.70055],[-83.79109,41.69456],[-83.80092,41.69449],[-83.80118,41.70188],[-83.80543,41.70186],[-83.8022,41.70487],[-83.79657,41.70889],[-83.79124,41.70894],[-83.79115,41.71249],[-83.79353,41.71431],[-83.7959,41.71776],[-83.80191,41.71753],[-83.80198,41.71925],[-83.80615,41.72252],[-83.76304,41.72355],[-83.70894,41.72515],[-83.68534,41.72645],[-83.64956,41.72745],[-83.65017,41.72106]]]}},{"type":"Feature","properties":{"zcta":"43569","d":36},"geometry":{"type":"Polygon","coordinates":[[[-83.88292,41.34438],[-83.87953,41.3431],[-83.87677,41.34324],[-83.87601,41.34445],[-83.87257,41.34342],[-83.87154,41.34399],[-83.87127,41.34735],[-83.86914,41.34555],[-83.86741,41.35125],[-83.86401,41.3545],[-83.86358,41.35722],[-83.85868,41.35726],[-83.85891,41.37182],[-83.84205,41.37197],[-83.84193,41.36471],[-83.82618,41.36474],[-83.82501,41.36647],[-83.82516,41.38636],[-83.80575,41.38664],[-83.8059,41.40115],[-83.78794,41.40127],[-83.7679,41.40141],[-83.76695,41.40105],[-83.75688,41.40102],[-83.75481,41.39924],[-83.75792,41.3969],[-83.75755,41.39564],[-83.75307,41.40129],[-83.73829,41.40135],[-83.73746,41.37227],[-83.75187,41.37225],[-83.75183,41.36832],[-83.75311,41.36414],[-83.747,41.35777],[-83.73052,41.35753],[-83.72813,41.35767],[-83.72773,41.3467],[-83.72801,41.34321],[-83.70853,41.34302],[-83.70875,41.33463],[-83.72812,41.33503],[-83.72774,41.3093],[-83.73316,41.30884],[-83.74242,41.30884],[-83.74723,41.30762],[-83.74717,41.29889],[-83.7665,41.29933],[-83.76653,41.31398],[-83.80527,41.3138],[-83.82465,41.31365],[-83.82459,41.32824],[-83.86383,41.3286],[-83.86391,41.33559],[-83.86848,41.3352],[-83.88341,41.33529],[-83.88353,41.34351],[-83.88292,41.34438]]]}},{"type":"Feature","properties":{"zcta":"44817","d":20},"geometry":{"type":"Polygon","coordinates":[[[-83.59231,41.21091],[-83.5923,41.21852],[-83.59162,41.21377],[-83.58948,41.21083],[-83.57326,41.21041],[-83.5732,41.23928],[-83.56364,41.23916],[-83.56371,41.25148],[-83.55796,41.25222],[-83.55433,41.25186],[-83.55436,41.25333],[-83.52594,41.25339],[-83.52552,41.26746],[-83.5252,41.26805],[-83.51596,41.26805],[-83.51599,41.2534],[-83.49993,41.25318],[-83.4965,41.25371],[-83.49234,41.24618],[-83.4963,41.24607],[-83.49622,41.24093],[-83.50905,41.2317],[-83.5099,41.23141],[-83.52711,41.2306],[-83.52472,41.22925],[-83.52112,41.22932],[-83.51939,41.22769],[-83.52115,41.2253],[-83.5187,41.22168],[-83.51676,41.22216],[-83.51525,41.21928],[-83.51346,41.21791],[-83.51473,41.21585],[-83.51268,41.21274],[-83.5154,41.20948],[-83.49711,41.20967],[-83.49723,41.20388],[-83.49577,41.20249],[-83.50682,41.1981],[-83.50706,41.18789],[-83.49748,41.188],[-83.49763,41.17644],[-83.50248,41.17608],[-83.50285,41.16577],[-83.50269,41.16101],[-83.50693,41.16031],[-83.507,41.15496],[-83.50761,41.156],[-83.51324,41.15591],[-83.51498,41.15719],[-83.51673,41.15635],[-83.51789,41.15827],[-83.53511,41.1544],[-83.53514,41.14284],[-83.53672,41.14288],[-83.54501,41.14032],[-83.55485,41.13773],[-83.57333,41.13789],[-83.57334,41.13909],[-83.56889,41.14482],[-83.56876,41.15952],[-83.57347,41.15965],[-83.57351,41.16707],[-83.59272,41.16719],[-83.59263,41.17279],[-83.6118,41.17474],[-83.61168,41.18366],[-83.60203,41.18407],[-83.60211,41.20372],[-83.61156,41.20371],[-83.61153,41.21119],[-83.59231,41.21091]]]}},{"type":"Feature","properties":{"zcta":"43504","d":37},"geometry":{"type":"Polygon","coordinates":[[[-83.88054,41.72008],[-83.85954,41.72125],[-83.80615,41.72252],[-83.80198,41.71925],[-83.80191,41.71753],[-83.7959,41.71776],[-83.79353,41.71431],[-83.79115,41.71249],[-83.79124,41.70894],[-83.79657,41.70889],[-83.8022,41.70487],[-83.80543,41.70186],[-83.80118,41.70188],[-83.80092,41.69449],[-83.79109,41.69456],[-83.79115,41.70055],[-83.78611,41.70063],[-83.78602,41.69473],[-83.78093,41.69455],[-83.78035,41.67344],[-83.78514,41.67338],[-83.78585,41.68717],[-83.80062,41.68699],[-83.80013,41.67327],[-83.81902,41.67308],[-83.83813,41.67227],[-83.83803,41.66916],[-83.84923,41.66515],[-83.85685,41.66114],[-83.85722,41.67207],[-83.85863,41.67206],[-83.85872,41.67535],[-83.86206,41.67535],[-83.86229,41.67947],[-83.86702,41.67937],[-83.86712,41.68294],[-83.87635,41.68277],[-83.87835,41.68404],[-83.87933,41.68629],[-83.88019,41.7129],[-83.88661,41.71423],[-83.89261,41.71336],[-83.89729,41.71378],[-83.89947,41.71321],[-83.89957,41.71996],[-83.88054,41.72008]]]}},{"type":"Feature","properties":{"zcta":"43460","d":1198},"geometry":{"type":"Polygon","coordinates":[[[-83.56993,41.61715],[-83.56391,41.61769],[-83.54288,41.61791],[-83.54294,41.61435],[-83.54292,41.60889],[-83.54761,41.6086],[-83.55649,41.60105],[-83.54877,41.60096],[-83.55443,41.59414],[-83.55626,41.59205],[-83.55631,41.58661],[-83.56188,41.58689],[-83.56504,41.584],[-83.56502,41.58534],[-83.56744,41.58535],[-83.56744,41.58689],[-83.56996,41.58868],[-83.57481,41.58866],[-83.57478,41.58688],[-83.57724,41.5869],[-83.57565,41.58864],[-83.57724,41.59127],[-83.57191,41.59541],[-83.57451,41.59625],[-83.57003,41.59965],[-83.57421,41.59982],[-83.57463,41.60105],[-83.58173,41.60135],[-83.58803,41.60095],[-83.58453,41.60435],[-83.58203,41.60505],[-83.57833,41.61095],[-83.57605,41.61263],[-83.56993,41.61715]]]}},{"type":"Feature","properties":{"zcta":"43465","d":268},"geometry":{"type":"Polygon","coordinates":[[[-83.47675,41.58798],[-83.47629,41.5832],[-83.47359,41.57893],[-83.48205,41.57473],[-83.48059,41.57327],[-83.49248,41.57319],[-83.48817,41.55853],[-83.49003,41.55855],[-83.48876,41.55633],[-83.48323,41.53415],[-83.48064,41.52942],[-83.49192,41.52936],[-83.49186,41.52595],[-83.49314,41.52495],[-83.49734,41.52439],[-83.49906,41.525],[-83.5023,41.52335],[-83.50904,41.52197],[-83.5097,41.52933],[-83.52863,41.52933],[-83.52862,41.53623],[-83.53171,41.53629],[-83.53157,41.53833],[-83.52857,41.54085],[-83.52863,41.54951],[-83.52971,41.55089],[-83.53326,41.55094],[-83.53356,41.55458],[-83.52924,41.55449],[-83.52913,41.55733],[-83.53027,41.55952],[-83.52838,41.55932],[-83.52773,41.56366],[-83.52768,41.56895],[-83.53046,41.56898],[-83.53042,41.57135],[-83.52769,41.57134],[-83.52793,41.59375],[-83.5292,41.5941],[-83.53848,41.59408],[-83.53815,41.59618],[-83.52796,41.5959],[-83.52805,41.60104],[-83.50903,41.60125],[-83.50454,41.59501],[-83.49976,41.59242],[-83.49983,41.59494],[-83.4981,41.59504],[-83.49967,41.60155],[-83.49353,41.60125],[-83.49213,41.60711],[-83.48858,41.60674],[-83.48063,41.60126],[-83.47688,41.60135],[-83.47687,41.59866],[-83.46576,41.59123],[-83.46923,41.58985],[-83.4738,41.58927],[-83.47376,41.58798],[-83.47675,41.58798]]]}},{"type":"Feature","properties":{"zcta":"43466","d":38},"geometry":{"type":"Polygon","coordinates":[[[-83.52342,41.32593],[-83.52286,41.34085],[-83.50822,41.34057],[-83.50818,41.34873],[-83.50262,41.34865],[-83.50295,41.34531],[-83.49962,41.34729],[-83.50159,41.34805],[-83.50201,41.35013],[-83.49993,41.35148],[-83.50369,41.35407],[-83.50149,41.35551],[-83.49819,41.35511],[-83.49913,41.35137],[-83.4994,41.3459],[-83.50121,41.34263],[-83.5011,41.34061],[-83.47546,41.34084],[-83.47495,41.34084],[-83.47513,41.33347],[-83.47732,41.3309],[-83.47775,41.32619],[-83.47536,41.3262],[-83.47543,41.32259],[-83.46573,41.32266],[-83.46607,41.31242],[-83.45842,41.31189],[-83.44759,41.31197],[-83.44744,41.30436],[-83.44784,41.29737],[-83.45697,41.29727],[-83.45708,41.29447],[-83.45917,41.2957],[-83.46578,41.29729],[-83.47111,41.2972],[-83.47481,41.29626],[-83.47628,41.29381],[-83.47642,41.29013],[-83.474,41.29012],[-83.47412,41.2865],[-83.46453,41.28654],[-83.46357,41.28291],[-83.45736,41.28292],[-83.45745,41.28009],[-83.46696,41.28008],[-83.46715,41.26819],[-83.46759,41.25906],[-83.47217,41.25905],[-83.47214,41.25363],[-83.4965,41.25371],[-83.49993,41.25318],[-83.51599,41.2534],[-83.51596,41.26805],[-83.5252,41.26805],[-83.52552,41.26746],[-83.52594,41.25339],[-83.55436,41.25333],[-83.55433,41.25186],[-83.55796,41.25222],[-83.56371,41.25148],[-83.57314,41.2521],[-83.57376,41.25345],[-83.57362,41.28223],[-83.59284,41.28226],[-83.59255,41.28943],[-83.57346,41.28948],[-83.57323,41.29674],[-83.56369,41.29684],[-83.56338,41.31136],[-83.55361,41.31147],[-83.55404,41.29694],[-83.54433,41.29701],[-83.54389,41.31152],[-83.53426,41.31155],[-83.53409,41.32612],[-83.52342,41.32593]]]}},{"type":"Feature","properties":{"zcta":"43451","d":22},"geometry":{"type":"Polygon","coordinates":[[[-83.53377,41.34893],[-83.53409,41.32612],[-83.53426,41.31155],[-83.54389,41.31152],[-83.54433,41.29701],[-83.55404,41.29694],[-83.55361,41.31147],[-83.56338,41.31136],[-83.56369,41.29684],[-83.57323,41.29674],[-83.57346,41.28948],[-83.59255,41.28943],[-83.59284,41.28226],[-83.63909,41.28267],[-83.65023,41.28295],[-83.64978,41.28559],[-83.64821,41.28606],[-83.64894,41.29754],[-83.65055,41.29754],[-83.65055,41.30472],[-83.65453,41.3026],[-83.65529,41.30132],[-83.66964,41.30117],[-83.66972,41.30818],[-83.66869,41.31195],[-83.67666,41.30933],[-83.682,41.30967],[-83.6894,41.31157],[-83.68938,41.3125],[-83.70856,41.31274],[-83.70873,41.32733],[-83.68939,41.32714],[-83.68912,41.34277],[-83.65042,41.34215],[-83.65041,41.33595],[-83.64766,41.33597],[-83.64584,41.33475],[-83.6457,41.34093],[-83.64223,41.33948],[-83.63061,41.33909],[-83.62923,41.33776],[-83.62705,41.34175],[-83.62508,41.34172],[-83.62588,41.33773],[-83.62594,41.32564],[-83.6111,41.32572],[-83.61086,41.34159],[-83.59168,41.34153],[-83.59177,41.32581],[-83.58291,41.32585],[-83.58099,41.32821],[-83.57426,41.3321],[-83.56974,41.33331],[-83.56468,41.33322],[-83.56122,41.33569],[-83.55585,41.3358],[-83.55257,41.33839],[-83.55303,41.34137],[-83.5462,41.34127],[-83.54354,41.34461],[-83.54336,41.34858],[-83.53377,41.34893]]]}},{"type":"Feature","properties":{"zcta":"43522","d":54},"geometry":{"type":"Polygon","coordinates":[[[-83.87021,41.48774],[-83.87095,41.48889],[-83.86817,41.48988],[-83.87036,41.49366],[-83.86518,41.49522],[-83.8555,41.49519],[-83.85515,41.48067],[-83.84544,41.48077],[-83.84511,41.46624],[-83.84324,41.46626],[-83.84232,41.46975],[-83.83983,41.47328],[-83.83091,41.47363],[-83.83142,41.4732],[-83.83094,41.46635],[-83.83082,41.45908],[-83.82577,41.45911],[-83.82568,41.45582],[-83.79654,41.45593],[-83.79643,41.45362],[-83.79241,41.45066],[-83.78654,41.4543],[-83.78064,41.45015],[-83.77916,41.45276],[-83.77994,41.4596],[-83.77848,41.46198],[-83.77328,41.46362],[-83.76494,41.46225],[-83.75862,41.46204],[-83.75453,41.46282],[-83.74814,41.46585],[-83.74761,41.46492],[-83.75616,41.46115],[-83.76175,41.46019],[-83.7656,41.46103],[-83.77391,41.46199],[-83.7765,41.46158],[-83.77852,41.4595],[-83.77879,41.45626],[-83.77797,41.45398],[-83.77792,41.44949],[-83.78126,41.44562],[-83.78334,41.44483],[-83.78795,41.4445],[-83.79666,41.43984],[-83.80584,41.43398],[-83.80586,41.43035],[-83.78645,41.43029],[-83.78658,41.40375],[-83.78791,41.40375],[-83.78794,41.40127],[-83.8059,41.40115],[-83.80575,41.38664],[-83.82516,41.38636],[-83.82501,41.36647],[-83.82618,41.36474],[-83.84193,41.36471],[-83.84205,41.37197],[-83.85891,41.37182],[-83.85868,41.35726],[-83.86358,41.35722],[-83.86401,41.3545],[-83.86741,41.35125],[-83.86914,41.34555],[-83.87127,41.34735],[-83.87154,41.34399],[-83.87257,41.34342],[-83.87601,41.34445],[-83.87677,41.34324],[-83.87953,41.3431],[-83.88292,41.34438],[-83.88353,41.34351],[-83.8835,41.35712],[-83.88307,41.42328],[-83.87589,41.42444],[-83.87356,41.42582],[-83.87412,41.42953],[-83.87744,41.43333],[-83.88297,41.43175],[-83.88295,41.45129],[-83.89267,41.45125],[-83.89264,41.45402],[-83.88748,41.45407],[-83.88749,41.45847],[-83.87402,41.45859],[-83.87429,41.47321],[-83.88287,41.47304],[-83.8829,41.47884],[-83.87443,41.4787],[-83.87467,41.48767],[-83.87021,41.48774]]]}},{"type":"Feature","properties":{"zcta":"43533","d":30},"geometry":{"type":"Polygon","coordinates":[[[-84.13442,41.71293],[-84.01937,41.71667],[-83.99869,41.71683],[-83.99822,41.69968],[-83.98805,41.69983],[-83.98953,41.6972],[-83.99526,41.69182],[-83.99792,41.69132],[-83.99771,41.68524],[-84.01692,41.6856],[-84.05581,41.68508],[-84.05479,41.65606],[-84.06923,41.65587],[-84.06919,41.6548],[-84.07251,41.65386],[-84.07395,41.65216],[-84.08128,41.652],[-84.08382,41.6556],[-84.09348,41.65542],[-84.09411,41.66994],[-84.11817,41.66956],[-84.11861,41.68152],[-84.13014,41.68276],[-84.1385,41.68319],[-84.15528,41.68798],[-84.15791,41.68949],[-84.15815,41.69787],[-84.17272,41.69752],[-84.17313,41.71185],[-84.13442,41.71293]]]}},{"type":"Feature","properties":{"zcta":"43566","d":230},"geometry":{"type":"Polygon","coordinates":[[[-83.82594,41.46639],[-83.82603,41.47001],[-83.81942,41.47001],[-83.81939,41.46644],[-83.81512,41.46649],[-83.81272,41.4694],[-83.81438,41.47355],[-83.80679,41.4738],[-83.8069,41.47746],[-83.80203,41.47748],[-83.80235,41.48839],[-83.80723,41.48836],[-83.8056,41.49121],[-83.80168,41.49181],[-83.79948,41.49374],[-83.79952,41.49569],[-83.79756,41.4957],[-83.79407,41.49995],[-83.78788,41.50156],[-83.78615,41.49919],[-83.7849,41.49579],[-83.77917,41.49584],[-83.7793,41.49936],[-83.77813,41.49934],[-83.77841,41.50292],[-83.7743,41.50286],[-83.77434,41.50634],[-83.77759,41.50992],[-83.7775,41.51479],[-83.77809,41.51658],[-83.76873,41.51698],[-83.76654,41.51794],[-83.76655,41.52214],[-83.76123,41.52215],[-83.76124,41.52948],[-83.75262,41.52941],[-83.75234,41.52216],[-83.74818,41.52196],[-83.74775,41.52937],[-83.73295,41.52939],[-83.73299,41.53679],[-83.73005,41.5368],[-83.73071,41.53889],[-83.72674,41.54505],[-83.72091,41.54704],[-83.71818,41.54819],[-83.71826,41.54405],[-83.71618,41.54402],[-83.71623,41.54057],[-83.71191,41.53691],[-83.70928,41.53663],[-83.70614,41.53808],[-83.69935,41.54003],[-83.69818,41.5408],[-83.69639,41.5367],[-83.69974,41.53395],[-83.70325,41.52906],[-83.70918,41.52312],[-83.70964,41.52185],[-83.71097,41.51092],[-83.71123,41.50629],[-83.7134,41.50223],[-83.71363,41.50019],[-83.71153,41.49555],[-83.71284,41.49249],[-83.71742,41.4886],[-83.72223,41.48664],[-83.72854,41.48595],[-83.73265,41.48468],[-83.73642,41.482],[-83.74026,41.47758],[-83.74577,41.46791],[-83.74814,41.46585],[-83.75453,41.46282],[-83.75862,41.46204],[-83.76494,41.46225],[-83.77328,41.46362],[-83.77848,41.46198],[-83.77994,41.4596],[-83.77916,41.45276],[-83.78064,41.45015],[-83.78654,41.4543],[-83.79241,41.45066],[-83.79643,41.45362],[-83.79654,41.45593],[-83.82568,41.45582],[-83.82577,41.45911],[-83.83082,41.45908],[-83.83094,41.46635],[-83.82594,41.46639]]]}},{"type":"Feature","properties":{"zcta":"43567","d":56},"geometry":{"type":"Polygon","coordinates":[[[-84.15815,41.69787],[-84.15791,41.68949],[-84.15528,41.68798],[-84.1385,41.68319],[-84.13014,41.68276],[-84.11861,41.68152],[-84.11817,41.66956],[-84.09411,41.66994],[-84.09348,41.65542],[-84.08382,41.6556],[-84.08128,41.652],[-84.07395,41.65216],[-84.0732,41.64592],[-84.07051,41.64499],[-84.06409,41.64608],[-84.06398,41.64137],[-84.06885,41.64129],[-84.06851,41.62983],[-84.07335,41.62904],[-84.07329,41.62663],[-84.07812,41.62657],[-84.07803,41.62438],[-84.07592,41.62357],[-84.07641,41.62086],[-84.07044,41.62254],[-84.0675,41.62089],[-84.06801,41.61963],[-84.06657,41.61745],[-84.08594,41.61737],[-84.08591,41.60283],[-84.08623,41.59886],[-84.08842,41.59878],[-84.08905,41.596],[-84.09225,41.59379],[-84.09466,41.59388],[-84.09591,41.59153],[-84.10053,41.59156],[-84.10051,41.58793],[-84.07626,41.5878],[-84.07627,41.55556],[-84.05694,41.55568],[-84.05687,41.50059],[-84.03771,41.50139],[-84.03782,41.48682],[-84.04742,41.48638],[-84.04787,41.48816],[-84.05434,41.49202],[-84.05685,41.49402],[-84.05693,41.48613],[-84.0765,41.48607],[-84.07643,41.47464],[-84.09567,41.47455],[-84.0957,41.48603],[-84.11486,41.48601],[-84.11486,41.4863],[-84.1252,41.48621],[-84.17277,41.48612],[-84.18763,41.48586],[-84.19202,41.48277],[-84.19212,41.47477],[-84.20107,41.47484],[-84.21153,41.47418],[-84.21153,41.48577],[-84.21724,41.48574],[-84.21727,41.48085],[-84.22356,41.48085],[-84.22356,41.48566],[-84.22891,41.48558],[-84.22932,41.52893],[-84.22393,41.52896],[-84.2239,41.52994],[-84.22096,41.52898],[-84.21126,41.52908],[-84.21127,41.53206],[-84.22222,41.53203],[-84.22222,41.53389],[-84.23453,41.53254],[-84.23458,41.53616],[-84.23745,41.53668],[-84.23748,41.53798],[-84.24143,41.53799],[-84.2415,41.54066],[-84.24781,41.54064],[-84.24789,41.5434],[-84.24619,41.5434],[-84.24612,41.55198],[-84.2489,41.55198],[-84.24924,41.60339],[-84.24933,41.61679],[-84.24783,41.61705],[-84.23124,41.61698],[-84.23145,41.62384],[-84.22862,41.62477],[-84.22897,41.6358],[-84.22382,41.63697],[-84.22193,41.64143],[-84.21977,41.64398],[-84.21973,41.64905],[-84.21862,41.65176],[-84.21528,41.65666],[-84.21032,41.65684],[-84.2104,41.66781],[-84.18654,41.66819],[-84.1885,41.6772],[-84.18988,41.69142],[-84.18729,41.69001],[-84.18206,41.6891],[-84.18205,41.69009],[-84.17248,41.69125],[-84.17272,41.69752],[-84.15815,41.69787]]]}},{"type":"Feature","properties":{"zcta":"43571","d":185},"geometry":{"type":"Polygon","coordinates":[[[-83.80206,41.55207],[-83.80044,41.55014],[-83.78725,41.55026],[-83.78731,41.54591],[-83.78604,41.54592],[-83.78596,41.54025],[-83.78112,41.54048],[-83.78108,41.53871],[-83.77142,41.53882],[-83.77145,41.54126],[-83.76982,41.54155],[-83.76594,41.53994],[-83.76394,41.53988],[-83.76123,41.53819],[-83.75995,41.53958],[-83.7549,41.54018],[-83.75296,41.54106],[-83.75264,41.53673],[-83.74899,41.53671],[-83.75262,41.52941],[-83.76124,41.52948],[-83.76123,41.52215],[-83.76655,41.52214],[-83.76654,41.51794],[-83.76873,41.51698],[-83.77809,41.51658],[-83.7775,41.51479],[-83.77759,41.50992],[-83.77434,41.50634],[-83.7743,41.50286],[-83.77841,41.50292],[-83.77813,41.49934],[-83.7793,41.49936],[-83.77917,41.49584],[-83.7849,41.49579],[-83.78615,41.49919],[-83.78788,41.50156],[-83.79407,41.49995],[-83.79756,41.4957],[-83.79952,41.49569],[-83.79948,41.49374],[-83.80168,41.49181],[-83.8056,41.49121],[-83.80723,41.48836],[-83.80235,41.48839],[-83.80203,41.47748],[-83.8069,41.47746],[-83.80679,41.4738],[-83.81438,41.47355],[-83.81272,41.4694],[-83.81512,41.46649],[-83.81939,41.46644],[-83.81942,41.47001],[-83.82603,41.47001],[-83.82594,41.46639],[-83.83094,41.46635],[-83.83142,41.4732],[-83.83091,41.47363],[-83.83983,41.47328],[-83.84232,41.46975],[-83.84324,41.46626],[-83.84511,41.46624],[-83.84544,41.48077],[-83.85515,41.48067],[-83.8555,41.49519],[-83.86518,41.49522],[-83.86573,41.49574],[-83.86636,41.4993],[-83.86773,41.50107],[-83.86794,41.50597],[-83.87029,41.50593],[-83.87037,41.50957],[-83.86844,41.5096],[-83.86858,41.5142],[-83.86655,41.51597],[-83.85371,41.51601],[-83.85172,41.5167],[-83.85177,41.52798],[-83.85379,41.52798],[-83.85386,41.53658],[-83.85735,41.54087],[-83.85884,41.54547],[-83.86085,41.54912],[-83.85395,41.54914],[-83.85398,41.55626],[-83.84436,41.55635],[-83.84173,41.55706],[-83.84173,41.56012],[-83.8395,41.56013],[-83.83946,41.54921],[-83.82867,41.54928],[-83.82994,41.55215],[-83.82597,41.55121],[-83.82004,41.55193],[-83.81845,41.55301],[-83.80651,41.55303],[-83.80552,41.55234],[-83.80206,41.55207]]]}},{"type":"Feature","properties":{"zcta":"43604","d":1110},"geometry":{"type":"Polygon","coordinates":[[[-83.55488,41.65482],[-83.55492,41.65727],[-83.55727,41.65842],[-83.55706,41.66027],[-83.54533,41.6605],[-83.54538,41.66165],[-83.54206,41.66168],[-83.54202,41.66057],[-83.53537,41.66098],[-83.53484,41.66036],[-83.5237,41.66829],[-83.52204,41.66645],[-83.51767,41.6689],[-83.51501,41.66792],[-83.51382,41.66382],[-83.51106,41.65996],[-83.52254,41.65517],[-83.52755,41.65224],[-83.53233,41.64775],[-83.5334,41.64101],[-83.53193,41.63255],[-83.53539,41.63342],[-83.53896,41.63598],[-83.54275,41.63753],[-83.54527,41.63778],[-83.54877,41.64129],[-83.54921,41.64282],[-83.55204,41.64264],[-83.55561,41.64041],[-83.55893,41.64077],[-83.56258,41.64317],[-83.56265,41.65612],[-83.56128,41.65752],[-83.55488,41.65482]]]}},{"type":"Feature","properties":{"zcta":"43540","d":36},"geometry":{"type":"Polygon","coordinates":[[[-83.89957,41.71996],[-83.89947,41.71321],[-83.89729,41.71378],[-83.89261,41.71336],[-83.88661,41.71423],[-83.88019,41.7129],[-83.87933,41.68629],[-83.90347,41.68596],[-83.90327,41.67897],[-83.90799,41.67889],[-83.90788,41.67206],[-83.95132,41.67149],[-83.98294,41.67115],[-83.98385,41.67036],[-83.98344,41.66727],[-83.98622,41.66604],[-83.98992,41.66546],[-83.99696,41.66532],[-83.99771,41.68524],[-83.99792,41.69132],[-83.99526,41.69182],[-83.98953,41.6972],[-83.98805,41.69983],[-83.99822,41.69968],[-83.99869,41.71683],[-83.89957,41.71996]]]}},{"type":"Feature","properties":{"zcta":"43542","d":156},"geometry":{"type":"Polygon","coordinates":[[[-83.78637,41.60537],[-83.76145,41.60938],[-83.76142,41.60726],[-83.75791,41.60761],[-83.75459,41.6063],[-83.75061,41.60569],[-83.75065,41.60305],[-83.75695,41.60149],[-83.75906,41.60019],[-83.7591,41.59654],[-83.7614,41.59647],[-83.76138,41.59272],[-83.74659,41.59109],[-83.75232,41.59019],[-83.75497,41.59106],[-83.75829,41.58832],[-83.73747,41.58831],[-83.73749,41.57131],[-83.7326,41.5713],[-83.73264,41.5667],[-83.72839,41.56625],[-83.72536,41.56492],[-83.7245,41.56184],[-83.72414,41.55665],[-83.72539,41.55366],[-83.72458,41.55147],[-83.723,41.55147],[-83.72295,41.54875],[-83.72091,41.54704],[-83.72674,41.54505],[-83.73071,41.53889],[-83.73005,41.5368],[-83.73299,41.53679],[-83.73295,41.52939],[-83.74775,41.52937],[-83.74818,41.52196],[-83.75234,41.52216],[-83.75262,41.52941],[-83.74899,41.53671],[-83.75264,41.53673],[-83.75296,41.54106],[-83.7549,41.54018],[-83.75995,41.53958],[-83.76123,41.53819],[-83.76394,41.53988],[-83.76594,41.53994],[-83.76982,41.54155],[-83.77145,41.54126],[-83.77142,41.53882],[-83.78108,41.53871],[-83.78112,41.54048],[-83.78596,41.54025],[-83.78604,41.54592],[-83.78731,41.54591],[-83.78725,41.55026],[-83.80044,41.55014],[-83.80206,41.55207],[-83.80552,41.55234],[-83.80559,41.56043],[-83.82497,41.56021],[-83.82494,41.56735],[-83.80563,41.56735],[-83.80563,41.56526],[-83.796,41.56205],[-83.79594,41.56935],[-83.8001,41.56911],[-83.80023,41.56981],[-83.79594,41.57006],[-83.79595,41.57135],[-83.80069,41.5713],[-83.80082,41.57349],[-83.79835,41.57352],[-83.79684,41.57542],[-83.80086,41.57549],[-83.80569,41.57688],[-83.80591,41.58813],[-83.80348,41.5884],[-83.80055,41.58585],[-83.79765,41.58068],[-83.79424,41.58125],[-83.79199,41.57702],[-83.78638,41.57745],[-83.78638,41.60423],[-83.78637,41.60537]]]}},{"type":"Feature","properties":{"zcta":"43551","d":280},"geometry":{"type":"Polygon","coordinates":[[[-83.71153,41.49555],[-83.71363,41.50019],[-83.7134,41.50223],[-83.71123,41.50629],[-83.71097,41.51092],[-83.70964,41.52185],[-83.70918,41.52312],[-83.70325,41.52906],[-83.69974,41.53395],[-83.69639,41.5367],[-83.69414,41.53855],[-83.68008,41.54686],[-83.66563,41.54925],[-83.65983,41.55345],[-83.65203,41.55565],[-83.64834,41.55885],[-83.64343,41.56115],[-83.63613,41.56025],[-83.63133,41.56275],[-83.62563,41.57005],[-83.61873,41.56975],[-83.61273,41.57075],[-83.60953,41.57325],[-83.60843,41.57795],[-83.60641,41.58027],[-83.60073,41.58625],[-83.59443,41.58905],[-83.59313,41.59315],[-83.59093,41.59455],[-83.58803,41.60095],[-83.58173,41.60135],[-83.57463,41.60105],[-83.57421,41.59982],[-83.57003,41.59965],[-83.57451,41.59625],[-83.57191,41.59541],[-83.57724,41.59127],[-83.57565,41.58864],[-83.57724,41.5869],[-83.57478,41.58688],[-83.57481,41.58866],[-83.56996,41.58868],[-83.56744,41.58689],[-83.56744,41.58535],[-83.56502,41.58534],[-83.56504,41.584],[-83.56188,41.58689],[-83.55631,41.58661],[-83.55626,41.59205],[-83.55443,41.59414],[-83.53848,41.59408],[-83.5292,41.5941],[-83.52793,41.59375],[-83.52769,41.57134],[-83.53042,41.57135],[-83.53046,41.56898],[-83.52768,41.56895],[-83.52773,41.56366],[-83.52838,41.55932],[-83.53027,41.55952],[-83.52913,41.55733],[-83.52924,41.55449],[-83.53356,41.55458],[-83.53326,41.55094],[-83.52971,41.55089],[-83.52863,41.54951],[-83.52857,41.54085],[-83.53157,41.53833],[-83.53171,41.53629],[-83.52862,41.53623],[-83.52863,41.52933],[-83.5097,41.52933],[-83.50904,41.52197],[-83.5023,41.52335],[-83.49906,41.525],[-83.49734,41.52439],[-83.49314,41.52495],[-83.49186,41.52595],[-83.49192,41.52936],[-83.48064,41.52942],[-83.47259,41.52958],[-83.47959,41.53245],[-83.47508,41.53634],[-83.47275,41.54237],[-83.46771,41.54409],[-83.46761,41.5364],[-83.459,41.53643],[-83.45912,41.54411],[-83.45173,41.54411],[-83.43399,41.52625],[-83.43417,41.51583],[-83.43466,41.51431],[-83.43429,41.50575],[-83.43733,41.50497],[-83.43746,41.50313],[-83.44045,41.50309],[-83.44514,41.50147],[-83.44509,41.49406],[-83.43378,41.49395],[-83.41472,41.49326],[-83.41502,41.47172],[-83.42224,41.4747],[-83.42323,41.47301],[-83.42645,41.47226],[-83.43506,41.47128],[-83.43733,41.46863],[-83.44044,41.46981],[-83.44196,41.4686],[-83.4448,41.46904],[-83.44493,41.484],[-83.45383,41.48756],[-83.45386,41.4754],[-83.4906,41.47543],[-83.49323,41.48493],[-83.49645,41.49061],[-83.50459,41.48832],[-83.51188,41.48728],[-83.51182,41.47892],[-83.52897,41.47894],[-83.52913,41.47773],[-83.53189,41.47774],[-83.54323,41.4778],[-83.54545,41.4755],[-83.55746,41.47156],[-83.56411,41.47221],[-83.56911,41.47047],[-83.57412,41.47785],[-83.58999,41.4779],[-83.59013,41.48527],[-83.58771,41.48526],[-83.58767,41.48894],[-83.59208,41.48895],[-83.59254,41.49147],[-83.5942,41.49145],[-83.59496,41.48889],[-83.59737,41.48891],[-83.59735,41.48708],[-83.60214,41.48707],[-83.60212,41.48346],[-83.59506,41.48347],[-83.609,41.45778],[-83.60969,41.45879],[-83.60959,41.47801],[-83.62884,41.47786],[-83.64613,41.47789],[-83.64612,41.47491],[-83.64996,41.47479],[-83.64995,41.47306],[-83.67522,41.47369],[-83.67538,41.4852],[-83.68518,41.48488],[-83.71182,41.48508],[-83.71603,41.48722],[-83.71106,41.49244],[-83.71284,41.49249],[-83.71153,41.49555]],[[-83.5119,41.50917],[-83.50851,41.50756],[-83.50856,41.5062],[-83.50638,41.5061],[-83.50681,41.50852],[-83.50434,41.50869],[-83.50192,41.50759],[-83.49627,41.51474],[-83.51087,41.51469],[-83.5109,41.5115],[-83.5119,41.50917]]]}},{"type":"Feature","properties":{"zcta":"43615","d":1201},"geometry":{"type":"MultiPolygon","coordinates":[[[[-83.62595,41.63462],[-83.62542,41.63199],[-83.62593,41.63168],[-83.62595,41.63462]]],[[[-83.64459,41.69124],[-83.64453,41.69],[-83.64733,41.6882],[-83.647,41.69129],[-83.64459,41.69124]]],[[[-83.69568,41.68367],[-83.69561,41.68577],[-83.69401,41.68719],[-83.68159,41.68957],[-83.66436,41.68989],[-83.66164,41.68975],[-83.65452,41.68801],[-83.64445,41.68809],[-83.64559,41.68738],[-83.64546,41.68423],[-83.64429,41.68424],[-83.64385,41.67185],[-83.64489,41.67177],[-83.64475,41.66877],[-83.64371,41.66807],[-83.64349,41.66257],[-83.641,41.66262],[-83.64122,41.66077],[-83.64836,41.66231],[-83.64831,41.66093],[-83.65073,41.66078],[-83.65057,41.65555],[-83.64833,41.6557],[-83.64092,41.65276],[-83.64408,41.65275],[-83.64532,41.65069],[-83.64528,41.64795],[-83.64134,41.64898],[-83.64406,41.64555],[-83.64558,41.64559],[-83.64606,41.64349],[-83.64274,41.64314],[-83.64247,41.64149],[-83.64064,41.64149],[-83.6405,41.63551],[-83.63924,41.63452],[-83.63974,41.63249],[-83.63766,41.63084],[-83.62593,41.63168],[-83.62593,41.63101],[-83.63562,41.62947],[-83.63561,41.62899],[-83.62767,41.62895],[-83.6276,41.62384],[-83.62838,41.62366],[-83.62827,41.61951],[-83.63078,41.6197],[-83.63253,41.6179],[-83.63272,41.61573],[-83.64129,41.61934],[-83.64258,41.61665],[-83.64069,41.61567],[-83.64195,41.61407],[-83.64724,41.6146],[-83.6495,41.61261],[-83.65013,41.61371],[-83.65224,41.61266],[-83.65547,41.6134],[-83.65781,41.61517],[-83.65968,41.61204],[-83.66192,41.61074],[-83.66462,41.61119],[-83.66637,41.6133],[-83.66768,41.61205],[-83.66947,41.61282],[-83.67135,41.61028],[-83.67415,41.6102],[-83.67626,41.60999],[-83.67907,41.61474],[-83.6842,41.61371],[-83.68419,41.62173],[-83.68709,41.62126],[-83.68911,41.62395],[-83.69277,41.62407],[-83.694,41.63138],[-83.69642,41.63162],[-83.69631,41.63598],[-83.70116,41.63466],[-83.70356,41.63884],[-83.70842,41.6389],[-83.70763,41.64448],[-83.71443,41.64448],[-83.71443,41.6428],[-83.72045,41.64273],[-83.72174,41.64654],[-83.72299,41.64653],[-83.72311,41.6538],[-83.72222,41.65381],[-83.72219,41.65944],[-83.70215,41.6604],[-83.7031,41.67526],[-83.69635,41.67559],[-83.69723,41.68231],[-83.69324,41.6826],[-83.69306,41.6806],[-83.6831,41.68117],[-83.68329,41.68362],[-83.69542,41.68297],[-83.69568,41.68367]]]]}},{"type":"Feature","properties":{"zcta":"43616","d":271},"geometry":{"type":"MultiPolygon","coordinates":[[[[-83.43038,41.71046],[-83.4301,41.69918],[-83.43445,41.69711],[-83.43842,41.69432],[-83.4451,41.70095],[-83.44337,41.70445],[-83.43038,41.71046]]],[[[-83.46019,41.69185],[-83.45864,41.69687],[-83.45569,41.69807],[-83.44729,41.69564],[-83.44546,41.69563],[-83.44531,41.69074],[-83.44402,41.69076],[-83.44417,41.69563],[-83.4428,41.69563],[-83.43959,41.69262],[-83.43187,41.69054],[-83.42844,41.69088],[-83.42321,41.68945],[-83.41592,41.68993],[-83.41527,41.68908],[-83.41171,41.68903],[-83.40955,41.69122],[-83.40002,41.6909],[-83.39495,41.69196],[-83.39103,41.69132],[-83.38899,41.6891],[-83.37971,41.68561],[-83.37223,41.68518],[-83.37149,41.68628],[-83.36688,41.68651],[-83.36524,41.68573],[-83.35968,41.68596],[-83.35816,41.6867],[-83.35173,41.68695],[-83.3496,41.68972],[-83.34301,41.69196],[-83.33798,41.69868],[-83.33819,41.70346],[-83.33587,41.70549],[-83.32953,41.70272],[-83.32393,41.69746],[-83.31778,41.6951],[-83.31444,41.69254],[-83.30575,41.68774],[-83.30996,41.68291],[-83.30903,41.67917],[-83.30625,41.67663],[-83.30019,41.67557],[-83.29601,41.67589],[-83.28856,41.67575],[-83.2863,41.67351],[-83.2918,41.66882],[-83.29283,41.66675],[-83.29941,41.66687],[-83.31236,41.66758],[-83.33193,41.66745],[-83.33192,41.66396],[-83.3352,41.66396],[-83.3356,41.66577],[-83.3514,41.66573],[-83.35104,41.62789],[-83.36068,41.63044],[-83.36069,41.62643],[-83.36884,41.62639],[-83.37039,41.62368],[-83.37522,41.62365],[-83.37519,41.62015],[-83.41594,41.61911],[-83.42768,41.61907],[-83.47709,41.61834],[-83.49324,41.61834],[-83.50551,41.61805],[-83.50606,41.63644],[-83.49633,41.63656],[-83.49652,41.64377],[-83.49171,41.64388],[-83.49184,41.64726],[-83.47766,41.65869],[-83.47287,41.65876],[-83.47286,41.66009],[-83.46902,41.6661],[-83.47792,41.66598],[-83.47798,41.66863],[-83.47162,41.67588],[-83.46871,41.67862],[-83.46532,41.68601],[-83.46524,41.68909],[-83.46019,41.69185]]]]}},{"type":"Feature","properties":{"zcta":"43619","d":339},"geometry":{"type":"Polygon","coordinates":[[[-83.54043,41.61607],[-83.54124,41.61792],[-83.52473,41.61796],[-83.52277,41.61572],[-83.51253,41.61582],[-83.5126,41.61791],[-83.50551,41.61805],[-83.49324,41.61834],[-83.47709,41.61834],[-83.42768,41.61907],[-83.41594,41.61911],[-83.41577,41.60413],[-83.41567,41.59624],[-83.41883,41.59517],[-83.42301,41.59238],[-83.42297,41.59011],[-83.42428,41.59016],[-83.42444,41.58767],[-83.42762,41.58778],[-83.42753,41.58413],[-83.43004,41.58421],[-83.43003,41.58281],[-83.43485,41.58255],[-83.43471,41.57339],[-83.43963,41.57338],[-83.44934,41.58],[-83.44456,41.5829],[-83.44465,41.58803],[-83.47376,41.58798],[-83.4738,41.58927],[-83.46923,41.58985],[-83.46576,41.59123],[-83.47687,41.59866],[-83.47688,41.60135],[-83.48063,41.60126],[-83.48858,41.60674],[-83.49213,41.60711],[-83.49353,41.60125],[-83.49967,41.60155],[-83.4981,41.59504],[-83.49983,41.59494],[-83.49976,41.59242],[-83.50454,41.59501],[-83.50903,41.60125],[-83.52805,41.60104],[-83.52796,41.5959],[-83.53815,41.59618],[-83.53848,41.59408],[-83.55443,41.59414],[-83.54877,41.60096],[-83.55649,41.60105],[-83.54761,41.6086],[-83.54292,41.60889],[-83.54294,41.61435],[-83.54043,41.61607]]]}},{"type":"Feature","properties":{"zcta":"43620","d":1685},"geometry":{"type":"Polygon","coordinates":[[[-83.57049,41.67179],[-83.56878,41.67093],[-83.54452,41.67109],[-83.54437,41.66658],[-83.54028,41.6668],[-83.5392,41.66552],[-83.5418,41.66421],[-83.53819,41.66429],[-83.53537,41.66098],[-83.54202,41.66057],[-83.54206,41.66168],[-83.54538,41.66165],[-83.54533,41.6605],[-83.55706,41.66027],[-83.55727,41.65842],[-83.55492,41.65727],[-83.55488,41.65482],[-83.56128,41.65752],[-83.56199,41.65788],[-83.56371,41.65974],[-83.56417,41.66378],[-83.5651,41.66537],[-83.57112,41.66829],[-83.57238,41.66966],[-83.57049,41.67179]]]}},{"type":"Feature","properties":{"zcta":"43609","d":1594},"geometry":{"type":"Polygon","coordinates":[[[-83.5771,41.63872],[-83.56223,41.63819],[-83.56335,41.6431],[-83.56258,41.64317],[-83.55893,41.64077],[-83.55561,41.64041],[-83.55204,41.64264],[-83.54921,41.64282],[-83.54877,41.64129],[-83.54527,41.63778],[-83.54275,41.63753],[-83.53896,41.63598],[-83.53539,41.63342],[-83.53193,41.63255],[-83.53223,41.62905],[-83.53581,41.62627],[-83.54205,41.62453],[-83.55881,41.62065],[-83.56686,41.61839],[-83.57074,41.61814],[-83.56993,41.61715],[-83.57605,41.61263],[-83.58628,41.61234],[-83.58227,41.61547],[-83.58215,41.62028],[-83.58699,41.61702],[-83.58697,41.61977],[-83.59186,41.61692],[-83.59376,41.62151],[-83.59623,41.62198],[-83.59839,41.62079],[-83.59688,41.62324],[-83.60747,41.6231],[-83.61038,41.62184],[-83.61403,41.62132],[-83.61946,41.62155],[-83.6227,41.62063],[-83.62367,41.6188],[-83.62754,41.62024],[-83.62827,41.61951],[-83.62838,41.62366],[-83.6276,41.62384],[-83.62767,41.62895],[-83.63561,41.62899],[-83.63562,41.62947],[-83.62593,41.63101],[-83.5771,41.63872]]]}},{"type":"Feature","properties":{"zcta":"43611","d":1263},"geometry":{"type":"MultiPolygon","coordinates":[[[[-83.44934,41.7105],[-83.44687,41.70699],[-83.46079,41.70126],[-83.46118,41.70571],[-83.44934,41.7105]]],[[[-83.5163,41.67409],[-83.51542,41.6754],[-83.51576,41.67914],[-83.50773,41.67916],[-83.5079,41.68144],[-83.51136,41.68294],[-83.50881,41.68748],[-83.51146,41.69359],[-83.51784,41.70292],[-83.51649,41.70488],[-83.50605,41.71082],[-83.50334,41.71168],[-83.50399,41.73155],[-83.49773,41.73185],[-83.4554,41.73284],[-83.45597,41.72761],[-83.46082,41.72736],[-83.46207,41.72576],[-83.46768,41.72257],[-83.47167,41.7157],[-83.47351,41.71085],[-83.47393,41.70793],[-83.4754,41.7066],[-83.47463,41.70445],[-83.47793,41.7039],[-83.47883,41.7028],[-83.47782,41.69846],[-83.47374,41.69792],[-83.46997,41.69623],[-83.47234,41.69333],[-83.47837,41.69028],[-83.47762,41.68904],[-83.48414,41.68478],[-83.48269,41.68378],[-83.49214,41.67595],[-83.49703,41.67115],[-83.51106,41.65996],[-83.51382,41.66382],[-83.51501,41.66792],[-83.51767,41.6689],[-83.52204,41.66645],[-83.5237,41.66829],[-83.5163,41.67409]]]]}},{"type":"Feature","properties":{"zcta":"43613","d":2557},"geometry":{"type":"Polygon","coordinates":[[[-83.59523,41.72915],[-83.58554,41.72934],[-83.58536,41.70349],[-83.58834,41.6992],[-83.58566,41.69834],[-83.58483,41.69328],[-83.58435,41.67786],[-83.58662,41.67788],[-83.60371,41.68513],[-83.60724,41.68575],[-83.61932,41.68558],[-83.62303,41.6868],[-83.62324,41.6918],[-83.62203,41.69183],[-83.62338,41.69704],[-83.62164,41.69673],[-83.62355,41.70226],[-83.6237,41.70632],[-83.62128,41.70635],[-83.62151,41.71362],[-83.62328,41.71358],[-83.6241,41.71869],[-83.62246,41.71873],[-83.62353,41.7239],[-83.62782,41.72464],[-83.62961,41.72756],[-83.63135,41.72801],[-83.59523,41.72915]]]}},{"type":"Feature","properties":{"zcta":"43606","d":1583},"geometry":{"type":"Polygon","coordinates":[[[-83.6431,41.69036],[-83.63578,41.69059],[-83.63567,41.68829],[-83.62866,41.68835],[-83.62303,41.6868],[-83.61932,41.68558],[-83.60724,41.68575],[-83.60371,41.68513],[-83.58662,41.67788],[-83.58435,41.67786],[-83.5745,41.67802],[-83.57387,41.67677],[-83.57778,41.67521],[-83.57389,41.6735],[-83.57238,41.66966],[-83.57112,41.66829],[-83.5651,41.66537],[-83.56417,41.66378],[-83.56371,41.65974],[-83.56199,41.65788],[-83.57074,41.65806],[-83.57498,41.65732],[-83.5744,41.65823],[-83.58038,41.65768],[-83.58055,41.65993],[-83.58309,41.65998],[-83.58318,41.66297],[-83.58749,41.66291],[-83.58862,41.66434],[-83.59098,41.66336],[-83.60795,41.66318],[-83.60883,41.65584],[-83.61189,41.65582],[-83.61219,41.65445],[-83.6157,41.65329],[-83.61854,41.65366],[-83.61896,41.65918],[-83.62207,41.65913],[-83.62198,41.65689],[-83.64122,41.66077],[-83.641,41.66262],[-83.64349,41.66257],[-83.64371,41.66807],[-83.64475,41.66877],[-83.64489,41.67177],[-83.64385,41.67185],[-83.64429,41.68424],[-83.64546,41.68423],[-83.64559,41.68738],[-83.64445,41.68809],[-83.6431,41.69036]]]}},{"type":"Feature","properties":{"zcta":"43607","d":1164},"geometry":{"type":"Polygon","coordinates":[[[-83.62198,41.65689],[-83.62207,41.65913],[-83.61896,41.65918],[-83.61854,41.65366],[-83.6157,41.65329],[-83.61219,41.65445],[-83.61189,41.65582],[-83.60883,41.65584],[-83.60795,41.66318],[-83.59098,41.66336],[-83.58862,41.66434],[-83.58749,41.66291],[-83.58318,41.66297],[-83.58309,41.65998],[-83.58055,41.65993],[-83.58038,41.65768],[-83.5744,41.65823],[-83.57498,41.65732],[-83.57074,41.65806],[-83.56199,41.65788],[-83.56128,41.65752],[-83.56265,41.65612],[-83.56258,41.64317],[-83.56335,41.6431],[-83.56223,41.63819],[-83.5771,41.63872],[-83.62593,41.63101],[-83.62593,41.63168],[-83.63766,41.63084],[-83.63974,41.63249],[-83.63924,41.63452],[-83.6405,41.63551],[-83.64064,41.64149],[-83.64247,41.64149],[-83.64274,41.64314],[-83.64606,41.64349],[-83.64558,41.64559],[-83.64406,41.64555],[-83.64134,41.64898],[-83.64528,41.64795],[-83.64532,41.65069],[-83.64408,41.65275],[-83.64092,41.65276],[-83.64833,41.6557],[-83.65057,41.65555],[-83.65073,41.66078],[-83.64831,41.66093],[-83.64836,41.66231],[-83.64122,41.66077],[-83.62198,41.65689]],[[-83.62542,41.63199],[-83.62595,41.63462],[-83.62593,41.63168],[-83.62542,41.63199]]]}},{"type":"Feature","properties":{"zcta":"43406","d":42},"geometry":{"type":"Polygon","coordinates":[[[-83.47517,41.35552],[-83.47486,41.35617],[-83.46857,41.36004],[-83.46581,41.36045],[-83.4656,41.36599],[-83.46791,41.36731],[-83.46764,41.37154],[-83.47307,41.37635],[-83.47254,41.37865],[-83.46704,41.37958],[-83.45597,41.38324],[-83.4544,41.38512],[-83.42045,41.38474],[-83.41637,41.38472],[-83.41667,41.37024],[-83.42642,41.37027],[-83.42665,41.36176],[-83.41686,41.36172],[-83.41699,41.35575],[-83.4268,41.35577],[-83.42676,41.34829],[-83.41714,41.34828],[-83.41746,41.33388],[-83.39836,41.33426],[-83.39813,41.31243],[-83.39406,41.31251],[-83.39457,41.31007],[-83.3966,41.30938],[-83.39655,41.3041],[-83.39482,41.3041],[-83.39467,41.30088],[-83.39307,41.29797],[-83.39803,41.29788],[-83.39857,41.29279],[-83.40015,41.29267],[-83.4021,41.29059],[-83.40215,41.28782],[-83.40079,41.2867],[-83.4029,41.28325],[-83.40833,41.2832],[-83.40767,41.29783],[-83.4185,41.29809],[-83.4189,41.28308],[-83.4311,41.28311],[-83.43349,41.29747],[-83.44784,41.29737],[-83.44744,41.30436],[-83.44759,41.31197],[-83.45842,41.31189],[-83.46607,41.31242],[-83.46573,41.32266],[-83.47543,41.32259],[-83.47536,41.3262],[-83.47775,41.32619],[-83.47732,41.3309],[-83.47513,41.33347],[-83.47495,41.34084],[-83.47546,41.34084],[-83.47517,41.35552]]]}},{"type":"Feature","properties":{"zcta":"43447","d":105},"geometry":{"type":"Polygon","coordinates":[[[-83.44465,41.58803],[-83.44456,41.5829],[-83.44934,41.58],[-83.43963,41.57338],[-83.43471,41.57339],[-83.43485,41.58255],[-83.43003,41.58281],[-83.43004,41.58421],[-83.42753,41.58413],[-83.42762,41.58778],[-83.42444,41.58767],[-83.42428,41.59016],[-83.42297,41.59011],[-83.42301,41.59238],[-83.41883,41.59517],[-83.41567,41.59624],[-83.41577,41.60413],[-83.40074,41.60995],[-83.39634,41.61123],[-83.39626,41.6023],[-83.39676,41.59975],[-83.39487,41.59974],[-83.38623,41.60175],[-83.38543,41.60049],[-83.38811,41.59911],[-83.38822,41.59606],[-83.38969,41.59264],[-83.39242,41.58857],[-83.39681,41.58856],[-83.39687,41.58131],[-83.39788,41.57991],[-83.40163,41.57785],[-83.40202,41.57402],[-83.39686,41.57395],[-83.39684,41.57684],[-83.3873,41.57882],[-83.38552,41.57759],[-83.38301,41.5794],[-83.38084,41.5792],[-83.37818,41.58068],[-83.37804,41.57402],[-83.36848,41.57414],[-83.36842,41.56246],[-83.37808,41.56245],[-83.37809,41.55944],[-83.39694,41.5594],[-83.39698,41.55647],[-83.40134,41.55939],[-83.41261,41.55935],[-83.41446,41.55378],[-83.41543,41.55375],[-83.41499,41.54398],[-83.4148,41.52952],[-83.43403,41.52951],[-83.43419,41.54411],[-83.45173,41.54411],[-83.45912,41.54411],[-83.459,41.53643],[-83.46761,41.5364],[-83.46771,41.54409],[-83.47275,41.54237],[-83.47508,41.53634],[-83.47959,41.53245],[-83.47259,41.52958],[-83.48064,41.52942],[-83.48323,41.53415],[-83.48876,41.55633],[-83.49003,41.55855],[-83.48817,41.55853],[-83.49248,41.57319],[-83.48059,41.57327],[-83.48205,41.57473],[-83.47359,41.57893],[-83.47629,41.5832],[-83.47675,41.58798],[-83.47376,41.58798],[-83.44465,41.58803]]]}},{"type":"Feature","properties":{"zcta":"43521","d":19},"geometry":{"type":"Polygon","coordinates":[[[-84.17272,41.69752],[-84.17248,41.69125],[-84.18205,41.69009],[-84.18206,41.6891],[-84.18729,41.69001],[-84.18988,41.69142],[-84.1885,41.6772],[-84.18654,41.66819],[-84.2104,41.66781],[-84.21032,41.65684],[-84.21528,41.65666],[-84.21862,41.65176],[-84.21973,41.64905],[-84.21977,41.64398],[-84.22193,41.64143],[-84.22382,41.63697],[-84.22897,41.6358],[-84.22862,41.62477],[-84.23145,41.62384],[-84.23124,41.61698],[-84.24783,41.61705],[-84.24933,41.61679],[-84.24924,41.60339],[-84.26856,41.60357],[-84.26842,41.59071],[-84.28781,41.59063],[-84.28787,41.60148],[-84.30264,41.60145],[-84.30715,41.60055],[-84.30726,41.60542],[-84.30504,41.60814],[-84.30279,41.60875],[-84.30325,41.61135],[-84.29913,41.61519],[-84.29856,41.61719],[-84.30753,41.61722],[-84.3086,41.61892],[-84.30859,41.62339],[-84.31774,41.63127],[-84.32103,41.6322],[-84.32439,41.63725],[-84.32617,41.63724],[-84.32588,41.61721],[-84.32666,41.61626],[-84.32662,41.60142],[-84.34254,41.60144],[-84.34269,41.61722],[-84.37197,41.61723],[-84.37214,41.62264],[-84.36341,41.62264],[-84.36362,41.63719],[-84.37933,41.63708],[-84.37938,41.63922],[-84.38385,41.63744],[-84.38561,41.63863],[-84.38438,41.6416],[-84.38624,41.64244],[-84.38846,41.63888],[-84.39133,41.63969],[-84.38998,41.64137],[-84.39238,41.64205],[-84.39465,41.64119],[-84.39869,41.64172],[-84.4023,41.64109],[-84.40154,41.63641],[-84.41327,41.63692],[-84.40996,41.65144],[-84.39891,41.65144],[-84.39913,41.66601],[-84.40874,41.66602],[-84.40897,41.68059],[-84.40659,41.68059],[-84.40674,41.68757],[-84.40917,41.6881],[-84.40918,41.6988],[-84.40613,41.69875],[-84.40342,41.69741],[-84.40351,41.69518],[-84.39943,41.6951],[-84.39955,41.70586],[-84.36055,41.70662],[-84.17313,41.71185],[-84.17272,41.69752]]]}},{"type":"Feature","properties":{"zcta":"43558","d":80},"geometry":{"type":"Polygon","coordinates":[[[-83.90788,41.67206],[-83.90799,41.67889],[-83.90327,41.67897],[-83.90347,41.68596],[-83.87933,41.68629],[-83.87835,41.68404],[-83.87635,41.68277],[-83.86712,41.68294],[-83.86702,41.67937],[-83.86229,41.67947],[-83.86206,41.67535],[-83.85872,41.67535],[-83.85863,41.67206],[-83.85722,41.67207],[-83.85685,41.66114],[-83.84923,41.66515],[-83.83803,41.66916],[-83.83813,41.67227],[-83.81902,41.67308],[-83.80013,41.67327],[-83.79505,41.67329],[-83.79494,41.66866],[-83.79114,41.66855],[-83.79284,41.66465],[-83.79514,41.66235],[-83.79987,41.66409],[-83.80892,41.65792],[-83.807,41.65791],[-83.80676,41.6481],[-83.81055,41.64363],[-83.81774,41.64368],[-83.81789,41.64024],[-83.80654,41.64014],[-83.80622,41.62959],[-83.79816,41.62966],[-83.79825,41.63156],[-83.78895,41.64129],[-83.78877,41.63675],[-83.78391,41.6368],[-83.78371,41.63146],[-83.78091,41.63111],[-83.78083,41.62967],[-83.77695,41.62843],[-83.77684,41.62603],[-83.77385,41.62606],[-83.77421,41.61985],[-83.77838,41.61894],[-83.77833,41.61748],[-83.78641,41.61741],[-83.78641,41.61148],[-83.79598,41.61125],[-83.79592,41.60695],[-83.80082,41.60619],[-83.79794,41.60407],[-83.78638,41.60423],[-83.78638,41.57745],[-83.79199,41.57702],[-83.79424,41.58125],[-83.79765,41.58068],[-83.80055,41.58585],[-83.80348,41.5884],[-83.80591,41.58813],[-83.80569,41.57688],[-83.80086,41.57549],[-83.79684,41.57542],[-83.79835,41.57352],[-83.80082,41.57349],[-83.80069,41.5713],[-83.79595,41.57135],[-83.79594,41.57006],[-83.80023,41.56981],[-83.8001,41.56911],[-83.79594,41.56935],[-83.796,41.56205],[-83.80563,41.56526],[-83.80563,41.56735],[-83.82494,41.56735],[-83.82497,41.56021],[-83.80559,41.56043],[-83.80552,41.55234],[-83.80651,41.55303],[-83.81845,41.55301],[-83.82004,41.55193],[-83.82597,41.55121],[-83.82994,41.55215],[-83.82867,41.54928],[-83.83946,41.54921],[-83.8395,41.56013],[-83.84173,41.56012],[-83.84173,41.55706],[-83.84436,41.55635],[-83.85398,41.55626],[-83.85395,41.54914],[-83.86085,41.54912],[-83.85884,41.54547],[-83.85735,41.54087],[-83.85386,41.53658],[-83.85379,41.52798],[-83.85177,41.52798],[-83.85172,41.5167],[-83.85371,41.51601],[-83.86655,41.51597],[-83.86858,41.5142],[-83.86844,41.5096],[-83.87037,41.50957],[-83.87029,41.50593],[-83.86794,41.50597],[-83.86773,41.50107],[-83.86636,41.4993],[-83.86573,41.49574],[-83.86683,41.49528],[-83.87762,41.49609],[-83.88045,41.49761],[-83.88293,41.49759],[-83.8904,41.49497],[-83.89846,41.49059],[-83.9025,41.49258],[-83.90254,41.4873],[-83.92521,41.48727],[-83.92672,41.48797],[-83.92682,41.49453],[-83.93646,41.49454],[-83.93647,41.49089],[-83.94126,41.48995],[-83.94131,41.48721],[-83.95125,41.48717],[-83.9498,41.49077],[-83.94757,41.49238],[-83.94889,41.49419],[-83.95058,41.501],[-83.94992,41.50349],[-83.95364,41.50634],[-83.95278,41.50897],[-83.95597,41.50898],[-83.956,41.51353],[-83.95112,41.51352],[-83.95066,41.51569],[-83.95063,41.52302],[-83.94507,41.52303],[-83.94454,41.53029],[-83.94092,41.5303],[-83.94077,41.54992],[-83.94635,41.55057],[-83.94994,41.55537],[-83.95506,41.55748],[-83.96024,41.55729],[-83.96022,41.56306],[-83.95074,41.56313],[-83.94622,41.56261],[-83.94078,41.56133],[-83.94056,41.61748],[-83.93494,41.61748],[-83.935,41.61923],[-83.93999,41.6191],[-83.93997,41.62086],[-83.94687,41.62075],[-83.94688,41.62811],[-83.9451,41.62813],[-83.94527,41.63531],[-83.94052,41.63531],[-83.94048,41.63443],[-83.93621,41.6343],[-83.93545,41.63349],[-83.93575,41.64282],[-83.94303,41.64276],[-83.94336,41.64979],[-83.95059,41.64987],[-83.95183,41.65718],[-83.95092,41.65719],[-83.95132,41.67149],[-83.90788,41.67206]]]}},{"type":"Feature","properties":{"zcta":"43450","d":42},"geometry":{"type":"Polygon","coordinates":[[[-83.51174,41.45694],[-83.5116,41.44232],[-83.50163,41.44231],[-83.50173,41.45698],[-83.49242,41.45701],[-83.49238,41.44231],[-83.47315,41.44245],[-83.47316,41.42776],[-83.45742,41.42785],[-83.4635,41.45351],[-83.45374,41.45359],[-83.45383,41.44995],[-83.44463,41.44995],[-83.44468,41.44264],[-83.42134,41.44261],[-83.41732,41.44597],[-83.4152,41.44942],[-83.41544,41.42803],[-83.4158,41.41368],[-83.42583,41.41379],[-83.42567,41.39932],[-83.42048,41.39925],[-83.42045,41.38474],[-83.4544,41.38512],[-83.45597,41.38324],[-83.46704,41.37958],[-83.47254,41.37865],[-83.47307,41.37635],[-83.46764,41.37154],[-83.46791,41.36731],[-83.4656,41.36599],[-83.46581,41.36045],[-83.46857,41.36004],[-83.47486,41.35617],[-83.47517,41.35552],[-83.47546,41.34084],[-83.5011,41.34061],[-83.50121,41.34263],[-83.4994,41.3459],[-83.49913,41.35137],[-83.49819,41.35511],[-83.50149,41.35551],[-83.50369,41.35407],[-83.49993,41.35148],[-83.50201,41.35013],[-83.50159,41.34805],[-83.49962,41.34729],[-83.50295,41.34531],[-83.50262,41.34865],[-83.50818,41.34873],[-83.50822,41.34057],[-83.52286,41.34085],[-83.52342,41.32593],[-83.53409,41.32612],[-83.53377,41.34893],[-83.54336,41.34858],[-83.54303,41.3619],[-83.56223,41.36214],[-83.56191,41.37766],[-83.54102,41.37768],[-83.54095,41.37941],[-83.53345,41.38362],[-83.53283,41.38525],[-83.54261,41.38525],[-83.54248,41.39628],[-83.54686,41.39491],[-83.55217,41.39214],[-83.55205,41.41405],[-83.54727,41.41411],[-83.54702,41.41867],[-83.53952,41.42157],[-83.53642,41.42195],[-83.54042,41.42781],[-83.55181,41.42803],[-83.55171,41.44253],[-83.55023,41.44252],[-83.55533,41.45005],[-83.53244,41.44965],[-83.53233,41.44635],[-83.52896,41.44726],[-83.52074,41.45379],[-83.51517,41.45692],[-83.51174,41.45694]]]}},{"type":"Feature","properties":{"zcta":"45872","d":64},"geometry":{"type":"Polygon","coordinates":[[[-83.76837,41.18907],[-83.76524,41.18952],[-83.76104,41.19213],[-83.76143,41.19302],[-83.75652,41.19735],[-83.73956,41.19744],[-83.73835,41.19995],[-83.73896,41.2023],[-83.74132,41.20454],[-83.74006,41.20722],[-83.73767,41.20866],[-83.73391,41.20894],[-83.73279,41.21196],[-83.68804,41.21209],[-83.6882,41.22469],[-83.68955,41.22484],[-83.68954,41.22715],[-83.68822,41.22721],[-83.68825,41.23372],[-83.67927,41.23367],[-83.65491,41.23316],[-83.65389,41.22734],[-83.65065,41.21826],[-83.65036,41.2128],[-83.64968,41.21132],[-83.6497,41.22134],[-83.64637,41.21686],[-83.64319,41.21512],[-83.64083,41.21117],[-83.61153,41.21119],[-83.61156,41.20371],[-83.60211,41.20372],[-83.60203,41.18407],[-83.61168,41.18366],[-83.6118,41.17474],[-83.59263,41.17279],[-83.59272,41.16719],[-83.61191,41.16739],[-83.61191,41.15981],[-83.64932,41.15996],[-83.64931,41.16766],[-83.68857,41.16813],[-83.68863,41.16983],[-83.68696,41.1707],[-83.68792,41.17213],[-83.69131,41.17216],[-83.69128,41.16895],[-83.6941,41.16816],[-83.70722,41.16825],[-83.70769,41.16752],[-83.70786,41.16013],[-83.71105,41.15616],[-83.71363,41.15554],[-83.7175,41.1528],[-83.72713,41.15326],[-83.72715,41.15978],[-83.73459,41.15658],[-83.741,41.15336],[-83.74371,41.15318],[-83.75106,41.14946],[-83.75573,41.14802],[-83.75584,41.16838],[-83.78025,41.16829],[-83.77761,41.16882],[-83.77591,41.17304],[-83.77684,41.17575],[-83.77219,41.18054],[-83.77139,41.18286],[-83.76837,41.18907]]]}},{"type":"Feature","properties":{"zcta":"43612","d":1151},"geometry":{"type":"Polygon","coordinates":[[[-83.50399,41.73155],[-83.50334,41.71168],[-83.50605,41.71082],[-83.51649,41.70488],[-83.51784,41.70292],[-83.51146,41.69359],[-83.53534,41.69347],[-83.53804,41.69115],[-83.53802,41.68921],[-83.54463,41.68868],[-83.54746,41.68612],[-83.55035,41.68496],[-83.55172,41.68691],[-83.5557,41.68716],[-83.55842,41.68809],[-83.55935,41.68684],[-83.56146,41.68806],[-83.56414,41.68726],[-83.56924,41.68287],[-83.571,41.6839],[-83.57438,41.67974],[-83.5745,41.67802],[-83.58435,41.67786],[-83.58483,41.69328],[-83.58566,41.69834],[-83.58834,41.6992],[-83.58536,41.70349],[-83.58554,41.72934],[-83.50399,41.73155]]]}},{"type":"Feature","properties":{"zcta":"43413","d":22},"geometry":{"type":"Polygon","coordinates":[[[-83.71295,41.25511],[-83.70794,41.25473],[-83.65971,41.25397],[-83.65986,41.2685],[-83.64716,41.2685],[-83.6431,41.27415],[-83.63909,41.28267],[-83.59284,41.28226],[-83.57362,41.28223],[-83.57376,41.25345],[-83.57314,41.2521],[-83.56371,41.25148],[-83.56364,41.23916],[-83.5732,41.23928],[-83.57326,41.21041],[-83.58948,41.21083],[-83.59162,41.21377],[-83.5923,41.21852],[-83.59231,41.21091],[-83.61153,41.21119],[-83.64083,41.21117],[-83.64319,41.21512],[-83.64637,41.21686],[-83.6497,41.22134],[-83.64968,41.21132],[-83.65036,41.2128],[-83.65065,41.21826],[-83.65389,41.22734],[-83.65491,41.23316],[-83.67927,41.23367],[-83.68825,41.23372],[-83.68822,41.22721],[-83.68954,41.22715],[-83.68955,41.22484],[-83.6882,41.22469],[-83.68804,41.21209],[-83.73279,41.21196],[-83.73391,41.20894],[-83.73767,41.20866],[-83.74006,41.20722],[-83.74214,41.20665],[-83.74432,41.20408],[-83.74587,41.2037],[-83.7463,41.22642],[-83.76566,41.22649],[-83.76601,41.25557],[-83.71295,41.25511]],[[-83.61206,41.25382],[-83.60982,41.25276],[-83.60958,41.24963],[-83.60782,41.24644],[-83.59245,41.24642],[-83.5924,41.25364],[-83.59298,41.25365],[-83.5929,41.26095],[-83.61201,41.26098],[-83.61206,41.25382]]]}},{"type":"Feature","properties":{"zcta":"43462","d":20},"geometry":{"type":"Polygon","coordinates":[[[-83.76653,41.31398],[-83.7665,41.29933],[-83.74717,41.29889],[-83.74723,41.30762],[-83.74242,41.30884],[-83.73316,41.30884],[-83.72774,41.3093],[-83.72778,41.30519],[-83.72073,41.30561],[-83.70859,41.30539],[-83.70856,41.31274],[-83.68938,41.3125],[-83.6894,41.31157],[-83.682,41.30967],[-83.67666,41.30933],[-83.66869,41.31195],[-83.66972,41.30818],[-83.66964,41.30117],[-83.65529,41.30132],[-83.65453,41.3026],[-83.65055,41.30472],[-83.65055,41.29754],[-83.64894,41.29754],[-83.64821,41.28606],[-83.64978,41.28559],[-83.65023,41.28295],[-83.63909,41.28267],[-83.6431,41.27415],[-83.64716,41.2685],[-83.65986,41.2685],[-83.65971,41.25397],[-83.70794,41.25473],[-83.71295,41.25511],[-83.76601,41.25557],[-83.76619,41.27017],[-83.78569,41.27006],[-83.78598,41.29924],[-83.80535,41.2992],[-83.80527,41.3138],[-83.76653,41.31398]]]}},{"type":"Feature","properties":{"zcta":"43565","d":0},"geometry":{"type":"Polygon","coordinates":[[[-83.74272,41.42496],[-83.73777,41.42505],[-83.73771,41.41584],[-83.74257,41.41581],[-83.74272,41.42496]]]}},{"type":"Feature","properties":{"zcta":"43528","d":442},"geometry":{"type":"Polygon","coordinates":[[[-83.79017,41.6698],[-83.78286,41.67117],[-83.78026,41.67086],[-83.7756,41.67206],[-83.77222,41.67182],[-83.76994,41.67266],[-83.76917,41.6628],[-83.76787,41.66174],[-83.76495,41.66167],[-83.7649,41.66037],[-83.76155,41.66041],[-83.76054,41.659],[-83.76028,41.6535],[-83.76195,41.6516],[-83.76179,41.64435],[-83.75875,41.64449],[-83.75191,41.64625],[-83.74238,41.64642],[-83.74056,41.64583],[-83.74049,41.6428],[-83.73566,41.64283],[-83.7357,41.64564],[-83.73136,41.64564],[-83.73138,41.64648],[-83.72299,41.64653],[-83.72174,41.64654],[-83.72045,41.64273],[-83.71443,41.6428],[-83.71443,41.64448],[-83.70763,41.64448],[-83.70842,41.6389],[-83.70356,41.63884],[-83.70116,41.63466],[-83.69631,41.63598],[-83.69642,41.63162],[-83.694,41.63138],[-83.69277,41.62407],[-83.68911,41.62395],[-83.68709,41.62126],[-83.68419,41.62173],[-83.6842,41.61371],[-83.6916,41.613],[-83.6915,41.60057],[-83.69593,41.6041],[-83.69869,41.60112],[-83.70948,41.60106],[-83.70943,41.60294],[-83.71183,41.60294],[-83.71123,41.60016],[-83.71332,41.59944],[-83.71333,41.59209],[-83.72508,41.59201],[-83.73079,41.59159],[-83.73034,41.59385],[-83.73262,41.59287],[-83.73724,41.594],[-83.73749,41.59701],[-83.73992,41.59703],[-83.7399,41.59836],[-83.74233,41.59837],[-83.74232,41.60119],[-83.74714,41.60119],[-83.74713,41.603],[-83.75065,41.60305],[-83.75061,41.60569],[-83.75459,41.6063],[-83.75791,41.60761],[-83.76142,41.60726],[-83.76145,41.60938],[-83.78637,41.60537],[-83.78638,41.60423],[-83.79794,41.60407],[-83.80082,41.60619],[-83.79592,41.60695],[-83.79598,41.61125],[-83.78641,41.61148],[-83.78641,41.61741],[-83.77833,41.61748],[-83.77838,41.61894],[-83.77421,41.61985],[-83.77385,41.62606],[-83.77684,41.62603],[-83.77695,41.62843],[-83.78083,41.62967],[-83.78091,41.63111],[-83.78371,41.63146],[-83.78391,41.6368],[-83.78877,41.63675],[-83.78895,41.64129],[-83.79825,41.63156],[-83.79816,41.62966],[-83.80622,41.62959],[-83.80654,41.64014],[-83.81789,41.64024],[-83.81774,41.64368],[-83.81055,41.64363],[-83.80676,41.6481],[-83.807,41.65791],[-83.80892,41.65792],[-83.79987,41.66409],[-83.79514,41.66235],[-83.79284,41.66465],[-83.79114,41.66855],[-83.79017,41.6698]]]}},{"type":"Feature","properties":{"zcta":"43610","d":1450},"geometry":{"type":"Polygon","coordinates":[[[-83.57438,41.67974],[-83.571,41.6839],[-83.56924,41.68287],[-83.56414,41.68726],[-83.56146,41.68806],[-83.55935,41.68684],[-83.55842,41.68809],[-83.5557,41.68716],[-83.55655,41.68597],[-83.5441,41.67132],[-83.54452,41.67109],[-83.56878,41.67093],[-83.57049,41.67179],[-83.57238,41.66966],[-83.57389,41.6735],[-83.57778,41.67521],[-83.57387,41.67677],[-83.5745,41.67802],[-83.57438,41.67974]]]}},{"type":"Feature","properties":{"zcta":"43502","d":52},"geometry":{"type":"Polygon","coordinates":[[[-84.34269,41.61722],[-84.34254,41.60144],[-84.32662,41.60142],[-84.32666,41.61626],[-84.32588,41.61721],[-84.32617,41.63724],[-84.32439,41.63725],[-84.32103,41.6322],[-84.31774,41.63127],[-84.30859,41.62339],[-84.3086,41.61892],[-84.30753,41.61722],[-84.29856,41.61719],[-84.29913,41.61519],[-84.30325,41.61135],[-84.30279,41.60875],[-84.30504,41.60814],[-84.30726,41.60542],[-84.30715,41.60055],[-84.30264,41.60145],[-84.28787,41.60148],[-84.28781,41.59063],[-84.26842,41.59071],[-84.26856,41.60357],[-84.24924,41.60339],[-84.2489,41.55198],[-84.24612,41.55198],[-84.24619,41.5434],[-84.24789,41.5434],[-84.24781,41.54064],[-84.2415,41.54066],[-84.24143,41.53799],[-84.23748,41.53798],[-84.23745,41.53668],[-84.23458,41.53616],[-84.23453,41.53254],[-84.23448,41.5289],[-84.22932,41.52893],[-84.22891,41.48558],[-84.22356,41.48566],[-84.22356,41.48085],[-84.21727,41.48085],[-84.21724,41.48574],[-84.21153,41.48577],[-84.21153,41.47418],[-84.21143,41.45708],[-84.2286,41.45689],[-84.22849,41.44246],[-84.2489,41.44236],[-84.24366,41.44844],[-84.24601,41.44795],[-84.24858,41.44425],[-84.25149,41.44423],[-84.25551,41.44652],[-84.25751,41.44856],[-84.25744,41.44017],[-84.25915,41.44011],[-84.25923,41.43831],[-84.26702,41.4405],[-84.26742,41.47127],[-84.28658,41.47122],[-84.28643,41.44614],[-84.33507,41.46029],[-84.33477,41.4662],[-84.33663,41.46472],[-84.33994,41.46506],[-84.34189,41.46632],[-84.34694,41.46644],[-84.34963,41.46558],[-84.35411,41.46582],[-84.35645,41.46749],[-84.356,41.47115],[-84.34484,41.47111],[-84.34668,41.4716],[-84.34661,41.47317],[-84.34421,41.47438],[-84.35494,41.47432],[-84.34838,41.49288],[-84.34193,41.49285],[-84.34205,41.51411],[-84.37101,41.51407],[-84.37109,41.5213],[-84.37836,41.52126],[-84.3784,41.5285],[-84.37115,41.52854],[-84.37125,41.53708],[-84.38075,41.53832],[-84.3811,41.55745],[-84.38991,41.55772],[-84.38756,41.56446],[-84.38683,41.57202],[-84.38585,41.58647],[-84.38099,41.58646],[-84.3812,41.6022],[-84.3775,41.60127],[-84.37158,41.6013],[-84.37172,41.61623],[-84.37197,41.61723],[-84.34269,41.61722]]]}},{"type":"Feature","properties":{"zcta":"43623","d":1519},"geometry":{"type":"Polygon","coordinates":[[[-83.63135,41.72801],[-83.62961,41.72756],[-83.62782,41.72464],[-83.62353,41.7239],[-83.62246,41.71873],[-83.6241,41.71869],[-83.62328,41.71358],[-83.62151,41.71362],[-83.62128,41.70635],[-83.6237,41.70632],[-83.62355,41.70226],[-83.62164,41.69673],[-83.62338,41.69704],[-83.62203,41.69183],[-83.62324,41.6918],[-83.62303,41.6868],[-83.62866,41.68835],[-83.63567,41.68829],[-83.63578,41.69059],[-83.6431,41.69036],[-83.64445,41.68809],[-83.65452,41.68801],[-83.66164,41.68975],[-83.66436,41.68989],[-83.68159,41.68957],[-83.69401,41.68719],[-83.69561,41.68577],[-83.69568,41.68367],[-83.69658,41.68638],[-83.69591,41.69674],[-83.69359,41.70126],[-83.69167,41.69902],[-83.6852,41.6993],[-83.68497,41.70084],[-83.68059,41.70119],[-83.67972,41.70059],[-83.67974,41.70907],[-83.67723,41.70921],[-83.67476,41.70557],[-83.67247,41.70629],[-83.66698,41.70561],[-83.66539,41.70748],[-83.66048,41.70747],[-83.6604,41.70557],[-83.65549,41.70554],[-83.65563,41.70954],[-83.66056,41.70962],[-83.66234,41.71279],[-83.66254,41.71755],[-83.66093,41.71847],[-83.65598,41.71909],[-83.65352,41.72017],[-83.6535,41.72204],[-83.65017,41.72106],[-83.64956,41.72745],[-83.63135,41.72801]],[[-83.64733,41.6882],[-83.64453,41.69],[-83.64459,41.69124],[-83.647,41.69129],[-83.64733,41.6882]]]}}]}