{"type":"FeatureCollection","features":[{"type":"Feature","properties":{"id":"22033","name":"East Baton Rouge Par."},"geometry":{"type":"Polygon","coordinates":[[[-91.2936,30.655],[-91.2927,30.6631],[-91.2903,30.6677],[-91.2894,30.678],[-91.2707,30.6809],[-91.2678,30.6867],[-91.2678,30.6946],[-91.2652,30.6981],[-91.2523,30.7051],[-90.968,30.7152],[-90.8488,30.7195],[-90.8474,30.7129],[-90.8451,30.7125],[-90.8442,30.708],[-90.8487,30.7045],[-90.8511,30.7056],[-90.8541,30.7008],[-90.8515,30.7014],[-90.853,30.6957],[-90.8607,30.6955],[-90.8599,30.6928],[-90.8627,30.6919],[-90.8658,30.6933],[-90.8709,30.6933],[-90.8693,30.6892],[-90.8723,30.687],[-90.8765,30.6866],[-90.8791,30.6826],[-90.8771,30.6803],[-90.881,30.6776],[-90.8856,30.6769],[-90.8857,30.6749],[-90.8906,30.6724],[-90.8888,30.6706],[-90.8935,30.6706],[-90.8966,30.6682],[-90.8939,30.6665],[-90.8971,30.6637],[-90.9005,30.6654],[-90.8998,30.6611],[-90.9032,30.6597],[-90.8999,30.6581],[-90.9023,30.6547],[-90.9088,30.6553],[-90.912,30.6521],[-90.9107,30.6494],[-90.9113,30.646],[-90.9154,30.6467],[-90.917,30.6439],[-90.9169,30.6398],[-90.9209,30.6367],[-90.9246,30.6388],[-90.935,30.6283],[-90.9376,30.623],[-90.9406,30.6205],[-90.9385,30.618],[-90.9348,30.6198],[-90.9322,30.6184],[-90.936,30.6161],[-90.9342,30.6138],[-90.9387,30.6124],[-90.9398,30.609],[-90.9477,30.6098],[-90.9491,30.6041],[-90.9529,30.6055],[-90.9602,30.6052],[-90.9569,30.5995],[-90.9591,30.5983],[-90.9627,30.6],[-90.9638,30.5939],[-90.9662,30.5945],[-90.9656,30.5974],[-90.9722,30.5969],[-90.9735,30.5925],[-90.9774,30.5935],[-90.9776,30.5908],[-90.9807,30.5908],[-90.9794,30.5876],[-90.9805,30.5848],[-90.9851,30.5856],[-90.9857,30.5823],[-90.9833,30.58],[-90.9879,30.5726],[-90.9829,30.5713],[-90.9805,30.5688],[-90.9766,30.5685],[-90.9755,30.5655],[-90.972,30.5642],[-90.9733,30.5545],[-90.972,30.5508],[-90.9757,30.5477],[-90.9759,30.5455],[-90.9728,30.5432],[-90.974,30.5395],[-90.98,30.5377],[-90.9803,30.5344],[-90.9844,30.5306],[-90.9793,30.5297],[-90.9775,30.5251],[-90.9822,30.5221],[-90.9783,30.5213],[-90.9805,30.5184],[-90.9777,30.5151],[-90.9715,30.5118],[-90.971,30.5074],[-90.9679,30.5044],[-90.9745,30.5012],[-90.9759,30.4983],[-90.9703,30.4975],[-90.9701,30.4924],[-90.9731,30.4918],[-90.9719,30.4855],[-90.9755,30.4839],[-90.9748,30.4818],[-90.9787,30.4791],[-90.9751,30.476],[-90.9743,30.471],[-90.9765,30.4673],[-90.9811,30.4665],[-90.9843,30.4683],[-90.9892,30.4658],[-90.9915,30.462],[-90.989,30.4587],[-90.9886,30.4551],[-90.9812,30.4528],[-90.9815,30.451],[-90.9868,30.4503],[-90.9869,30.4484],[-90.9813,30.4419],[-90.9764,30.4385],[-90.9724,30.4403],[-90.9734,30.4377],[-90.9802,30.4334],[-90.981,30.4304],[-90.979,30.4286],[-90.9825,30.4255],[-90.9812,30.4223],[-90.9775,30.4209],[-90.9707,30.4208],[-90.9633,30.418],[-90.9661,30.4152],[-90.9632,30.4137],[-90.9585,30.4074],[-90.9584,30.4052],[-90.9633,30.4028],[-90.9694,30.4051],[-90.9721,30.4023],[-90.9723,30.3975],[-90.9689,30.3933],[-90.9674,30.3887],[-90.9642,30.3904],[-90.9614,30.3881],[-90.9541,30.3896],[-90.9492,30.3944],[-90.9439,30.3917],[-90.9428,30.3894],[-90.9472,30.3849],[-90.9446,30.3838],[-90.9459,30.3799],[-90.9437,30.3765],[-90.9403,30.3742],[-90.9329,30.3727],[-90.9325,30.3697],[-90.9372,30.3666],[-90.937,30.3639],[-90.9341,30.3658],[-90.9294,30.3619],[-90.9203,30.3659],[-90.9135,30.3587],[-90.9099,30.3605],[-90.9054,30.3611],[-90.9037,30.3578],[-90.9072,30.3577],[-90.9065,30.3552],[-90.9023,30.3553],[-90.9004,30.3521],[-90.9006,30.3477],[-90.8956,30.3479],[-90.8917,30.3452],[-90.8943,30.3459],[-90.9046,30.3406],[-90.9071,30.3419],[-90.9101,30.3397],[-90.9173,30.3409],[-90.9173,30.3438],[-90.9207,30.3457],[-90.9276,30.3433],[-90.9394,30.3403],[-90.9439,30.3411],[-90.9456,30.3432],[-90.9485,30.3428],[-90.9493,30.3454],[-90.9624,30.3453],[-90.9639,30.3469],[-90.9681,30.3458],[-90.9748,30.3469],[-90.9777,30.3439],[-90.9846,30.344],[-90.987,30.3457],[-90.9889,30.3431],[-90.9975,30.3415],[-91.0008,30.3366],[-91.0078,30.3379],[-91.0093,30.336],[-91.0142,30.3348],[-91.0138,30.3302],[-91.0163,30.3283],[-91.018,30.3241],[-91.021,30.3215],[-91.0283,30.316],[-91.0324,30.3148],[-91.045,30.3153],[-91.0521,30.3163],[-91.0535,30.3175],[-91.0586,30.3171],[-91.0627,30.3189],[-91.0826,30.3197],[-91.0906,30.3194],[-91.093,30.3206],[-91.1052,30.3175],[-91.1085,30.3154],[-91.113,30.3149],[-91.1155,30.3127],[-91.1253,30.3132],[-91.1283,30.3142],[-91.1327,30.3134],[-91.1423,30.3199],[-91.1421,30.3233],[-91.145,30.3313],[-91.1508,30.3374],[-91.1541,30.3392],[-91.1703,30.3436],[-91.1873,30.3465],[-91.1945,30.347],[-91.2044,30.3452],[-91.2141,30.3423],[-91.2226,30.3406],[-91.2303,30.3411],[-91.2358,30.3445],[-91.2395,30.3516],[-91.2415,30.3576],[-91.2406,30.3628],[-91.2339,30.3753],[-91.2153,30.394],[-91.2081,30.4037],[-91.1998,30.4191],[-91.1963,30.4347],[-91.1959,30.4394],[-91.1972,30.5069],[-91.1985,30.5131],[-91.2008,30.5177],[-91.2093,30.523],[-91.2627,30.5052],[-91.2765,30.5047],[-91.2815,30.5061],[-91.2842,30.5096],[-91.2844,30.5153],[-91.2809,30.5186],[-91.2754,30.5211],[-91.266,30.5266],[-91.2495,30.5338],[-91.2461,30.5359],[-91.2433,30.5406],[-91.2423,30.548],[-91.2431,30.5531],[-91.2479,30.5607],[-91.2544,30.5665],[-91.2615,30.5711],[-91.2671,30.5725],[-91.2809,30.573],[-91.2956,30.5722],[-91.3059,30.573],[-91.3105,30.5747],[-91.3144,30.5788],[-91.3165,30.5852],[-91.3153,30.5943],[-91.3099,30.6013],[-91.3019,30.6095],[-91.2946,30.6252],[-91.2928,30.6315],[-91.2944,30.6423],[-91.2977,30.6495],[-91.2936,30.655]]]}},{"type":"Feature","properties":{"id":"22037","name":"East Feliciana Par."},"geometry":{"type":"Polygon","coordinates":[[[-91.1083,30.9989],[-91.0683,30.9989],[-90.8947,30.9996],[-90.8258,30.9994],[-90.8286,30.9958],[-90.8376,30.993],[-90.8405,30.9876],[-90.8426,30.9871],[-90.8442,30.9827],[-90.8427,30.9813],[-90.8444,30.9745],[-90.8434,30.9695],[-90.8474,30.9633],[-90.8466,30.9612],[-90.8492,30.9589],[-90.8494,30.956],[-90.8518,30.9571],[-90.8542,30.9541],[-90.854,30.9499],[-90.8604,30.9477],[-90.8601,30.9444],[-90.863,30.942],[-90.8587,30.9387],[-90.861,30.9354],[-90.8576,30.9336],[-90.8571,30.9291],[-90.8595,30.927],[-90.8539,30.9213],[-90.8565,30.9191],[-90.854,30.9111],[-90.8518,30.9121],[-90.8518,30.909],[-90.8567,30.9076],[-90.8541,30.9054],[-90.8545,30.8974],[-90.8527,30.8987],[-90.8491,30.8957],[-90.8483,30.8904],[-90.8454,30.8869],[-90.8501,30.8853],[-90.8497,30.8826],[-90.8525,30.882],[-90.853,30.8768],[-90.8556,30.873],[-90.8611,30.8719],[-90.861,30.8698],[-90.8548,30.8685],[-90.8532,30.866],[-90.8572,30.8619],[-90.8583,30.8589],[-90.8499,30.8538],[-90.8449,30.855],[-90.8461,30.8484],[-90.841,30.8469],[-90.8419,30.8434],[-90.8407,30.8402],[-90.8446,30.838],[-90.8482,30.8397],[-90.8476,30.8342],[-90.8496,30.8305],[-90.8444,30.8287],[-90.8446,30.8254],[-90.8405,30.8241],[-90.8392,30.8202],[-90.8355,30.8202],[-90.8347,30.8132],[-90.8401,30.8112],[-90.8415,30.8085],[-90.8408,30.8002],[-90.8375,30.8002],[-90.8372,30.7964],[-90.8419,30.7984],[-90.8418,30.795],[-90.8447,30.7929],[-90.8438,30.7878],[-90.8408,30.7864],[-90.8441,30.7837],[-90.842,30.7811],[-90.8439,30.7772],[-90.8404,30.7727],[-90.8436,30.7703],[-90.8419,30.7655],[-90.8478,30.762],[-90.8468,30.7593],[-90.8489,30.7575],[-90.847,30.7541],[-90.8504,30.7543],[-90.849,30.7498],[-90.8472,30.7488],[-90.8486,30.7436],[-90.845,30.7371],[-90.8427,30.7374],[-90.8439,30.7337],[-90.8416,30.7314],[-90.8437,30.7248],[-90.8392,30.7245],[-90.8413,30.7207],[-90.8449,30.7192],[-90.8488,30.7195],[-90.968,30.7152],[-91.2523,30.7051],[-91.2652,30.6981],[-91.2678,30.6946],[-91.2678,30.6867],[-91.2707,30.6809],[-91.2894,30.678],[-91.2903,30.6677],[-91.2927,30.6631],[-91.2936,30.655],[-91.2977,30.6495],[-91.3012,30.6516],[-91.3094,30.652],[-91.3101,30.654],[-91.3052,30.656],[-91.3057,30.6657],[-91.3052,30.6734],[-91.3085,30.6801],[-91.3126,30.6828],[-91.3154,30.6937],[-91.3193,30.6957],[-91.3207,30.6994],[-91.3184,30.7001],[-91.3125,30.6985],[-91.3108,30.7019],[-91.3112,30.7078],[-91.3051,30.7076],[-91.3024,30.709],[-91.3019,30.714],[-91.297,30.7159],[-91.2931,30.7156],[-91.2922,30.7186],[-91.2967,30.7254],[-91.2919,30.7316],[-91.2861,30.7345],[-91.2872,30.7404],[-91.2862,30.7467],[-91.2822,30.7516],[-91.2801,30.7565],[-91.2771,30.7583],[-91.272,30.7557],[-91.2676,30.7573],[-91.2638,30.7627],[-91.2619,30.7681],[-91.2595,30.769],[-91.2599,30.7715],[-91.2557,30.7729],[-91.2503,30.7775],[-91.2511,30.7817],[-91.2489,30.7864],[-91.2405,30.7872],[-91.2366,30.7902],[-91.2362,30.7951],[-91.2402,30.7968],[-91.2438,30.8003],[-91.2426,30.8046],[-91.2374,30.8059],[-91.2306,30.8106],[-91.2302,30.816],[-91.234,30.8204],[-91.2343,30.8261],[-91.2309,30.8301],[-91.23,30.8339],[-91.2263,30.84],[-91.2248,30.847],[-91.2292,30.8543],[-91.2233,30.8565],[-91.2196,30.8645],[-91.2208,30.8683],[-91.225,30.8691],[-91.224,30.8726],[-91.2211,30.8758],[-91.2221,30.8816],[-91.2188,30.8846],[-91.2188,30.8899],[-91.2172,30.8929],[-91.2113,30.8916],[-91.2072,30.892],[-91.2065,30.8999],[-91.2089,30.9052],[-91.206,30.9106],[-91.2088,30.9148],[-91.2078,30.9183],[-91.2004,30.9189],[-91.1978,30.9218],[-91.197,30.9267],[-91.1939,30.932],[-91.1896,30.9331],[-91.1866,30.9375],[-91.191,30.9406],[-91.1913,30.9429],[-91.1947,30.9455],[-91.1933,30.9503],[-91.1958,30.9567],[-91.1952,30.9625],[-91.1928,30.9662],[-91.1894,30.9676],[-91.1924,30.9692],[-91.1894,30.9726],[-91.1859,30.9721],[-91.1826,30.9736],[-91.1804,30.9783],[-91.1801,30.9913],[-91.1774,30.994],[-91.1761,30.9991],[-91.1083,30.9989]]]}},{"type":"Feature","properties":{"id":"22005","name":"Ascension Par."},"geometry":{"type":"Polygon","coordinates":[[[-91.018,30.3241],[-91.0163,30.3283],[-91.0138,30.3302],[-91.0142,30.3348],[-91.0093,30.336],[-91.0078,30.3379],[-91.0008,30.3366],[-90.9975,30.3415],[-90.9889,30.3431],[-90.987,30.3457],[-90.9846,30.344],[-90.9777,30.3439],[-90.9748,30.3469],[-90.9681,30.3458],[-90.9639,30.3469],[-90.9624,30.3453],[-90.9493,30.3454],[-90.9485,30.3428],[-90.9456,30.3432],[-90.9439,30.3411],[-90.9394,30.3403],[-90.9276,30.3433],[-90.9207,30.3457],[-90.9173,30.3438],[-90.9173,30.3409],[-90.9101,30.3397],[-90.9071,30.3419],[-90.9046,30.3406],[-90.8943,30.3459],[-90.8917,30.3452],[-90.8904,30.344],[-90.8863,30.3464],[-90.8838,30.3428],[-90.8812,30.3451],[-90.8755,30.3432],[-90.8714,30.3445],[-90.8717,30.3419],[-90.8674,30.3426],[-90.8635,30.3406],[-90.8592,30.3439],[-90.8568,30.341],[-90.8597,30.3393],[-90.8551,30.3344],[-90.854,30.3348],[-90.8491,30.3291],[-90.8435,30.3284],[-90.8366,30.3256],[-90.8392,30.3237],[-90.8401,30.3202],[-90.8382,30.3181],[-90.8308,30.3186],[-90.8291,30.3175],[-90.8298,30.3125],[-90.828,30.3106],[-90.8249,30.302],[-90.8227,30.3006],[-90.826,30.2983],[-90.8253,30.2937],[-90.8185,30.2914],[-90.8136,30.2924],[-90.8165,30.2877],[-90.812,30.2774],[-90.8103,30.2755],[-90.8041,30.2783],[-90.7986,30.2795],[-90.7988,30.2833],[-90.7968,30.2844],[-90.794,30.2809],[-90.7847,30.2803],[-90.7852,30.2778],[-90.7821,30.2748],[-90.785,30.2735],[-90.7909,30.2668],[-90.7906,30.2626],[-90.7872,30.257],[-90.7741,30.2517],[-90.7753,30.2482],[-90.7729,30.2447],[-90.768,30.2416],[-90.7678,30.2397],[-90.7603,30.2393],[-90.7577,30.2412],[-90.7491,30.2413],[-90.7475,30.2372],[-90.7425,30.236],[-90.7419,30.2299],[-90.7366,30.2242],[-90.7314,30.2212],[-90.7323,30.2163],[-90.735,30.215],[-90.7344,30.2119],[-90.7294,30.2122],[-90.7253,30.2099],[-90.7226,30.2065],[-90.7225,30.2006],[-90.7191,30.1979],[-90.7195,30.19],[-90.7148,30.1864],[-90.7085,30.1843],[-90.7073,30.1868],[-90.7033,30.1858],[-90.7015,30.1801],[-90.6986,30.176],[-90.6946,30.1752],[-90.6898,30.1766],[-90.685,30.1806],[-90.6823,30.1844],[-90.682,30.1891],[-90.6776,30.192],[-90.6767,30.1964],[-90.6733,30.198],[-90.679,30.2067],[-90.6743,30.2122],[-90.6703,30.2149],[-90.6663,30.2147],[-90.6635,30.212],[-90.6617,30.2137],[-90.6633,30.22],[-90.6604,30.2255],[-90.654,30.2279],[-90.6476,30.2327],[-90.6426,30.2287],[-90.6361,30.2276],[-90.6341,30.222],[-90.6319,30.2212],[-90.6421,30.1664],[-90.7596,30.1436],[-90.8693,30.122],[-90.9156,30.1133],[-90.9147,30.1088],[-90.9345,30.0942],[-90.937,30.0889],[-90.9356,30.0856],[-90.9427,30.0811],[-90.9637,30.0668],[-90.9659,30.0654],[-90.9847,30.0651],[-91.0005,30.0738],[-91.0057,30.0791],[-91.0261,30.0746],[-91.0264,30.0761],[-91.051,30.0718],[-91.0558,30.0706],[-91.0747,30.0817],[-91.0782,30.0772],[-91.0893,30.0768],[-91.0891,30.0628],[-91.106,30.0627],[-91.1066,30.1085],[-91.0898,30.1087],[-91.0902,30.1537],[-91.0786,30.161],[-91.0736,30.1609],[-91.07,30.182],[-91.0589,30.212],[-91.0591,30.2131],[-91.0449,30.252],[-91.0193,30.3186],[-91.021,30.3215],[-91.018,30.3241]]]}},{"type":"Feature","properties":{"id":"22125","name":"West Feliciana Par."},"geometry":{"type":"MultiPolygon","coordinates":[[[[-91.6594,30.9715],[-91.6571,30.976],[-91.65,30.982],[-91.6464,30.9861],[-91.6406,30.9961],[-91.6369,30.9994],[-91.6251,30.9992],[-91.5387,30.9994],[-91.5001,30.9987],[-91.4974,30.999],[-91.4236,30.999],[-91.2465,30.9995],[-91.2248,30.9992],[-91.1761,30.9991],[-91.1774,30.994],[-91.1801,30.9913],[-91.1804,30.9783],[-91.1826,30.9736],[-91.1859,30.9721],[-91.1894,30.9726],[-91.1924,30.9692],[-91.1894,30.9676],[-91.1928,30.9662],[-91.1952,30.9625],[-91.1958,30.9567],[-91.1933,30.9503],[-91.1947,30.9455],[-91.1913,30.9429],[-91.191,30.9406],[-91.1866,30.9375],[-91.1896,30.9331],[-91.1939,30.932],[-91.197,30.9267],[-91.1978,30.9218],[-91.2004,30.9189],[-91.2078,30.9183],[-91.2088,30.9148],[-91.206,30.9106],[-91.2089,30.9052],[-91.2065,30.8999],[-91.2072,30.892],[-91.2113,30.8916],[-91.2172,30.8929],[-91.2188,30.8899],[-91.2188,30.8846],[-91.2221,30.8816],[-91.2211,30.8758],[-91.224,30.8726],[-91.225,30.8691],[-91.2208,30.8683],[-91.2196,30.8645],[-91.2233,30.8565],[-91.2292,30.8543],[-91.2248,30.847],[-91.2263,30.84],[-91.23,30.8339],[-91.2309,30.8301],[-91.2343,30.8261],[-91.234,30.8204],[-91.2302,30.816],[-91.2306,30.8106],[-91.2374,30.8059],[-91.2426,30.8046],[-91.2438,30.8003],[-91.2402,30.7968],[-91.2362,30.7951],[-91.2366,30.7902],[-91.2405,30.7872],[-91.2489,30.7864],[-91.2511,30.7817],[-91.2503,30.7775],[-91.2557,30.7729],[-91.2599,30.7715],[-91.2595,30.769],[-91.2619,30.7681],[-91.2638,30.7627],[-91.2676,30.7573],[-91.272,30.7557],[-91.2771,30.7583],[-91.2801,30.7565],[-91.2822,30.7516],[-91.2862,30.7467],[-91.2872,30.7404],[-91.2861,30.7345],[-91.2919,30.7316],[-91.2967,30.7254],[-91.2922,30.7186],[-91.2931,30.7156],[-91.297,30.7159],[-91.3019,30.714],[-91.3024,30.709],[-91.3051,30.7076],[-91.3112,30.7078],[-91.3108,30.7019],[-91.3125,30.6985],[-91.3184,30.7001],[-91.3207,30.6994],[-91.3193,30.6957],[-91.3154,30.6937],[-91.3126,30.6828],[-91.3085,30.6801],[-91.3052,30.6734],[-91.3057,30.6657],[-91.3052,30.656],[-91.3101,30.654],[-91.3223,30.656],[-91.3309,30.6587],[-91.3351,30.6601],[-91.3384,30.6649],[-91.3407,30.6702],[-91.3439,30.682],[-91.3448,30.6878],[-91.3473,30.6942],[-91.3481,30.7033],[-91.3531,30.7218],[-91.3575,30.7313],[-91.362,30.7393],[-91.3688,30.7473],[-91.3751,30.7559],[-91.3806,30.7588],[-91.3904,30.7586],[-91.397,30.7576],[-91.4086,30.7532],[-91.423,30.7455],[-91.4401,30.7393],[-91.4504,30.7362],[-91.4578,30.7353],[-91.4623,30.7356],[-91.4802,30.7406],[-91.4869,30.7413],[-91.5001,30.741],[-91.5099,30.7403],[-91.5217,30.738],[-91.5382,30.733],[-91.553,30.7308],[-91.5601,30.7317],[-91.5713,30.7353],[-91.5779,30.7392],[-91.5947,30.7504],[-91.5962,30.7576],[-91.5929,30.766],[-91.5903,30.7691],[-91.5845,30.7728],[-91.5765,30.7752],[-91.5639,30.7768],[-91.5573,30.7782],[-91.5511,30.7806],[-91.5469,30.7836],[-91.5395,30.7912],[-91.5359,30.8022],[-91.5296,30.8188],[-91.5264,30.8292],[-91.5239,30.8336],[-91.5226,30.8398],[-91.5179,30.8514],[-91.5156,30.8614],[-91.5151,30.8698],[-91.5156,30.8752],[-91.5214,30.8901],[-91.5258,30.896],[-91.5345,30.9063],[-91.5443,30.9137],[-91.5493,30.9162],[-91.5598,30.9185],[-91.5683,30.9188],[-91.6038,30.917],[-91.6146,30.9176],[-91.6152,30.9069],[-91.6139,30.9018],[-91.6074,30.898],[-91.5945,30.8962],[-91.5856,30.8958],[-91.5761,30.8934],[-91.5688,30.8891],[-91.5636,30.8833],[-91.559,30.8719],[-91.5564,30.8486],[-91.5591,30.8398],[-91.5635,30.8365],[-91.5675,30.8368],[-91.5712,30.8422],[-91.5785,30.8463],[-91.588,30.8473],[-91.5962,30.847],[-91.603,30.846],[-91.6251,30.8402],[-91.6361,30.8416],[-91.647,30.8449],[-91.6566,30.851],[-91.6614,30.8571],[-91.6618,30.86],[-91.6607,30.895],[-91.6579,30.905],[-91.6523,30.9182],[-91.6449,30.929],[-91.6523,30.9411],[-91.6572,30.9515],[-91.6615,30.9644],[-91.6625,30.9704],[-91.6594,30.9715]]],[[[-91.7457,31.0252],[-91.7334,31.0335],[-91.7266,31.0399],[-91.7238,31.0443],[-91.7219,31.0415],[-91.7181,31.0405],[-91.7088,31.0409],[-91.7049,31.0397],[-91.6966,31.0392],[-91.6842,31.0435],[-91.6761,31.0436],[-91.6644,31.0448],[-91.6598,31.044],[-91.6515,31.0393],[-91.6464,31.0328],[-91.6438,31.0252],[-91.6449,31.0212],[-91.6524,31.0117],[-91.6574,31.0014],[-91.6583,30.9944],[-91.6621,30.9986],[-91.6649,31.0049],[-91.6711,31.0106],[-91.6809,31.0156],[-91.691,31.0193],[-91.6964,31.02],[-91.703,31.0186],[-91.7059,31.0163],[-91.7092,31.0095],[-91.714,31.0068],[-91.7193,31.0067],[-91.7241,31.0084],[-91.7338,31.0144],[-91.7459,31.0189],[-91.7501,31.0188],[-91.7457,31.0252]]]]}},{"type":"Feature","properties":{"id":"22063","name":"Livingston Par."},"geometry":{"type":"Polygon","coordinates":[[[-90.8537,30.6494],[-90.8527,30.6496],[-90.78,30.6497],[-90.6436,30.6499],[-90.5671,30.65],[-90.567,30.5442],[-90.5669,30.4871],[-90.5622,30.4841],[-90.5575,30.4849],[-90.5579,30.477],[-90.5529,30.4757],[-90.5542,30.4721],[-90.55,30.4677],[-90.5537,30.4609],[-90.5511,30.4561],[-90.5516,30.4541],[-90.5465,30.448],[-90.5469,30.4452],[-90.5506,30.4426],[-90.5465,30.4381],[-90.5469,30.4316],[-90.54,30.4266],[-90.5362,30.4256],[-90.5352,30.421],[-90.5327,30.4216],[-90.5321,30.4191],[-90.5272,30.419],[-90.5189,30.4119],[-90.5206,30.4099],[-90.5146,30.4063],[-90.5139,30.3984],[-90.5107,30.3951],[-90.5149,30.3935],[-90.515,30.3919],[-90.508,30.3878],[-90.5039,30.3887],[-90.501,30.3842],[-90.5021,30.3783],[-90.4997,30.3752],[-90.5043,30.3693],[-90.503,30.3669],[-90.5033,30.3622],[-90.5013,30.362],[-90.4937,30.366],[-90.4887,30.3636],[-90.4901,30.3575],[-90.4883,30.3554],[-90.4805,30.3583],[-90.4778,30.3564],[-90.4745,30.3486],[-90.4737,30.3437],[-90.4812,30.3372],[-90.4836,30.3333],[-90.4854,30.3217],[-90.485,30.3085],[-90.4823,30.2887],[-90.4858,30.277],[-90.5017,30.2514],[-90.5091,30.2301],[-90.5161,30.2213],[-90.5384,30.2035],[-90.547,30.1987],[-90.5541,30.1956],[-90.5675,30.1954],[-90.5778,30.1972],[-90.5814,30.1989],[-90.5915,30.2058],[-90.592,30.2083],[-90.5976,30.2156],[-90.6012,30.2175],[-90.6056,30.2172],[-90.6104,30.2142],[-90.6138,30.2148],[-90.6178,30.2191],[-90.6319,30.2212],[-90.6341,30.222],[-90.6361,30.2276],[-90.6426,30.2287],[-90.6476,30.2327],[-90.654,30.2279],[-90.6604,30.2255],[-90.6633,30.22],[-90.6617,30.2137],[-90.6635,30.212],[-90.6663,30.2147],[-90.6703,30.2149],[-90.6743,30.2122],[-90.679,30.2067],[-90.6733,30.198],[-90.6767,30.1964],[-90.6776,30.192],[-90.682,30.1891],[-90.6823,30.1844],[-90.685,30.1806],[-90.6898,30.1766],[-90.6946,30.1752],[-90.6986,30.176],[-90.7015,30.1801],[-90.7033,30.1858],[-90.7073,30.1868],[-90.7085,30.1843],[-90.7148,30.1864],[-90.7195,30.19],[-90.7191,30.1979],[-90.7225,30.2006],[-90.7226,30.2065],[-90.7253,30.2099],[-90.7294,30.2122],[-90.7344,30.2119],[-90.735,30.215],[-90.7323,30.2163],[-90.7314,30.2212],[-90.7366,30.2242],[-90.7419,30.2299],[-90.7425,30.236],[-90.7475,30.2372],[-90.7491,30.2413],[-90.7577,30.2412],[-90.7603,30.2393],[-90.7678,30.2397],[-90.768,30.2416],[-90.7729,30.2447],[-90.7753,30.2482],[-90.7741,30.2517],[-90.7872,30.257],[-90.7906,30.2626],[-90.7909,30.2668],[-90.785,30.2735],[-90.7821,30.2748],[-90.7852,30.2778],[-90.7847,30.2803],[-90.794,30.2809],[-90.7968,30.2844],[-90.7988,30.2833],[-90.7986,30.2795],[-90.8041,30.2783],[-90.8103,30.2755],[-90.812,30.2774],[-90.8165,30.2877],[-90.8136,30.2924],[-90.8185,30.2914],[-90.8253,30.2937],[-90.826,30.2983],[-90.8227,30.3006],[-90.8249,30.302],[-90.828,30.3106],[-90.8298,30.3125],[-90.8291,30.3175],[-90.8308,30.3186],[-90.8382,30.3181],[-90.8401,30.3202],[-90.8392,30.3237],[-90.8366,30.3256],[-90.8435,30.3284],[-90.8491,30.3291],[-90.854,30.3348],[-90.8551,30.3344],[-90.8597,30.3393],[-90.8568,30.341],[-90.8592,30.3439],[-90.8635,30.3406],[-90.8674,30.3426],[-90.8717,30.3419],[-90.8714,30.3445],[-90.8755,30.3432],[-90.8812,30.3451],[-90.8838,30.3428],[-90.8863,30.3464],[-90.8904,30.344],[-90.8917,30.3452],[-90.8956,30.3479],[-90.9006,30.3477],[-90.9004,30.3521],[-90.9023,30.3553],[-90.9065,30.3552],[-90.9072,30.3577],[-90.9037,30.3578],[-90.9054,30.3611],[-90.9099,30.3605],[-90.9135,30.3587],[-90.9203,30.3659],[-90.9294,30.3619],[-90.9341,30.3658],[-90.937,30.3639],[-90.9372,30.3666],[-90.9325,30.3697],[-90.9329,30.3727],[-90.9403,30.3742],[-90.9437,30.3765],[-90.9459,30.3799],[-90.9446,30.3838],[-90.9472,30.3849],[-90.9428,30.3894],[-90.9439,30.3917],[-90.9492,30.3944],[-90.9541,30.3896],[-90.9614,30.3881],[-90.9642,30.3904],[-90.9674,30.3887],[-90.9689,30.3933],[-90.9723,30.3975],[-90.9721,30.4023],[-90.9694,30.4051],[-90.9633,30.4028],[-90.9584,30.4052],[-90.9585,30.4074],[-90.9632,30.4137],[-90.9661,30.4152],[-90.9633,30.418],[-90.9707,30.4208],[-90.9775,30.4209],[-90.9812,30.4223],[-90.9825,30.4255],[-90.979,30.4286],[-90.981,30.4304],[-90.9802,30.4334],[-90.9734,30.4377],[-90.9724,30.4403],[-90.9764,30.4385],[-90.9813,30.4419],[-90.9869,30.4484],[-90.9868,30.4503],[-90.9815,30.451],[-90.9812,30.4528],[-90.9886,30.4551],[-90.989,30.4587],[-90.9915,30.462],[-90.9892,30.4658],[-90.9843,30.4683],[-90.9811,30.4665],[-90.9765,30.4673],[-90.9743,30.471],[-90.9751,30.476],[-90.9787,30.4791],[-90.9748,30.4818],[-90.9755,30.4839],[-90.9719,30.4855],[-90.9731,30.4918],[-90.9701,30.4924],[-90.9703,30.4975],[-90.9759,30.4983],[-90.9745,30.5012],[-90.9679,30.5044],[-90.971,30.5074],[-90.9715,30.5118],[-90.9777,30.5151],[-90.9805,30.5184],[-90.9783,30.5213],[-90.9822,30.5221],[-90.9775,30.5251],[-90.9793,30.5297],[-90.9844,30.5306],[-90.9803,30.5344],[-90.98,30.5377],[-90.974,30.5395],[-90.9728,30.5432],[-90.9759,30.5455],[-90.9757,30.5477],[-90.972,30.5508],[-90.9733,30.5545],[-90.972,30.5642],[-90.9755,30.5655],[-90.9766,30.5685],[-90.9805,30.5688],[-90.9829,30.5713],[-90.9879,30.5726],[-90.9833,30.58],[-90.9857,30.5823],[-90.9851,30.5856],[-90.9805,30.5848],[-90.9794,30.5876],[-90.9807,30.5908],[-90.9776,30.5908],[-90.9774,30.5935],[-90.9735,30.5925],[-90.9722,30.5969],[-90.9656,30.5974],[-90.9662,30.5945],[-90.9638,30.5939],[-90.9627,30.6],[-90.9591,30.5983],[-90.9569,30.5995],[-90.9602,30.6052],[-90.9529,30.6055],[-90.9491,30.6041],[-90.9477,30.6098],[-90.9398,30.609],[-90.9387,30.6124],[-90.9342,30.6138],[-90.936,30.6161],[-90.9322,30.6184],[-90.9348,30.6198],[-90.9385,30.618],[-90.9406,30.6205],[-90.9376,30.623],[-90.935,30.6283],[-90.9246,30.6388],[-90.9209,30.6367],[-90.9169,30.6398],[-90.917,30.6439],[-90.9154,30.6467],[-90.9113,30.646],[-90.9107,30.6494],[-90.8537,30.6494]]]}},{"type":"Feature","properties":{"id":"22077","name":"Pointe Coupee Par."},"geometry":{"type":"Polygon","coordinates":[[[-91.7459,31.0189],[-91.7338,31.0144],[-91.7241,31.0084],[-91.7193,31.0067],[-91.714,31.0068],[-91.7092,31.0095],[-91.7059,31.0163],[-91.703,31.0186],[-91.6964,31.02],[-91.691,31.0193],[-91.6809,31.0156],[-91.6711,31.0106],[-91.6649,31.0049],[-91.6621,30.9986],[-91.6583,30.9944],[-91.6584,30.9918],[-91.6631,30.9844],[-91.6636,30.9793],[-91.6625,30.9704],[-91.6615,30.9644],[-91.6572,30.9515],[-91.6523,30.9411],[-91.6449,30.929],[-91.6523,30.9182],[-91.6579,30.905],[-91.6607,30.895],[-91.6618,30.86],[-91.6614,30.8571],[-91.6566,30.851],[-91.647,30.8449],[-91.6361,30.8416],[-91.6251,30.8402],[-91.603,30.846],[-91.5962,30.847],[-91.588,30.8473],[-91.5785,30.8463],[-91.5712,30.8422],[-91.5675,30.8368],[-91.5635,30.8365],[-91.5591,30.8398],[-91.5564,30.8486],[-91.559,30.8719],[-91.5636,30.8833],[-91.5688,30.8891],[-91.5761,30.8934],[-91.5856,30.8958],[-91.5945,30.8962],[-91.6074,30.898],[-91.6139,30.9018],[-91.6152,30.9069],[-91.6146,30.9176],[-91.6038,30.917],[-91.5683,30.9188],[-91.5598,30.9185],[-91.5493,30.9162],[-91.5443,30.9137],[-91.5345,30.9063],[-91.5258,30.896],[-91.5214,30.8901],[-91.5156,30.8752],[-91.5151,30.8698],[-91.5156,30.8614],[-91.5179,30.8514],[-91.5226,30.8398],[-91.5239,30.8336],[-91.5264,30.8292],[-91.5296,30.8188],[-91.5359,30.8022],[-91.5395,30.7912],[-91.5469,30.7836],[-91.5511,30.7806],[-91.5573,30.7782],[-91.5639,30.7768],[-91.5765,30.7752],[-91.5845,30.7728],[-91.5903,30.7691],[-91.5929,30.766],[-91.5962,30.7576],[-91.5947,30.7504],[-91.5779,30.7392],[-91.5713,30.7353],[-91.5601,30.7317],[-91.553,30.7308],[-91.5382,30.733],[-91.5217,30.738],[-91.5099,30.7403],[-91.5001,30.741],[-91.4869,30.7413],[-91.4802,30.7406],[-91.4623,30.7356],[-91.4578,30.7353],[-91.4504,30.7362],[-91.4401,30.7393],[-91.423,30.7455],[-91.4086,30.7532],[-91.397,30.7576],[-91.3904,30.7586],[-91.3806,30.7588],[-91.3751,30.7559],[-91.3688,30.7473],[-91.362,30.7393],[-91.3575,30.7313],[-91.3531,30.7218],[-91.3481,30.7033],[-91.3473,30.6942],[-91.3448,30.6878],[-91.3439,30.682],[-91.3407,30.6702],[-91.3384,30.6649],[-91.3351,30.6601],[-91.3309,30.6587],[-91.3328,30.6535],[-91.3098,30.6501],[-91.3198,30.633],[-91.3374,30.6149],[-91.3497,30.6042],[-91.355,30.5978],[-91.3652,30.5884],[-91.365,30.5696],[-91.3865,30.5693],[-91.3985,30.5688],[-91.4056,30.5542],[-91.4082,30.5429],[-91.4077,30.5403],[-91.4151,30.5402],[-91.4148,30.5115],[-91.4817,30.511],[-91.4816,30.4974],[-91.4852,30.4973],[-91.4997,30.4968],[-91.5265,30.4972],[-91.5265,30.4963],[-91.5578,30.4885],[-91.5563,30.4829],[-91.5835,30.4826],[-91.5834,30.497],[-91.7013,30.4977],[-91.7562,30.4981],[-91.7538,30.5062],[-91.7473,30.5091],[-91.7359,30.5082],[-91.7314,30.5121],[-91.7328,30.5203],[-91.7422,30.5316],[-91.7535,30.5548],[-91.757,30.5626],[-91.7572,30.5668],[-91.7544,30.5742],[-91.7542,30.5861],[-91.7521,30.5966],[-91.7514,30.6037],[-91.7538,30.6081],[-91.7547,30.6125],[-91.754,30.6174],[-91.7501,30.6227],[-91.745,30.6252],[-91.741,30.6325],[-91.744,30.6398],[-91.746,30.6526],[-91.7464,30.6588],[-91.7445,30.6624],[-91.7382,30.6645],[-91.7315,30.6698],[-91.7362,30.6793],[-91.7362,30.6842],[-91.734,30.6922],[-91.734,30.7034],[-91.7375,30.7115],[-91.7433,30.7185],[-91.7465,30.7235],[-91.748,30.7283],[-91.7519,30.7358],[-91.7579,30.741],[-91.7579,30.7456],[-91.7559,30.7502],[-91.7552,30.7566],[-91.7563,30.7601],[-91.7633,30.772],[-91.7655,30.78],[-91.7688,30.7854],[-91.7774,30.7936],[-91.7821,30.7964],[-91.7868,30.7975],[-91.801,30.8067],[-91.8033,30.8073],[-91.8073,30.8111],[-91.8083,30.8145],[-91.8075,30.8203],[-91.8016,30.8245],[-91.7985,30.829],[-91.8011,30.8375],[-91.8172,30.8494],[-91.8231,30.8564],[-91.8217,30.8611],[-91.8099,30.8619],[-91.8043,30.8637],[-91.8027,30.8677],[-91.8016,30.8752],[-91.8027,30.8833],[-91.8012,30.8986],[-91.8018,30.9131],[-91.8002,30.9246],[-91.8031,30.9402],[-91.8025,30.9502],[-91.8029,30.9571],[-91.8056,30.9684],[-91.8056,30.9744],[-91.8037,30.9779],[-91.7965,30.9828],[-91.7822,30.9858],[-91.7783,30.9888],[-91.776,30.9934],[-91.7742,31.0026],[-91.7675,31.0091],[-91.7559,31.0142],[-91.7501,31.0188],[-91.7459,31.0189]]]}},{"type":"Feature","properties":{"id":"22091","name":"St. Helena Par."},"geometry":{"type":"Polygon","coordinates":[[[-90.8449,30.7192],[-90.8413,30.7207],[-90.8392,30.7245],[-90.8437,30.7248],[-90.8416,30.7314],[-90.8439,30.7337],[-90.8427,30.7374],[-90.845,30.7371],[-90.8486,30.7436],[-90.8472,30.7488],[-90.849,30.7498],[-90.8504,30.7543],[-90.847,30.7541],[-90.8489,30.7575],[-90.8468,30.7593],[-90.8478,30.762],[-90.8419,30.7655],[-90.8436,30.7703],[-90.8404,30.7727],[-90.8439,30.7772],[-90.842,30.7811],[-90.8441,30.7837],[-90.8408,30.7864],[-90.8438,30.7878],[-90.8447,30.7929],[-90.8418,30.795],[-90.8419,30.7984],[-90.8372,30.7964],[-90.8375,30.8002],[-90.8408,30.8002],[-90.8415,30.8085],[-90.8401,30.8112],[-90.8347,30.8132],[-90.8355,30.8202],[-90.8392,30.8202],[-90.8405,30.8241],[-90.8446,30.8254],[-90.8444,30.8287],[-90.8496,30.8305],[-90.8476,30.8342],[-90.8482,30.8397],[-90.8446,30.838],[-90.8407,30.8402],[-90.8419,30.8434],[-90.841,30.8469],[-90.8461,30.8484],[-90.8449,30.855],[-90.8499,30.8538],[-90.8583,30.8589],[-90.8572,30.8619],[-90.8532,30.866],[-90.8548,30.8685],[-90.861,30.8698],[-90.8611,30.8719],[-90.8556,30.873],[-90.853,30.8768],[-90.8525,30.882],[-90.8497,30.8826],[-90.8501,30.8853],[-90.8454,30.8869],[-90.8483,30.8904],[-90.8491,30.8957],[-90.8527,30.8987],[-90.8545,30.8974],[-90.8541,30.9054],[-90.8567,30.9076],[-90.8518,30.909],[-90.8518,30.9121],[-90.854,30.9111],[-90.8565,30.9191],[-90.8539,30.9213],[-90.8595,30.927],[-90.8571,30.9291],[-90.8576,30.9336],[-90.861,30.9354],[-90.8587,30.9387],[-90.863,30.942],[-90.8601,30.9444],[-90.8604,30.9477],[-90.854,30.9499],[-90.8542,30.9541],[-90.8518,30.9571],[-90.8494,30.956],[-90.8492,30.9589],[-90.8466,30.9612],[-90.8474,30.9633],[-90.8434,30.9695],[-90.8444,30.9745],[-90.8427,30.9813],[-90.8442,30.9827],[-90.8426,30.9871],[-90.8405,30.9876],[-90.8376,30.993],[-90.8286,30.9958],[-90.8258,30.9994],[-90.7588,30.9996],[-90.7345,30.9992],[-90.5672,30.9997],[-90.5672,30.9273],[-90.5668,30.8926],[-90.5672,30.8248],[-90.5668,30.7478],[-90.5664,30.7376],[-90.5658,30.6639],[-90.5671,30.65],[-90.6436,30.6499],[-90.78,30.6497],[-90.8527,30.6496],[-90.8537,30.6494],[-90.9107,30.6494],[-90.912,30.6521],[-90.9088,30.6553],[-90.9023,30.6547],[-90.8999,30.6581],[-90.9032,30.6597],[-90.8998,30.6611],[-90.9005,30.6654],[-90.8971,30.6637],[-90.8939,30.6665],[-90.8966,30.6682],[-90.8935,30.6706],[-90.8888,30.6706],[-90.8906,30.6724],[-90.8857,30.6749],[-90.8856,30.6769],[-90.881,30.6776],[-90.8771,30.6803],[-90.8791,30.6826],[-90.8765,30.6866],[-90.8723,30.687],[-90.8693,30.6892],[-90.8709,30.6933],[-90.8658,30.6933],[-90.8627,30.6919],[-90.8599,30.6928],[-90.8607,30.6955],[-90.853,30.6957],[-90.8515,30.7014],[-90.8541,30.7008],[-90.8511,30.7056],[-90.8487,30.7045],[-90.8442,30.708],[-90.8451,30.7125],[-90.8474,30.7129],[-90.8488,30.7195],[-90.8449,30.7192]]]}},{"type":"Feature","properties":{"id":"22047","name":"Iberville Par."},"geometry":{"type":"Polygon","coordinates":[[[-91.5834,30.497],[-91.5835,30.4826],[-91.5563,30.4829],[-91.5578,30.4885],[-91.5265,30.4963],[-91.5265,30.4972],[-91.4997,30.4968],[-91.4852,30.4973],[-91.4602,30.4704],[-91.4532,30.4751],[-91.4141,30.4317],[-91.4125,30.4324],[-91.3945,30.4086],[-91.3946,30.3948],[-91.3636,30.3842],[-91.3372,30.3534],[-91.3197,30.3447],[-91.3113,30.3225],[-91.2684,30.3229],[-91.2528,30.3232],[-91.1421,30.3233],[-91.1423,30.3199],[-91.1327,30.3134],[-91.1283,30.3142],[-91.1253,30.3132],[-91.1155,30.3127],[-91.113,30.3149],[-91.1085,30.3154],[-91.1052,30.3175],[-91.093,30.3206],[-91.0906,30.3194],[-91.0826,30.3197],[-91.0627,30.3189],[-91.0586,30.3171],[-91.0535,30.3175],[-91.0521,30.3163],[-91.045,30.3153],[-91.0324,30.3148],[-91.0283,30.316],[-91.021,30.3215],[-91.0193,30.3186],[-91.0449,30.252],[-91.0591,30.2131],[-91.0589,30.212],[-91.07,30.182],[-91.0736,30.1609],[-91.0786,30.161],[-91.0902,30.1537],[-91.0898,30.1087],[-91.1066,30.1085],[-91.106,30.0627],[-91.2242,30.0256],[-91.2217,30.0317],[-91.2219,30.0378],[-91.2254,30.0423],[-91.23,30.0419],[-91.2346,30.0377],[-91.2387,30.0305],[-91.2407,30.0294],[-91.2447,30.0311],[-91.2559,30.0398],[-91.2641,30.0508],[-91.2644,30.055],[-91.2691,30.0593],[-91.3362,30.059],[-91.3406,30.0615],[-91.3512,30.0601],[-91.3535,30.0609],[-91.3559,30.0581],[-91.3667,30.0547],[-91.372,30.0649],[-91.3694,30.0663],[-91.3688,30.0726],[-91.3718,30.0816],[-91.3762,30.0858],[-91.378,30.0949],[-91.3815,30.0972],[-91.3906,30.1002],[-91.3888,30.1024],[-91.4639,30.1027],[-91.4712,30.1107],[-91.4721,30.1142],[-91.4677,30.1211],[-91.4631,30.1252],[-91.4613,30.1312],[-91.4682,30.1396],[-91.4725,30.1427],[-91.4682,30.149],[-91.4689,30.1631],[-91.4681,30.1665],[-91.4727,30.1808],[-91.472,30.1867],[-91.4767,30.1917],[-91.4825,30.1938],[-91.4888,30.1989],[-91.4902,30.2019],[-91.4882,30.2038],[-91.4898,30.2059],[-91.4863,30.2138],[-91.4813,30.2183],[-91.4816,30.2212],[-91.4772,30.2245],[-91.4753,30.2292],[-91.4786,30.2314],[-91.4948,30.2374],[-91.5083,30.2403],[-91.5172,30.2412],[-91.53,30.2412],[-91.5361,30.24],[-91.5458,30.24],[-91.5548,30.2419],[-91.5628,30.2419],[-91.5703,30.2448],[-91.5757,30.2478],[-91.588,30.2571],[-91.5903,30.2602],[-91.5908,30.2668],[-91.5886,30.2693],[-91.5877,30.2733],[-91.59,30.277],[-91.604,30.2895],[-91.6211,30.3099],[-91.6275,30.3301],[-91.6246,30.3385],[-91.6247,30.3418],[-91.6272,30.3492],[-91.6255,30.3542],[-91.6481,30.3651],[-91.6433,30.3725],[-91.6362,30.3742],[-91.629,30.3779],[-91.6286,30.3833],[-91.6263,30.3864],[-91.6248,30.3948],[-91.6271,30.3994],[-91.6266,30.402],[-91.63,30.4071],[-91.63,30.4108],[-91.6281,30.4139],[-91.6293,30.4162],[-91.6347,30.4197],[-91.6344,30.4225],[-91.6396,30.429],[-91.6372,30.4349],[-91.6401,30.4427],[-91.6457,30.4442],[-91.6477,30.4491],[-91.663,30.4607],[-91.6609,30.4613],[-91.6748,30.4745],[-91.6775,30.476],[-91.6855,30.4763],[-91.6925,30.4813],[-91.7013,30.4926],[-91.7013,30.4977],[-91.5834,30.497]]]}},{"type":"Feature","properties":{"id":"22007","name":"Assumption Par."},"geometry":{"type":"Polygon","coordinates":[[[-91.106,30.0627],[-91.0891,30.0628],[-91.0893,30.0768],[-91.0782,30.0772],[-91.0747,30.0817],[-91.0558,30.0706],[-91.051,30.0718],[-91.0264,30.0761],[-91.0261,30.0746],[-91.0057,30.0791],[-91.0005,30.0738],[-90.9847,30.0651],[-90.9659,30.0654],[-90.9637,30.0668],[-90.9634,30.0358],[-90.9464,30.036],[-90.9463,29.9779],[-90.9118,29.9785],[-90.9118,29.9351],[-90.8863,29.9356],[-90.8855,29.8776],[-90.9098,29.8772],[-90.918,29.8524],[-90.925,29.8304],[-90.9246,29.8303],[-90.9476,29.7925],[-90.9818,29.7449],[-91.0069,29.7151],[-91.0826,29.6268],[-91.0834,29.6312],[-91.0896,29.6376],[-91.0952,29.64],[-91.1026,29.6414],[-91.1052,29.643],[-91.1053,29.6455],[-91.1002,29.6564],[-91.0995,29.6616],[-91.0986,29.677],[-91.0991,29.6866],[-91.0981,29.6907],[-91.0952,29.6943],[-91.0953,29.6963],[-91.0986,29.6975],[-91.1003,29.7003],[-91.1066,29.7335],[-91.1041,29.7364],[-91.0993,29.7358],[-91.0954,29.737],[-91.0934,29.7457],[-91.0895,29.7555],[-91.093,29.7608],[-91.093,29.7631],[-91.1004,29.7726],[-91.096,29.7789],[-91.1001,29.7851],[-91.099,29.7896],[-91.0948,29.7988],[-91.0927,29.8016],[-91.0958,29.8058],[-91.0962,29.8087],[-91.0994,29.8147],[-91.1029,29.8172],[-91.1061,29.8169],[-91.1067,29.8203],[-91.1111,29.8266],[-91.1207,29.8279],[-91.1251,29.8324],[-91.1318,29.837],[-91.1414,29.8374],[-91.1502,29.8368],[-91.1557,29.8401],[-91.1637,29.8424],[-91.1845,29.8467],[-91.19,29.8514],[-91.1939,29.8564],[-91.2003,29.8618],[-91.2022,29.8721],[-91.2056,29.8794],[-91.2072,29.8866],[-91.2068,29.8968],[-91.2097,29.9024],[-91.2159,29.9089],[-91.2255,29.9126],[-91.2318,29.9179],[-91.2326,29.9214],[-91.2305,29.9269],[-91.2297,29.9327],[-91.2316,29.9356],[-91.2384,29.9387],[-91.2427,29.9438],[-91.2477,29.9511],[-91.2455,29.9532],[-91.2464,29.9568],[-91.2514,29.9576],[-91.2511,29.9623],[-91.2545,29.9685],[-91.2545,29.9721],[-91.2571,29.9803],[-91.2598,29.9853],[-91.2594,30.0002],[-91.2557,30.0013],[-91.2448,30.0002],[-91.2377,30.0002],[-91.2359,30.0011],[-91.2319,30.0076],[-91.2242,30.0256],[-91.106,30.0627]]]}},{"type":"Feature","properties":{"id":"22121","name":"West Baton Rouge Par."},"geometry":{"type":"Polygon","coordinates":[[[-91.3223,30.656],[-91.3101,30.654],[-91.3094,30.652],[-91.3012,30.6516],[-91.2977,30.6495],[-91.2944,30.6423],[-91.2928,30.6315],[-91.2946,30.6252],[-91.3019,30.6095],[-91.3099,30.6013],[-91.3153,30.5943],[-91.3165,30.5852],[-91.3144,30.5788],[-91.3105,30.5747],[-91.3059,30.573],[-91.2956,30.5722],[-91.2809,30.573],[-91.2671,30.5725],[-91.2615,30.5711],[-91.2544,30.5665],[-91.2479,30.5607],[-91.2431,30.5531],[-91.2423,30.548],[-91.2433,30.5406],[-91.2461,30.5359],[-91.2495,30.5338],[-91.266,30.5266],[-91.2754,30.5211],[-91.2809,30.5186],[-91.2844,30.5153],[-91.2842,30.5096],[-91.2815,30.5061],[-91.2765,30.5047],[-91.2627,30.5052],[-91.2093,30.523],[-91.2008,30.5177],[-91.1985,30.5131],[-91.1972,30.5069],[-91.1959,30.4394],[-91.1963,30.4347],[-91.1998,30.4191],[-91.2081,30.4037],[-91.2153,30.394],[-91.2339,30.3753],[-91.2406,30.3628],[-91.2415,30.3576],[-91.2395,30.3516],[-91.2358,30.3445],[-91.2303,30.3411],[-91.2226,30.3406],[-91.2141,30.3423],[-91.2044,30.3452],[-91.1945,30.347],[-91.1873,30.3465],[-91.1703,30.3436],[-91.1541,30.3392],[-91.1508,30.3374],[-91.145,30.3313],[-91.1421,30.3233],[-91.2528,30.3232],[-91.2684,30.3229],[-91.3113,30.3225],[-91.3197,30.3447],[-91.3372,30.3534],[-91.3636,30.3842],[-91.3946,30.3948],[-91.3945,30.4086],[-91.4125,30.4324],[-91.4141,30.4317],[-91.4532,30.4751],[-91.4602,30.4704],[-91.4852,30.4973],[-91.4816,30.4974],[-91.4817,30.511],[-91.4148,30.5115],[-91.4151,30.5402],[-91.4077,30.5403],[-91.4082,30.5429],[-91.4056,30.5542],[-91.3985,30.5688],[-91.3865,30.5693],[-91.365,30.5696],[-91.3652,30.5884],[-91.355,30.5978],[-91.3497,30.6042],[-91.3374,30.6149],[-91.3198,30.633],[-91.3098,30.6501],[-91.3328,30.6535],[-91.3309,30.6587],[-91.3223,30.656]]]}}]}