{"type":"FeatureCollection","features":[{"type":"Feature","properties":{"id":"12081","name":"Manatee Co."},"geometry":{"type":"MultiPolygon","coordinates":[[[[-82.5726,27.6369],[-82.5693,27.6332],[-82.5692,27.6305],[-82.5736,27.6313],[-82.5767,27.6351],[-82.5726,27.6369]]],[[[-82.1129,27.2082],[-82.2536,27.2089],[-82.2532,27.2898],[-82.2526,27.3644],[-82.2523,27.3862],[-82.3748,27.3866],[-82.392,27.3868],[-82.3981,27.3865],[-82.4333,27.3863],[-82.4471,27.3861],[-82.4475,27.3886],[-82.4636,27.3882],[-82.5016,27.3884],[-82.52,27.389],[-82.5291,27.3887],[-82.5593,27.389],[-82.6428,27.3897],[-82.6611,27.4126],[-82.6751,27.4243],[-82.6901,27.4344],[-82.6918,27.4372],[-82.691,27.4443],[-82.7078,27.4876],[-82.7145,27.5004],[-82.7245,27.5136],[-82.743,27.5311],[-82.7457,27.5388],[-82.7424,27.5394],[-82.7349,27.5348],[-82.7209,27.5281],[-82.708,27.5231],[-82.7096,27.5133],[-82.7116,27.5089],[-82.7106,27.5017],[-82.7068,27.4984],[-82.6904,27.4964],[-82.6861,27.4981],[-82.6869,27.508],[-82.6836,27.5131],[-82.6746,27.5196],[-82.662,27.5228],[-82.6556,27.5213],[-82.6485,27.5223],[-82.6413,27.5255],[-82.6467,27.5318],[-82.646,27.5335],[-82.6349,27.5392],[-82.6321,27.5519],[-82.6267,27.5589],[-82.612,27.5712],[-82.613,27.5828],[-82.6117,27.5853],[-82.6017,27.5899],[-82.5965,27.594],[-82.5876,27.5941],[-82.5815,27.5963],[-82.5774,27.5996],[-82.5777,27.6054],[-82.5725,27.6071],[-82.5657,27.6157],[-82.5645,27.6218],[-82.566,27.6245],[-82.5637,27.6314],[-82.5629,27.638],[-82.5585,27.6387],[-82.5541,27.6458],[-82.5495,27.6456],[-82.4985,27.6455],[-82.4523,27.6459],[-82.3849,27.6464],[-82.3449,27.6463],[-82.3364,27.6465],[-82.2829,27.6467],[-82.2682,27.6464],[-82.0564,27.6462],[-82.0543,27.6464],[-82.0545,27.5952],[-82.0555,27.4731],[-82.0558,27.3383],[-82.0562,27.292],[-82.0561,27.2497],[-82.0565,27.2078],[-82.1129,27.2082]]]]}},{"type":"Feature","properties":{"id":"12115","name":"Sarasota Co."},"geometry":{"type":"Polygon","coordinates":[[[-82.0576,27.1253],[-82.0574,27.1199],[-82.0575,27.0321],[-82.0886,27.0322],[-82.1562,27.0327],[-82.2552,27.033],[-82.2555,26.9453],[-82.3208,26.9456],[-82.3651,26.9461],[-82.3752,26.946],[-82.3816,26.9577],[-82.3928,26.9727],[-82.4006,26.9849],[-82.4095,27.0045],[-82.4192,27.0207],[-82.4457,27.0606],[-82.4563,27.0873],[-82.4603,27.0999],[-82.4653,27.1107],[-82.4689,27.1136],[-82.477,27.1412],[-82.4867,27.1587],[-82.4999,27.1806],[-82.5028,27.1897],[-82.5111,27.2076],[-82.5142,27.2119],[-82.522,27.2284],[-82.5283,27.2374],[-82.5331,27.2413],[-82.5362,27.2454],[-82.5365,27.2488],[-82.5397,27.2543],[-82.5451,27.261],[-82.5577,27.2674],[-82.564,27.2699],[-82.5689,27.2756],[-82.5698,27.2795],[-82.5646,27.2848],[-82.5617,27.2892],[-82.5601,27.2951],[-82.5692,27.2986],[-82.576,27.3093],[-82.5835,27.3176],[-82.5868,27.3196],[-82.5904,27.3284],[-82.6239,27.3622],[-82.6375,27.38],[-82.6428,27.3897],[-82.5593,27.389],[-82.5291,27.3887],[-82.52,27.389],[-82.5016,27.3884],[-82.4636,27.3882],[-82.4475,27.3886],[-82.4471,27.3861],[-82.4333,27.3863],[-82.3981,27.3865],[-82.392,27.3868],[-82.3748,27.3866],[-82.2523,27.3862],[-82.2526,27.3644],[-82.2532,27.2898],[-82.2536,27.2089],[-82.1129,27.2082],[-82.0565,27.2078],[-82.0576,27.1253]]]}}]}