{"type":"FeatureCollection","features":[{"type":"Feature","properties":{"zcta":"34289","d":577},"geometry":{"type":"Polygon","coordinates":[[[-82.10703,27.07591],[-82.15553,27.07598],[-82.1655,27.07616],[-82.15958,27.08025],[-82.15873,27.08155],[-82.15896,27.09137],[-82.15934,27.09363],[-82.15556,27.09387],[-82.15552,27.09898],[-82.13478,27.09874],[-82.12857,27.09751],[-82.123,27.09416],[-82.10246,27.07579],[-82.10703,27.07591]]]}},{"type":"Feature","properties":{"zcta":"34233","d":1605},"geometry":{"type":"Polygon","coordinates":[[[-82.49756,27.29992],[-82.49417,27.29973],[-82.49417,27.29877],[-82.48453,27.29875],[-82.48095,27.29948],[-82.47571,27.2995],[-82.47572,27.29875],[-82.44821,27.2988],[-82.44889,27.28386],[-82.44916,27.26928],[-82.46057,27.26905],[-82.46056,27.26832],[-82.46463,27.26795],[-82.46477,27.26553],[-82.4666,27.26545],[-82.47141,27.26344],[-82.47369,27.2637],[-82.47334,27.26906],[-82.49761,27.26919],[-82.49756,27.29878],[-82.49756,27.29992]]]}},{"type":"Feature","properties":{"zcta":"34228","d":954},"geometry":{"type":"Polygon","coordinates":[[[-82.68813,27.44461],[-82.68002,27.45352],[-82.65142,27.43242],[-82.61658,27.38954],[-82.61706,27.38955],[-82.58946,27.35447],[-82.57927,27.34175],[-82.57952,27.33682],[-82.58982,27.32728],[-82.59037,27.32836],[-82.62386,27.36221],[-82.63754,27.37998],[-82.64282,27.38972],[-82.66108,27.4126],[-82.67512,27.42432],[-82.69007,27.43442],[-82.69182,27.43722],[-82.69108,27.44366],[-82.68813,27.44461]]]}},{"type":"Feature","properties":{"zcta":"34235","d":1213},"geometry":{"type":"Polygon","coordinates":[[[-82.48321,27.38095],[-82.47771,27.38184],[-82.47258,27.38101],[-82.47228,27.38485],[-82.46802,27.38482],[-82.46699,27.38214],[-82.46387,27.383],[-82.46384,27.38113],[-82.45577,27.38133],[-82.45444,27.37824],[-82.45195,27.37752],[-82.44796,27.37446],[-82.4474,27.37316],[-82.44762,27.35713],[-82.45275,27.35716],[-82.45265,27.35189],[-82.46397,27.35199],[-82.46396,27.35095],[-82.46763,27.35108],[-82.46761,27.35206],[-82.49725,27.35238],[-82.49724,27.35199],[-82.50304,27.35183],[-82.50567,27.35237],[-82.50566,27.37611],[-82.50301,27.3811],[-82.48321,27.38095]]]}},{"type":"Feature","properties":{"zcta":"34222","d":1294},"geometry":{"type":"Polygon","coordinates":[[[-82.4786,27.54277],[-82.48249,27.54271],[-82.48138,27.54108],[-82.48268,27.53913],[-82.47859,27.53912],[-82.4799,27.5358],[-82.48269,27.53547],[-82.48269,27.52894],[-82.4834,27.52765],[-82.48362,27.52313],[-82.49531,27.52563],[-82.50091,27.52577],[-82.5034,27.52494],[-82.51858,27.51371],[-82.52642,27.50812],[-82.5301,27.50775],[-82.53106,27.50938],[-82.54044,27.50794],[-82.54674,27.50587],[-82.55178,27.50576],[-82.55227,27.51156],[-82.55156,27.5123],[-82.54749,27.51147],[-82.54453,27.51],[-82.54165,27.51143],[-82.53778,27.51209],[-82.53747,27.51397],[-82.53979,27.51399],[-82.5398,27.5162],[-82.54328,27.51689],[-82.54336,27.51922],[-82.5402,27.52155],[-82.54018,27.52471],[-82.53778,27.52484],[-82.53594,27.52637],[-82.53578,27.52905],[-82.51146,27.52879],[-82.50793,27.52988],[-82.51053,27.53709],[-82.51076,27.53958],[-82.51067,27.55206],[-82.51132,27.55656],[-82.49141,27.56552],[-82.48703,27.56503],[-82.48698,27.56133],[-82.48492,27.5613],[-82.48481,27.55762],[-82.48277,27.55754],[-82.48282,27.55558],[-82.491,27.5553],[-82.47871,27.55384],[-82.4786,27.54277]]]}},{"type":"Feature","properties":{"zcta":"34215","d":975},"geometry":{"type":"Polygon","coordinates":[[[-82.67175,27.48071],[-82.67344,27.47437],[-82.67585,27.47537],[-82.67807,27.47109],[-82.67568,27.4701],[-82.67729,27.46698],[-82.68092,27.46849],[-82.68083,27.46528],[-82.68587,27.46567],[-82.68969,27.46916],[-82.69242,27.46889],[-82.69542,27.48082],[-82.67175,27.48071]]]}},{"type":"Feature","properties":{"zcta":"34208","d":1154},"geometry":{"type":"Polygon","coordinates":[[[-82.55178,27.50576],[-82.54674,27.50587],[-82.54044,27.50794],[-82.53106,27.50938],[-82.5301,27.50775],[-82.52642,27.50812],[-82.51858,27.51371],[-82.5034,27.52494],[-82.50091,27.52577],[-82.49531,27.52563],[-82.48362,27.52313],[-82.48143,27.51602],[-82.48323,27.51452],[-82.48855,27.5132],[-82.49142,27.5103],[-82.49261,27.50743],[-82.48136,27.50288],[-82.47787,27.50113],[-82.47566,27.49884],[-82.47181,27.49094],[-82.45927,27.46489],[-82.45898,27.45711],[-82.45992,27.46162],[-82.49304,27.46173],[-82.4934,27.4648],[-82.49501,27.46175],[-82.51366,27.4618],[-82.51624,27.46142],[-82.53021,27.46177],[-82.53741,27.46217],[-82.55905,27.46238],[-82.56212,27.46289],[-82.56286,27.46399],[-82.56302,27.48073],[-82.56338,27.48294],[-82.56296,27.49227],[-82.56417,27.49292],[-82.56311,27.49521],[-82.56312,27.50433],[-82.55178,27.50576]]]}},{"type":"Feature","properties":{"zcta":"34288","d":419},"geometry":{"type":"Polygon","coordinates":[[[-82.15553,27.07598],[-82.10703,27.07591],[-82.10246,27.07579],[-82.07062,27.07597],[-82.05752,27.07649],[-82.05751,27.03212],[-82.08859,27.0322],[-82.12245,27.03254],[-82.17718,27.03279],[-82.17679,27.03566],[-82.17495,27.03684],[-82.17042,27.04174],[-82.16711,27.04332],[-82.16111,27.05011],[-82.15954,27.05462],[-82.16334,27.0606],[-82.16284,27.06525],[-82.16636,27.07281],[-82.1655,27.07616],[-82.15553,27.07598]]]}},{"type":"Feature","properties":{"zcta":"34287","d":760},"geometry":{"type":"Polygon","coordinates":[[[-82.25456,27.09967],[-82.25451,27.07426],[-82.25398,27.07716],[-82.24967,27.07712],[-82.24912,27.07801],[-82.2339,27.07744],[-82.22949,27.07421],[-82.21775,27.06825],[-82.21386,27.06825],[-82.20888,27.07098],[-82.20692,27.0711],[-82.20318,27.06895],[-82.19209,27.06883],[-82.19137,27.06211],[-82.1931,27.05656],[-82.19548,27.05218],[-82.19673,27.05136],[-82.19998,27.04582],[-82.19943,27.0443],[-82.20139,27.0399],[-82.20344,27.03284],[-82.25517,27.03302],[-82.25518,27.03114],[-82.26394,27.02642],[-82.26618,27.02608],[-82.26982,27.02703],[-82.27119,27.02881],[-82.27554,27.03067],[-82.28126,27.03631],[-82.2843,27.04087],[-82.29135,27.04364],[-82.29295,27.04504],[-82.29284,27.05277],[-82.29371,27.05359],[-82.29129,27.05335],[-82.29195,27.05511],[-82.28867,27.05981],[-82.28909,27.06153],[-82.28582,27.06608],[-82.28541,27.07018],[-82.2825,27.07991],[-82.277,27.0863],[-82.27203,27.0906],[-82.27143,27.09285],[-82.26968,27.09391],[-82.26971,27.09714],[-82.27166,27.09803],[-82.2715,27.09985],[-82.25456,27.09967]]]}},{"type":"Feature","properties":{"zcta":"34231","d":1690},"geometry":{"type":"Polygon","coordinates":[[[-82.53532,27.29885],[-82.53454,27.29785],[-82.53107,27.29884],[-82.52721,27.29884],[-82.52723,27.29709],[-82.52236,27.29636],[-82.52235,27.29884],[-82.5159,27.29884],[-82.51589,27.29798],[-82.51003,27.29808],[-82.51002,27.29882],[-82.49756,27.29878],[-82.49761,27.26919],[-82.4976,27.25648],[-82.49941,27.2553],[-82.49759,27.25104],[-82.49755,27.22828],[-82.49431,27.22829],[-82.49323,27.22565],[-82.49361,27.22194],[-82.49176,27.22197],[-82.49165,27.2183],[-82.50169,27.21886],[-82.50049,27.2177],[-82.50052,27.21525],[-82.50192,27.21454],[-82.51161,27.2279],[-82.52042,27.24243],[-82.53129,27.2539],[-82.53668,27.26156],[-82.54052,27.26973],[-82.54242,27.27154],[-82.54413,27.27847],[-82.54288,27.28121],[-82.54375,27.28527],[-82.54438,27.29705],[-82.54474,27.29889],[-82.53532,27.29885]]]}},{"type":"Feature","properties":{"zcta":"34285","d":1101},"geometry":{"type":"Polygon","coordinates":[[[-82.4173,27.10099],[-82.41305,27.10097],[-82.41307,27.09978],[-82.41732,27.09973],[-82.4173,27.09415],[-82.41857,27.09397],[-82.4174,27.09151],[-82.41229,27.08723],[-82.40692,27.08774],[-82.4046,27.08901],[-82.39664,27.09134],[-82.39277,27.09011],[-82.39288,27.07912],[-82.40446,27.07913],[-82.40445,27.0787],[-82.42378,27.07857],[-82.42727,27.07877],[-82.42803,27.07723],[-82.43051,27.0787],[-82.43056,27.07002],[-82.431,27.06851],[-82.43799,27.0558],[-82.44243,27.06071],[-82.44575,27.06071],[-82.45633,27.08732],[-82.46032,27.09993],[-82.46532,27.11073],[-82.46764,27.11261],[-82.4649,27.1124],[-82.4604,27.11311],[-82.45885,27.11219],[-82.45879,27.10857],[-82.44739,27.11306],[-82.44347,27.11417],[-82.44157,27.11393],[-82.44157,27.11614],[-82.43367,27.11754],[-82.43367,27.11926],[-82.42133,27.11925],[-82.42132,27.11753],[-82.42452,27.11758],[-82.42266,27.11527],[-82.41726,27.1136],[-82.4173,27.10099]]]}},{"type":"Feature","properties":{"zcta":"34236","d":2263},"geometry":{"type":"Polygon","coordinates":[[[-82.57952,27.33682],[-82.57927,27.34175],[-82.57685,27.34254],[-82.57684,27.35302],[-82.55452,27.35302],[-82.55032,27.35342],[-82.54737,27.35495],[-82.54693,27.35238],[-82.5385,27.3523],[-82.53852,27.35137],[-82.53451,27.35127],[-82.53453,27.35226],[-82.5304,27.35222],[-82.53038,27.35132],[-82.53098,27.34507],[-82.53098,27.33646],[-82.5305,27.32839],[-82.52826,27.32841],[-82.52994,27.32687],[-82.52973,27.3229],[-82.53786,27.32286],[-82.54042,27.32348],[-82.53787,27.32555],[-82.5382,27.32647],[-82.54134,27.32448],[-82.54722,27.32432],[-82.54552,27.31542],[-82.54492,27.30422],[-82.56135,27.30632],[-82.56172,27.29932],[-82.56072,27.29875],[-82.56242,27.29594],[-82.56925,27.29859],[-82.57602,27.30932],[-82.58353,27.31759],[-82.58675,27.31961],[-82.58982,27.32728],[-82.57952,27.33682]]]}},{"type":"Feature","properties":{"zcta":"34242","d":1057},"geometry":{"type":"Polygon","coordinates":[[[-82.56072,27.29875],[-82.56172,27.29932],[-82.56135,27.30632],[-82.54492,27.30422],[-82.54474,27.29889],[-82.54438,27.29705],[-82.54375,27.28527],[-82.54288,27.28121],[-82.54413,27.27847],[-82.54242,27.27154],[-82.54052,27.26973],[-82.53668,27.26156],[-82.53129,27.2539],[-82.52042,27.24243],[-82.51161,27.2279],[-82.50192,27.21454],[-82.50173,27.20911],[-82.50252,27.20794],[-82.5072,27.20672],[-82.51139,27.208],[-82.51422,27.21191],[-82.52203,27.22838],[-82.52829,27.23737],[-82.53313,27.24127],[-82.53623,27.2454],[-82.53646,27.24876],[-82.53972,27.25433],[-82.54512,27.26103],[-82.55767,27.26737],[-82.56399,27.26986],[-82.56889,27.27558],[-82.56975,27.27945],[-82.56458,27.28475],[-82.56172,27.28919],[-82.56006,27.2951],[-82.56242,27.29594],[-82.56072,27.29875]]]}},{"type":"Feature","properties":{"zcta":"34211","d":401},"geometry":{"type":"Polygon","coordinates":[[[-82.30334,27.46748],[-82.30321,27.46618],[-82.30388,27.40725],[-82.3045,27.39895],[-82.31261,27.40259],[-82.35352,27.41585],[-82.36453,27.41953],[-82.38337,27.43119],[-82.38576,27.43187],[-82.41196,27.43185],[-82.42818,27.43205],[-82.42865,27.43566],[-82.43244,27.43944],[-82.43248,27.43294],[-82.45919,27.44126],[-82.45898,27.45711],[-82.45927,27.46489],[-82.47181,27.49094],[-82.46801,27.49038],[-82.46155,27.48695],[-82.4568,27.48596],[-82.45691,27.48255],[-82.45039,27.48232],[-82.44863,27.48146],[-82.44776,27.48434],[-82.44359,27.48544],[-82.4271,27.48505],[-82.42167,27.4842],[-82.41066,27.48425],[-82.40549,27.48185],[-82.40245,27.47777],[-82.39834,27.47575],[-82.37086,27.47547],[-82.37122,27.46341],[-82.37108,27.44619],[-82.36319,27.44671],[-82.35069,27.44612],[-82.35064,27.47526],[-82.30678,27.47455],[-82.30334,27.46748]]]}},{"type":"Feature","properties":{"zcta":"34237","d":2015},"geometry":{"type":"Polygon","coordinates":[[[-82.51906,27.35216],[-82.50566,27.35195],[-82.50567,27.35237],[-82.50304,27.35183],[-82.49724,27.35199],[-82.49739,27.33747],[-82.49949,27.33747],[-82.4979,27.33553],[-82.49853,27.33389],[-82.49809,27.33009],[-82.49898,27.3263],[-82.49747,27.32652],[-82.49747,27.32324],[-82.51409,27.32275],[-82.52973,27.3229],[-82.52994,27.32687],[-82.52826,27.32841],[-82.5305,27.32839],[-82.53098,27.33646],[-82.53098,27.34507],[-82.53038,27.35132],[-82.51906,27.35216]]]}},{"type":"Feature","properties":{"zcta":"34238","d":997},"geometry":{"type":"Polygon","coordinates":[[[-82.47334,27.26906],[-82.47369,27.2637],[-82.47141,27.26344],[-82.4666,27.26545],[-82.46477,27.26553],[-82.46463,27.26795],[-82.46056,27.26832],[-82.46057,27.26905],[-82.44916,27.26928],[-82.44957,27.25197],[-82.44986,27.24953],[-82.4527,27.23624],[-82.4528,27.23165],[-82.45209,27.22762],[-82.4507,27.2238],[-82.44469,27.21114],[-82.44292,27.2063],[-82.43889,27.19018],[-82.45621,27.16789],[-82.45815,27.17606],[-82.46647,27.21108],[-82.46892,27.21122],[-82.4902,27.21109],[-82.49028,27.21832],[-82.49165,27.2183],[-82.49176,27.22197],[-82.49361,27.22194],[-82.49323,27.22565],[-82.49431,27.22829],[-82.49755,27.22828],[-82.49759,27.25104],[-82.49941,27.2553],[-82.4976,27.25648],[-82.49761,27.26919],[-82.47334,27.26906]]]}},{"type":"Feature","properties":{"zcta":"34286","d":768},"geometry":{"type":"Polygon","coordinates":[[[-82.05738,27.11985],[-82.05752,27.07649],[-82.07062,27.07597],[-82.10246,27.07579],[-82.123,27.09416],[-82.12857,27.09751],[-82.13478,27.09874],[-82.15552,27.09898],[-82.15556,27.09387],[-82.15934,27.09363],[-82.15896,27.09137],[-82.15873,27.08155],[-82.15958,27.08025],[-82.1655,27.07616],[-82.16636,27.07281],[-82.16284,27.06525],[-82.16334,27.0606],[-82.15954,27.05462],[-82.16111,27.05011],[-82.16711,27.04332],[-82.17042,27.04174],[-82.17495,27.03684],[-82.17679,27.03566],[-82.17718,27.03279],[-82.20344,27.03284],[-82.20139,27.0399],[-82.19943,27.0443],[-82.19998,27.04582],[-82.19673,27.05136],[-82.19548,27.05218],[-82.1931,27.05656],[-82.19137,27.06211],[-82.19209,27.06883],[-82.20318,27.06895],[-82.20692,27.0711],[-82.20888,27.07098],[-82.20913,27.0721],[-82.20889,27.08485],[-82.20824,27.09189],[-82.20769,27.09325],[-82.20376,27.09578],[-82.20319,27.09952],[-82.20914,27.09959],[-82.20549,27.10733],[-82.20479,27.11159],[-82.20309,27.11575],[-82.19869,27.11705],[-82.19446,27.11935],[-82.19354,27.1212],[-82.15555,27.1202],[-82.15043,27.12018],[-82.05738,27.11985]]]}},{"type":"Feature","properties":{"zcta":"34291","d":326},"geometry":{"type":"Polygon","coordinates":[[[-82.25456,27.10007],[-82.25452,27.107],[-82.2589,27.10768],[-82.25896,27.10528],[-82.26488,27.10548],[-82.26508,27.10909],[-82.26414,27.11319],[-82.25863,27.1211],[-82.25762,27.1255],[-82.25808,27.12707],[-82.2563,27.1336],[-82.25504,27.13521],[-82.20741,27.12291],[-82.20674,27.12551],[-82.20483,27.12759],[-82.20514,27.12974],[-82.20886,27.13495],[-82.20634,27.14337],[-82.20721,27.14459],[-82.20687,27.14793],[-82.21216,27.15174],[-82.21243,27.15439],[-82.20861,27.16119],[-82.20879,27.16353],[-82.20484,27.1652],[-82.20484,27.16963],[-82.18038,27.14759],[-82.15043,27.12018],[-82.15555,27.1202],[-82.19354,27.1212],[-82.19446,27.11935],[-82.19869,27.11705],[-82.20309,27.11575],[-82.20479,27.11159],[-82.20549,27.10733],[-82.20914,27.09959],[-82.20319,27.09952],[-82.20376,27.09578],[-82.20769,27.09325],[-82.20824,27.09189],[-82.20889,27.08485],[-82.20913,27.0721],[-82.20888,27.07098],[-82.21386,27.06825],[-82.21775,27.06825],[-82.22949,27.07421],[-82.2339,27.07744],[-82.24912,27.07801],[-82.24967,27.07712],[-82.25398,27.07716],[-82.25451,27.07426],[-82.25456,27.09967],[-82.2715,27.09985],[-82.25456,27.10007]]]}},{"type":"Feature","properties":{"zcta":"34292","d":305},"geometry":{"type":"Polygon","coordinates":[[[-82.41727,27.12834],[-82.41517,27.12833],[-82.41515,27.13014],[-82.41311,27.13013],[-82.41311,27.13204],[-82.41136,27.13204],[-82.41137,27.13376],[-82.41716,27.13379],[-82.41714,27.13744],[-82.41046,27.13739],[-82.40448,27.13022],[-82.39756,27.12281],[-82.35992,27.1227],[-82.35992,27.12826],[-82.36174,27.1298],[-82.36237,27.13716],[-82.36042,27.13723],[-82.35777,27.13522],[-82.3513,27.13533],[-82.35177,27.13806],[-82.35483,27.13905],[-82.35795,27.13786],[-82.35882,27.13963],[-82.35395,27.14191],[-82.34679,27.1432],[-82.33686,27.14296],[-82.33841,27.14054],[-82.33716,27.13651],[-82.33728,27.13386],[-82.33891,27.13066],[-82.3396,27.12677],[-82.34275,27.12257],[-82.30505,27.1225],[-82.30155,27.12327],[-82.29687,27.12622],[-82.29641,27.12783],[-82.29303,27.13168],[-82.28894,27.13323],[-82.28826,27.13516],[-82.2563,27.1336],[-82.25808,27.12707],[-82.25762,27.1255],[-82.25863,27.1211],[-82.26414,27.11319],[-82.26508,27.10909],[-82.26488,27.10548],[-82.25896,27.10528],[-82.2589,27.10768],[-82.25452,27.107],[-82.25456,27.10007],[-82.2715,27.09985],[-82.27166,27.09803],[-82.26971,27.09714],[-82.26968,27.09391],[-82.27143,27.09285],[-82.27203,27.0906],[-82.277,27.0863],[-82.2825,27.07991],[-82.28541,27.07018],[-82.28582,27.06608],[-82.28909,27.06153],[-82.28867,27.05981],[-82.29195,27.05511],[-82.29129,27.05335],[-82.29371,27.05359],[-82.29652,27.0533],[-82.29991,27.05439],[-82.30407,27.0567],[-82.30609,27.06034],[-82.30997,27.06353],[-82.31471,27.06614],[-82.31253,27.06897],[-82.31289,27.07033],[-82.31654,27.0733],[-82.31699,27.07784],[-82.31872,27.07974],[-82.3196,27.07881],[-82.32144,27.08089],[-82.32619,27.08004],[-82.32901,27.07694],[-82.3307,27.0795],[-82.33266,27.07874],[-82.36531,27.07889],[-82.39288,27.07912],[-82.39277,27.09011],[-82.39664,27.09134],[-82.4046,27.08901],[-82.40692,27.08774],[-82.41229,27.08723],[-82.4174,27.09151],[-82.41857,27.09397],[-82.4173,27.09415],[-82.41732,27.09973],[-82.41307,27.09978],[-82.41305,27.10097],[-82.4173,27.10099],[-82.41726,27.1136],[-82.41727,27.12834]]]}},{"type":"Feature","properties":{"zcta":"34293","d":555},"geometry":{"type":"Polygon","coordinates":[[[-82.431,27.06851],[-82.43056,27.07002],[-82.43051,27.0787],[-82.42803,27.07723],[-82.42727,27.07877],[-82.42378,27.07857],[-82.40445,27.0787],[-82.40446,27.07913],[-82.39288,27.07912],[-82.36531,27.07889],[-82.33266,27.07874],[-82.3307,27.0795],[-82.32901,27.07694],[-82.32619,27.08004],[-82.32144,27.08089],[-82.3196,27.07881],[-82.31872,27.07974],[-82.31699,27.07784],[-82.31654,27.0733],[-82.31289,27.07033],[-82.31253,27.06897],[-82.31471,27.06614],[-82.30997,27.06353],[-82.30609,27.06034],[-82.30407,27.0567],[-82.29991,27.05439],[-82.29652,27.0533],[-82.29371,27.05359],[-82.29284,27.05277],[-82.29295,27.04504],[-82.29135,27.04364],[-82.2843,27.04087],[-82.28126,27.03631],[-82.27554,27.03067],[-82.27119,27.02881],[-82.26982,27.02703],[-82.26618,27.02608],[-82.26394,27.02642],[-82.25518,27.03114],[-82.2553,26.99895],[-82.26108,26.99884],[-82.2639,27.00002],[-82.27051,27.00513],[-82.27305,27.00513],[-82.273,27.01245],[-82.27503,27.01273],[-82.27503,27.0198],[-82.29537,27.02006],[-82.30289,27.01995],[-82.30572,27.01932],[-82.31086,27.02027],[-82.31421,27.02424],[-82.32279,27.02354],[-82.32918,27.02043],[-82.33622,27.02057],[-82.33919,27.02192],[-82.34296,27.02089],[-82.34762,27.02059],[-82.35128,27.02185],[-82.35472,27.02049],[-82.36565,27.02045],[-82.37947,27.02087],[-82.38135,27.02118],[-82.39068,27.02092],[-82.393,27.02293],[-82.398,27.02194],[-82.39801,27.02093],[-82.41144,27.02102],[-82.41408,27.01959],[-82.41374,27.01748],[-82.40969,27.01371],[-82.41033,27.01148],[-82.42725,27.03592],[-82.42774,27.03804],[-82.43689,27.04971],[-82.43872,27.05353],[-82.43799,27.0558],[-82.431,27.06851]]]}},{"type":"Feature","properties":{"zcta":"34241","d":122},"geometry":{"type":"Polygon","coordinates":[[[-82.44889,27.28386],[-82.44821,27.2988],[-82.40019,27.29866],[-82.39771,27.30234],[-82.3972,27.30461],[-82.39112,27.30459],[-82.38508,27.30187],[-82.38559,27.2955],[-82.3842,27.29317],[-82.38242,27.29582],[-82.38248,27.30006],[-82.38388,27.30546],[-82.38364,27.3255],[-82.3785,27.32731],[-82.3719,27.32433],[-82.37196,27.29674],[-82.36022,27.29007],[-82.35557,27.29781],[-82.34879,27.30444],[-82.34703,27.30828],[-82.34505,27.30719],[-82.33944,27.30626],[-82.33636,27.30304],[-82.33113,27.30585],[-82.32646,27.30951],[-82.31205,27.30947],[-82.30887,27.30715],[-82.30671,27.30169],[-82.2956,27.29891],[-82.29156,27.3042],[-82.29099,27.30954],[-82.28998,27.30963],[-82.28973,27.29861],[-82.28993,27.29116],[-82.28594,27.29117],[-82.28583,27.28607],[-82.27758,27.28601],[-82.2775,27.28961],[-82.25305,27.29055],[-82.25317,27.28776],[-82.25342,27.28653],[-82.25591,27.28582],[-82.26117,27.28067],[-82.26128,27.27912],[-82.26453,27.27833],[-82.26754,27.27414],[-82.27107,27.27395],[-82.27339,27.27109],[-82.2752,27.27048],[-82.28034,27.2713],[-82.2859,27.26607],[-82.28623,27.26189],[-82.28762,27.25993],[-82.28848,27.25449],[-82.29411,27.25119],[-82.29035,27.24903],[-82.28412,27.24765],[-82.28724,27.24435],[-82.29018,27.2384],[-82.29491,27.23275],[-82.29702,27.22956],[-82.29934,27.22421],[-82.31163,27.23484],[-82.31476,27.23568],[-82.31752,27.23432],[-82.31776,27.22768],[-82.31996,27.22759],[-82.32152,27.22893],[-82.32125,27.23353],[-82.32209,27.23614],[-82.3234,27.23652],[-82.32163,27.23123],[-82.3227,27.22757],[-82.32705,27.22212],[-82.33055,27.22083],[-82.33442,27.21787],[-82.33464,27.21512],[-82.33924,27.21438],[-82.33791,27.21109],[-82.34006,27.2096],[-82.34061,27.20577],[-82.34247,27.20245],[-82.3424,27.19984],[-82.34463,27.2015],[-82.3462,27.19806],[-82.34358,27.19742],[-82.34636,27.19451],[-82.34893,27.19442],[-82.34815,27.18817],[-82.35069,27.18909],[-82.35355,27.18831],[-82.35492,27.18596],[-82.35329,27.18551],[-82.35307,27.18271],[-82.35678,27.18171],[-82.35623,27.17734],[-82.35876,27.17606],[-82.36216,27.17302],[-82.36329,27.16934],[-82.36174,27.16745],[-82.36658,27.16504],[-82.36867,27.16543],[-82.36762,27.17418],[-82.37261,27.17422],[-82.37308,27.20335],[-82.37685,27.20339],[-82.38009,27.20567],[-82.38706,27.20522],[-82.39591,27.20515],[-82.3968,27.19985],[-82.39474,27.19719],[-82.39474,27.19256],[-82.39995,27.19413],[-82.40434,27.19388],[-82.40556,27.19236],[-82.40466,27.1858],[-82.4075,27.17043],[-82.40515,27.16663],[-82.41754,27.1666],[-82.41982,27.16556],[-82.42386,27.15521],[-82.43219,27.1675],[-82.43453,27.17284],[-82.43889,27.19018],[-82.44292,27.2063],[-82.44469,27.21114],[-82.4507,27.2238],[-82.45209,27.22762],[-82.4528,27.23165],[-82.4527,27.23624],[-82.44986,27.24953],[-82.44957,27.25197],[-82.44916,27.26928],[-82.44889,27.28386]]]}},{"type":"Feature","properties":{"zcta":"34243","d":926},"geometry":{"type":"Polygon","coordinates":[[[-82.57712,27.41372],[-82.57218,27.41772],[-82.56929,27.41717],[-82.56779,27.41872],[-82.56542,27.41798],[-82.56309,27.42246],[-82.5631,27.42569],[-82.55088,27.42565],[-82.55084,27.42755],[-82.5493,27.42757],[-82.5494,27.42534],[-82.5475,27.4251],[-82.54822,27.42746],[-82.5472,27.42927],[-82.53058,27.42908],[-82.53082,27.42581],[-82.52188,27.42487],[-82.52188,27.42905],[-82.50338,27.42894],[-82.49881,27.42676],[-82.49411,27.42544],[-82.4879,27.42534],[-82.48602,27.42478],[-82.4841,27.42434],[-82.48307,27.42072],[-82.47962,27.41791],[-82.48132,27.41335],[-82.48084,27.41067],[-82.48079,27.38832],[-82.4636,27.38824],[-82.45505,27.38869],[-82.449,27.38861],[-82.44697,27.38063],[-82.44677,27.35713],[-82.44762,27.35713],[-82.4474,27.37316],[-82.44796,27.37446],[-82.45195,27.37752],[-82.45444,27.37824],[-82.45577,27.38133],[-82.46384,27.38113],[-82.46387,27.383],[-82.46699,27.38214],[-82.46802,27.38482],[-82.47228,27.38485],[-82.47258,27.38101],[-82.47771,27.38184],[-82.48321,27.38095],[-82.50301,27.3811],[-82.50428,27.38175],[-82.54326,27.38173],[-82.55276,27.38382],[-82.55264,27.38195],[-82.55915,27.38127],[-82.56007,27.3801],[-82.56423,27.38039],[-82.56629,27.38912],[-82.59652,27.38932],[-82.59622,27.40522],[-82.57712,27.41372]]]}},{"type":"Feature","properties":{"zcta":"34251","d":12},"geometry":{"type":"Polygon","coordinates":[[[-82.05549,27.4731],[-82.05575,27.33826],[-82.05622,27.29202],[-82.05653,27.27537],[-82.05607,27.24971],[-82.0565,27.20777],[-82.11292,27.20819],[-82.13335,27.20821],[-82.2536,27.20892],[-82.25317,27.28776],[-82.25305,27.29055],[-82.25312,27.3001],[-82.25264,27.35024],[-82.25469,27.3499],[-82.26872,27.35006],[-82.2684,27.36442],[-82.26824,27.3863],[-82.29987,27.38634],[-82.29981,27.39681],[-82.3045,27.39895],[-82.30388,27.40725],[-82.30321,27.46618],[-82.30334,27.46748],[-82.30678,27.47455],[-82.30163,27.47558],[-82.35454,27.49342],[-82.3498,27.49939],[-82.34572,27.49765],[-82.34318,27.4954],[-82.33983,27.49821],[-82.33583,27.49787],[-82.33111,27.49893],[-82.32865,27.49845],[-82.32359,27.50033],[-82.3224,27.50526],[-82.3214,27.51291],[-82.28899,27.51254],[-82.28638,27.5134],[-82.28629,27.51775],[-82.28071,27.51781],[-82.27906,27.5193],[-82.27624,27.52408],[-82.27451,27.5289],[-82.27631,27.53201],[-82.27147,27.53155],[-82.27076,27.52999],[-82.26616,27.52685],[-82.26132,27.53],[-82.25995,27.53313],[-82.25772,27.53607],[-82.25552,27.54085],[-82.25303,27.54205],[-82.24961,27.54498],[-82.24588,27.5512],[-82.24526,27.55337],[-82.24215,27.55583],[-82.22314,27.55457],[-82.21424,27.55566],[-82.21172,27.55173],[-82.21262,27.54893],[-82.21512,27.54659],[-82.21509,27.54332],[-82.21331,27.53978],[-82.20971,27.53589],[-82.20812,27.53066],[-82.20881,27.52669],[-82.20043,27.52342],[-82.19838,27.52433],[-82.19365,27.5243],[-82.1883,27.52555],[-82.18452,27.52279],[-82.18217,27.52536],[-82.17907,27.53063],[-82.17589,27.53204],[-82.17042,27.5304],[-82.15823,27.52994],[-82.15794,27.52643],[-82.15303,27.52607],[-82.15123,27.52742],[-82.14482,27.52621],[-82.13999,27.52431],[-82.1406,27.51599],[-82.13195,27.51616],[-82.12481,27.51557],[-82.11842,27.51581],[-82.08753,27.51545],[-82.08763,27.53723],[-82.0818,27.53725],[-82.07879,27.53529],[-82.07298,27.51942],[-82.07072,27.49452],[-82.07445,27.49053],[-82.06371,27.48942],[-82.05649,27.48543],[-82.05536,27.48357],[-82.05549,27.4731]]]}},{"type":"Feature","properties":{"zcta":"34239","d":1616},"geometry":{"type":"Polygon","coordinates":[[[-82.51409,27.32275],[-82.49747,27.32324],[-82.49755,27.30429],[-82.49837,27.30425],[-82.49836,27.30023],[-82.49756,27.29992],[-82.49756,27.29878],[-82.51002,27.29882],[-82.51003,27.29808],[-82.51589,27.29798],[-82.5159,27.29884],[-82.52235,27.29884],[-82.52236,27.29636],[-82.52723,27.29709],[-82.52721,27.29884],[-82.53107,27.29884],[-82.53454,27.29785],[-82.53532,27.29885],[-82.54474,27.29889],[-82.54492,27.30422],[-82.54552,27.31542],[-82.54722,27.32432],[-82.54134,27.32448],[-82.5382,27.32647],[-82.53787,27.32555],[-82.54042,27.32348],[-82.53786,27.32286],[-82.52973,27.3229],[-82.51409,27.32275]]]}},{"type":"Feature","properties":{"zcta":"34275","d":475},"geometry":{"type":"Polygon","coordinates":[[[-82.45621,27.16789],[-82.43889,27.19018],[-82.43453,27.17284],[-82.43219,27.1675],[-82.42386,27.15521],[-82.41982,27.16556],[-82.41754,27.1666],[-82.40515,27.16663],[-82.4075,27.17043],[-82.40466,27.1858],[-82.40556,27.19236],[-82.40434,27.19388],[-82.39995,27.19413],[-82.39474,27.19256],[-82.39474,27.19719],[-82.3968,27.19985],[-82.39591,27.20515],[-82.38706,27.20522],[-82.38009,27.20567],[-82.37685,27.20339],[-82.37308,27.20335],[-82.37261,27.17422],[-82.36762,27.17418],[-82.36867,27.16543],[-82.36658,27.16504],[-82.3667,27.15486],[-82.36426,27.1558],[-82.36223,27.15457],[-82.3622,27.15117],[-82.3652,27.15039],[-82.36453,27.14687],[-82.3658,27.14563],[-82.36334,27.14494],[-82.3634,27.1435],[-82.3596,27.14121],[-82.36136,27.14008],[-82.36042,27.13723],[-82.36237,27.13716],[-82.36174,27.1298],[-82.35992,27.12826],[-82.35992,27.1227],[-82.39756,27.12281],[-82.40448,27.13022],[-82.41046,27.13739],[-82.41714,27.13744],[-82.41716,27.13379],[-82.41137,27.13376],[-82.41136,27.13204],[-82.41311,27.13204],[-82.41311,27.13013],[-82.41515,27.13014],[-82.41517,27.12833],[-82.41727,27.12834],[-82.41726,27.1136],[-82.42266,27.11527],[-82.42452,27.11758],[-82.42132,27.11753],[-82.42133,27.11925],[-82.43367,27.11926],[-82.43367,27.11754],[-82.44157,27.11614],[-82.44157,27.11393],[-82.44347,27.11417],[-82.44739,27.11306],[-82.45879,27.10857],[-82.45885,27.11219],[-82.4604,27.11311],[-82.4649,27.1124],[-82.46764,27.11261],[-82.46889,27.11361],[-82.47702,27.14123],[-82.48667,27.15866],[-82.49284,27.16839],[-82.49965,27.18008],[-82.49425,27.17988],[-82.48705,27.168],[-82.48589,27.16787],[-82.4851,27.16447],[-82.48069,27.16033],[-82.47493,27.16076],[-82.47263,27.16167],[-82.47282,27.16303],[-82.47706,27.16818],[-82.47396,27.16889],[-82.4725,27.17068],[-82.47001,27.17108],[-82.46875,27.17006],[-82.4674,27.17232],[-82.46464,27.17254],[-82.46375,27.17398],[-82.46049,27.1744],[-82.45815,27.17606],[-82.45621,27.16789]]]}},{"type":"Feature","properties":{"zcta":"34240","d":143},"geometry":{"type":"Polygon","coordinates":[[[-82.44207,27.38857],[-82.43624,27.38635],[-82.39812,27.38645],[-82.39267,27.38683],[-82.37169,27.3866],[-82.29987,27.38634],[-82.26824,27.3863],[-82.2684,27.36442],[-82.26872,27.35006],[-82.25469,27.3499],[-82.25264,27.35024],[-82.25312,27.3001],[-82.25305,27.29055],[-82.2775,27.28961],[-82.27758,27.28601],[-82.28583,27.28607],[-82.28594,27.29117],[-82.28993,27.29116],[-82.28973,27.29861],[-82.28998,27.30963],[-82.29099,27.30954],[-82.29156,27.3042],[-82.2956,27.29891],[-82.30671,27.30169],[-82.30887,27.30715],[-82.31205,27.30947],[-82.32646,27.30951],[-82.33113,27.30585],[-82.33636,27.30304],[-82.33944,27.30626],[-82.34505,27.30719],[-82.34703,27.30828],[-82.34879,27.30444],[-82.35557,27.29781],[-82.36022,27.29007],[-82.37196,27.29674],[-82.3719,27.32433],[-82.3785,27.32731],[-82.38364,27.3255],[-82.38388,27.30546],[-82.38248,27.30006],[-82.38242,27.29582],[-82.3842,27.29317],[-82.38559,27.2955],[-82.38508,27.30187],[-82.39112,27.30459],[-82.3972,27.30461],[-82.39771,27.30234],[-82.40019,27.29866],[-82.44821,27.2988],[-82.448,27.3223],[-82.44666,27.34416],[-82.44652,27.35715],[-82.44677,27.35713],[-82.44697,27.38063],[-82.449,27.38861],[-82.44861,27.38861],[-82.44207,27.38857]]]}},{"type":"Feature","properties":{"zcta":"34207","d":2291},"geometry":{"type":"Polygon","coordinates":[[[-82.57898,27.46247],[-82.57899,27.46332],[-82.57533,27.46233],[-82.5712,27.46232],[-82.57022,27.46416],[-82.56709,27.46429],[-82.56547,27.46244],[-82.56336,27.46292],[-82.56306,27.46235],[-82.56284,27.44806],[-82.56309,27.43297],[-82.55901,27.43297],[-82.55904,27.42932],[-82.56311,27.42934],[-82.5631,27.42569],[-82.56309,27.42246],[-82.56542,27.41798],[-82.56779,27.41872],[-82.56929,27.41717],[-82.57218,27.41772],[-82.57712,27.41372],[-82.59622,27.40522],[-82.59582,27.42217],[-82.59591,27.4298],[-82.59154,27.43101],[-82.59191,27.43428],[-82.59588,27.43433],[-82.59586,27.45467],[-82.59512,27.45513],[-82.59586,27.46237],[-82.57898,27.46247]]]}},{"type":"Feature","properties":{"zcta":"34205","d":2388},"geometry":{"type":"Polygon","coordinates":[[[-82.60386,27.49574],[-82.60208,27.49689],[-82.59889,27.50334],[-82.59828,27.50838],[-82.58252,27.50682],[-82.56312,27.50433],[-82.56311,27.49521],[-82.56417,27.49292],[-82.56296,27.49227],[-82.56338,27.48294],[-82.56302,27.48073],[-82.56286,27.46399],[-82.56336,27.46292],[-82.56547,27.46244],[-82.56709,27.46429],[-82.57022,27.46416],[-82.5712,27.46232],[-82.57533,27.46233],[-82.57899,27.46332],[-82.57898,27.46247],[-82.59586,27.46237],[-82.60411,27.46253],[-82.6041,27.46736],[-82.60386,27.49574]]]}},{"type":"Feature","properties":{"zcta":"34201","d":663},"geometry":{"type":"Polygon","coordinates":[[[-82.48239,27.42749],[-82.47847,27.42738],[-82.48061,27.42431],[-82.48024,27.42045],[-82.47676,27.42236],[-82.47314,27.41793],[-82.46616,27.41725],[-82.46568,27.41481],[-82.46228,27.41201],[-82.45842,27.4124],[-82.45724,27.41357],[-82.45529,27.41273],[-82.44861,27.38861],[-82.449,27.38861],[-82.45505,27.38869],[-82.4636,27.38824],[-82.48079,27.38832],[-82.48084,27.41067],[-82.48132,27.41335],[-82.47962,27.41791],[-82.48307,27.42072],[-82.4841,27.42434],[-82.48602,27.42478],[-82.48239,27.42749]]]}},{"type":"Feature","properties":{"zcta":"34232","d":1701},"geometry":{"type":"Polygon","coordinates":[[[-82.49725,27.35238],[-82.46761,27.35206],[-82.46763,27.35108],[-82.46396,27.35095],[-82.46397,27.35199],[-82.45265,27.35189],[-82.45275,27.35716],[-82.44762,27.35713],[-82.44677,27.35713],[-82.44652,27.35715],[-82.44666,27.34416],[-82.448,27.3223],[-82.44821,27.2988],[-82.47572,27.29875],[-82.47571,27.2995],[-82.48095,27.29948],[-82.48453,27.29875],[-82.49417,27.29877],[-82.49417,27.29973],[-82.49756,27.29992],[-82.49836,27.30023],[-82.49837,27.30425],[-82.49755,27.30429],[-82.49747,27.32324],[-82.49747,27.32652],[-82.49898,27.3263],[-82.49809,27.33009],[-82.49853,27.33389],[-82.4979,27.33553],[-82.49949,27.33747],[-82.49739,27.33747],[-82.49724,27.35199],[-82.49725,27.35238]]]}},{"type":"Feature","properties":{"zcta":"34234","d":1473},"geometry":{"type":"Polygon","coordinates":[[[-82.59652,27.38932],[-82.56629,27.38912],[-82.56423,27.38039],[-82.56007,27.3801],[-82.55915,27.38127],[-82.55264,27.38195],[-82.55276,27.38382],[-82.54326,27.38173],[-82.50428,27.38175],[-82.50301,27.3811],[-82.50566,27.37611],[-82.50567,27.35237],[-82.50566,27.35195],[-82.51906,27.35216],[-82.53038,27.35132],[-82.5304,27.35222],[-82.53453,27.35226],[-82.53451,27.35127],[-82.53852,27.35137],[-82.5385,27.3523],[-82.54693,27.35238],[-82.54737,27.35495],[-82.55032,27.35342],[-82.55452,27.35302],[-82.57684,27.35302],[-82.57685,27.34254],[-82.57927,27.34175],[-82.58946,27.35447],[-82.61706,27.38955],[-82.61658,27.38954],[-82.59652,27.38932]]]}},{"type":"Feature","properties":{"zcta":"34223","d":329},"geometry":{"type":"Polygon","coordinates":[[[-82.44243,27.06071],[-82.43799,27.0558],[-82.43872,27.05353],[-82.43689,27.04971],[-82.42774,27.03804],[-82.42725,27.03592],[-82.41033,27.01148],[-82.40969,27.01371],[-82.41374,27.01748],[-82.41408,27.01959],[-82.41144,27.02102],[-82.39801,27.02093],[-82.398,27.02194],[-82.393,27.02293],[-82.39068,27.02092],[-82.38135,27.02118],[-82.37947,27.02087],[-82.36565,27.02045],[-82.35472,27.02049],[-82.35128,27.02185],[-82.34762,27.02059],[-82.34296,27.02089],[-82.33919,27.02192],[-82.33622,27.02057],[-82.32918,27.02043],[-82.32279,27.02354],[-82.31421,27.02424],[-82.31086,27.02027],[-82.30572,27.01932],[-82.30289,27.01995],[-82.29537,27.02006],[-82.27503,27.0198],[-82.27503,27.01273],[-82.273,27.01245],[-82.27305,27.00513],[-82.27051,27.00513],[-82.2639,27.00002],[-82.26108,26.99884],[-82.2553,26.99895],[-82.25552,26.94526],[-82.30442,26.94564],[-82.304,26.96134],[-82.31203,26.96154],[-82.31233,26.95493],[-82.31388,26.95291],[-82.31819,26.94985],[-82.31876,26.94834],[-82.32241,26.9471],[-82.328,26.94163],[-82.32984,26.94145],[-82.32846,26.93684],[-82.33356,26.93547],[-82.33343,26.93269],[-82.33796,26.93017],[-82.3425,26.92278],[-82.336,26.92123],[-82.33296,26.92187],[-82.34242,26.91775],[-82.33626,26.90776],[-82.33583,26.90587],[-82.34043,26.89824],[-82.34073,26.89393],[-82.34247,26.89468],[-82.35165,26.90838],[-82.37101,26.93865],[-82.38161,26.95769],[-82.3928,26.97271],[-82.40062,26.98494],[-82.40955,27.00451],[-82.41922,27.02074],[-82.44575,27.06071],[-82.44243,27.06071]]]}},{"type":"Feature","properties":{"zcta":"34209","d":1305},"geometry":{"type":"MultiPolygon","coordinates":[[[[-82.65425,27.46285],[-82.65477,27.46177],[-82.65641,27.46286],[-82.65425,27.46285]]],[[[-82.69042,27.49642],[-82.68613,27.49813],[-82.68692,27.50802],[-82.68362,27.51312],[-82.67462,27.51961],[-82.66202,27.52281],[-82.65562,27.52126],[-82.64848,27.52235],[-82.64135,27.52551],[-82.64384,27.52847],[-82.62752,27.51992],[-82.62452,27.51972],[-82.62002,27.52052],[-82.61592,27.51792],[-82.61432,27.51592],[-82.60252,27.50852],[-82.59828,27.50838],[-82.59889,27.50334],[-82.60208,27.49689],[-82.60386,27.49574],[-82.6041,27.46736],[-82.60439,27.46411],[-82.60832,27.46358],[-82.60831,27.46264],[-82.61245,27.46258],[-82.61238,27.46353],[-82.61643,27.46355],[-82.61958,27.46434],[-82.62052,27.46332],[-82.62864,27.464],[-82.62865,27.4663],[-82.63272,27.46629],[-82.63273,27.46417],[-82.63683,27.46422],[-82.63688,27.46249],[-82.6485,27.46175],[-82.64923,27.46228],[-82.64961,27.46771],[-82.64628,27.46809],[-82.64234,27.47073],[-82.64121,27.47231],[-82.64274,27.47335],[-82.66112,27.48052],[-82.67175,27.48071],[-82.69542,27.48082],[-82.69677,27.4968],[-82.69744,27.49727],[-82.69042,27.49642]]]]}},{"type":"Feature","properties":{"zcta":"34217","d":849},"geometry":{"type":"Polygon","coordinates":[[[-82.71671,27.52637],[-82.70804,27.52311],[-82.70962,27.51335],[-82.71158,27.50894],[-82.71062,27.50172],[-82.70682,27.49842],[-82.69744,27.49727],[-82.69677,27.4968],[-82.69542,27.48082],[-82.69242,27.46889],[-82.68742,27.46061],[-82.68002,27.45352],[-82.68813,27.44461],[-82.69108,27.44366],[-82.691,27.44433],[-82.70782,27.48762],[-82.71452,27.50042],[-82.72234,27.51074],[-82.72113,27.51162],[-82.72553,27.51702],[-82.72664,27.51697],[-82.72671,27.52037],[-82.72805,27.52121],[-82.72784,27.52729],[-82.72012,27.52445],[-82.71899,27.52613],[-82.71671,27.52637]]]}},{"type":"Feature","properties":{"zcta":"34216","d":0},"geometry":{"type":"Polygon","coordinates":[[[-82.72452,27.51361],[-82.74302,27.53109],[-82.74575,27.53883],[-82.74244,27.53936],[-82.73486,27.53484],[-82.72091,27.52807],[-82.71899,27.52613],[-82.72012,27.52445],[-82.72784,27.52729],[-82.72805,27.52121],[-82.72671,27.52037],[-82.72664,27.51697],[-82.72553,27.51702],[-82.72113,27.51162],[-82.72234,27.51074],[-82.72452,27.51361]]]}},{"type":"Feature","properties":{"zcta":"34221","d":447},"geometry":{"type":"MultiPolygon","coordinates":[[[[-82.57264,27.63687],[-82.56933,27.63316],[-82.56918,27.63053],[-82.57361,27.63127],[-82.57669,27.63508],[-82.57264,27.63687]]],[[[-82.45999,27.64144],[-82.45616,27.63951],[-82.45956,27.63574],[-82.46298,27.62336],[-82.45508,27.62329],[-82.45175,27.62465],[-82.44976,27.62276],[-82.45017,27.5941],[-82.45426,27.59508],[-82.46419,27.60031],[-82.46667,27.6011],[-82.47839,27.60121],[-82.47842,27.59732],[-82.47447,27.5974],[-82.47454,27.57314],[-82.47879,27.5708],[-82.47871,27.55384],[-82.491,27.5553],[-82.48282,27.55558],[-82.48277,27.55754],[-82.48481,27.55762],[-82.48492,27.5613],[-82.48698,27.56133],[-82.48703,27.56503],[-82.49141,27.56552],[-82.51132,27.55656],[-82.51067,27.55206],[-82.51076,27.53958],[-82.51053,27.53709],[-82.50793,27.52988],[-82.51146,27.52879],[-82.53578,27.52905],[-82.53594,27.52637],[-82.53778,27.52484],[-82.54018,27.52471],[-82.5402,27.52155],[-82.54336,27.51922],[-82.54328,27.51689],[-82.5398,27.5162],[-82.53979,27.51399],[-82.53747,27.51397],[-82.53778,27.51209],[-82.54165,27.51143],[-82.54453,27.51],[-82.54749,27.51147],[-82.55156,27.5123],[-82.55227,27.51156],[-82.55178,27.50576],[-82.56312,27.50433],[-82.58252,27.50682],[-82.59828,27.50838],[-82.60252,27.50852],[-82.61432,27.51592],[-82.61592,27.51792],[-82.62002,27.52052],[-82.62452,27.51972],[-82.62752,27.51992],[-82.64384,27.52847],[-82.64667,27.53183],[-82.64601,27.53354],[-82.63493,27.53921],[-82.63205,27.55191],[-82.62672,27.55889],[-82.61202,27.57123],[-82.613,27.58284],[-82.61172,27.58528],[-82.60173,27.58989],[-82.59649,27.59405],[-82.58763,27.59413],[-82.58463,27.59602],[-82.58145,27.59631],[-82.57745,27.59956],[-82.57854,27.60208],[-82.57774,27.60539],[-82.57251,27.60714],[-82.57061,27.60888],[-82.56567,27.61571],[-82.56445,27.62178],[-82.566,27.62453],[-82.56372,27.63144],[-82.56291,27.638],[-82.55854,27.63868],[-82.55409,27.6458],[-82.54955,27.64556],[-82.52495,27.64542],[-82.49849,27.6455],[-82.45228,27.64593],[-82.45999,27.64144]],[[-82.60196,27.55724],[-82.59888,27.55861],[-82.58959,27.5602],[-82.58536,27.56665],[-82.58091,27.56978],[-82.58094,27.57309],[-82.5747,27.57386],[-82.57821,27.58119],[-82.58488,27.58328],[-82.59112,27.58359],[-82.59212,27.58185],[-82.59101,27.57938],[-82.59611,27.57882],[-82.59993,27.57642],[-82.59982,27.57555],[-82.59574,27.57486],[-82.59361,27.57361],[-82.59437,27.57118],[-82.59372,27.56947],[-82.59758,27.56449],[-82.59746,27.56337],[-82.60013,27.56388],[-82.6044,27.56254],[-82.60142,27.56189],[-82.60485,27.55936],[-82.60196,27.55724]]]]}},{"type":"Feature","properties":{"zcta":"34202","d":644},"geometry":{"type":"Polygon","coordinates":[[[-82.43248,27.43294],[-82.43244,27.43944],[-82.42865,27.43566],[-82.42818,27.43205],[-82.41196,27.43185],[-82.38576,27.43187],[-82.38337,27.43119],[-82.36453,27.41953],[-82.35352,27.41585],[-82.31261,27.40259],[-82.3045,27.39895],[-82.29981,27.39681],[-82.29987,27.38634],[-82.37169,27.3866],[-82.39267,27.38683],[-82.39812,27.38645],[-82.43624,27.38635],[-82.44207,27.38857],[-82.44861,27.38861],[-82.45529,27.41273],[-82.45847,27.42425],[-82.45934,27.43095],[-82.45919,27.44126],[-82.43248,27.43294]]]}},{"type":"Feature","properties":{"zcta":"34219","d":133},"geometry":{"type":"Polygon","coordinates":[[[-82.47879,27.5708],[-82.47454,27.57314],[-82.47447,27.5974],[-82.47842,27.59732],[-82.47839,27.60121],[-82.46667,27.6011],[-82.46419,27.60031],[-82.45426,27.59508],[-82.45017,27.5941],[-82.44976,27.62276],[-82.45175,27.62465],[-82.45508,27.62329],[-82.46298,27.62336],[-82.45956,27.63574],[-82.45616,27.63951],[-82.45999,27.64144],[-82.45228,27.64593],[-82.38096,27.64639],[-82.38413,27.64185],[-82.38197,27.63882],[-82.38245,27.6411],[-82.37758,27.63863],[-82.37814,27.63698],[-82.37266,27.63134],[-82.37134,27.62882],[-82.36911,27.62846],[-82.35357,27.63618],[-82.3507,27.63882],[-82.34706,27.6377],[-82.33522,27.63841],[-82.33281,27.63747],[-82.32967,27.63792],[-82.32919,27.63483],[-82.31387,27.63478],[-82.30554,27.63165],[-82.30464,27.62995],[-82.30199,27.62942],[-82.30051,27.62733],[-82.30145,27.62328],[-82.29534,27.61838],[-82.29263,27.61878],[-82.29261,27.62179],[-82.2817,27.62382],[-82.28021,27.62548],[-82.2808,27.62851],[-82.27825,27.62969],[-82.27633,27.63282],[-82.27589,27.63716],[-82.28153,27.64603],[-82.2796,27.64641],[-82.27662,27.64545],[-82.2745,27.64648],[-82.26816,27.64637],[-82.21063,27.64648],[-82.14627,27.64629],[-82.13462,27.64632],[-82.05635,27.64623],[-82.05435,27.64638],[-82.05447,27.59525],[-82.05536,27.48357],[-82.05649,27.48543],[-82.06371,27.48942],[-82.07445,27.49053],[-82.07072,27.49452],[-82.07298,27.51942],[-82.07879,27.53529],[-82.0818,27.53725],[-82.08763,27.53723],[-82.08753,27.51545],[-82.11842,27.51581],[-82.12481,27.51557],[-82.13195,27.51616],[-82.1406,27.51599],[-82.13999,27.52431],[-82.14482,27.52621],[-82.15123,27.52742],[-82.15303,27.52607],[-82.15794,27.52643],[-82.15823,27.52994],[-82.17042,27.5304],[-82.17589,27.53204],[-82.17907,27.53063],[-82.18217,27.52536],[-82.18452,27.52279],[-82.1883,27.52555],[-82.19365,27.5243],[-82.19838,27.52433],[-82.20043,27.52342],[-82.20881,27.52669],[-82.20812,27.53066],[-82.20971,27.53589],[-82.21331,27.53978],[-82.21509,27.54332],[-82.21512,27.54659],[-82.21262,27.54893],[-82.21172,27.55173],[-82.21424,27.55566],[-82.22314,27.55457],[-82.24215,27.55583],[-82.24526,27.55337],[-82.24588,27.5512],[-82.24961,27.54498],[-82.25303,27.54205],[-82.25552,27.54085],[-82.25772,27.53607],[-82.25995,27.53313],[-82.26132,27.53],[-82.26616,27.52685],[-82.27076,27.52999],[-82.27147,27.53155],[-82.27631,27.53201],[-82.27451,27.5289],[-82.27624,27.52408],[-82.27906,27.5193],[-82.28071,27.51781],[-82.28629,27.51775],[-82.28638,27.5134],[-82.28899,27.51254],[-82.3214,27.51291],[-82.3224,27.50526],[-82.32359,27.50033],[-82.32865,27.49845],[-82.33111,27.49893],[-82.33583,27.49787],[-82.33983,27.49821],[-82.34318,27.4954],[-82.34572,27.49765],[-82.3498,27.49939],[-82.35454,27.49342],[-82.35933,27.49845],[-82.36185,27.50333],[-82.35996,27.50684],[-82.36118,27.50922],[-82.3622,27.50764],[-82.36374,27.51189],[-82.36593,27.51232],[-82.36943,27.51555],[-82.37228,27.51592],[-82.37312,27.51815],[-82.37756,27.51659],[-82.37912,27.51872],[-82.37648,27.51746],[-82.3754,27.52004],[-82.37718,27.52186],[-82.37888,27.52144],[-82.38235,27.52275],[-82.38476,27.521],[-82.38968,27.52121],[-82.39249,27.51969],[-82.39459,27.51991],[-82.39743,27.5225],[-82.40224,27.52061],[-82.40522,27.52235],[-82.40459,27.5241],[-82.40626,27.52558],[-82.40667,27.52345],[-82.41069,27.52276],[-82.41364,27.51824],[-82.41545,27.51987],[-82.42089,27.51671],[-82.42688,27.51723],[-82.42933,27.52075],[-82.4295,27.52295],[-82.43165,27.52433],[-82.43656,27.52204],[-82.44243,27.51867],[-82.44569,27.51865],[-82.45059,27.52062],[-82.45521,27.52568],[-82.45747,27.5268],[-82.46202,27.52757],[-82.46624,27.52742],[-82.47035,27.52818],[-82.47292,27.52575],[-82.47757,27.52397],[-82.48362,27.52313],[-82.4834,27.52765],[-82.48269,27.52894],[-82.48269,27.53547],[-82.4799,27.5358],[-82.47859,27.53912],[-82.48268,27.53913],[-82.48138,27.54108],[-82.48249,27.54271],[-82.4786,27.54277],[-82.47871,27.55384],[-82.47879,27.5708]]]}},{"type":"Feature","properties":{"zcta":"34210","d":912},"geometry":{"type":"Polygon","coordinates":[[[-82.66112,27.48052],[-82.64274,27.47335],[-82.64121,27.47231],[-82.64234,27.47073],[-82.64628,27.46809],[-82.64961,27.46771],[-82.64923,27.46228],[-82.6485,27.46175],[-82.63688,27.46249],[-82.63683,27.46422],[-82.63273,27.46417],[-82.63272,27.46629],[-82.62865,27.4663],[-82.62864,27.464],[-82.62052,27.46332],[-82.61958,27.46434],[-82.61643,27.46355],[-82.61238,27.46353],[-82.61245,27.46258],[-82.60831,27.46264],[-82.60832,27.46358],[-82.60439,27.46411],[-82.6041,27.46736],[-82.60411,27.46253],[-82.59586,27.46237],[-82.59512,27.45513],[-82.59586,27.45467],[-82.59588,27.43433],[-82.59191,27.43428],[-82.59154,27.43101],[-82.59591,27.4298],[-82.59582,27.42217],[-82.59622,27.40522],[-82.59652,27.38932],[-82.61658,27.38954],[-82.65142,27.43242],[-82.68002,27.45352],[-82.68742,27.46061],[-82.69242,27.46889],[-82.68969,27.46916],[-82.68587,27.46567],[-82.68083,27.46528],[-82.68092,27.46849],[-82.67729,27.46698],[-82.67568,27.4701],[-82.67807,27.47109],[-82.67585,27.47537],[-82.67344,27.47437],[-82.67175,27.48071],[-82.66112,27.48052]],[[-82.65477,27.46177],[-82.65425,27.46285],[-82.65641,27.46286],[-82.65477,27.46177]]]}},{"type":"Feature","properties":{"zcta":"34212","d":606},"geometry":{"type":"Polygon","coordinates":[[[-82.47757,27.52397],[-82.47292,27.52575],[-82.47035,27.52818],[-82.46624,27.52742],[-82.46202,27.52757],[-82.45747,27.5268],[-82.45521,27.52568],[-82.45059,27.52062],[-82.44569,27.51865],[-82.44243,27.51867],[-82.43656,27.52204],[-82.43165,27.52433],[-82.4295,27.52295],[-82.42933,27.52075],[-82.42688,27.51723],[-82.42089,27.51671],[-82.41545,27.51987],[-82.41364,27.51824],[-82.41069,27.52276],[-82.40667,27.52345],[-82.40626,27.52558],[-82.40459,27.5241],[-82.40522,27.52235],[-82.40224,27.52061],[-82.39743,27.5225],[-82.39459,27.51991],[-82.39249,27.51969],[-82.38968,27.52121],[-82.38476,27.521],[-82.38235,27.52275],[-82.37888,27.52144],[-82.37718,27.52186],[-82.3754,27.52004],[-82.37648,27.51746],[-82.37912,27.51872],[-82.37756,27.51659],[-82.37312,27.51815],[-82.37228,27.51592],[-82.36943,27.51555],[-82.36593,27.51232],[-82.36374,27.51189],[-82.3622,27.50764],[-82.36118,27.50922],[-82.35996,27.50684],[-82.36185,27.50333],[-82.35933,27.49845],[-82.35454,27.49342],[-82.30163,27.47558],[-82.30678,27.47455],[-82.35064,27.47526],[-82.35069,27.44612],[-82.36319,27.44671],[-82.37108,27.44619],[-82.37122,27.46341],[-82.37086,27.47547],[-82.39834,27.47575],[-82.40245,27.47777],[-82.40549,27.48185],[-82.41066,27.48425],[-82.42167,27.4842],[-82.4271,27.48505],[-82.44359,27.48544],[-82.44776,27.48434],[-82.44863,27.48146],[-82.45039,27.48232],[-82.45691,27.48255],[-82.4568,27.48596],[-82.46155,27.48695],[-82.46801,27.49038],[-82.47181,27.49094],[-82.47566,27.49884],[-82.47787,27.50113],[-82.48136,27.50288],[-82.49261,27.50743],[-82.49142,27.5103],[-82.48855,27.5132],[-82.48323,27.51452],[-82.48143,27.51602],[-82.48362,27.52313],[-82.47757,27.52397]]]}},{"type":"Feature","properties":{"zcta":"34229","d":714},"geometry":{"type":"Polygon","coordinates":[[[-82.5072,27.20672],[-82.50252,27.20794],[-82.50173,27.20911],[-82.50192,27.21454],[-82.50052,27.21525],[-82.50049,27.2177],[-82.50169,27.21886],[-82.49165,27.2183],[-82.49028,27.21832],[-82.4902,27.21109],[-82.46892,27.21122],[-82.46647,27.21108],[-82.45815,27.17606],[-82.46049,27.1744],[-82.46375,27.17398],[-82.46464,27.17254],[-82.4674,27.17232],[-82.46875,27.17006],[-82.47001,27.17108],[-82.4725,27.17068],[-82.47396,27.16889],[-82.47706,27.16818],[-82.47282,27.16303],[-82.47263,27.16167],[-82.47493,27.16076],[-82.48069,27.16033],[-82.4851,27.16447],[-82.48589,27.16787],[-82.48705,27.168],[-82.49425,27.17988],[-82.49965,27.18008],[-82.50284,27.18973],[-82.51139,27.208],[-82.5072,27.20672]]]}},{"type":"Feature","properties":{"zcta":"34203","d":1184},"geometry":{"type":"Polygon","coordinates":[[[-82.56286,27.46399],[-82.56212,27.46289],[-82.55905,27.46238],[-82.53741,27.46217],[-82.53021,27.46177],[-82.51624,27.46142],[-82.51366,27.4618],[-82.49501,27.46175],[-82.4934,27.4648],[-82.49304,27.46173],[-82.45992,27.46162],[-82.45898,27.45711],[-82.45919,27.44126],[-82.45934,27.43095],[-82.45847,27.42425],[-82.45529,27.41273],[-82.45724,27.41357],[-82.45842,27.4124],[-82.46228,27.41201],[-82.46568,27.41481],[-82.46616,27.41725],[-82.47314,27.41793],[-82.47676,27.42236],[-82.48024,27.42045],[-82.48061,27.42431],[-82.47847,27.42738],[-82.48239,27.42749],[-82.48602,27.42478],[-82.4879,27.42534],[-82.49411,27.42544],[-82.49881,27.42676],[-82.50338,27.42894],[-82.52188,27.42905],[-82.52188,27.42487],[-82.53082,27.42581],[-82.53058,27.42908],[-82.5472,27.42927],[-82.54822,27.42746],[-82.5475,27.4251],[-82.5494,27.42534],[-82.5493,27.42757],[-82.55084,27.42755],[-82.55088,27.42565],[-82.5631,27.42569],[-82.56311,27.42934],[-82.55904,27.42932],[-82.55901,27.43297],[-82.56309,27.43297],[-82.56284,27.44806],[-82.56306,27.46235],[-82.56336,27.46292],[-82.56286,27.46399]]]}}]}