{"type":"FeatureCollection","features":[{"type":"Feature","properties":{"id":"39061","name":"Hamilton Co., OH"},"geometry":{"type":"Polygon","coordinates":[[[-84.7957,39.3057],[-84.7665,39.3049],[-84.7022,39.3047],[-84.6418,39.305],[-84.6398,39.3088],[-84.63,39.3121],[-84.6163,39.3112],[-84.5987,39.3086],[-84.5797,39.3081],[-84.5623,39.3081],[-84.5424,39.3063],[-84.5237,39.3033],[-84.5046,39.306],[-84.4851,39.3015],[-84.4655,39.3029],[-84.4291,39.2988],[-84.4103,39.2982],[-84.4093,39.2979],[-84.3911,39.2976],[-84.3708,39.2944],[-84.3532,39.2923],[-84.3341,39.2933],[-84.2972,39.2918],[-84.2774,39.2894],[-84.2622,39.2883],[-84.2652,39.2822],[-84.2647,39.2807],[-84.2576,39.278],[-84.2567,39.2749],[-84.2594,39.2709],[-84.2614,39.2647],[-84.265,39.264],[-84.2713,39.2584],[-84.2828,39.2519],[-84.2933,39.2489],[-84.2961,39.2452],[-84.2964,39.2393],[-84.2994,39.2352],[-84.3026,39.234],[-84.3071,39.2344],[-84.309,39.2315],[-84.3167,39.2269],[-84.32,39.2234],[-84.3161,39.2205],[-84.3136,39.2131],[-84.3094,39.2088],[-84.2995,39.2091],[-84.2953,39.2099],[-84.2896,39.2129],[-84.284,39.2131],[-84.2764,39.2039],[-84.278,39.1969],[-84.287,39.1887],[-84.2889,39.1815],[-84.2929,39.18],[-84.2994,39.1739],[-84.2952,39.167],[-84.3001,39.1644],[-84.3017,39.1594],[-84.3027,39.1426],[-84.3148,39.061],[-84.3199,39.0221],[-84.3265,39.0275],[-84.3363,39.0329],[-84.346,39.037],[-84.3604,39.0414],[-84.3868,39.0452],[-84.3941,39.0453],[-84.4009,39.0464],[-84.4069,39.0457],[-84.4215,39.0509],[-84.4279,39.055],[-84.4298,39.0583],[-84.4331,39.073],[-84.4329,39.084],[-84.4346,39.0869],[-84.4328,39.0943],[-84.4355,39.1023],[-84.4406,39.1097],[-84.4452,39.1145],[-84.4553,39.1204],[-84.462,39.1218],[-84.4705,39.1215],[-84.4809,39.1168],[-84.4877,39.1108],[-84.4937,39.1025],[-84.5021,39.0966],[-84.5061,39.0951],[-84.5097,39.0937],[-84.5195,39.0921],[-84.5246,39.0922],[-84.5413,39.0992],[-84.5508,39.0994],[-84.5575,39.0949],[-84.5639,39.0874],[-84.5721,39.0821],[-84.5924,39.0781],[-84.6017,39.0741],[-84.6079,39.0732],[-84.6201,39.0735],[-84.6235,39.0744],[-84.6324,39.0768],[-84.6503,39.0917],[-84.6572,39.0955],[-84.6661,39.098],[-84.6772,39.0983],[-84.6848,39.1005],[-84.6897,39.1042],[-84.7019,39.119],[-84.714,39.1327],[-84.7185,39.1371],[-84.7261,39.142],[-84.732,39.1445],[-84.7441,39.1475],[-84.7544,39.1467],[-84.7667,39.1386],[-84.784,39.1181],[-84.7877,39.1153],[-84.7938,39.1129],[-84.8108,39.1091],[-84.8138,39.1065],[-84.8202,39.1055],[-84.8201,39.148],[-84.8198,39.1585],[-84.8201,39.2305],[-84.82,39.2546],[-84.8194,39.2928],[-84.8195,39.3052],[-84.7957,39.3057]]]}},{"type":"Feature","properties":{"id":"18115","name":"Ohio Co., IN"},"geometry":{"type":"Polygon","coordinates":[[[-85.1296,38.9482],[-85.125,38.9509],[-85.1233,38.9543],[-85.1201,38.9561],[-85.1155,38.9566],[-85.1134,38.9528],[-85.1189,38.9483],[-85.1209,38.9444],[-85.1188,38.9372],[-85.1137,38.9361],[-85.1082,38.9394],[-85.1026,38.9402],[-85.0975,38.9355],[-85.0949,38.9364],[-85.094,38.9401],[-85.0894,38.9427],[-85.0826,38.9522],[-85.0798,38.9515],[-85.0768,38.9484],[-85.0724,38.948],[-85.0711,38.9495],[-85.0697,38.9568],[-85.0646,38.9549],[-85.0672,38.9519],[-85.0666,38.95],[-85.0615,38.9483],[-85.0586,38.949],[-85.0582,38.9581],[-85.0551,38.9596],[-85.0478,38.9562],[-85.0457,38.9572],[-85.0464,38.96],[-85.0508,38.9635],[-85.0512,38.9669],[-85.0469,38.969],[-85.0436,38.9731],[-85.0366,38.9763],[-85.0247,38.9745],[-85.0213,38.9816],[-85.0161,38.9822],[-85.0066,38.9779],[-85.0036,38.9752],[-85.0017,38.9789],[-85.0009,38.9839],[-85.0019,38.9874],[-84.9975,38.9968],[-84.9942,38.9975],[-84.9922,38.9949],[-84.9849,38.995],[-84.9844,38.9977],[-84.978,38.9948],[-84.9697,38.9924],[-84.9642,38.9978],[-84.9606,38.9946],[-84.9539,38.9949],[-84.9518,38.9983],[-84.9463,38.9988],[-84.944,39.0005],[-84.9464,39.0049],[-84.943,39.008],[-84.9383,39.0071],[-84.9379,39.0055],[-84.9335,39.0062],[-84.9277,39.0108],[-84.9258,39.0143],[-84.9187,39.0145],[-84.9121,39.0189],[-84.8977,39.0134],[-84.8883,39.0233],[-84.8838,39.0259],[-84.8774,39.0316],[-84.8718,39.0278],[-84.8506,39.0047],[-84.8477,38.998],[-84.8398,38.9913],[-84.8371,38.9881],[-84.8306,38.9749],[-84.8299,38.9694],[-84.8326,38.9615],[-84.8352,38.958],[-84.8442,38.951],[-84.8493,38.9483],[-84.8537,38.9429],[-84.8647,38.9349],[-84.8708,38.9292],[-84.8778,38.9204],[-84.8793,38.9161],[-84.877,38.909],[-84.8712,38.9017],[-84.9311,38.901],[-85.0099,38.9015],[-85.044,38.9019],[-85.0442,38.903],[-85.1001,38.903],[-85.1336,38.9034],[-85.1403,38.9032],[-85.1325,38.9481],[-85.1296,38.9482]]]}},{"type":"Feature","properties":{"id":"18047","name":"Franklin Co., IN"},"geometry":{"type":"Polygon","coordinates":[[[-84.8157,39.4784],[-84.8176,39.3918],[-84.8195,39.3052],[-84.8443,39.3056],[-84.9059,39.3061],[-84.9289,39.3059],[-85.0026,39.3068],[-85.0656,39.3072],[-85.0651,39.3101],[-85.0763,39.31],[-85.1327,39.3104],[-85.1369,39.3102],[-85.1805,39.3097],[-85.1899,39.3087],[-85.2179,39.3085],[-85.2742,39.2796],[-85.2965,39.2683],[-85.2964,39.3169],[-85.2968,39.3201],[-85.2969,39.3518],[-85.2961,39.3518],[-85.2965,39.3701],[-85.2965,39.3926],[-85.2972,39.4202],[-85.2986,39.5255],[-85.2418,39.5257],[-85.1296,39.5267],[-85.125,39.5269],[-85.0842,39.5265],[-85.0225,39.5261],[-85.0228,39.5244],[-84.947,39.5242],[-84.929,39.5244],[-84.8488,39.5232],[-84.8154,39.522],[-84.8157,39.4784]]]}},{"type":"Feature","properties":{"id":"21077","name":"Gallatin Co., KY"},"geometry":{"type":"Polygon","coordinates":[[[-84.7893,38.8552],[-84.7833,38.8548],[-84.7842,38.8563],[-84.7786,38.8594],[-84.779,38.8525],[-84.7778,38.8472],[-84.773,38.8455],[-84.7658,38.8489],[-84.76,38.8472],[-84.7582,38.842],[-84.7545,38.84],[-84.7501,38.8306],[-84.6601,38.7773],[-84.7808,38.7652],[-84.7858,38.7205],[-84.788,38.7238],[-84.7936,38.7246],[-84.7982,38.7167],[-84.8022,38.7145],[-84.8079,38.7138],[-84.8083,38.7123],[-84.8131,38.712],[-84.8162,38.7074],[-84.8102,38.7048],[-84.8118,38.7023],[-84.8201,38.7033],[-84.824,38.7052],[-84.8305,38.7115],[-84.8348,38.7113],[-84.8355,38.7086],[-84.8421,38.7032],[-84.8447,38.6968],[-84.8539,38.6976],[-84.8585,38.7006],[-84.8654,38.7006],[-84.8705,38.6984],[-84.8721,38.6898],[-84.8771,38.6867],[-84.8821,38.685],[-84.8857,38.6881],[-84.8881,38.6873],[-84.8889,38.6832],[-84.8881,38.6781],[-84.89,38.6764],[-84.895,38.6787],[-84.9041,38.6785],[-84.9056,38.6694],[-84.9131,38.6688],[-84.9213,38.6704],[-84.9254,38.6734],[-84.9324,38.6666],[-84.9345,38.6621],[-84.9627,38.6796],[-84.9908,38.7181],[-85.0231,38.7613],[-85.0234,38.7621],[-85.011,38.767],[-84.9999,38.7747],[-84.9919,38.7785],[-84.98,38.7796],[-84.9623,38.7782],[-84.948,38.7755],[-84.9436,38.7754],[-84.933,38.7775],[-84.9264,38.7805],[-84.9152,38.7841],[-84.9034,38.79],[-84.8939,38.7937],[-84.8873,38.7948],[-84.8772,38.7925],[-84.862,38.7911],[-84.8529,38.7894],[-84.8378,38.7849],[-84.8289,38.7833],[-84.8214,38.7831],[-84.8146,38.7845],[-84.8118,38.7892],[-84.8116,38.7928],[-84.8165,38.8053],[-84.8271,38.8186],[-84.8299,38.8254],[-84.83,38.8306],[-84.8275,38.8349],[-84.8234,38.8392],[-84.8172,38.8434],[-84.8032,38.8507],[-84.7985,38.8553],[-84.7948,38.8572],[-84.7893,38.8552]]]}},{"type":"Feature","properties":{"id":"39025","name":"Clermont Co., OH"},"geometry":{"type":"Polygon","coordinates":[[[-84.2018,39.2672],[-84.0789,39.2595],[-84.0075,39.2551],[-83.9899,39.2541],[-83.9978,39.1911],[-84.0051,39.1303],[-84.0071,39.1177],[-84.0105,39.0914],[-84.0186,39.0337],[-84.0213,39.0135],[-84.0254,38.9858],[-84.0262,38.9789],[-84.0353,38.9067],[-84.0378,38.8848],[-84.0524,38.7722],[-84.0527,38.7714],[-84.0715,38.7705],[-84.0943,38.7752],[-84.1088,38.7792],[-84.1157,38.7827],[-84.1351,38.7895],[-84.1559,38.7949],[-84.1984,38.8009],[-84.2056,38.8026],[-84.2129,38.8057],[-84.2221,38.8138],[-84.2253,38.8177],[-84.2304,38.8274],[-84.2333,38.8427],[-84.2337,38.8536],[-84.2319,38.8748],[-84.2323,38.8843],[-84.2345,38.8932],[-84.2402,38.9009],[-84.2456,38.907],[-84.257,38.9232],[-84.2608,38.9266],[-84.2749,38.9415],[-84.2799,38.9452],[-84.2882,38.9558],[-84.2951,38.9683],[-84.2965,38.9853],[-84.2994,38.996],[-84.3047,39.0065],[-84.3137,39.017],[-84.3199,39.0221],[-84.3148,39.061],[-84.3027,39.1426],[-84.3017,39.1594],[-84.3001,39.1644],[-84.2952,39.167],[-84.2994,39.1739],[-84.2929,39.18],[-84.2889,39.1815],[-84.287,39.1887],[-84.278,39.1969],[-84.2764,39.2039],[-84.284,39.2131],[-84.2896,39.2129],[-84.2953,39.2099],[-84.2995,39.2091],[-84.3094,39.2088],[-84.3136,39.2131],[-84.3161,39.2205],[-84.32,39.2234],[-84.3167,39.2269],[-84.309,39.2315],[-84.3071,39.2344],[-84.3026,39.234],[-84.2994,39.2352],[-84.2964,39.2393],[-84.2961,39.2452],[-84.2933,39.2489],[-84.2828,39.2519],[-84.2713,39.2584],[-84.265,39.264],[-84.2614,39.2647],[-84.2594,39.2709],[-84.2018,39.2672]]]}},{"type":"Feature","properties":{"id":"21081","name":"Grant Co., KY"},"geometry":{"type":"Polygon","coordinates":[[[-84.6549,38.7781],[-84.6577,38.7859],[-84.6557,38.787],[-84.6562,38.7901],[-84.645,38.7929],[-84.6436,38.798],[-84.63,38.8029],[-84.6187,38.8033],[-84.6157,38.8023],[-84.605,38.7928],[-84.5977,38.7912],[-84.5473,38.7901],[-84.5323,38.7919],[-84.524,38.7543],[-84.5049,38.665],[-84.5003,38.644],[-84.4895,38.5969],[-84.4763,38.5427],[-84.4853,38.5086],[-84.4959,38.5122],[-84.5028,38.512],[-84.5091,38.5074],[-84.513,38.5088],[-84.5214,38.5083],[-84.5237,38.5056],[-84.5275,38.5057],[-84.5309,38.5032],[-84.5346,38.5031],[-84.5354,38.5008],[-84.5428,38.4993],[-84.5433,38.4974],[-84.5482,38.4964],[-84.5519,38.4932],[-84.5607,38.4924],[-84.5805,38.473],[-84.6008,38.481],[-84.6053,38.4805],[-84.6098,38.4824],[-84.6124,38.4812],[-84.6211,38.4817],[-84.6267,38.4851],[-84.6284,38.4914],[-84.6336,38.495],[-84.6362,38.5028],[-84.6437,38.5084],[-84.6422,38.5097],[-84.6423,38.5139],[-84.6451,38.5133],[-84.6501,38.5153],[-84.6479,38.5189],[-84.6446,38.5196],[-84.6495,38.521],[-84.6555,38.5245],[-84.6529,38.5264],[-84.6543,38.5285],[-84.6582,38.5291],[-84.657,38.532],[-84.6618,38.5329],[-84.6637,38.531],[-84.6669,38.5318],[-84.6681,38.5278],[-84.6715,38.5274],[-84.6718,38.5308],[-84.6746,38.532],[-84.6704,38.5372],[-84.6663,38.536],[-84.6693,38.5408],[-84.6655,38.5435],[-84.6678,38.5455],[-84.6752,38.5461],[-84.6749,38.5478],[-84.6793,38.5513],[-84.6781,38.556],[-84.6741,38.5551],[-84.6745,38.5579],[-84.6808,38.5597],[-84.7384,38.5957],[-84.7743,38.6186],[-84.7858,38.7205],[-84.7808,38.7652],[-84.6601,38.7773],[-84.6549,38.7781]]]}},{"type":"Feature","properties":{"id":"21037","name":"Campbell Co., KY"},"geometry":{"type":"Polygon","coordinates":[[[-84.5021,39.0966],[-84.4937,39.1025],[-84.4877,39.1108],[-84.4809,39.1168],[-84.4705,39.1215],[-84.462,39.1218],[-84.4553,39.1204],[-84.4452,39.1145],[-84.4406,39.1097],[-84.4355,39.1023],[-84.4328,39.0943],[-84.4346,39.0869],[-84.4329,39.084],[-84.4331,39.073],[-84.4298,39.0583],[-84.4279,39.055],[-84.4215,39.0509],[-84.4069,39.0457],[-84.4009,39.0464],[-84.3941,39.0453],[-84.3868,39.0452],[-84.3604,39.0414],[-84.346,39.037],[-84.3363,39.0329],[-84.3265,39.0275],[-84.3199,39.0221],[-84.3137,39.017],[-84.3047,39.0065],[-84.2994,38.996],[-84.2965,38.9853],[-84.2951,38.9683],[-84.2882,38.9558],[-84.2799,38.9452],[-84.2749,38.9415],[-84.2608,38.9266],[-84.257,38.9232],[-84.2456,38.907],[-84.2402,38.9009],[-84.2345,38.8932],[-84.2323,38.8843],[-84.2319,38.8748],[-84.3874,38.8123],[-84.3907,38.8132],[-84.3968,38.811],[-84.4052,38.8064],[-84.4103,38.8058],[-84.4182,38.8066],[-84.4209,38.8082],[-84.4175,38.8119],[-84.4216,38.8239],[-84.4271,38.8279],[-84.4303,38.8286],[-84.4359,38.8269],[-84.4384,38.8247],[-84.4423,38.8178],[-84.4475,38.8173],[-84.4515,38.8203],[-84.4533,38.828],[-84.4527,38.8358],[-84.454,38.8396],[-84.462,38.8472],[-84.4634,38.8521],[-84.4524,38.8584],[-84.4494,38.8613],[-84.4527,38.8663],[-84.4489,38.8722],[-84.4449,38.8806],[-84.443,38.8891],[-84.4396,38.8973],[-84.4389,38.9049],[-84.4446,38.9117],[-84.4439,38.9159],[-84.4486,38.9208],[-84.4519,38.929],[-84.4601,38.9389],[-84.4634,38.9465],[-84.4618,38.9494],[-84.4494,38.9499],[-84.4474,38.9505],[-84.443,38.9554],[-84.4419,38.9599],[-84.4378,38.9661],[-84.4299,38.9732],[-84.4269,38.9784],[-84.4273,38.9809],[-84.4347,38.9852],[-84.4404,38.9844],[-84.446,38.9806],[-84.4502,38.9756],[-84.4528,38.9677],[-84.4548,38.9655],[-84.4593,38.9653],[-84.4636,38.9676],[-84.4664,38.9724],[-84.4649,38.98],[-84.4616,38.9839],[-84.4508,38.9936],[-84.4506,38.9964],[-84.4544,39.0001],[-84.464,39.0041],[-84.4733,39.0045],[-84.4789,39.0097],[-84.4811,39.013],[-84.4852,39.0154],[-84.4892,39.0212],[-84.49,39.0307],[-84.4852,39.041],[-84.4881,39.0459],[-84.4932,39.0494],[-84.4972,39.0552],[-84.4977,39.0585],[-84.4932,39.0706],[-84.5044,39.0859],[-84.5033,39.0915],[-84.5061,39.0951],[-84.5021,39.0966]]]}},{"type":"Feature","properties":{"id":"21023","name":"Bracken Co., KY"},"geometry":{"type":"Polygon","coordinates":[[[-84.2253,38.8177],[-84.2221,38.8138],[-84.2129,38.8057],[-84.2056,38.8026],[-84.1984,38.8009],[-84.1559,38.7949],[-84.1351,38.7895],[-84.1157,38.7827],[-84.1088,38.7792],[-84.0943,38.7752],[-84.0715,38.7705],[-84.0527,38.7714],[-84.0445,38.7706],[-84.0231,38.7751],[-84.0061,38.7802],[-83.9954,38.7819],[-83.9788,38.7871],[-83.9621,38.7874],[-83.9535,38.7862],[-83.944,38.7836],[-83.9285,38.7746],[-83.9286,38.7722],[-83.9172,38.7697],[-83.9129,38.7698],[-83.9039,38.7682],[-83.9459,38.6867],[-83.9626,38.654],[-83.9916,38.5937],[-83.993,38.5927],[-83.9934,38.587],[-83.9964,38.5835],[-84.0024,38.5896],[-84.0061,38.5896],[-84.0091,38.5848],[-84.015,38.5836],[-84.0202,38.5848],[-84.0158,38.5905],[-84.0182,38.5945],[-84.0219,38.5942],[-84.0253,38.59],[-84.0233,38.5842],[-84.0279,38.5825],[-84.0337,38.5829],[-84.0319,38.5906],[-84.0347,38.5941],[-84.0319,38.5949],[-84.0373,38.5963],[-84.0488,38.5905],[-84.0522,38.5914],[-84.0494,38.595],[-84.0459,38.5944],[-84.045,38.6001],[-84.0503,38.6026],[-84.0549,38.5994],[-84.0535,38.5968],[-84.0573,38.5913],[-84.0608,38.5923],[-84.0585,38.5974],[-84.0629,38.5991],[-84.0667,38.5975],[-84.0678,38.5997],[-84.066,38.6024],[-84.0691,38.6039],[-84.0744,38.5986],[-84.078,38.5983],[-84.0788,38.6046],[-84.0825,38.6082],[-84.085,38.6075],[-84.0825,38.601],[-84.0835,38.5977],[-84.0908,38.5954],[-84.0952,38.592],[-84.0964,38.5884],[-84.1045,38.5863],[-84.1023,38.5816],[-84.1075,38.58],[-84.1096,38.5755],[-84.1144,38.5711],[-84.1226,38.5701],[-84.1248,38.5685],[-84.1223,38.5642],[-84.131,38.5583],[-84.1363,38.5564],[-84.136,38.5543],[-84.1467,38.5498],[-84.1517,38.55],[-84.1556,38.554],[-84.162,38.5541],[-84.1673,38.5588],[-84.1731,38.5575],[-84.1796,38.5584],[-84.1899,38.5525],[-84.1933,38.5536],[-84.1986,38.5509],[-84.2113,38.5509],[-84.2156,38.555],[-84.2178,38.5591],[-84.2144,38.5628],[-84.204,38.564],[-84.2016,38.5697],[-84.2043,38.5812],[-84.2053,38.582],[-84.2053,38.5871],[-84.2014,38.5891],[-84.1955,38.5884],[-84.1957,38.5907],[-84.2011,38.6039],[-84.2074,38.5976],[-84.2251,38.7436],[-84.236,38.8224],[-84.2304,38.8274],[-84.2253,38.8177]]]}},{"type":"Feature","properties":{"id":"21015","name":"Boone Co., KY"},"geometry":{"type":"Polygon","coordinates":[[[-84.8138,39.1065],[-84.8108,39.1091],[-84.7938,39.1129],[-84.7877,39.1153],[-84.784,39.1181],[-84.7667,39.1386],[-84.7544,39.1467],[-84.7441,39.1475],[-84.732,39.1445],[-84.7261,39.142],[-84.7185,39.1371],[-84.714,39.1327],[-84.7019,39.119],[-84.6897,39.1042],[-84.6848,39.1005],[-84.6772,39.0983],[-84.6661,39.098],[-84.6572,39.0955],[-84.6503,39.0917],[-84.6324,39.0768],[-84.6235,39.0744],[-84.6034,38.91],[-84.5979,38.8794],[-84.6157,38.8023],[-84.6187,38.8033],[-84.63,38.8029],[-84.6436,38.798],[-84.645,38.7929],[-84.6562,38.7901],[-84.6557,38.787],[-84.6577,38.7859],[-84.6549,38.7781],[-84.6601,38.7773],[-84.7501,38.8306],[-84.7545,38.84],[-84.7582,38.842],[-84.76,38.8472],[-84.7658,38.8489],[-84.773,38.8455],[-84.7778,38.8472],[-84.779,38.8525],[-84.7786,38.8594],[-84.7842,38.8563],[-84.7833,38.8548],[-84.7893,38.8552],[-84.7948,38.8572],[-84.791,38.8606],[-84.7858,38.8695],[-84.7846,38.8753],[-84.7864,38.8822],[-84.7925,38.8867],[-84.8002,38.8911],[-84.8127,38.8951],[-84.8169,38.8951],[-84.8305,38.8973],[-84.8608,38.8977],[-84.8678,38.8991],[-84.8712,38.9017],[-84.877,38.909],[-84.8793,38.9161],[-84.8778,38.9204],[-84.8708,38.9292],[-84.8647,38.9349],[-84.8537,38.9429],[-84.8493,38.9483],[-84.8442,38.951],[-84.8352,38.958],[-84.8326,38.9615],[-84.8299,38.9694],[-84.8306,38.9749],[-84.8371,38.9881],[-84.8398,38.9913],[-84.8477,38.998],[-84.8506,39.0047],[-84.8718,39.0278],[-84.8774,39.0316],[-84.8791,39.0337],[-84.8857,39.0375],[-84.8932,39.049],[-84.8967,39.0533],[-84.8969,39.0575],[-84.8932,39.0625],[-84.8889,39.0664],[-84.8807,39.07],[-84.873,39.0721],[-84.8607,39.0781],[-84.8498,39.0865],[-84.8446,39.092],[-84.8324,39.1005],[-84.8202,39.1055],[-84.8138,39.1065]]]}},{"type":"Feature","properties":{"id":"39165","name":"Warren Co., OH"},"geometry":{"type":"Polygon","coordinates":[[[-84.2857,39.5896],[-84.1339,39.5795],[-84.0676,39.5753],[-83.977,39.5694],[-83.9893,39.4355],[-83.9925,39.4035],[-83.9975,39.3512],[-84.0041,39.2884],[-84.0075,39.2551],[-84.0789,39.2595],[-84.2018,39.2672],[-84.2594,39.2709],[-84.2567,39.2749],[-84.2576,39.278],[-84.2647,39.2807],[-84.2652,39.2822],[-84.2622,39.2883],[-84.2774,39.2894],[-84.2972,39.2918],[-84.3341,39.2933],[-84.3532,39.2923],[-84.3524,39.3024],[-84.3463,39.3684],[-84.3447,39.3827],[-84.3367,39.456],[-84.3402,39.4567],[-84.3355,39.5102],[-84.3321,39.5472],[-84.3317,39.5492],[-84.3472,39.5454],[-84.3541,39.5444],[-84.3615,39.5422],[-84.3643,39.5438],[-84.3645,39.5623],[-84.3652,39.5895],[-84.2857,39.5896]]]}},{"type":"Feature","properties":{"id":"39015","name":"Brown Co., OH"},"geometry":{"type":"Polygon","coordinates":[[[-83.8657,39.2473],[-83.867,39.1791],[-83.8674,39.1421],[-83.8685,39.1041],[-83.8722,39.0213],[-83.8169,39.0202],[-83.7509,39.0205],[-83.7052,39.0213],[-83.673,39.0204],[-83.6752,38.9992],[-83.6796,38.9474],[-83.6863,38.8675],[-83.693,38.7958],[-83.6991,38.73],[-83.703,38.6843],[-83.7053,38.6398],[-83.7134,38.6416],[-83.7208,38.6467],[-83.7382,38.6479],[-83.7499,38.6496],[-83.7624,38.6521],[-83.7693,38.6552],[-83.7722,38.6582],[-83.7771,38.6712],[-83.78,38.6849],[-83.7836,38.6956],[-83.7907,38.7017],[-83.7985,38.7047],[-83.8063,38.7066],[-83.8139,38.7074],[-83.8219,38.7096],[-83.834,38.716],[-83.8406,38.7219],[-83.8462,38.7423],[-83.8521,38.7514],[-83.859,38.7568],[-83.8732,38.7624],[-83.8871,38.7656],[-83.9039,38.7682],[-83.9129,38.7698],[-83.9172,38.7697],[-83.9286,38.7722],[-83.9285,38.7746],[-83.944,38.7836],[-83.9535,38.7862],[-83.9621,38.7874],[-83.9788,38.7871],[-83.9954,38.7819],[-84.0061,38.7802],[-84.0231,38.7751],[-84.0445,38.7706],[-84.0527,38.7714],[-84.0524,38.7722],[-84.0378,38.8848],[-84.0353,38.9067],[-84.0262,38.9789],[-84.0254,38.9858],[-84.0213,39.0135],[-84.0186,39.0337],[-84.0105,39.0914],[-84.0071,39.1177],[-84.0051,39.1303],[-83.9978,39.1911],[-83.9899,39.2541],[-83.8657,39.2473]]]}},{"type":"Feature","properties":{"id":"21117","name":"Kenton Co., KY"},"geometry":{"type":"Polygon","coordinates":[[[-84.6201,39.0735],[-84.6079,39.0732],[-84.6017,39.0741],[-84.5924,39.0781],[-84.5721,39.0821],[-84.5639,39.0874],[-84.5575,39.0949],[-84.5508,39.0994],[-84.5413,39.0992],[-84.5246,39.0922],[-84.5195,39.0921],[-84.5097,39.0937],[-84.5061,39.0951],[-84.5033,39.0915],[-84.5044,39.0859],[-84.4932,39.0706],[-84.4977,39.0585],[-84.4972,39.0552],[-84.4932,39.0494],[-84.4881,39.0459],[-84.4852,39.041],[-84.49,39.0307],[-84.4892,39.0212],[-84.4852,39.0154],[-84.4811,39.013],[-84.4789,39.0097],[-84.4733,39.0045],[-84.464,39.0041],[-84.4544,39.0001],[-84.4506,38.9964],[-84.4508,38.9936],[-84.4616,38.9839],[-84.4649,38.98],[-84.4664,38.9724],[-84.4636,38.9676],[-84.4593,38.9653],[-84.4548,38.9655],[-84.4528,38.9677],[-84.4502,38.9756],[-84.446,38.9806],[-84.4404,38.9844],[-84.4347,38.9852],[-84.4273,38.9809],[-84.4269,38.9784],[-84.4299,38.9732],[-84.4378,38.9661],[-84.4419,38.9599],[-84.443,38.9554],[-84.4474,38.9505],[-84.4494,38.9499],[-84.4618,38.9494],[-84.4634,38.9465],[-84.4601,38.9389],[-84.4519,38.929],[-84.4486,38.9208],[-84.4439,38.9159],[-84.4446,38.9117],[-84.4389,38.9049],[-84.4396,38.8973],[-84.443,38.8891],[-84.4449,38.8806],[-84.4489,38.8722],[-84.4527,38.8663],[-84.4494,38.8613],[-84.4524,38.8584],[-84.4634,38.8521],[-84.462,38.8472],[-84.454,38.8396],[-84.4527,38.8358],[-84.4533,38.828],[-84.4515,38.8203],[-84.4475,38.8173],[-84.4423,38.8178],[-84.4384,38.8247],[-84.4359,38.8269],[-84.4303,38.8286],[-84.4271,38.8279],[-84.4216,38.8239],[-84.4175,38.8119],[-84.4209,38.8082],[-84.4182,38.8066],[-84.4185,38.8059],[-84.5323,38.7919],[-84.5473,38.7901],[-84.5977,38.7912],[-84.605,38.7928],[-84.6157,38.8023],[-84.5979,38.8794],[-84.6034,38.91],[-84.6235,39.0744],[-84.6201,39.0735]]]}},{"type":"Feature","properties":{"id":"39017","name":"Butler Co., OH"},"geometry":{"type":"Polygon","coordinates":[[[-84.8149,39.5677],[-84.77,39.5676],[-84.7631,39.5666],[-84.7216,39.5676],[-84.6321,39.5674],[-84.5537,39.5678],[-84.498,39.5683],[-84.4789,39.5688],[-84.4792,39.591],[-84.4742,39.5902],[-84.4631,39.59],[-84.4354,39.5901],[-84.4129,39.5899],[-84.3652,39.5899],[-84.3652,39.5895],[-84.3645,39.5623],[-84.3643,39.5438],[-84.3615,39.5422],[-84.3541,39.5444],[-84.3472,39.5454],[-84.3317,39.5492],[-84.3321,39.5472],[-84.3355,39.5102],[-84.3402,39.4567],[-84.3367,39.456],[-84.3447,39.3827],[-84.3463,39.3684],[-84.3524,39.3024],[-84.3532,39.2923],[-84.3708,39.2944],[-84.3911,39.2976],[-84.4093,39.2979],[-84.4103,39.2982],[-84.4291,39.2988],[-84.4655,39.3029],[-84.4851,39.3015],[-84.5046,39.306],[-84.5237,39.3033],[-84.5424,39.3063],[-84.5623,39.3081],[-84.5797,39.3081],[-84.5987,39.3086],[-84.6163,39.3112],[-84.63,39.3121],[-84.6398,39.3088],[-84.6418,39.305],[-84.7022,39.3047],[-84.7665,39.3049],[-84.7957,39.3057],[-84.8195,39.3052],[-84.8176,39.3918],[-84.8157,39.4784],[-84.8154,39.522],[-84.8149,39.5677]]]}},{"type":"Feature","properties":{"id":"21191","name":"Pendleton Co., KY"},"geometry":{"type":"Polygon","coordinates":[[[-84.4185,38.8059],[-84.4182,38.8066],[-84.4103,38.8058],[-84.4052,38.8064],[-84.3968,38.811],[-84.3907,38.8132],[-84.3874,38.8123],[-84.2319,38.8748],[-84.2337,38.8536],[-84.2333,38.8427],[-84.2304,38.8274],[-84.236,38.8224],[-84.2251,38.7436],[-84.2074,38.5976],[-84.2011,38.6039],[-84.1957,38.5907],[-84.1955,38.5884],[-84.2014,38.5891],[-84.2053,38.5871],[-84.2053,38.582],[-84.2965,38.5719],[-84.4003,38.5606],[-84.4037,38.5649],[-84.4098,38.5659],[-84.4124,38.5647],[-84.4148,38.5599],[-84.4183,38.5572],[-84.4262,38.5579],[-84.4255,38.5553],[-84.4203,38.5517],[-84.4239,38.5503],[-84.4279,38.5465],[-84.4266,38.5452],[-84.422,38.5457],[-84.4192,38.5428],[-84.4239,38.5419],[-84.4278,38.5389],[-84.4328,38.5392],[-84.433,38.5343],[-84.4349,38.5365],[-84.4423,38.5373],[-84.448,38.5368],[-84.446,38.5335],[-84.4479,38.5297],[-84.4493,38.5334],[-84.4526,38.531],[-84.4572,38.532],[-84.4561,38.5349],[-84.459,38.5368],[-84.4626,38.5349],[-84.4695,38.538],[-84.4722,38.544],[-84.4763,38.5427],[-84.4895,38.5969],[-84.5003,38.644],[-84.5049,38.665],[-84.524,38.7543],[-84.5323,38.7919],[-84.4185,38.8059]]]}},{"type":"Feature","properties":{"id":"18029","name":"Dearborn Co., IN"},"geometry":{"type":"Polygon","coordinates":[[[-85.122,39.0023],[-85.1196,39.0172],[-85.1131,39.0506],[-85.0959,39.1463],[-85.0819,39.2223],[-85.07,39.2847],[-85.0656,39.3072],[-85.0026,39.3068],[-84.9289,39.3059],[-84.9059,39.3061],[-84.8443,39.3056],[-84.8195,39.3052],[-84.8194,39.2928],[-84.82,39.2546],[-84.8201,39.2305],[-84.8198,39.1585],[-84.8201,39.148],[-84.8202,39.1055],[-84.8324,39.1005],[-84.8446,39.092],[-84.8498,39.0865],[-84.8607,39.0781],[-84.873,39.0721],[-84.8807,39.07],[-84.8889,39.0664],[-84.8932,39.0625],[-84.8969,39.0575],[-84.8967,39.0533],[-84.8932,39.049],[-84.8857,39.0375],[-84.8791,39.0337],[-84.8774,39.0316],[-84.8838,39.0259],[-84.8883,39.0233],[-84.8977,39.0134],[-84.9121,39.0189],[-84.9187,39.0145],[-84.9258,39.0143],[-84.9277,39.0108],[-84.9335,39.0062],[-84.9379,39.0055],[-84.9383,39.0071],[-84.943,39.008],[-84.9464,39.0049],[-84.944,39.0005],[-84.9463,38.9988],[-84.9518,38.9983],[-84.9539,38.9949],[-84.9606,38.9946],[-84.9642,38.9978],[-84.9697,38.9924],[-84.978,38.9948],[-84.9844,38.9977],[-84.9849,38.995],[-84.9922,38.9949],[-84.9942,38.9975],[-84.9975,38.9968],[-85.0019,38.9874],[-85.0009,38.9839],[-85.0017,38.9789],[-85.0036,38.9752],[-85.0066,38.9779],[-85.0161,38.9822],[-85.0213,38.9816],[-85.0247,38.9745],[-85.0366,38.9763],[-85.0436,38.9731],[-85.0469,38.969],[-85.0512,38.9669],[-85.0508,38.9635],[-85.0464,38.96],[-85.0457,38.9572],[-85.0478,38.9562],[-85.0551,38.9596],[-85.0582,38.9581],[-85.0586,38.949],[-85.0615,38.9483],[-85.0666,38.95],[-85.0672,38.9519],[-85.0646,38.9549],[-85.0697,38.9568],[-85.0711,38.9495],[-85.0724,38.948],[-85.0768,38.9484],[-85.0798,38.9515],[-85.0826,38.9522],[-85.0894,38.9427],[-85.094,38.9401],[-85.0949,38.9364],[-85.0975,38.9355],[-85.1026,38.9402],[-85.1082,38.9394],[-85.1137,38.9361],[-85.1188,38.9372],[-85.1209,38.9444],[-85.1189,38.9483],[-85.1134,38.9528],[-85.1155,38.9566],[-85.1201,38.9561],[-85.1233,38.9543],[-85.125,38.9509],[-85.1296,38.9482],[-85.1325,38.9481],[-85.122,39.0023]]]}}]}