{"type":"FeatureCollection","features":[{"type":"Feature","properties":{"id":"12011","name":"Broward Co."},"geometry":{"type":"Polygon","coordinates":[[[-80.5399,26.3347],[-80.5359,26.3346],[-80.297,26.3344],[-80.2969,26.3554],[-80.2512,26.3417],[-80.2041,26.3278],[-80.1534,26.3278],[-80.1073,26.3279],[-80.0992,26.3276],[-80.0991,26.3235],[-80.0964,26.3224],[-80.092,26.3264],[-80.0895,26.325],[-80.0879,26.3208],[-80.0748,26.321],[-80.0753,26.3187],[-80.0802,26.2587],[-80.0835,26.2565],[-80.0873,26.2413],[-80.0888,26.2322],[-80.0895,26.222],[-80.0929,26.2051],[-80.098,26.1664],[-80.1014,26.1478],[-80.1029,26.1351],[-80.1049,26.0953],[-80.1088,26.0901],[-80.1091,26.081],[-80.1106,26.0683],[-80.1111,26.0584],[-80.1125,26.0474],[-80.1179,25.9752],[-80.1339,25.9741],[-80.1339,25.9749],[-80.1745,25.9736],[-80.1944,25.9732],[-80.2125,25.9724],[-80.2469,25.9719],[-80.2622,25.9713],[-80.2951,25.9706],[-80.295,25.9568],[-80.3106,25.9572],[-80.3514,25.957],[-80.3751,25.9571],[-80.4358,25.9569],[-80.5517,25.957],[-80.68,25.9569],[-80.68,25.9787],[-80.8729,25.9794],[-80.8726,25.9985],[-80.8792,26.1729],[-80.8797,26.2593],[-80.8813,26.3338],[-80.5399,26.3347]]]}},{"type":"Feature","properties":{"id":"12086","name":"Miami-Dade Co."},"geometry":{"type":"MultiPolygon","coordinates":[[[[-80.1739,25.5254],[-80.1727,25.5221],[-80.1771,25.5217],[-80.1763,25.5251],[-80.1739,25.5254]]],[[[-80.2547,25.3688],[-80.2559,25.3734],[-80.2554,25.3807],[-80.2464,25.3883],[-80.2412,25.3865],[-80.2366,25.3893],[-80.2374,25.3914],[-80.2419,25.3915],[-80.2442,25.3931],[-80.2483,25.3922],[-80.2495,25.395],[-80.2423,25.3991],[-80.2378,25.3942],[-80.2348,25.394],[-80.234,25.3967],[-80.2353,25.4013],[-80.2303,25.4029],[-80.2246,25.403],[-80.221,25.4064],[-80.2165,25.406],[-80.2139,25.4106],[-80.2092,25.4144],[-80.2085,25.4164],[-80.2103,25.4213],[-80.2098,25.4249],[-80.212,25.4281],[-80.2061,25.4322],[-80.2013,25.4413],[-80.1938,25.4614],[-80.192,25.4719],[-80.1883,25.4773],[-80.1872,25.4828],[-80.1814,25.4906],[-80.1809,25.4932],[-80.1894,25.4971],[-80.1904,25.5011],[-80.1886,25.5056],[-80.1848,25.5048],[-80.1807,25.5064],[-80.1806,25.5099],[-80.1785,25.5107],[-80.1783,25.5172],[-80.1757,25.5177],[-80.176,25.5103],[-80.1785,25.5015],[-80.177,25.4933],[-80.1779,25.4886],[-80.1767,25.4859],[-80.1786,25.4813],[-80.1899,25.4614],[-80.1898,25.4534],[-80.1917,25.4481],[-80.2004,25.4298],[-80.2025,25.4274],[-80.2041,25.4202],[-80.2038,25.4145],[-80.2056,25.4116],[-80.2117,25.4068],[-80.2258,25.3939],[-80.2265,25.3914],[-80.2314,25.3874],[-80.2291,25.3832],[-80.2332,25.3727],[-80.2414,25.3556],[-80.2393,25.3506],[-80.2439,25.3471],[-80.2503,25.3448],[-80.2531,25.3505],[-80.259,25.3543],[-80.2584,25.3644],[-80.2547,25.3688]]],[[[-80.2982,25.3822],[-80.2937,25.3855],[-80.2928,25.3795],[-80.295,25.3767],[-80.3023,25.3774],[-80.3035,25.3801],[-80.2982,25.3822]]],[[[-80.302,25.403],[-80.304,25.4053],[-80.2997,25.4054],[-80.302,25.403]]],[[[-80.6123,25.1817],[-80.6098,25.1824],[-80.6125,25.1764],[-80.6144,25.1758],[-80.6195,25.1781],[-80.618,25.1801],[-80.6243,25.1813],[-80.6248,25.1828],[-80.6123,25.1817]]],[[[-80.119,25.9459],[-80.1201,25.935],[-80.1213,25.9177],[-80.1217,25.898],[-80.1209,25.8832],[-80.119,25.8659],[-80.1188,25.8457],[-80.1195,25.8277],[-80.121,25.8132],[-80.1246,25.8003],[-80.1311,25.7698],[-80.1308,25.7644],[-80.1337,25.7624],[-80.1371,25.7566],[-80.1397,25.7555],[-80.1429,25.751],[-80.1427,25.7465],[-80.1451,25.7415],[-80.1594,25.733],[-80.1546,25.7288],[-80.148,25.7259],[-80.1482,25.7191],[-80.1511,25.7129],[-80.1523,25.7053],[-80.1559,25.6985],[-80.1566,25.6912],[-80.1529,25.6716],[-80.1563,25.6662],[-80.1594,25.6662],[-80.1626,25.6744],[-80.1702,25.6812],[-80.1773,25.6866],[-80.1753,25.6917],[-80.1724,25.6958],[-80.1669,25.7011],[-80.1679,25.7064],[-80.1725,25.7079],[-80.1724,25.7096],[-80.1618,25.7161],[-80.1543,25.7232],[-80.1621,25.7316],[-80.166,25.7318],[-80.1663,25.7357],[-80.1751,25.7445],[-80.1789,25.746],[-80.1996,25.746],[-80.2026,25.7482],[-80.2085,25.7456],[-80.2107,25.7407],[-80.2144,25.7383],[-80.2177,25.7394],[-80.2297,25.7326],[-80.2331,25.7317],[-80.2328,25.7291],[-80.2358,25.726],[-80.2379,25.7272],[-80.2447,25.7179],[-80.2491,25.7134],[-80.2461,25.7075],[-80.2451,25.6984],[-80.2473,25.6976],[-80.2498,25.6902],[-80.2574,25.6778],[-80.2601,25.6745],[-80.2656,25.6617],[-80.2707,25.6476],[-80.272,25.6392],[-80.2758,25.6374],[-80.2783,25.6325],[-80.2863,25.6201],[-80.2983,25.6216],[-80.2988,25.6193],[-80.3054,25.6159],[-80.3089,25.6042],[-80.3077,25.5862],[-80.3026,25.5718],[-80.3027,25.5695],[-80.3068,25.5651],[-80.3073,25.558],[-80.3118,25.547],[-80.3134,25.5374],[-80.3143,25.5362],[-80.3246,25.5356],[-80.3287,25.5326],[-80.3315,25.5282],[-80.331,25.518],[-80.3336,25.517],[-80.3358,25.5097],[-80.3335,25.5076],[-80.3327,25.5041],[-80.3398,25.5002],[-80.339,25.4953],[-80.3405,25.4922],[-80.3396,25.4837],[-80.3403,25.4815],[-80.34,25.4679],[-80.3364,25.4647],[-80.3344,25.4649],[-80.3372,25.4592],[-80.3369,25.4562],[-80.3306,25.4507],[-80.3305,25.443],[-80.3261,25.4379],[-80.3204,25.4372],[-80.3216,25.4328],[-80.3253,25.4308],[-80.3261,25.4194],[-80.3282,25.4161],[-80.3256,25.4102],[-80.3293,25.4065],[-80.3275,25.4046],[-80.3279,25.3968],[-80.3263,25.3943],[-80.3204,25.3915],[-80.3198,25.3891],[-80.3127,25.388],[-80.3084,25.3904],[-80.3054,25.3877],[-80.3104,25.3731],[-80.3138,25.3672],[-80.3183,25.3629],[-80.3228,25.3615],[-80.3263,25.3571],[-80.331,25.3466],[-80.3426,25.3315],[-80.3432,25.3276],[-80.3423,25.3233],[-80.3493,25.321],[-80.3516,25.3258],[-80.3587,25.3253],[-80.3609,25.3281],[-80.3651,25.3267],[-80.3654,25.3248],[-80.3706,25.3232],[-80.3715,25.3173],[-80.3737,25.3095],[-80.3761,25.3059],[-80.379,25.3059],[-80.3791,25.2883],[-80.3829,25.2916],[-80.3859,25.2911],[-80.3981,25.2768],[-80.4,25.271],[-80.4005,25.2612],[-80.3974,25.2566],[-80.3979,25.2535],[-80.411,25.2535],[-80.4186,25.2447],[-80.4189,25.2363],[-80.4323,25.2367],[-80.436,25.2358],[-80.4354,25.2405],[-80.4397,25.2393],[-80.4391,25.2421],[-80.4445,25.2441],[-80.4445,25.2402],[-80.4507,25.2402],[-80.4574,25.2376],[-80.4569,25.2351],[-80.4608,25.2368],[-80.4682,25.2336],[-80.4684,25.2302],[-80.4727,25.2286],[-80.4745,25.2306],[-80.4804,25.2282],[-80.4828,25.2248],[-80.4873,25.2287],[-80.4936,25.2273],[-80.496,25.2227],[-80.4944,25.221],[-80.4949,25.216],[-80.4918,25.2135],[-80.487,25.2123],[-80.4882,25.2074],[-80.4948,25.2079],[-80.4986,25.2115],[-80.5008,25.2116],[-80.5012,25.2084],[-80.4963,25.2053],[-80.496,25.2004],[-80.498,25.1999],[-80.5063,25.208],[-80.5094,25.2126],[-80.5105,25.2164],[-80.5193,25.2226],[-80.5242,25.2219],[-80.5296,25.215],[-80.5364,25.214],[-80.5392,25.2149],[-80.5414,25.2121],[-80.5387,25.2053],[-80.546,25.206],[-80.5493,25.2085],[-80.5479,25.2124],[-80.5489,25.2144],[-80.5539,25.2142],[-80.5565,25.2121],[-80.5628,25.2123],[-80.5596,25.2045],[-80.559,25.1996],[-80.565,25.1967],[-80.5655,25.1929],[-80.5689,25.1933],[-80.572,25.197],[-80.5776,25.2012],[-80.5765,25.2041],[-80.5735,25.1989],[-80.5703,25.1987],[-80.5687,25.2036],[-80.5645,25.2038],[-80.5633,25.2074],[-80.5679,25.2118],[-80.5738,25.21],[-80.5796,25.2121],[-80.5845,25.2073],[-80.5834,25.2011],[-80.5916,25.1992],[-80.5955,25.1902],[-80.6065,25.1865],[-80.6092,25.1837],[-80.6095,25.1861],[-80.6041,25.1888],[-80.6039,25.1933],[-80.6059,25.1954],[-80.6036,25.2019],[-80.605,25.2035],[-80.609,25.2032],[-80.6098,25.2004],[-80.6134,25.2015],[-80.6195,25.1977],[-80.622,25.1998],[-80.6252,25.1953],[-80.6288,25.1981],[-80.6312,25.1952],[-80.6389,25.1907],[-80.6438,25.1916],[-80.6472,25.1897],[-80.6482,25.1929],[-80.6522,25.1928],[-80.6551,25.1845],[-80.6603,25.1849],[-80.664,25.1767],[-80.6586,25.1753],[-80.6579,25.1779],[-80.6513,25.1752],[-80.6426,25.178],[-80.6355,25.178],[-80.6341,25.1765],[-80.6403,25.177],[-80.6446,25.1753],[-80.6492,25.1686],[-80.6518,25.1621],[-80.6509,25.1574],[-80.6557,25.1548],[-80.656,25.15],[-80.6517,25.147],[-80.6619,25.1415],[-80.6688,25.1417],[-80.6737,25.1383],[-80.6744,25.1426],[-80.6705,25.1443],[-80.6617,25.1546],[-80.6556,25.1576],[-80.6533,25.1645],[-80.6577,25.1696],[-80.6668,25.1671],[-80.6698,25.1672],[-80.6677,25.1706],[-80.671,25.1745],[-80.6736,25.1738],[-80.6741,25.1686],[-80.6778,25.1643],[-80.6803,25.1647],[-80.6776,25.1693],[-80.6783,25.1747],[-80.6814,25.1744],[-80.6881,25.1687],[-80.6917,25.1683],[-80.6959,25.1639],[-80.6981,25.1634],[-80.6978,25.1546],[-80.7031,25.1536],[-80.7057,25.1491],[-80.7042,25.1408],[-80.7061,25.1405],[-80.7083,25.1439],[-80.7107,25.1518],[-80.7179,25.156],[-80.7267,25.1529],[-80.726,25.1561],[-80.7224,25.1595],[-80.7246,25.1652],[-80.7291,25.1675],[-80.7323,25.1676],[-80.7295,25.1631],[-80.7303,25.1598],[-80.7344,25.1612],[-80.7375,25.1592],[-80.7388,25.1618],[-80.7459,25.1657],[-80.7475,25.1649],[-80.7474,25.158],[-80.7443,25.1564],[-80.7411,25.1516],[-80.7381,25.1503],[-80.7356,25.1521],[-80.7315,25.1518],[-80.7216,25.1465],[-80.7328,25.1432],[-80.7423,25.1425],[-80.7477,25.1474],[-80.7516,25.1528],[-80.7557,25.153],[-80.7543,25.1584],[-80.7573,25.161],[-80.763,25.1626],[-80.7717,25.161],[-80.7725,25.1561],[-80.769,25.1505],[-80.7695,25.145],[-80.7715,25.1403],[-80.7781,25.1382],[-80.773,25.1448],[-80.772,25.1486],[-80.7733,25.1536],[-80.7756,25.1564],[-80.7764,25.1606],[-80.7792,25.164],[-80.7832,25.1659],[-80.7936,25.1637],[-80.7972,25.1594],[-80.799,25.1547],[-80.798,25.1467],[-80.8005,25.143],[-80.802,25.1526],[-80.7995,25.1631],[-80.7935,25.1764],[-80.7945,25.1799],[-80.798,25.1818],[-80.8021,25.1822],[-80.8085,25.1844],[-80.8146,25.1827],[-80.8137,25.1759],[-80.81,25.1724],[-80.8099,25.1689],[-80.8164,25.165],[-80.8264,25.1606],[-80.8281,25.1656],[-80.8332,25.1726],[-80.8389,25.1759],[-80.8486,25.1777],[-80.8579,25.1766],[-80.8581,25.2111],[-80.858,25.243],[-80.862,25.2429],[-80.8622,25.3642],[-80.8732,25.364],[-80.8731,25.6235],[-80.8733,25.6254],[-80.8731,25.8054],[-80.8732,25.8062],[-80.8729,25.9794],[-80.68,25.9787],[-80.68,25.9569],[-80.5517,25.957],[-80.4358,25.9569],[-80.3751,25.9571],[-80.3514,25.957],[-80.3106,25.9572],[-80.295,25.9568],[-80.2951,25.9706],[-80.2622,25.9713],[-80.2469,25.9719],[-80.2125,25.9724],[-80.1944,25.9732],[-80.1745,25.9736],[-80.1339,25.9749],[-80.1339,25.9741],[-80.1179,25.9752],[-80.119,25.9459]]]]}},{"type":"Feature","properties":{"id":"12099","name":"Palm Beach Co."},"geometry":{"type":"Polygon","coordinates":[[[-80.8818,26.3338],[-80.8819,26.3461],[-80.88,26.3461],[-80.8831,26.4623],[-80.883,26.4649],[-80.8858,26.6092],[-80.886,26.6529],[-80.8858,26.6961],[-80.886,26.7453],[-80.8859,26.7692],[-80.8856,26.9589],[-80.6181,26.9578],[-80.5802,26.9579],[-80.4824,26.9579],[-80.4438,26.9577],[-80.3847,26.9584],[-80.2874,26.9578],[-80.2547,26.9571],[-80.1906,26.9567],[-80.142,26.9566],[-80.1418,26.9709],[-80.0799,26.9705],[-80.074,26.9516],[-80.0706,26.9446],[-80.0714,26.9429],[-80.0667,26.9248],[-80.0536,26.8838],[-80.0463,26.8592],[-80.0314,26.7963],[-80.0323,26.7872],[-80.0314,26.7837],[-80.032,26.7736],[-80.0356,26.7738],[-80.0375,26.7663],[-80.0348,26.7365],[-80.0344,26.7211],[-80.0332,26.7148],[-80.0331,26.7008],[-80.0338,26.6897],[-80.0358,26.676],[-80.037,26.646],[-80.0368,26.6344],[-80.036,26.6132],[-80.0362,26.6026],[-80.0389,26.5693],[-80.0416,26.5544],[-80.0421,26.5454],[-80.0449,26.538],[-80.0504,26.5095],[-80.0588,26.4554],[-80.0586,26.4531],[-80.0616,26.433],[-80.0653,26.3931],[-80.0663,26.3917],[-80.0676,26.369],[-80.0706,26.3365],[-80.0723,26.3354],[-80.0748,26.321],[-80.0879,26.3208],[-80.0895,26.325],[-80.092,26.3264],[-80.0964,26.3224],[-80.0991,26.3235],[-80.0992,26.3276],[-80.1073,26.3279],[-80.1534,26.3278],[-80.2041,26.3278],[-80.2512,26.3417],[-80.2969,26.3554],[-80.297,26.3344],[-80.5359,26.3346],[-80.5399,26.3347],[-80.8813,26.3338],[-80.8818,26.3338]]]}}]}