{"type":"FeatureCollection","features":[{"type":"Feature","properties":{"id":"25027","name":"Worcester Co."},"geometry":{"type":"Polygon","coordinates":[[[-72.3126,42.4035],[-72.3136,42.4066],[-72.3104,42.4079],[-72.3086,42.4147],[-72.3065,42.4165],[-72.3056,42.4204],[-72.3023,42.4203],[-72.3013,42.4236],[-72.2936,42.43],[-72.2887,42.4356],[-72.2907,42.4373],[-72.2833,42.4412],[-72.2913,42.4795],[-72.2449,42.5134],[-72.2691,42.5334],[-72.2736,42.561],[-72.2767,42.5704],[-72.2764,42.5774],[-72.2732,42.5793],[-72.2714,42.5763],[-72.2686,42.5779],[-72.2613,42.5759],[-72.2671,42.6008],[-72.2622,42.6003],[-72.2588,42.6037],[-72.2533,42.6053],[-72.2547,42.6116],[-72.24,42.6137],[-72.2384,42.6146],[-72.232,42.614],[-72.2278,42.6162],[-72.2275,42.6221],[-72.2299,42.6221],[-72.2312,42.6259],[-72.2278,42.6265],[-72.2253,42.6304],[-72.2265,42.6349],[-72.2291,42.6384],[-72.2249,42.6389],[-72.2295,42.6627],[-72.2421,42.6616],[-72.2435,42.6692],[-72.2573,42.6679],[-72.2585,42.6754],[-72.272,42.6747],[-72.283,42.7216],[-72.1245,42.7176],[-71.9814,42.7133],[-71.9288,42.7122],[-71.8988,42.7114],[-71.8971,42.7037],[-71.8698,42.6836],[-71.8658,42.6841],[-71.8638,42.6796],[-71.8578,42.675],[-71.8564,42.6676],[-71.8585,42.6338],[-71.8448,42.638],[-71.7753,42.6367],[-71.7758,42.6442],[-71.6646,42.6116],[-71.6777,42.5394],[-71.679,42.5304],[-71.6359,42.524],[-71.6392,42.531],[-71.6366,42.5331],[-71.6359,42.54],[-71.6285,42.548],[-71.6199,42.5525],[-71.6079,42.5454],[-71.6023,42.5452],[-71.5946,42.5434],[-71.5803,42.5505],[-71.5388,42.543],[-71.5314,42.5204],[-71.5298,42.5198],[-71.5327,42.5147],[-71.5349,42.5133],[-71.5604,42.4744],[-71.5434,42.4665],[-71.5591,42.4119],[-71.5853,42.4071],[-71.6043,42.3977],[-71.5802,42.387],[-71.6078,42.37],[-71.6031,42.3673],[-71.61,42.3574],[-71.6258,42.3497],[-71.6183,42.3426],[-71.6115,42.339],[-71.6041,42.3368],[-71.6036,42.3317],[-71.6053,42.3302],[-71.5974,42.321],[-71.5925,42.3179],[-71.5852,42.311],[-71.5691,42.3204],[-71.5511,42.3264],[-71.5165,42.3303],[-71.5082,42.3279],[-71.4868,42.3302],[-71.4851,42.3232],[-71.4863,42.3104],[-71.5059,42.2729],[-71.5065,42.2643],[-71.509,42.2645],[-71.5139,42.2676],[-71.5182,42.2677],[-71.5249,42.2659],[-71.5323,42.2661],[-71.538,42.2646],[-71.5396,42.2628],[-71.5524,42.2674],[-71.5566,42.2681],[-71.5646,42.2669],[-71.5868,42.2595],[-71.6022,42.2181],[-71.5829,42.1956],[-71.5715,42.1947],[-71.5723,42.1927],[-71.5568,42.1925],[-71.5557,42.1825],[-71.5393,42.1897],[-71.5069,42.1889],[-71.5026,42.1914],[-71.4974,42.1666],[-71.478,42.1659],[-71.4785,42.1314],[-71.4899,42.1247],[-71.5014,42.1167],[-71.5004,42.1127],[-71.5031,42.1103],[-71.5006,42.1075],[-71.4997,42.1035],[-71.4955,42.1],[-71.4981,42.0934],[-71.4983,42.0582],[-71.4983,42.0172],[-71.5276,42.015],[-71.5769,42.0141],[-71.766,42.0097],[-71.7992,42.0081],[-71.8006,42.0236],[-71.8908,42.0244],[-71.9873,42.0269],[-72.0635,42.0273],[-72.1357,42.0302],[-72.1351,42.0907],[-72.135,42.1618],[-72.1993,42.1537],[-72.2006,42.1613],[-72.2639,42.1838],[-72.2633,42.1926],[-72.2647,42.1967],[-72.2628,42.2025],[-72.2575,42.2078],[-72.2181,42.2486],[-72.2105,42.2472],[-72.2111,42.2557],[-72.2161,42.2562],[-72.2176,42.2702],[-72.2128,42.2698],[-72.212,42.2827],[-72.2071,42.2852],[-72.2033,42.2912],[-72.2108,42.2945],[-72.2167,42.2941],[-72.2163,42.2993],[-72.2128,42.3015],[-72.2129,42.3076],[-72.2108,42.3114],[-72.2615,42.3033],[-72.2619,42.3053],[-72.2746,42.302],[-72.28,42.3291],[-72.2771,42.3294],[-72.2785,42.3365],[-72.2814,42.3361],[-72.2842,42.352],[-72.2913,42.3517],[-72.3014,42.3482],[-72.3038,42.3458],[-72.3061,42.3461],[-72.3122,42.3428],[-72.3143,42.3437],[-72.3143,42.3483],[-72.3122,42.3525],[-72.3138,42.3578],[-72.3115,42.3588],[-72.313,42.3621],[-72.3105,42.3643],[-72.3131,42.3686],[-72.3157,42.3695],[-72.3114,42.3722],[-72.3143,42.3817],[-72.31,42.3874],[-72.3126,42.3887],[-72.3134,42.3928],[-72.3158,42.3945],[-72.3136,42.3964],[-72.3126,42.4035]]]}}]}