{"type":"FeatureCollection","features":[{"type":"Feature","properties":{"zcta":"01585","d":90},"geometry":{"type":"Polygon","coordinates":[[[-72.16904,42.29785],[-72.17045,42.29403],[-72.17054,42.29152],[-72.16474,42.29136],[-72.16174,42.29188],[-72.16154,42.28835],[-72.14495,42.29122],[-72.14569,42.27716],[-72.13481,42.28115],[-72.11735,42.27882],[-72.12504,42.26347],[-72.11329,42.25243],[-72.1173,42.24295],[-72.11125,42.23858],[-72.11274,42.2332],[-72.11879,42.23095],[-72.11986,42.21407],[-72.12457,42.21636],[-72.12984,42.22124],[-72.14226,42.19745],[-72.1397,42.17955],[-72.14721,42.18147],[-72.14315,42.16586],[-72.14552,42.16747],[-72.15099,42.16724],[-72.15557,42.16836],[-72.15809,42.17029],[-72.1625,42.16991],[-72.18094,42.1675],[-72.20314,42.17945],[-72.19942,42.18224],[-72.19428,42.2021],[-72.18922,42.20135],[-72.1887,42.20618],[-72.18773,42.20869],[-72.18454,42.21056],[-72.17836,42.219],[-72.17147,42.22272],[-72.16963,42.22511],[-72.16632,42.2251],[-72.16287,42.22124],[-72.16821,42.22966],[-72.17139,42.23412],[-72.17355,42.23544],[-72.17705,42.23387],[-72.17893,42.23934],[-72.17981,42.24452],[-72.18205,42.24776],[-72.18251,42.25139],[-72.21108,42.25126],[-72.2111,42.25568],[-72.21609,42.2562],[-72.21765,42.27017],[-72.21278,42.26981],[-72.21204,42.28265],[-72.20711,42.28525],[-72.20396,42.28888],[-72.20328,42.29118],[-72.2108,42.29448],[-72.16904,42.29785]]]}},{"type":"Feature","properties":{"zcta":"01570","d":757},"geometry":{"type":"Polygon","coordinates":[[[-71.83006,42.09278],[-71.80457,42.0236],[-71.88395,42.02431],[-71.88704,42.02829],[-71.88747,42.03223],[-71.88931,42.03557],[-71.88907,42.03756],[-71.88633,42.04595],[-71.88717,42.05081],[-71.88372,42.05073],[-71.88047,42.05178],[-71.88025,42.05815],[-71.88232,42.05877],[-71.88177,42.06289],[-71.87912,42.06508],[-71.87908,42.06818],[-71.88151,42.07589],[-71.83006,42.09278]]]}},{"type":"Feature","properties":{"zcta":"01608","d":4821},"geometry":{"type":"Polygon","coordinates":[[[-71.80496,42.26076],[-71.80387,42.26622],[-71.80109,42.26618],[-71.80173,42.27144],[-71.79966,42.27135],[-71.7967,42.27163],[-71.79347,42.26876],[-71.79335,42.26735],[-71.79557,42.26651],[-71.79495,42.26352],[-71.79668,42.26313],[-71.79632,42.26152],[-71.79953,42.25884],[-71.79966,42.25739],[-71.80196,42.25732],[-71.80463,42.25564],[-71.80198,42.25277],[-71.80565,42.25208],[-71.80915,42.25275],[-71.81254,42.25547],[-71.8096,42.2549],[-71.80793,42.25567],[-71.80973,42.25693],[-71.80661,42.2586],[-71.80546,42.25745],[-71.80421,42.25893],[-71.80587,42.25998],[-71.80496,42.26076]]]}},{"type":"Feature","properties":{"zcta":"01506","d":111},"geometry":{"type":"Polygon","coordinates":[[[-72.09924,42.23077],[-72.07857,42.23106],[-72.07283,42.23209],[-72.07428,42.22712],[-72.07305,42.22234],[-72.07677,42.2188],[-72.07696,42.21694],[-72.07881,42.21461],[-72.0605,42.203],[-72.07041,42.18485],[-72.07001,42.18246],[-72.0727,42.1805],[-72.0742,42.17663],[-72.07185,42.1728],[-72.07245,42.16928],[-72.08941,42.16714],[-72.08675,42.15444],[-72.09246,42.15369],[-72.10868,42.15159],[-72.11152,42.16446],[-72.13501,42.16178],[-72.14189,42.161],[-72.14315,42.16586],[-72.14721,42.18147],[-72.1397,42.17955],[-72.14226,42.19745],[-72.12984,42.22124],[-72.12457,42.21636],[-72.11986,42.21407],[-72.11879,42.23095],[-72.11274,42.2332],[-72.11125,42.23858],[-72.09924,42.23077]]]}},{"type":"Feature","properties":{"zcta":"01740","d":137},"geometry":{"type":"Polygon","coordinates":[[[-71.64243,42.4795],[-71.63579,42.47689],[-71.5489,42.44731],[-71.5591,42.41194],[-71.58526,42.4071],[-71.60425,42.3977],[-71.63042,42.40954],[-71.66063,42.41823],[-71.65674,42.43096],[-71.64243,42.4795]]]}},{"type":"Feature","properties":{"zcta":"01564","d":142},"geometry":{"type":"Polygon","coordinates":[[[-71.72838,42.47513],[-71.7187,42.47337],[-71.71836,42.41022],[-71.72158,42.40924],[-71.72598,42.39029],[-71.74192,42.38685],[-71.74192,42.39277],[-71.7633,42.40037],[-71.77765,42.40041],[-71.78655,42.39898],[-71.81778,42.40396],[-71.83174,42.43183],[-71.81423,42.444],[-71.81315,42.44556],[-71.81766,42.44646],[-71.82011,42.4521],[-71.82334,42.45738],[-71.82406,42.46182],[-71.82719,42.46357],[-71.82816,42.46895],[-71.8278,42.47206],[-71.8356,42.4836],[-71.83002,42.49219],[-71.72838,42.47513]]]}},{"type":"Feature","properties":{"zcta":"01520","d":458},"geometry":{"type":"Polygon","coordinates":[[[-71.80204,42.33135],[-71.82886,42.31498],[-71.84008,42.30812],[-71.85906,42.29652],[-71.86522,42.29276],[-71.86793,42.29579],[-71.87173,42.30234],[-71.87674,42.30623],[-71.87737,42.30501],[-71.87697,42.30064],[-71.87899,42.29752],[-71.8817,42.29759],[-71.89145,42.29575],[-71.90036,42.31338],[-71.90486,42.32088],[-71.90167,42.32522],[-71.89413,42.32815],[-71.89047,42.33114],[-71.89567,42.3378],[-71.89881,42.34284],[-71.89566,42.34454],[-71.89252,42.34513],[-71.89023,42.34825],[-71.88275,42.35149],[-71.87794,42.35543],[-71.8738,42.35466],[-71.87207,42.35361],[-71.87143,42.35491],[-71.86956,42.35287],[-71.86932,42.35679],[-71.87187,42.36082],[-71.87012,42.36423],[-71.87125,42.36598],[-71.8632,42.3674],[-71.85708,42.36609],[-71.85749,42.3686],[-71.85586,42.37111],[-71.85349,42.37076],[-71.84985,42.37339],[-71.84506,42.37261],[-71.83964,42.37431],[-71.84172,42.37685],[-71.83491,42.38095],[-71.83227,42.38408],[-71.82889,42.3844],[-71.82585,42.3824],[-71.82099,42.38309],[-71.8177,42.38234],[-71.81772,42.38344],[-71.80204,42.33135]]]}},{"type":"Feature","properties":{"zcta":"01068","d":49},"geometry":{"type":"Polygon","coordinates":[[[-72.09181,42.38614],[-72.08856,42.38755],[-72.07085,42.38199],[-72.03508,42.40392],[-71.99378,42.31934],[-71.98941,42.31019],[-72.04117,42.3087],[-72.11247,42.35642],[-72.08553,42.37296],[-72.09014,42.37616],[-72.09419,42.37377],[-72.09812,42.37423],[-72.09861,42.37637],[-72.10294,42.37829],[-72.10792,42.37763],[-72.1023,42.37907],[-72.09781,42.38196],[-72.09181,42.38614]]]}},{"type":"Feature","properties":{"zcta":"01094","d":0},"geometry":{"type":"Polygon","coordinates":[[[-72.12367,42.36393],[-72.12386,42.36186],[-72.12663,42.35975],[-72.13383,42.35819],[-72.13482,42.35722],[-72.13698,42.35207],[-72.13762,42.35486],[-72.14186,42.35716],[-72.14404,42.35493],[-72.14253,42.35791],[-72.1424,42.36047],[-72.13968,42.36219],[-72.13829,42.3646],[-72.13927,42.36762],[-72.14475,42.37217],[-72.14511,42.37809],[-72.12367,42.36393]]]}},{"type":"Feature","properties":{"zcta":"01366","d":16},"geometry":{"type":"Polygon","coordinates":[[[-72.19639,42.54892],[-72.18564,42.55036],[-72.10094,42.48368],[-72.20515,42.41768],[-72.20579,42.41666],[-72.20574,42.42212],[-72.20914,42.42178],[-72.20986,42.4283],[-72.21396,42.42871],[-72.21211,42.43088],[-72.20925,42.43703],[-72.2111,42.45038],[-72.26043,42.48683],[-72.25642,42.48715],[-72.25391,42.4903],[-72.25651,42.4936],[-72.25312,42.50061],[-72.2533,42.50247],[-72.25183,42.50454],[-72.25202,42.50793],[-72.24487,42.51344],[-72.19639,42.54892]]]}},{"type":"Feature","properties":{"zcta":"01438","d":0},"geometry":{"type":"Polygon","coordinates":[[[-72.02889,42.56167],[-72.02653,42.5584],[-72.03627,42.55614],[-72.04115,42.55629],[-72.04306,42.56703],[-72.03737,42.56235],[-72.0346,42.56376],[-72.03211,42.56331],[-72.02889,42.56167]]]}},{"type":"Feature","properties":{"zcta":"01525","d":0},"geometry":{"type":"Polygon","coordinates":[[[-71.6445,42.09773],[-71.64313,42.10035],[-71.64117,42.0989],[-71.6445,42.09773]]]}},{"type":"Feature","properties":{"zcta":"01535","d":117},"geometry":{"type":"Polygon","coordinates":[[[-72.03036,42.2452],[-72.03856,42.24446],[-72.04551,42.22997],[-72.06831,42.23127],[-72.07283,42.23209],[-72.07857,42.23106],[-72.09924,42.23077],[-72.11125,42.23858],[-72.1173,42.24295],[-72.11329,42.25243],[-72.12504,42.26347],[-72.11735,42.27882],[-72.13481,42.28115],[-72.12957,42.29025],[-72.11746,42.30225],[-72.04117,42.3087],[-72.03036,42.2452]]]}},{"type":"Feature","properties":{"zcta":"01543","d":137},"geometry":{"type":"Polygon","coordinates":[[[-72.00739,42.42103],[-71.96544,42.44661],[-71.88776,42.39495],[-71.92886,42.3682],[-71.91877,42.34798],[-71.92062,42.34758],[-71.95396,42.33353],[-71.97165,42.32914],[-71.99378,42.31934],[-72.03508,42.40392],[-72.00739,42.42103]]]}},{"type":"Feature","properties":{"zcta":"01561","d":0},"geometry":{"type":"Polygon","coordinates":[[[-71.68598,42.4467],[-71.68763,42.44387],[-71.69065,42.44493],[-71.68972,42.44761],[-71.68598,42.4467]]]}},{"type":"Feature","properties":{"zcta":"01611","d":352},"geometry":{"type":"Polygon","coordinates":[[[-71.85663,42.22668],[-71.85436,42.2269],[-71.85614,42.22256],[-71.86368,42.22616],[-71.86601,42.22598],[-71.87622,42.21498],[-71.87833,42.21795],[-71.88045,42.21914],[-71.88687,42.21914],[-71.88607,42.21989],[-71.88523,42.22577],[-71.88521,42.23053],[-71.88784,42.23557],[-71.89192,42.23687],[-71.89918,42.24337],[-71.8993,42.24548],[-71.89369,42.24513],[-71.89229,42.2458],[-71.88676,42.24571],[-71.8865,42.24882],[-71.88993,42.25282],[-71.89059,42.25573],[-71.88839,42.258],[-71.8886,42.25934],[-71.88397,42.26248],[-71.87537,42.26398],[-71.85663,42.22668]]]}},{"type":"Feature","properties":{"zcta":"01756","d":183},"geometry":{"type":"Polygon","coordinates":[[[-71.57341,42.13579],[-71.57,42.13918],[-71.57159,42.14237],[-71.56934,42.14264],[-71.56102,42.13305],[-71.55602,42.12863],[-71.5539,42.12773],[-71.55053,42.12313],[-71.54466,42.12055],[-71.54183,42.11843],[-71.52925,42.104],[-71.52417,42.10178],[-71.52261,42.10048],[-71.51706,42.09944],[-71.50777,42.10237],[-71.49969,42.10349],[-71.4953,42.09988],[-71.49816,42.09336],[-71.49829,42.06488],[-71.56392,42.06406],[-71.59195,42.0637],[-71.59263,42.11424],[-71.59275,42.12165],[-71.57341,42.13579]]]}},{"type":"Feature","properties":{"zcta":"01452","d":57},"geometry":{"type":"Polygon","coordinates":[[[-72.0396,42.5224],[-72.00138,42.54661],[-71.97969,42.53231],[-71.91984,42.49145],[-71.93319,42.48292],[-71.92029,42.47454],[-71.96544,42.44661],[-72.00739,42.42103],[-72.09969,42.48452],[-72.08204,42.49562],[-72.0396,42.5224]]]}},{"type":"Feature","properties":{"zcta":"01430","d":87},"geometry":{"type":"Polygon","coordinates":[[[-71.92881,42.71223],[-71.89877,42.71142],[-71.8971,42.70373],[-71.86978,42.68365],[-71.86575,42.68411],[-71.86375,42.67955],[-71.85776,42.67498],[-71.85639,42.66764],[-71.85848,42.63382],[-71.85866,42.62903],[-71.88203,42.61991],[-71.8806,42.61734],[-71.88363,42.61635],[-71.88305,42.61534],[-71.89214,42.61247],[-71.89289,42.61378],[-71.89597,42.61276],[-71.89529,42.6116],[-71.91066,42.6067],[-71.91293,42.60777],[-71.92802,42.60201],[-71.94581,42.59491],[-71.95057,42.60171],[-71.94881,42.60252],[-71.95173,42.60756],[-71.9503,42.60808],[-71.95212,42.6107],[-71.95645,42.61027],[-71.96102,42.61429],[-71.95514,42.61688],[-71.94977,42.61556],[-71.94902,42.61679],[-71.95069,42.61906],[-71.95319,42.62794],[-71.95706,42.63326],[-71.96316,42.63552],[-71.96924,42.63838],[-71.96982,42.63925],[-71.97465,42.6414],[-71.98078,42.64627],[-71.98511,42.64724],[-71.9836,42.67445],[-71.98517,42.6757],[-71.985,42.67804],[-71.98658,42.67976],[-71.98733,42.68245],[-71.98644,42.68425],[-71.98744,42.68947],[-71.98562,42.69106],[-71.98262,42.69187],[-71.98143,42.71329],[-71.92881,42.71223]]]}},{"type":"Feature","properties":{"zcta":"01529","d":341},"geometry":{"type":"Polygon","coordinates":[[[-71.56392,42.06406],[-71.56367,42.01428],[-71.5911,42.01377],[-71.59195,42.0637],[-71.56392,42.06406]]]}},{"type":"Feature","properties":{"zcta":"01475","d":114},"geometry":{"type":"Polygon","coordinates":[[[-71.98143,42.71329],[-71.98262,42.69187],[-71.98562,42.69106],[-71.98744,42.68947],[-71.98644,42.68425],[-71.98733,42.68245],[-71.98658,42.67976],[-71.985,42.67804],[-71.98517,42.6757],[-71.9836,42.67445],[-71.98511,42.64724],[-71.98607,42.63002],[-72.03505,42.60886],[-72.0417,42.60464],[-72.04292,42.60507],[-72.05035,42.60521],[-72.05437,42.60838],[-72.07575,42.62524],[-72.11663,42.62661],[-72.11106,42.71723],[-71.98143,42.71329]]]}},{"type":"Feature","properties":{"zcta":"01603","d":2234},"geometry":{"type":"Polygon","coordinates":[[[-71.86235,42.26597],[-71.86296,42.26247],[-71.85928,42.2571],[-71.85826,42.2572],[-71.85501,42.25209],[-71.8531,42.25275],[-71.85137,42.25156],[-71.84716,42.25329],[-71.84601,42.25047],[-71.84473,42.25117],[-71.83945,42.24924],[-71.8367,42.24987],[-71.83227,42.24902],[-71.83325,42.25006],[-71.83738,42.25119],[-71.83972,42.2548],[-71.83302,42.2602],[-71.82709,42.25842],[-71.8296,42.25507],[-71.8282,42.2547],[-71.82912,42.25385],[-71.8231,42.24896],[-71.8217,42.24485],[-71.81496,42.24916],[-71.81373,42.24804],[-71.81109,42.24884],[-71.81712,42.2401],[-71.82009,42.231],[-71.81964,42.23032],[-71.82312,42.22511],[-71.82627,42.22619],[-71.82508,42.22978],[-71.85436,42.2269],[-71.85663,42.22668],[-71.87537,42.26398],[-71.87673,42.26669],[-71.86235,42.26597]]]}},{"type":"Feature","properties":{"zcta":"01536","d":457},"geometry":{"type":"Polygon","coordinates":[[[-71.73124,42.24129],[-71.71799,42.24506],[-71.7114,42.24514],[-71.70466,42.24836],[-71.67445,42.25237],[-71.67417,42.24859],[-71.67093,42.2447],[-71.65017,42.2478],[-71.6484,42.24515],[-71.64444,42.22663],[-71.64382,42.22297],[-71.64777,42.22129],[-71.65493,42.22161],[-71.65781,42.22272],[-71.65799,42.22395],[-71.66256,42.22702],[-71.66918,42.2236],[-71.66915,42.2223],[-71.67323,42.22266],[-71.67226,42.22491],[-71.66996,42.22678],[-71.68232,42.22719],[-71.68174,42.22574],[-71.68693,42.22331],[-71.68776,42.22049],[-71.68513,42.2165],[-71.68791,42.21408],[-71.69072,42.21384],[-71.69229,42.21077],[-71.69383,42.21058],[-71.69338,42.20868],[-71.69757,42.20834],[-71.69761,42.20981],[-71.70595,42.21462],[-71.70744,42.21341],[-71.70997,42.21405],[-71.71863,42.20954],[-71.72214,42.20899],[-71.72444,42.21034],[-71.72604,42.20876],[-71.72734,42.20943],[-71.73343,42.23798],[-71.73124,42.24129]]]}},{"type":"Feature","properties":{"zcta":"01420","d":663},"geometry":{"type":"Polygon","coordinates":[[[-71.85848,42.63382],[-71.84484,42.63799],[-71.77532,42.63666],[-71.77548,42.63461],[-71.77705,42.63649],[-71.77752,42.63149],[-71.7769,42.63017],[-71.77654,42.62051],[-71.77487,42.60905],[-71.7715,42.60627],[-71.77089,42.60366],[-71.77294,42.56965],[-71.76489,42.56284],[-71.76295,42.56392],[-71.75725,42.56207],[-71.7541,42.55946],[-71.74777,42.54994],[-71.74917,42.54894],[-71.74968,42.5452],[-71.75417,42.54605],[-71.75777,42.54857],[-71.75983,42.54782],[-71.76144,42.5492],[-71.76159,42.5519],[-71.76429,42.55506],[-71.77134,42.55925],[-71.78602,42.55105],[-71.78937,42.55093],[-71.79599,42.55232],[-71.80013,42.55211],[-71.80466,42.54826],[-71.8079,42.54716],[-71.81346,42.54729],[-71.81082,42.54432],[-71.81154,42.53789],[-71.81034,42.53537],[-71.80329,42.53413],[-71.82989,42.51633],[-71.83749,42.51377],[-71.84201,42.51463],[-71.842,42.51468],[-71.83781,42.54378],[-71.86295,42.5447],[-71.86251,42.55247],[-71.85559,42.55206],[-71.85513,42.55829],[-71.86234,42.55805],[-71.85866,42.62903],[-71.85848,42.63382]]]}},{"type":"Feature","properties":{"zcta":"01523","d":129},"geometry":{"type":"Polygon","coordinates":[[[-71.67897,42.53043],[-71.64341,42.52513],[-71.63587,42.52402],[-71.63054,42.51719],[-71.63231,42.5163],[-71.62961,42.51585],[-71.62974,42.51366],[-71.62742,42.51301],[-71.62843,42.51051],[-71.62956,42.5113],[-71.63422,42.50436],[-71.63351,42.50257],[-71.6316,42.50267],[-71.62641,42.50009],[-71.62579,42.49911],[-71.62759,42.49382],[-71.6288,42.48857],[-71.63349,42.48307],[-71.63485,42.47996],[-71.63364,42.47725],[-71.63579,42.47689],[-71.64243,42.4795],[-71.65674,42.43096],[-71.68819,42.43674],[-71.71836,42.41022],[-71.7187,42.47337],[-71.72838,42.47513],[-71.7167,42.51899],[-71.71217,42.5216],[-71.70224,42.5339],[-71.67897,42.53043]],[[-71.69065,42.44493],[-71.68763,42.44387],[-71.68598,42.4467],[-71.68972,42.44761],[-71.69065,42.44493]]]}},{"type":"Feature","properties":{"zcta":"01747","d":597},"geometry":{"type":"Polygon","coordinates":[[[-71.56096,42.1558],[-71.56329,42.15345],[-71.5393,42.13836],[-71.53809,42.138],[-71.52869,42.1313],[-71.51924,42.12419],[-71.50967,42.12361],[-71.5071,42.12124],[-71.50588,42.11871],[-71.50139,42.11668],[-71.50038,42.1127],[-71.50308,42.11029],[-71.5006,42.10746],[-71.50134,42.10606],[-71.49969,42.10349],[-71.50777,42.10237],[-71.51706,42.09944],[-71.52261,42.10048],[-71.52417,42.10178],[-71.52925,42.104],[-71.54183,42.11843],[-71.54466,42.12055],[-71.55053,42.12313],[-71.5539,42.12773],[-71.55602,42.12863],[-71.56102,42.13305],[-71.56934,42.14264],[-71.57159,42.14237],[-71.5714,42.15185],[-71.56095,42.15832],[-71.56096,42.1558]]]}},{"type":"Feature","properties":{"zcta":"01566","d":127},"geometry":{"type":"Polygon","coordinates":[[[-72.13163,42.06499],[-72.12921,42.06737],[-72.12609,42.06725],[-72.12389,42.06986],[-72.12174,42.06738],[-72.12408,42.06069],[-72.1227,42.05891],[-72.12525,42.05556],[-72.12617,42.05024],[-72.12382,42.04862],[-72.11825,42.05538],[-72.11126,42.06526],[-72.10917,42.06679],[-72.10345,42.07365],[-72.10488,42.07465],[-72.10209,42.08067],[-72.10113,42.08574],[-72.09673,42.09035],[-72.09533,42.09475],[-72.09227,42.09722],[-72.08947,42.10097],[-72.09443,42.09981],[-72.09544,42.10165],[-72.09343,42.10489],[-72.09528,42.10629],[-72.09353,42.1111],[-72.09593,42.11129],[-72.09984,42.11297],[-72.10201,42.11903],[-72.0994,42.12493],[-72.10193,42.13127],[-72.09908,42.13134],[-72.09568,42.12896],[-72.09489,42.13075],[-72.09606,42.13525],[-72.08937,42.13601],[-72.08599,42.13592],[-72.08393,42.13932],[-72.08445,42.1405],[-72.08702,42.14072],[-72.08931,42.14425],[-72.09275,42.14508],[-72.09295,42.14671],[-72.09165,42.15127],[-72.09246,42.15369],[-72.08675,42.15444],[-72.08941,42.16714],[-72.07245,42.16928],[-72.02944,42.17443],[-72.02402,42.14179],[-72.04682,42.13493],[-72.04201,42.11165],[-72.0405,42.10419],[-72.04676,42.10344],[-72.0521,42.08842],[-72.05341,42.0825],[-72.05715,42.08317],[-72.05919,42.08195],[-72.06088,42.07879],[-72.05945,42.07488],[-72.06057,42.07178],[-72.06305,42.07267],[-72.06642,42.07209],[-72.07443,42.05846],[-72.09973,42.0288],[-72.13572,42.03025],[-72.13539,42.06315],[-72.13163,42.06499]]]}},{"type":"Feature","properties":{"zcta":"01434","d":57},"geometry":{"type":"Polygon","coordinates":[[[-71.57541,42.54959],[-71.57852,42.54809],[-71.58217,42.54356],[-71.58439,42.54176],[-71.59051,42.53967],[-71.5924,42.53707],[-71.59479,42.53716],[-71.59771,42.52556],[-71.59901,42.52271],[-71.60527,42.51837],[-71.62531,42.49602],[-71.62759,42.49382],[-71.62579,42.49911],[-71.62641,42.50009],[-71.6316,42.50267],[-71.63351,42.50257],[-71.63422,42.50436],[-71.62956,42.5113],[-71.62843,42.51051],[-71.62742,42.51301],[-71.62974,42.51366],[-71.62961,42.51585],[-71.63231,42.5163],[-71.63054,42.51719],[-71.63587,42.52402],[-71.64341,42.52513],[-71.64476,42.52606],[-71.64763,42.53531],[-71.64488,42.5382],[-71.64284,42.53738],[-71.64137,42.5407],[-71.63847,42.54003],[-71.63647,42.5419],[-71.64012,42.54421],[-71.64088,42.54598],[-71.63703,42.54759],[-71.6224,42.55198],[-71.61993,42.5525],[-71.61832,42.55156],[-71.60811,42.55297],[-71.6077,42.54837],[-71.60552,42.54811],[-71.605,42.54631],[-71.6029,42.54522],[-71.59462,42.54338],[-71.59319,42.54383],[-71.59048,42.5547],[-71.58732,42.5535],[-71.57868,42.55193],[-71.57581,42.55189],[-71.57448,42.55333],[-71.57205,42.55229],[-71.57204,42.54899],[-71.57541,42.54959]]]}},{"type":"Feature","properties":{"zcta":"01440","d":415},"geometry":{"type":"Polygon","coordinates":[[[-72.05035,42.60521],[-72.04292,42.60507],[-72.0417,42.60464],[-72.03505,42.60886],[-71.98607,42.63002],[-71.98511,42.64724],[-71.98078,42.64627],[-71.97465,42.6414],[-71.96982,42.63925],[-71.96924,42.63838],[-71.96316,42.63552],[-71.95706,42.63326],[-71.95319,42.62794],[-71.95069,42.61906],[-71.94902,42.61679],[-71.94977,42.61556],[-71.95514,42.61688],[-71.96102,42.61429],[-71.95645,42.61027],[-71.95212,42.6107],[-71.9503,42.60808],[-71.95173,42.60756],[-71.94881,42.60252],[-71.95057,42.60171],[-71.94581,42.59491],[-71.92802,42.60201],[-71.9235,42.59542],[-71.95181,42.56031],[-71.96392,42.54943],[-71.9594,42.54638],[-71.97245,42.53617],[-71.97557,42.53586],[-71.97969,42.53231],[-72.00138,42.54661],[-72.02067,42.55913],[-72.02653,42.5584],[-72.02889,42.56167],[-72.03211,42.56331],[-72.0326,42.56515],[-72.02626,42.56998],[-72.02752,42.57008],[-72.02744,42.57393],[-72.03136,42.57444],[-72.03293,42.57632],[-72.03171,42.57821],[-72.0344,42.5799],[-72.03749,42.5781],[-72.04213,42.5799],[-72.04151,42.58289],[-72.04232,42.58377],[-72.03883,42.58622],[-72.04221,42.58936],[-72.04185,42.59197],[-72.03604,42.59387],[-72.04623,42.60196],[-72.05406,42.59869],[-72.05345,42.60543],[-72.05437,42.60838],[-72.05035,42.60521]]]}},{"type":"Feature","properties":{"zcta":"01542","d":310},"geometry":{"type":"Polygon","coordinates":[[[-71.93957,42.20402],[-71.93403,42.20496],[-71.93031,42.20714],[-71.92628,42.21175],[-71.9233,42.21226],[-71.91839,42.21204],[-71.91557,42.21132],[-71.91421,42.21333],[-71.91334,42.21219],[-71.90737,42.21038],[-71.9038,42.21265],[-71.90473,42.21624],[-71.89914,42.21608],[-71.89594,42.21925],[-71.88417,42.21288],[-71.88672,42.21669],[-71.88687,42.21914],[-71.88045,42.21914],[-71.87833,42.21795],[-71.87622,42.21498],[-71.89513,42.19243],[-71.89932,42.19213],[-71.89808,42.18859],[-71.90217,42.1883],[-71.90643,42.19088],[-71.90899,42.19143],[-71.91542,42.18321],[-71.91697,42.19086],[-71.93936,42.18924],[-71.94189,42.20026],[-71.93957,42.20402]]]}},{"type":"Feature","properties":{"zcta":"01453","d":800},"geometry":{"type":"Polygon","coordinates":[[[-71.83749,42.51377],[-71.82989,42.51633],[-71.80329,42.53413],[-71.81034,42.53537],[-71.81154,42.53789],[-71.81082,42.54432],[-71.81346,42.54729],[-71.8079,42.54716],[-71.80466,42.54826],[-71.80013,42.55211],[-71.79599,42.55232],[-71.78937,42.55093],[-71.78602,42.55105],[-71.77134,42.55925],[-71.76429,42.55506],[-71.76159,42.5519],[-71.76144,42.5492],[-71.75983,42.54782],[-71.75777,42.54857],[-71.75417,42.54605],[-71.74968,42.5452],[-71.74917,42.54894],[-71.74777,42.54994],[-71.7541,42.55946],[-71.75725,42.56207],[-71.76295,42.56392],[-71.74506,42.5739],[-71.72042,42.55233],[-71.71123,42.53535],[-71.70224,42.5339],[-71.71217,42.5216],[-71.7167,42.51899],[-71.72838,42.47513],[-71.83002,42.49219],[-71.82232,42.50428],[-71.84233,42.51263],[-71.84201,42.51463],[-71.83749,42.51377]]]}},{"type":"Feature","properties":{"zcta":"01560","d":660},"geometry":{"type":"Polygon","coordinates":[[[-71.71876,42.17802],[-71.70836,42.17966],[-71.70527,42.18314],[-71.70755,42.18578],[-71.7037,42.18591],[-71.69397,42.18483],[-71.66954,42.18382],[-71.66297,42.17922],[-71.65478,42.18272],[-71.64271,42.17412],[-71.6463,42.17287],[-71.64217,42.16566],[-71.67901,42.16579],[-71.69142,42.16311],[-71.6952,42.17579],[-71.71861,42.17297],[-71.71978,42.17733],[-71.71876,42.17802]]]}},{"type":"Feature","properties":{"zcta":"01772","d":368},"geometry":{"type":"Polygon","coordinates":[[[-71.56908,42.32037],[-71.55113,42.3264],[-71.51653,42.33034],[-71.50822,42.32793],[-71.4868,42.33019],[-71.48511,42.32316],[-71.48595,42.31123],[-71.49335,42.29696],[-71.49907,42.29588],[-71.49795,42.29689],[-71.50378,42.29652],[-71.50731,42.29789],[-71.5076,42.29428],[-71.50572,42.29453],[-71.50458,42.28359],[-71.49957,42.28499],[-71.50588,42.27294],[-71.50601,42.2655],[-71.50648,42.26428],[-71.50898,42.26449],[-71.51054,42.26623],[-71.51388,42.26759],[-71.51822,42.26772],[-71.52299,42.26609],[-71.52799,42.26653],[-71.53226,42.26611],[-71.53814,42.26451],[-71.53963,42.26279],[-71.54367,42.26393],[-71.54825,42.26602],[-71.55012,42.26602],[-71.54294,42.26718],[-71.54274,42.26974],[-71.58003,42.30589],[-71.58521,42.31095],[-71.56908,42.32037]]]}},{"type":"Feature","properties":{"zcta":"01607","d":1388},"geometry":{"type":"Polygon","coordinates":[[[-71.78941,42.24246],[-71.78948,42.2392],[-71.78708,42.23954],[-71.78567,42.24526],[-71.78211,42.24226],[-71.78238,42.23911],[-71.77574,42.23654],[-71.77293,42.23037],[-71.77186,42.22373],[-71.77091,42.22217],[-71.77559,42.22014],[-71.7752,42.21966],[-71.78311,42.21619],[-71.78322,42.21393],[-71.78147,42.21019],[-71.78325,42.20925],[-71.78388,42.21066],[-71.78815,42.2094],[-71.78903,42.21054],[-71.79426,42.21131],[-71.79711,42.21005],[-71.79941,42.21371],[-71.80435,42.21527],[-71.80519,42.21667],[-71.80764,42.21651],[-71.80287,42.21935],[-71.80671,42.22386],[-71.80989,42.23093],[-71.8063,42.23159],[-71.80478,42.22788],[-71.80291,42.22936],[-71.80429,42.23119],[-71.80131,42.23279],[-71.80291,42.23402],[-71.80058,42.23602],[-71.80241,42.23765],[-71.80509,42.24178],[-71.81019,42.24248],[-71.80567,42.24293],[-71.80384,42.24397],[-71.8021,42.24071],[-71.79983,42.2427],[-71.79136,42.24125],[-71.7912,42.24297],[-71.78941,42.24246]]]}},{"type":"Feature","properties":{"zcta":"01550","d":425},"geometry":{"type":"Polygon","coordinates":[[[-72.03961,42.1123],[-72.03908,42.10906],[-72.03619,42.10948],[-72.03599,42.10824],[-72.03084,42.1098],[-72.03176,42.11439],[-72.02905,42.11512],[-72.0276,42.10741],[-72.0255,42.10793],[-72.02711,42.10494],[-72.00299,42.09659],[-71.99814,42.09787],[-71.99608,42.08728],[-71.99388,42.08752],[-71.99487,42.08536],[-71.99336,42.08569],[-71.99266,42.08315],[-71.99659,42.08212],[-71.99574,42.07745],[-71.9925,42.07819],[-71.99284,42.07256],[-71.99333,42.06538],[-71.99156,42.05782],[-71.98825,42.05451],[-71.98904,42.04459],[-71.9947,42.03102],[-71.9931,42.02692],[-72.0635,42.02735],[-72.09973,42.0288],[-72.07443,42.05846],[-72.06642,42.07209],[-72.06305,42.07267],[-72.06057,42.07178],[-72.05945,42.07488],[-72.06088,42.07879],[-72.05919,42.08195],[-72.05715,42.08317],[-72.05341,42.0825],[-72.0521,42.08842],[-72.04676,42.10344],[-72.0405,42.10419],[-72.04201,42.11165],[-72.03961,42.1123]]]}},{"type":"Feature","properties":{"zcta":"01501","d":585},"geometry":{"type":"Polygon","coordinates":[[[-71.86601,42.22598],[-71.86368,42.22616],[-71.85614,42.22256],[-71.85436,42.2269],[-71.82508,42.22978],[-71.82627,42.22619],[-71.82312,42.22511],[-71.81964,42.23032],[-71.80989,42.23093],[-71.80671,42.22386],[-71.80287,42.21935],[-71.80764,42.21651],[-71.80519,42.21667],[-71.80435,42.21527],[-71.79941,42.21371],[-71.79711,42.21005],[-71.79633,42.20924],[-71.8315,42.16425],[-71.83492,42.15983],[-71.85793,42.1607],[-71.87586,42.17019],[-71.89513,42.19243],[-71.87622,42.21498],[-71.86601,42.22598]]]}},{"type":"Feature","properties":{"zcta":"01518","d":180},"geometry":{"type":"Polygon","coordinates":[[[-72.11152,42.16446],[-72.10868,42.15159],[-72.09246,42.15369],[-72.09165,42.15127],[-72.09295,42.14671],[-72.09275,42.14508],[-72.08931,42.14425],[-72.08702,42.14072],[-72.08445,42.1405],[-72.08393,42.13932],[-72.08599,42.13592],[-72.08937,42.13601],[-72.09606,42.13525],[-72.09489,42.13075],[-72.09568,42.12896],[-72.09908,42.13134],[-72.10193,42.13127],[-72.0994,42.12493],[-72.10201,42.11903],[-72.09984,42.11297],[-72.09593,42.11129],[-72.09353,42.1111],[-72.09528,42.10629],[-72.09343,42.10489],[-72.09544,42.10165],[-72.09443,42.09981],[-72.08947,42.10097],[-72.09227,42.09722],[-72.09533,42.09475],[-72.09673,42.09035],[-72.10113,42.08574],[-72.10209,42.08067],[-72.10488,42.07465],[-72.10345,42.07365],[-72.10917,42.06679],[-72.11126,42.06526],[-72.11825,42.05538],[-72.12382,42.04862],[-72.12617,42.05024],[-72.12525,42.05556],[-72.1227,42.05891],[-72.12408,42.06069],[-72.12174,42.06738],[-72.12389,42.06986],[-72.12609,42.06725],[-72.12921,42.06737],[-72.13163,42.06499],[-72.13539,42.06315],[-72.13511,42.09067],[-72.13501,42.16178],[-72.11152,42.16446]]]}},{"type":"Feature","properties":{"zcta":"01545","d":919},"geometry":{"type":"Polygon","coordinates":[[[-71.75651,42.31214],[-71.74142,42.31732],[-71.74174,42.31573],[-71.73182,42.31793],[-71.73021,42.32114],[-71.69867,42.33241],[-71.69548,42.33027],[-71.69762,42.32844],[-71.69097,42.32896],[-71.69114,42.32691],[-71.68788,42.3255],[-71.68972,42.31882],[-71.68042,42.30517],[-71.677,42.28615],[-71.67011,42.27876],[-71.65914,42.2668],[-71.67063,42.26108],[-71.67644,42.25417],[-71.67445,42.25237],[-71.70466,42.24836],[-71.7114,42.24514],[-71.71799,42.24506],[-71.73124,42.24129],[-71.74608,42.24384],[-71.75119,42.25425],[-71.75474,42.27439],[-71.75893,42.27415],[-71.75907,42.27771],[-71.75812,42.27994],[-71.75575,42.2802],[-71.75854,42.29622],[-71.76827,42.31126],[-71.7672,42.31323],[-71.76446,42.31286],[-71.75651,42.31214]]]}},{"type":"Feature","properties":{"zcta":"01588","d":623},"geometry":{"type":"Polygon","coordinates":[[[-71.6905,42.14809],[-71.68618,42.14777],[-71.68248,42.14662],[-71.67905,42.1485],[-71.677,42.14451],[-71.67102,42.1378],[-71.67087,42.13605],[-71.66777,42.13778],[-71.66791,42.13525],[-71.66915,42.134],[-71.67159,42.13392],[-71.67134,42.13104],[-71.66813,42.12951],[-71.66774,42.12752],[-71.66381,42.12868],[-71.66205,42.1269],[-71.6569,42.12353],[-71.65628,42.12175],[-71.65171,42.11793],[-71.65584,42.12205],[-71.65165,42.12551],[-71.64995,42.12898],[-71.65244,42.13702],[-71.65929,42.13969],[-71.65366,42.14408],[-71.64709,42.1368],[-71.64802,42.13352],[-71.64518,42.13299],[-71.64349,42.1309],[-71.64246,42.12643],[-71.63878,42.12832],[-71.63598,42.12312],[-71.63202,42.11862],[-71.6276,42.11256],[-71.62369,42.10503],[-71.64117,42.0989],[-71.64313,42.10035],[-71.6445,42.09773],[-71.65087,42.0955],[-71.67997,42.1034],[-71.68468,42.10666],[-71.68612,42.10448],[-71.68979,42.10327],[-71.69103,42.10545],[-71.70769,42.10007],[-71.70476,42.10385],[-71.70507,42.1054],[-71.7051,42.11483],[-71.7023,42.11548],[-71.70088,42.12124],[-71.70235,42.12379],[-71.70466,42.12523],[-71.69371,42.13616],[-71.6914,42.1492],[-71.69165,42.15046],[-71.6905,42.14809]]]}},{"type":"Feature","properties":{"zcta":"01757","d":1021},"geometry":{"type":"Polygon","coordinates":[[[-71.55678,42.19245],[-71.55574,42.1825],[-71.53928,42.18973],[-71.50689,42.18893],[-71.50263,42.19142],[-71.49738,42.16664],[-71.49314,42.16621],[-71.47803,42.16587],[-71.47852,42.13138],[-71.48988,42.12473],[-71.50139,42.11668],[-71.50588,42.11871],[-71.5071,42.12124],[-71.50967,42.12361],[-71.51924,42.12419],[-71.52869,42.1313],[-71.53809,42.138],[-71.5393,42.13836],[-71.56329,42.15345],[-71.56096,42.1558],[-71.56095,42.15832],[-71.56355,42.16088],[-71.56433,42.1656],[-71.56284,42.16784],[-71.55981,42.16711],[-71.56326,42.17201],[-71.56187,42.17431],[-71.56202,42.18061],[-71.56093,42.1826],[-71.56289,42.18578],[-71.56389,42.19073],[-71.56495,42.19259],[-71.55678,42.19245]]]}},{"type":"Feature","properties":{"zcta":"01537","d":185},"geometry":{"type":"Polygon","coordinates":[[[-71.90899,42.19143],[-71.90643,42.19088],[-71.90217,42.1883],[-71.89808,42.18859],[-71.89932,42.19213],[-71.89513,42.19243],[-71.87586,42.17019],[-71.85793,42.1607],[-71.865,42.15739],[-71.87016,42.15565],[-71.87003,42.15047],[-71.87385,42.15196],[-71.87187,42.14975],[-71.86574,42.14507],[-71.8653,42.14324],[-71.86895,42.14321],[-71.87033,42.14491],[-71.87842,42.14079],[-71.88213,42.13788],[-71.88575,42.13716],[-71.89002,42.13433],[-71.8943,42.13407],[-71.89681,42.13546],[-71.90538,42.13352],[-71.91542,42.18321],[-71.90899,42.19143]]]}},{"type":"Feature","properties":{"zcta":"01602","d":2018},"geometry":{"type":"Polygon","coordinates":[[[-71.86522,42.29276],[-71.85906,42.29652],[-71.85806,42.29293],[-71.85351,42.28697],[-71.84945,42.28736],[-71.84223,42.28527],[-71.84518,42.27961],[-71.8428,42.27826],[-71.84208,42.27966],[-71.83927,42.28074],[-71.83836,42.28455],[-71.83687,42.28377],[-71.83784,42.28625],[-71.83668,42.28686],[-71.83397,42.2837],[-71.83316,42.28443],[-71.8281,42.28314],[-71.82667,42.27958],[-71.82461,42.27979],[-71.82399,42.27674],[-71.82189,42.2769],[-71.82072,42.27911],[-71.81991,42.27397],[-71.81752,42.27514],[-71.81259,42.27426],[-71.81693,42.26967],[-71.82067,42.26149],[-71.8231,42.25701],[-71.82425,42.2573],[-71.82672,42.25387],[-71.8282,42.2547],[-71.8296,42.25507],[-71.82709,42.25842],[-71.83302,42.2602],[-71.83972,42.2548],[-71.83738,42.25119],[-71.83325,42.25006],[-71.83227,42.24902],[-71.8367,42.24987],[-71.83945,42.24924],[-71.84473,42.25117],[-71.84601,42.25047],[-71.84716,42.25329],[-71.85137,42.25156],[-71.8531,42.25275],[-71.85501,42.25209],[-71.85826,42.2572],[-71.85928,42.2571],[-71.86296,42.26247],[-71.86235,42.26597],[-71.87673,42.26669],[-71.88404,42.28125],[-71.86522,42.29276]]]}},{"type":"Feature","properties":{"zcta":"01031","d":69},"geometry":{"type":"Polygon","coordinates":[[[-72.21813,42.33428],[-72.22167,42.32717],[-72.21613,42.32785],[-72.21235,42.32887],[-72.20964,42.32762],[-72.20489,42.33091],[-72.20453,42.32827],[-72.20264,42.33307],[-72.19889,42.33821],[-72.19639,42.33952],[-72.19655,42.34223],[-72.19285,42.34579],[-72.19142,42.34527],[-72.18348,42.34558],[-72.17708,42.34275],[-72.17499,42.3434],[-72.17349,42.34541],[-72.1711,42.34576],[-72.16658,42.34381],[-72.16323,42.34433],[-72.16103,42.34741],[-72.16009,42.34568],[-72.1588,42.34767],[-72.16075,42.35194],[-72.16015,42.3539],[-72.15677,42.35331],[-72.15645,42.34859],[-72.15198,42.34708],[-72.14404,42.35493],[-72.14186,42.35716],[-72.13762,42.35486],[-72.13698,42.35207],[-72.13628,42.35005],[-72.13718,42.348],[-72.14043,42.34812],[-72.13985,42.34618],[-72.14115,42.3443],[-72.1445,42.34421],[-72.14722,42.3457],[-72.15252,42.34548],[-72.1544,42.34388],[-72.15832,42.34324],[-72.15962,42.34082],[-72.15961,42.33858],[-72.16319,42.33679],[-72.16389,42.33547],[-72.16239,42.33389],[-72.16734,42.33122],[-72.16823,42.32953],[-72.17231,42.32594],[-72.17211,42.32274],[-72.17685,42.31926],[-72.17717,42.31639],[-72.17889,42.31603],[-72.18043,42.31352],[-72.18303,42.31277],[-72.18522,42.31035],[-72.18558,42.3078],[-72.18378,42.30675],[-72.18729,42.30471],[-72.19068,42.3046],[-72.19423,42.30612],[-72.19361,42.309],[-72.20039,42.3114],[-72.20367,42.31079],[-72.20718,42.31152],[-72.20502,42.30617],[-72.21397,42.29426],[-72.21674,42.29406],[-72.21626,42.29931],[-72.21277,42.30151],[-72.21285,42.30757],[-72.21079,42.31138],[-72.22017,42.3099],[-72.22082,42.32253],[-72.2235,42.32581],[-72.22903,42.32139],[-72.23564,42.32392],[-72.23604,42.32673],[-72.2344,42.32917],[-72.23546,42.33158],[-72.23431,42.33237],[-72.23433,42.33511],[-72.23291,42.33569],[-72.23173,42.33928],[-72.21813,42.33428]]]}},{"type":"Feature","properties":{"zcta":"01083","d":0},"geometry":{"type":"Polygon","coordinates":[[[-72.21807,42.24861],[-72.21482,42.24904],[-72.21458,42.24757],[-72.21046,42.24721],[-72.21108,42.25126],[-72.18251,42.25139],[-72.18205,42.24776],[-72.17981,42.24452],[-72.17893,42.23934],[-72.17705,42.23387],[-72.17355,42.23544],[-72.17139,42.23412],[-72.16821,42.22966],[-72.16287,42.22124],[-72.16632,42.2251],[-72.16963,42.22511],[-72.17147,42.22272],[-72.17836,42.219],[-72.18454,42.21056],[-72.18773,42.20869],[-72.1887,42.20618],[-72.18922,42.20135],[-72.19428,42.2021],[-72.19942,42.18224],[-72.20314,42.17945],[-72.18094,42.1675],[-72.1625,42.16991],[-72.15809,42.17029],[-72.15557,42.16836],[-72.15099,42.16724],[-72.14552,42.16747],[-72.14315,42.16586],[-72.14189,42.161],[-72.18009,42.15615],[-72.17985,42.16156],[-72.17909,42.16476],[-72.18273,42.16689],[-72.19233,42.16378],[-72.19192,42.16089],[-72.19294,42.15452],[-72.19935,42.15371],[-72.20063,42.16129],[-72.23844,42.17475],[-72.23686,42.17811],[-72.23998,42.17696],[-72.24131,42.17975],[-72.21641,42.18248],[-72.21785,42.18377],[-72.20975,42.19159],[-72.21074,42.19363],[-72.21318,42.19385],[-72.21427,42.19752],[-72.21376,42.20275],[-72.21368,42.21552],[-72.21915,42.21513],[-72.21998,42.21722],[-72.21809,42.21732],[-72.21962,42.2224],[-72.22208,42.22422],[-72.22282,42.22807],[-72.22526,42.22383],[-72.22496,42.22194],[-72.22803,42.22276],[-72.22885,42.22552],[-72.23454,42.22574],[-72.23782,42.22302],[-72.23913,42.22681],[-72.21807,42.24861]]]}},{"type":"Feature","properties":{"zcta":"01515","d":121},"geometry":{"type":"Polygon","coordinates":[[[-72.06831,42.23127],[-72.04551,42.22997],[-72.03856,42.24446],[-72.03036,42.2452],[-72.01989,42.18376],[-72.0186,42.1757],[-72.02944,42.17443],[-72.07245,42.16928],[-72.07185,42.1728],[-72.0742,42.17663],[-72.0727,42.1805],[-72.07001,42.18246],[-72.07041,42.18485],[-72.0605,42.203],[-72.07881,42.21461],[-72.07696,42.21694],[-72.07677,42.2188],[-72.07305,42.22234],[-72.07428,42.22712],[-72.07283,42.23209],[-72.06831,42.23127]]]}},{"type":"Feature","properties":{"zcta":"01516","d":131},"geometry":{"type":"Polygon","coordinates":[[[-71.81133,42.09887],[-71.80922,42.09536],[-71.79718,42.09917],[-71.79243,42.10071],[-71.77463,42.10033],[-71.76809,42.08177],[-71.69667,42.09533],[-71.69661,42.09719],[-71.68908,42.09853],[-71.68731,42.09798],[-71.6868,42.09508],[-71.68972,42.09267],[-71.68998,42.09036],[-71.69327,42.09],[-71.69085,42.08608],[-71.68858,42.08494],[-71.68923,42.08332],[-71.69262,42.08049],[-71.69471,42.08193],[-71.69414,42.08376],[-71.69649,42.08459],[-71.69628,42.0711],[-71.68584,42.07299],[-71.68027,42.06837],[-71.6818,42.05492],[-71.68245,42.04377],[-71.68116,42.0211],[-71.68088,42.0117],[-71.76601,42.00975],[-71.79924,42.00807],[-71.80065,42.02357],[-71.80457,42.0236],[-71.83006,42.09278],[-71.81133,42.09887]]]}},{"type":"Feature","properties":{"zcta":"01522","d":113},"geometry":{"type":"Polygon","coordinates":[[[-71.83174,42.43183],[-71.81778,42.40396],[-71.82416,42.40485],[-71.81772,42.38344],[-71.8177,42.38234],[-71.82099,42.38309],[-71.82585,42.3824],[-71.82889,42.3844],[-71.83227,42.38408],[-71.83491,42.38095],[-71.84172,42.37685],[-71.83964,42.37431],[-71.84506,42.37261],[-71.84985,42.37339],[-71.85349,42.37076],[-71.85586,42.37111],[-71.85749,42.3686],[-71.85708,42.36609],[-71.8632,42.3674],[-71.87125,42.36598],[-71.87012,42.36423],[-71.87187,42.36082],[-71.86932,42.35679],[-71.86956,42.35287],[-71.87143,42.35491],[-71.87207,42.35361],[-71.8738,42.35466],[-71.87794,42.35543],[-71.88275,42.35149],[-71.89023,42.34825],[-71.89252,42.34513],[-71.89566,42.34454],[-71.89881,42.34284],[-71.89567,42.3378],[-71.89047,42.33114],[-71.89413,42.32815],[-71.90167,42.32522],[-71.90486,42.32088],[-71.91122,42.3333],[-71.9035,42.33567],[-71.90584,42.34051],[-71.90172,42.34166],[-71.90541,42.34943],[-71.91877,42.34798],[-71.92886,42.3682],[-71.88776,42.39495],[-71.83174,42.43183]]]}},{"type":"Feature","properties":{"zcta":"01532","d":434},"geometry":{"type":"Polygon","coordinates":[[[-71.67636,42.36488],[-71.63394,42.3584],[-71.6247,42.35047],[-71.62583,42.34972],[-71.62066,42.34525],[-71.61826,42.34259],[-71.61147,42.33904],[-71.6041,42.33683],[-71.60359,42.33168],[-71.60527,42.33016],[-71.60188,42.32697],[-71.59736,42.32102],[-71.5925,42.3179],[-71.58521,42.31095],[-71.58003,42.30589],[-71.63321,42.30056],[-71.63418,42.29703],[-71.63716,42.2962],[-71.63797,42.29263],[-71.64259,42.29025],[-71.64279,42.28815],[-71.67011,42.27876],[-71.677,42.28615],[-71.68042,42.30517],[-71.68972,42.31882],[-71.68788,42.3255],[-71.67636,42.36488]]]}},{"type":"Feature","properties":{"zcta":"01534","d":367},"geometry":{"type":"Polygon","coordinates":[[[-71.67901,42.16579],[-71.64217,42.16566],[-71.60578,42.12486],[-71.60227,42.12563],[-71.59898,42.12268],[-71.59275,42.12165],[-71.59263,42.11424],[-71.59599,42.11261],[-71.60152,42.1113],[-71.60353,42.11211],[-71.62369,42.10503],[-71.6276,42.11256],[-71.63202,42.11862],[-71.63598,42.12312],[-71.63878,42.12832],[-71.64246,42.12643],[-71.64349,42.1309],[-71.64518,42.13299],[-71.64802,42.13352],[-71.64709,42.1368],[-71.65366,42.14408],[-71.65929,42.13969],[-71.65244,42.13702],[-71.64995,42.12898],[-71.65165,42.12551],[-71.65584,42.12205],[-71.65171,42.11793],[-71.65628,42.12175],[-71.6569,42.12353],[-71.66205,42.1269],[-71.66381,42.12868],[-71.66774,42.12752],[-71.66813,42.12951],[-71.67134,42.13104],[-71.67159,42.13392],[-71.66915,42.134],[-71.66791,42.13525],[-71.66777,42.13778],[-71.67087,42.13605],[-71.67102,42.1378],[-71.677,42.14451],[-71.67905,42.1485],[-71.68248,42.14662],[-71.68618,42.14777],[-71.6905,42.14809],[-71.69165,42.15046],[-71.69369,42.16121],[-71.69142,42.16311],[-71.67901,42.16579]]]}},{"type":"Feature","properties":{"zcta":"01568","d":196},"geometry":{"type":"Polygon","coordinates":[[[-71.64444,42.22663],[-71.62107,42.23087],[-71.59932,42.22596],[-71.60222,42.2181],[-71.58291,42.19556],[-71.57155,42.19465],[-71.57227,42.19273],[-71.56495,42.19259],[-71.56389,42.19073],[-71.56289,42.18578],[-71.56093,42.1826],[-71.56202,42.18061],[-71.56187,42.17431],[-71.56326,42.17201],[-71.55981,42.16711],[-71.56284,42.16784],[-71.56433,42.1656],[-71.56355,42.16088],[-71.56095,42.15832],[-71.5714,42.15185],[-71.57159,42.14237],[-71.57,42.13918],[-71.57341,42.13579],[-71.59275,42.12165],[-71.59898,42.12268],[-71.60227,42.12563],[-71.60578,42.12486],[-71.64217,42.16566],[-71.6463,42.17287],[-71.64271,42.17412],[-71.64129,42.17488],[-71.64805,42.1807],[-71.64719,42.18197],[-71.63728,42.18324],[-71.64382,42.22297],[-71.64444,42.22663]]]}},{"type":"Feature","properties":{"zcta":"01569","d":260},"geometry":{"type":"Polygon","coordinates":[[[-71.67999,42.10015],[-71.67997,42.1034],[-71.65087,42.0955],[-71.6445,42.09773],[-71.64117,42.0989],[-71.62369,42.10503],[-71.60353,42.11211],[-71.60152,42.1113],[-71.59599,42.11261],[-71.59263,42.11424],[-71.59195,42.0637],[-71.5911,42.01377],[-71.68088,42.0117],[-71.68116,42.0211],[-71.68245,42.04377],[-71.6818,42.05492],[-71.68027,42.06837],[-71.68584,42.07299],[-71.69628,42.0711],[-71.69649,42.08459],[-71.69414,42.08376],[-71.69471,42.08193],[-71.69262,42.08049],[-71.68923,42.08332],[-71.68858,42.08494],[-71.69085,42.08608],[-71.69327,42.09],[-71.68998,42.09036],[-71.68972,42.09267],[-71.6868,42.09508],[-71.68731,42.09798],[-71.68908,42.09853],[-71.67999,42.10015]]]}},{"type":"Feature","properties":{"zcta":"01571","d":287},"geometry":{"type":"Polygon","coordinates":[[[-71.90923,42.09126],[-71.89511,42.09425],[-71.89114,42.07273],[-71.88151,42.07589],[-71.87908,42.06818],[-71.87912,42.06508],[-71.88177,42.06289],[-71.88232,42.05877],[-71.88025,42.05815],[-71.88047,42.05178],[-71.88372,42.05073],[-71.88717,42.05081],[-71.88633,42.04595],[-71.88907,42.03756],[-71.88931,42.03557],[-71.88747,42.03223],[-71.88704,42.02829],[-71.88395,42.02431],[-71.89078,42.02437],[-71.98733,42.02688],[-71.9931,42.02692],[-71.9947,42.03102],[-71.98904,42.04459],[-71.98825,42.05451],[-71.99156,42.05782],[-71.99333,42.06538],[-71.99284,42.07256],[-71.90923,42.09126]]]}},{"type":"Feature","properties":{"zcta":"01583","d":311},"geometry":{"type":"Polygon","coordinates":[[[-71.78655,42.39898],[-71.77765,42.40041],[-71.7633,42.40037],[-71.74192,42.39277],[-71.74192,42.38685],[-71.7538,42.38313],[-71.75971,42.37074],[-71.76374,42.3442],[-71.7641,42.32812],[-71.7657,42.32806],[-71.77251,42.3306],[-71.77156,42.32916],[-71.77297,42.32541],[-71.76669,42.3246],[-71.76819,42.31961],[-71.76997,42.32075],[-71.77511,42.32184],[-71.77972,42.32896],[-71.78616,42.34102],[-71.78878,42.33943],[-71.78946,42.33778],[-71.79353,42.33653],[-71.80204,42.33135],[-71.81772,42.38344],[-71.82416,42.40485],[-71.81778,42.40396],[-71.78655,42.39898]]]}},{"type":"Feature","properties":{"zcta":"01590","d":152},"geometry":{"type":"Polygon","coordinates":[[[-71.74415,42.18244],[-71.74053,42.17921],[-71.73377,42.1835],[-71.73396,42.18678],[-71.72353,42.19148],[-71.71978,42.17733],[-71.71861,42.17297],[-71.6952,42.17579],[-71.69142,42.16311],[-71.69369,42.16121],[-71.69165,42.15046],[-71.6914,42.1492],[-71.69371,42.13616],[-71.70466,42.12523],[-71.70235,42.12379],[-71.70088,42.12124],[-71.7023,42.11548],[-71.7051,42.11483],[-71.70507,42.1054],[-71.70476,42.10385],[-71.70769,42.10007],[-71.69103,42.10545],[-71.68979,42.10327],[-71.68612,42.10448],[-71.68468,42.10666],[-71.67997,42.1034],[-71.67999,42.10015],[-71.68908,42.09853],[-71.69661,42.09719],[-71.69667,42.09533],[-71.76809,42.08177],[-71.77463,42.10033],[-71.79243,42.10071],[-71.79718,42.09917],[-71.81308,42.12527],[-71.81508,42.12253],[-71.81892,42.12078],[-71.82477,42.12135],[-71.8269,42.13027],[-71.82953,42.12939],[-71.83185,42.14381],[-71.82959,42.14486],[-71.74415,42.18244]]]}},{"type":"Feature","properties":{"zcta":"01604","d":2931},"geometry":{"type":"Polygon","coordinates":[[[-71.79148,42.26459],[-71.78817,42.26454],[-71.78895,42.26589],[-71.78831,42.27252],[-71.78163,42.27336],[-71.76767,42.27381],[-71.7657,42.27627],[-71.76184,42.27576],[-71.7592,42.27721],[-71.75915,42.27834],[-71.75812,42.27994],[-71.75907,42.27771],[-71.75893,42.27415],[-71.75474,42.27439],[-71.75119,42.25425],[-71.74608,42.24384],[-71.73124,42.24129],[-71.73343,42.23798],[-71.7752,42.21966],[-71.77559,42.22014],[-71.77091,42.22217],[-71.77186,42.22373],[-71.77293,42.23037],[-71.77574,42.23654],[-71.78238,42.23911],[-71.78211,42.24226],[-71.78567,42.24526],[-71.78708,42.23954],[-71.78948,42.2392],[-71.78941,42.24246],[-71.7912,42.24297],[-71.79225,42.24764],[-71.79472,42.24748],[-71.79511,42.25176],[-71.79749,42.25443],[-71.79648,42.25659],[-71.79966,42.25739],[-71.79953,42.25884],[-71.79632,42.26152],[-71.79668,42.26313],[-71.79495,42.26352],[-71.79557,42.26651],[-71.79148,42.26459]]]}},{"type":"Feature","properties":{"zcta":"01605","d":2219},"geometry":{"type":"Polygon","coordinates":[[[-71.82886,42.31498],[-71.82524,42.3119],[-71.82125,42.30447],[-71.81669,42.30471],[-71.81569,42.30219],[-71.81553,42.29762],[-71.81729,42.29485],[-71.81485,42.29098],[-71.81201,42.29024],[-71.81084,42.29115],[-71.80677,42.29067],[-71.80702,42.28932],[-71.80251,42.2886],[-71.80538,42.28611],[-71.80623,42.28227],[-71.80423,42.28265],[-71.80413,42.28672],[-71.80112,42.28656],[-71.80006,42.28499],[-71.8006,42.28918],[-71.79925,42.29398],[-71.80018,42.29818],[-71.79861,42.29841],[-71.7968,42.29534],[-71.79311,42.29669],[-71.79201,42.295],[-71.79042,42.29569],[-71.78536,42.29498],[-71.78474,42.29802],[-71.78356,42.29815],[-71.78485,42.30093],[-71.78354,42.30294],[-71.78,42.30198],[-71.77351,42.3043],[-71.77571,42.30753],[-71.77582,42.31195],[-71.77149,42.31391],[-71.76827,42.31126],[-71.75854,42.29622],[-71.75575,42.2802],[-71.75812,42.27994],[-71.75915,42.27834],[-71.7592,42.27721],[-71.76184,42.27576],[-71.7657,42.27627],[-71.76767,42.27381],[-71.78163,42.27336],[-71.78831,42.27252],[-71.78895,42.26589],[-71.78817,42.26454],[-71.79148,42.26459],[-71.79557,42.26651],[-71.79335,42.26735],[-71.79347,42.26876],[-71.7967,42.27163],[-71.79966,42.27135],[-71.79873,42.2734],[-71.80033,42.27332],[-71.80219,42.2763],[-71.80363,42.27456],[-71.8072,42.27591],[-71.80935,42.27762],[-71.80855,42.2789],[-71.80832,42.28379],[-71.81344,42.28687],[-71.81486,42.29074],[-71.82107,42.29083],[-71.8197,42.29638],[-71.82362,42.29516],[-71.82398,42.29754],[-71.83263,42.29862],[-71.83193,42.30166],[-71.82931,42.3016],[-71.82894,42.30406],[-71.83417,42.30535],[-71.83781,42.3052],[-71.84008,42.30812],[-71.82886,42.31498]]]}},{"type":"Feature","properties":{"zcta":"01609","d":2044},"geometry":{"type":"Polygon","coordinates":[[[-71.84008,42.30812],[-71.83781,42.3052],[-71.83417,42.30535],[-71.82894,42.30406],[-71.82931,42.3016],[-71.83193,42.30166],[-71.83263,42.29862],[-71.82398,42.29754],[-71.82362,42.29516],[-71.8197,42.29638],[-71.82107,42.29083],[-71.81486,42.29074],[-71.81344,42.28687],[-71.80832,42.28379],[-71.80855,42.2789],[-71.80935,42.27762],[-71.8072,42.27591],[-71.80363,42.27456],[-71.80219,42.2763],[-71.80033,42.27332],[-71.79873,42.2734],[-71.79966,42.27135],[-71.80173,42.27144],[-71.80109,42.26618],[-71.80387,42.26622],[-71.80496,42.26076],[-71.80587,42.25998],[-71.80964,42.2606],[-71.81764,42.26069],[-71.82067,42.26149],[-71.81693,42.26967],[-71.81259,42.27426],[-71.81752,42.27514],[-71.81991,42.27397],[-71.82072,42.27911],[-71.82189,42.2769],[-71.82399,42.27674],[-71.82461,42.27979],[-71.82667,42.27958],[-71.8281,42.28314],[-71.83316,42.28443],[-71.83397,42.2837],[-71.83668,42.28686],[-71.83784,42.28625],[-71.83687,42.28377],[-71.83836,42.28455],[-71.83927,42.28074],[-71.84208,42.27966],[-71.8428,42.27826],[-71.84518,42.27961],[-71.84223,42.28527],[-71.84945,42.28736],[-71.85351,42.28697],[-71.85806,42.29293],[-71.85906,42.29652],[-71.84008,42.30812]]]}},{"type":"Feature","properties":{"zcta":"01612","d":161},"geometry":{"type":"Polygon","coordinates":[[[-71.97165,42.32914],[-71.95396,42.33353],[-71.92062,42.34758],[-71.91877,42.34798],[-71.90541,42.34943],[-71.90172,42.34166],[-71.90584,42.34051],[-71.9035,42.33567],[-71.91122,42.3333],[-71.90486,42.32088],[-71.90036,42.31338],[-71.89145,42.29575],[-71.8817,42.29759],[-71.87899,42.29752],[-71.87697,42.30064],[-71.87737,42.30501],[-71.87674,42.30623],[-71.87173,42.30234],[-71.86793,42.29579],[-71.86522,42.29276],[-71.88404,42.28125],[-71.88564,42.28458],[-71.96053,42.28143],[-71.96729,42.31068],[-71.98941,42.31019],[-71.99378,42.31934],[-71.97165,42.32914]]]}},{"type":"Feature","properties":{"zcta":"01368","d":15},"geometry":{"type":"Polygon","coordinates":[[[-72.11663,42.62661],[-72.13895,42.62395],[-72.14315,42.62679],[-72.14604,42.6237],[-72.15481,42.62379],[-72.15479,42.62235],[-72.15877,42.62139],[-72.16494,42.62309],[-72.16933,42.62244],[-72.17304,42.62007],[-72.1762,42.61941],[-72.17906,42.62023],[-72.17912,42.62308],[-72.185,42.6234],[-72.18892,42.62221],[-72.19491,42.62184],[-72.19585,42.62657],[-72.19823,42.62548],[-72.19098,42.63975],[-72.18827,42.64161],[-72.19114,42.64339],[-72.22493,42.63894],[-72.22948,42.66267],[-72.24211,42.66164],[-72.24349,42.66925],[-72.25732,42.66794],[-72.25854,42.67542],[-72.27196,42.67467],[-72.28303,42.72156],[-72.12453,42.71764],[-72.11106,42.71723],[-72.11663,42.62661]]]}},{"type":"Feature","properties":{"zcta":"01451","d":139},"geometry":{"type":"Polygon","coordinates":[[[-71.62531,42.49602],[-71.60527,42.51837],[-71.59901,42.52271],[-71.59771,42.52556],[-71.59479,42.53716],[-71.5924,42.53707],[-71.59051,42.53967],[-71.58439,42.54176],[-71.58217,42.54356],[-71.57852,42.54809],[-71.57541,42.54959],[-71.57204,42.54899],[-71.53878,42.54303],[-71.53138,42.52035],[-71.52984,42.51984],[-71.53272,42.51465],[-71.53485,42.51333],[-71.55069,42.48914],[-71.56026,42.4743],[-71.54339,42.46645],[-71.5489,42.44731],[-71.63579,42.47689],[-71.63364,42.47725],[-71.63485,42.47996],[-71.63349,42.48307],[-71.6288,42.48857],[-71.62759,42.49382],[-71.62531,42.49602]]]}},{"type":"Feature","properties":{"zcta":"01468","d":113},"geometry":{"type":"Polygon","coordinates":[[[-72.12781,42.6126],[-72.11726,42.61274],[-72.11723,42.6066],[-72.11872,42.60128],[-72.11723,42.60005],[-72.11558,42.59079],[-72.11482,42.58474],[-72.1116,42.58165],[-72.10911,42.58399],[-72.1026,42.58858],[-72.09953,42.58847],[-72.09681,42.58611],[-72.09118,42.58382],[-72.08893,42.58214],[-72.08128,42.58258],[-72.07856,42.5818],[-72.07874,42.58739],[-72.07501,42.58801],[-72.07278,42.58989],[-72.07359,42.58719],[-72.07012,42.58624],[-72.0701,42.58907],[-72.07144,42.58907],[-72.07136,42.59652],[-72.0623,42.59622],[-72.06124,42.59414],[-72.05844,42.59288],[-72.05526,42.59335],[-72.04601,42.58617],[-72.04232,42.58377],[-72.04151,42.58289],[-72.04213,42.5799],[-72.03749,42.5781],[-72.0344,42.5799],[-72.03171,42.57821],[-72.03293,42.57632],[-72.03136,42.57444],[-72.02744,42.57393],[-72.02752,42.57008],[-72.02626,42.56998],[-72.0326,42.56515],[-72.03211,42.56331],[-72.0346,42.56376],[-72.03737,42.56235],[-72.04306,42.56703],[-72.04115,42.55629],[-72.03627,42.55614],[-72.02653,42.5584],[-72.02067,42.55913],[-72.00138,42.54661],[-72.0396,42.5224],[-72.08204,42.49562],[-72.0819,42.49885],[-72.08358,42.5044],[-72.08501,42.50515],[-72.08377,42.50856],[-72.08529,42.51206],[-72.08857,42.51573],[-72.09116,42.51701],[-72.09195,42.51876],[-72.09083,42.52057],[-72.09218,42.52134],[-72.09064,42.5238],[-72.09539,42.53551],[-72.12693,42.57529],[-72.12159,42.57844],[-72.12479,42.61008],[-72.1248,42.61129],[-72.1287,42.61205],[-72.12971,42.61305],[-72.12781,42.6126]]]}},{"type":"Feature","properties":{"zcta":"01473","d":124},"geometry":{"type":"Polygon","coordinates":[[[-71.91293,42.60777],[-71.91066,42.6067],[-71.89529,42.6116],[-71.89597,42.61276],[-71.89289,42.61378],[-71.89214,42.61247],[-71.88305,42.61534],[-71.88363,42.61635],[-71.8806,42.61734],[-71.88203,42.61991],[-71.85866,42.62903],[-71.86234,42.55805],[-71.85513,42.55829],[-71.85559,42.55206],[-71.86251,42.55247],[-71.86295,42.5447],[-71.83781,42.54378],[-71.842,42.51468],[-71.84737,42.51471],[-71.8494,42.5179],[-71.85684,42.51908],[-71.86104,42.51637],[-71.86453,42.51693],[-71.90965,42.48449],[-71.91984,42.49145],[-71.97969,42.53231],[-71.97557,42.53586],[-71.97245,42.53617],[-71.9594,42.54638],[-71.96392,42.54943],[-71.95181,42.56031],[-71.9235,42.59542],[-71.92802,42.60201],[-71.91293,42.60777]]]}},{"type":"Feature","properties":{"zcta":"01527","d":487},"geometry":{"type":"Polygon","coordinates":[[[-71.79633,42.20924],[-71.79711,42.21005],[-71.79426,42.21131],[-71.78903,42.21054],[-71.78815,42.2094],[-71.78388,42.21066],[-71.78325,42.20925],[-71.78147,42.21019],[-71.78322,42.21393],[-71.78311,42.21619],[-71.7752,42.21966],[-71.73343,42.23798],[-71.72734,42.20943],[-71.72353,42.19148],[-71.73396,42.18678],[-71.73377,42.1835],[-71.74053,42.17921],[-71.74415,42.18244],[-71.82959,42.14486],[-71.82485,42.15533],[-71.83044,42.15608],[-71.8341,42.15499],[-71.83448,42.15726],[-71.82549,42.15992],[-71.82596,42.16582],[-71.8315,42.16425],[-71.79633,42.20924]]]}},{"type":"Feature","properties":{"zcta":"01524","d":223},"geometry":{"type":"Polygon","coordinates":[[[-71.88564,42.28458],[-71.88404,42.28125],[-71.87673,42.26669],[-71.87537,42.26398],[-71.88397,42.26248],[-71.8886,42.25934],[-71.88839,42.258],[-71.89059,42.25573],[-71.88993,42.25282],[-71.8865,42.24882],[-71.88676,42.24571],[-71.89229,42.2458],[-71.89369,42.24513],[-71.8993,42.24548],[-71.89918,42.24337],[-71.89192,42.23687],[-71.88784,42.23557],[-71.88521,42.23053],[-71.88523,42.22577],[-71.88607,42.21989],[-71.88687,42.21914],[-71.88672,42.21669],[-71.88417,42.21288],[-71.89594,42.21925],[-71.89914,42.21608],[-71.90473,42.21624],[-71.9038,42.21265],[-71.90737,42.21038],[-71.91334,42.21219],[-71.91421,42.21333],[-71.91557,42.21132],[-71.91839,42.21204],[-71.9233,42.21226],[-71.92628,42.21175],[-71.93031,42.20714],[-71.93403,42.20496],[-71.93957,42.20402],[-71.94189,42.20026],[-71.96053,42.28143],[-71.88564,42.28458]]]}},{"type":"Feature","properties":{"zcta":"01510","d":1470},"geometry":{"type":"Polygon","coordinates":[[[-71.68819,42.43674],[-71.65674,42.43096],[-71.66063,42.41823],[-71.66807,42.39457],[-71.67652,42.39612],[-71.67877,42.38916],[-71.70091,42.39577],[-71.72598,42.39029],[-71.72158,42.40924],[-71.71836,42.41022],[-71.68819,42.43674]]]}},{"type":"Feature","properties":{"zcta":"01037","d":0},"geometry":{"type":"Polygon","coordinates":[[[-72.20515,42.41768],[-72.14511,42.37809],[-72.14475,42.37217],[-72.13927,42.36762],[-72.13829,42.3646],[-72.13968,42.36219],[-72.1424,42.36047],[-72.14253,42.35791],[-72.14404,42.35493],[-72.15198,42.34708],[-72.15645,42.34859],[-72.15677,42.35331],[-72.16015,42.3539],[-72.16075,42.35194],[-72.1588,42.34767],[-72.16009,42.34568],[-72.16103,42.34741],[-72.16323,42.34433],[-72.16658,42.34381],[-72.1711,42.34576],[-72.17349,42.34541],[-72.17499,42.3434],[-72.17708,42.34275],[-72.18348,42.34558],[-72.19142,42.34527],[-72.19285,42.34579],[-72.19655,42.34223],[-72.19639,42.33952],[-72.19889,42.33821],[-72.20264,42.33307],[-72.20453,42.32827],[-72.20489,42.33091],[-72.20964,42.32762],[-72.21235,42.32887],[-72.21613,42.32785],[-72.22167,42.32717],[-72.21813,42.33428],[-72.23173,42.33928],[-72.23053,42.34138],[-72.23143,42.3425],[-72.23001,42.34651],[-72.23202,42.34824],[-72.23068,42.35199],[-72.23156,42.35597],[-72.23679,42.36069],[-72.24201,42.36126],[-72.24217,42.36463],[-72.24043,42.36861],[-72.23494,42.37251],[-72.23493,42.3767],[-72.23402,42.37886],[-72.23414,42.38315],[-72.23272,42.38783],[-72.23256,42.39134],[-72.23535,42.39156],[-72.23691,42.39318],[-72.23889,42.39296],[-72.23851,42.39527],[-72.23652,42.39725],[-72.22963,42.40025],[-72.21903,42.39549],[-72.20579,42.41666],[-72.20515,42.41768]]]}},{"type":"Feature","properties":{"zcta":"01504","d":436},"geometry":{"type":"Polygon","coordinates":[[[-71.49829,42.06488],[-71.49826,42.03159],[-71.4979,42.03151],[-71.49826,42.01722],[-71.52761,42.015],[-71.56367,42.01428],[-71.56392,42.06406],[-71.49829,42.06488]]]}},{"type":"Feature","properties":{"zcta":"01606","d":1898},"geometry":{"type":"Polygon","coordinates":[[[-71.80204,42.33135],[-71.79353,42.33653],[-71.78946,42.33778],[-71.78878,42.33943],[-71.78616,42.34102],[-71.77972,42.32896],[-71.77511,42.32184],[-71.76997,42.32075],[-71.76819,42.31961],[-71.76669,42.3246],[-71.77297,42.32541],[-71.77156,42.32916],[-71.77251,42.3306],[-71.7657,42.32806],[-71.7641,42.32812],[-71.76446,42.31286],[-71.7672,42.31323],[-71.76827,42.31126],[-71.77149,42.31391],[-71.77582,42.31195],[-71.77571,42.30753],[-71.77351,42.3043],[-71.78,42.30198],[-71.78354,42.30294],[-71.78485,42.30093],[-71.78356,42.29815],[-71.78474,42.29802],[-71.78536,42.29498],[-71.79042,42.29569],[-71.79201,42.295],[-71.79311,42.29669],[-71.7968,42.29534],[-71.79861,42.29841],[-71.80018,42.29818],[-71.79925,42.29398],[-71.8006,42.28918],[-71.80006,42.28499],[-71.80112,42.28656],[-71.80413,42.28672],[-71.80423,42.28265],[-71.80623,42.28227],[-71.80538,42.28611],[-71.80251,42.2886],[-71.80702,42.28932],[-71.80677,42.29067],[-71.81084,42.29115],[-71.81201,42.29024],[-71.81485,42.29098],[-71.81729,42.29485],[-71.81553,42.29762],[-71.81569,42.30219],[-71.81669,42.30471],[-71.82125,42.30447],[-71.82524,42.3119],[-71.82886,42.31498],[-71.80204,42.33135]]]}},{"type":"Feature","properties":{"zcta":"01541","d":53},"geometry":{"type":"Polygon","coordinates":[[[-71.90965,42.48449],[-71.86453,42.51693],[-71.86104,42.51637],[-71.85684,42.51908],[-71.8494,42.5179],[-71.84737,42.51471],[-71.842,42.51468],[-71.84201,42.51463],[-71.84233,42.51263],[-71.82232,42.50428],[-71.83002,42.49219],[-71.8356,42.4836],[-71.8278,42.47206],[-71.82816,42.46895],[-71.82719,42.46357],[-71.82406,42.46182],[-71.82334,42.45738],[-71.82011,42.4521],[-71.81766,42.44646],[-71.81315,42.44556],[-71.81423,42.444],[-71.83174,42.43183],[-71.88776,42.39495],[-71.96544,42.44661],[-71.92029,42.47454],[-71.93319,42.48292],[-71.91984,42.49145],[-71.90965,42.48449]]]}},{"type":"Feature","properties":{"zcta":"01074","d":0},"geometry":{"type":"Polygon","coordinates":[[[-72.09914,42.38411],[-72.09962,42.38108],[-72.10577,42.37865],[-72.11379,42.38025],[-72.11099,42.3818],[-72.10673,42.38191],[-72.1023,42.38323],[-72.10143,42.38635],[-72.09759,42.38582],[-72.09845,42.38747],[-72.09632,42.38769],[-72.09344,42.38968],[-72.08856,42.38755],[-72.09181,42.38614],[-72.09781,42.38196],[-72.09914,42.38411]]]}},{"type":"Feature","properties":{"zcta":"01540","d":302},"geometry":{"type":"Polygon","coordinates":[[[-71.89681,42.13546],[-71.8943,42.13407],[-71.89002,42.13433],[-71.88575,42.13716],[-71.88213,42.13788],[-71.87842,42.14079],[-71.87033,42.14491],[-71.86895,42.14321],[-71.8653,42.14324],[-71.86574,42.14507],[-71.87187,42.14975],[-71.87385,42.15196],[-71.87003,42.15047],[-71.87016,42.15565],[-71.865,42.15739],[-71.85793,42.1607],[-71.83492,42.15983],[-71.8315,42.16425],[-71.82596,42.16582],[-71.82549,42.15992],[-71.83448,42.15726],[-71.8341,42.15499],[-71.83044,42.15608],[-71.82485,42.15533],[-71.82959,42.14486],[-71.83185,42.14381],[-71.82953,42.12939],[-71.8269,42.13027],[-71.82477,42.12135],[-71.81892,42.12078],[-71.81508,42.12253],[-71.81308,42.12527],[-71.79718,42.09917],[-71.80922,42.09536],[-71.81133,42.09887],[-71.83006,42.09278],[-71.88151,42.07589],[-71.89114,42.07273],[-71.89511,42.09425],[-71.90923,42.09126],[-71.91189,42.10132],[-71.89949,42.10411],[-71.90538,42.13352],[-71.89681,42.13546]]]}},{"type":"Feature","properties":{"zcta":"01436","d":160},"geometry":{"type":"Polygon","coordinates":[[[-72.11663,42.62661],[-72.07575,42.62524],[-72.05437,42.60838],[-72.05345,42.60543],[-72.05406,42.59869],[-72.04623,42.60196],[-72.03604,42.59387],[-72.04185,42.59197],[-72.04221,42.58936],[-72.03883,42.58622],[-72.04232,42.58377],[-72.04601,42.58617],[-72.05526,42.59335],[-72.05844,42.59288],[-72.06124,42.59414],[-72.0623,42.59622],[-72.07136,42.59652],[-72.07144,42.58907],[-72.0701,42.58907],[-72.07012,42.58624],[-72.07359,42.58719],[-72.07278,42.58989],[-72.07501,42.58801],[-72.07874,42.58739],[-72.07856,42.5818],[-72.08128,42.58258],[-72.08893,42.58214],[-72.09118,42.58382],[-72.09681,42.58611],[-72.09953,42.58847],[-72.1026,42.58858],[-72.10911,42.58399],[-72.1116,42.58165],[-72.11482,42.58474],[-72.11558,42.59079],[-72.11723,42.60005],[-72.11872,42.60128],[-72.11723,42.6066],[-72.11726,42.61274],[-72.12781,42.6126],[-72.12971,42.61305],[-72.13268,42.61688],[-72.13623,42.61916],[-72.13564,42.62045],[-72.13895,42.62395],[-72.11663,42.62661]]]}},{"type":"Feature","properties":{"zcta":"01505","d":166},"geometry":{"type":"Polygon","coordinates":[[[-71.76374,42.3442],[-71.75971,42.37074],[-71.7538,42.38313],[-71.74192,42.38685],[-71.72598,42.39029],[-71.70091,42.39577],[-71.67877,42.38916],[-71.67055,42.38667],[-71.67779,42.36515],[-71.67636,42.36488],[-71.68788,42.3255],[-71.69114,42.32691],[-71.69097,42.32896],[-71.69762,42.32844],[-71.69548,42.33027],[-71.69867,42.33241],[-71.73021,42.32114],[-71.73182,42.31793],[-71.74174,42.31573],[-71.74142,42.31732],[-71.75651,42.31214],[-71.76446,42.31286],[-71.7641,42.32812],[-71.76374,42.3442]]]}},{"type":"Feature","properties":{"zcta":"01331","d":126},"geometry":{"type":"Polygon","coordinates":[[[-72.19114,42.64339],[-72.18827,42.64161],[-72.19098,42.63975],[-72.19823,42.62548],[-72.19585,42.62657],[-72.19491,42.62184],[-72.18892,42.62221],[-72.185,42.6234],[-72.17912,42.62308],[-72.17906,42.62023],[-72.1762,42.61941],[-72.17304,42.62007],[-72.16933,42.62244],[-72.16494,42.62309],[-72.15877,42.62139],[-72.15479,42.62235],[-72.15481,42.62379],[-72.14604,42.6237],[-72.14315,42.62679],[-72.13895,42.62395],[-72.13564,42.62045],[-72.13623,42.61916],[-72.13268,42.61688],[-72.12971,42.61305],[-72.1287,42.61205],[-72.1248,42.61129],[-72.12479,42.61008],[-72.12159,42.57844],[-72.12693,42.57529],[-72.09539,42.53551],[-72.09064,42.5238],[-72.09218,42.52134],[-72.09083,42.52057],[-72.09195,42.51876],[-72.09116,42.51701],[-72.08857,42.51573],[-72.08529,42.51206],[-72.08377,42.50856],[-72.08501,42.50515],[-72.08358,42.5044],[-72.0819,42.49885],[-72.08204,42.49562],[-72.09969,42.48452],[-72.10094,42.48368],[-72.18564,42.55036],[-72.19639,42.54892],[-72.24487,42.51344],[-72.26289,42.5283],[-72.26633,42.52892],[-72.2712,42.5308],[-72.27265,42.53784],[-72.27143,42.53941],[-72.27315,42.5424],[-72.27075,42.54351],[-72.27359,42.561],[-72.27666,42.57044],[-72.27643,42.57737],[-72.27384,42.57743],[-72.27323,42.57934],[-72.27111,42.57616],[-72.26861,42.57787],[-72.2654,42.57761],[-72.26346,42.57596],[-72.26133,42.57592],[-72.26706,42.60081],[-72.26216,42.60025],[-72.26005,42.60114],[-72.25881,42.60372],[-72.25633,42.60512],[-72.25331,42.60534],[-72.25474,42.61161],[-72.24001,42.61372],[-72.23841,42.61462],[-72.23196,42.61395],[-72.2292,42.6146],[-72.22775,42.61614],[-72.22833,42.61886],[-72.2274,42.62175],[-72.22954,42.62197],[-72.22907,42.624],[-72.23159,42.62486],[-72.23118,42.62586],[-72.2278,42.6265],[-72.22555,42.62999],[-72.22645,42.63495],[-72.22908,42.63835],[-72.22493,42.63894],[-72.19114,42.64339]]]}},{"type":"Feature","properties":{"zcta":"01531","d":25},"geometry":{"type":"Polygon","coordinates":[[[-72.20502,42.30617],[-72.20718,42.31152],[-72.20367,42.31079],[-72.20039,42.3114],[-72.19361,42.309],[-72.19423,42.30612],[-72.19068,42.3046],[-72.18729,42.30471],[-72.18378,42.30675],[-72.18558,42.3078],[-72.18522,42.31035],[-72.18303,42.31277],[-72.18043,42.31352],[-72.17889,42.31603],[-72.17717,42.31639],[-72.17685,42.31926],[-72.17211,42.32274],[-72.17231,42.32594],[-72.16823,42.32953],[-72.16734,42.33122],[-72.16239,42.33389],[-72.16389,42.33547],[-72.16319,42.33679],[-72.15961,42.33858],[-72.15962,42.34082],[-72.15832,42.34324],[-72.1544,42.34388],[-72.15252,42.34548],[-72.14722,42.3457],[-72.1445,42.34421],[-72.14115,42.3443],[-72.13985,42.34618],[-72.14043,42.34812],[-72.13718,42.348],[-72.13628,42.35005],[-72.13698,42.35207],[-72.13482,42.35722],[-72.13383,42.35819],[-72.12663,42.35975],[-72.12386,42.36186],[-72.12367,42.36393],[-72.11247,42.35642],[-72.04117,42.3087],[-72.11746,42.30225],[-72.12957,42.29025],[-72.13481,42.28115],[-72.14569,42.27716],[-72.14495,42.29122],[-72.16154,42.28835],[-72.16174,42.29188],[-72.16474,42.29136],[-72.17054,42.29152],[-72.17045,42.29403],[-72.16904,42.29785],[-72.2108,42.29448],[-72.21397,42.29426],[-72.20502,42.30617]]]}},{"type":"Feature","properties":{"zcta":"01503","d":153},"geometry":{"type":"Polygon","coordinates":[[[-71.63042,42.40954],[-71.60425,42.3977],[-71.58015,42.387],[-71.60776,42.37002],[-71.60306,42.36727],[-71.61001,42.3574],[-71.6247,42.35047],[-71.63394,42.3584],[-71.67636,42.36488],[-71.67779,42.36515],[-71.67055,42.38667],[-71.67877,42.38916],[-71.67652,42.39612],[-71.66807,42.39457],[-71.66063,42.41823],[-71.63042,42.40954]]]}},{"type":"Feature","properties":{"zcta":"01519","d":342},"geometry":{"type":"Polygon","coordinates":[[[-71.63728,42.18324],[-71.64719,42.18197],[-71.64805,42.1807],[-71.64129,42.17488],[-71.64271,42.17412],[-71.65478,42.18272],[-71.66297,42.17922],[-71.66954,42.18382],[-71.69397,42.18483],[-71.7037,42.18591],[-71.70755,42.18578],[-71.70527,42.18314],[-71.70836,42.17966],[-71.71876,42.17802],[-71.71978,42.17733],[-71.72353,42.19148],[-71.72734,42.20943],[-71.72604,42.20876],[-71.72444,42.21034],[-71.72214,42.20899],[-71.71863,42.20954],[-71.70997,42.21405],[-71.70744,42.21341],[-71.70595,42.21462],[-71.69761,42.20981],[-71.69757,42.20834],[-71.69338,42.20868],[-71.69383,42.21058],[-71.69229,42.21077],[-71.69072,42.21384],[-71.68791,42.21408],[-71.68513,42.2165],[-71.68776,42.22049],[-71.68693,42.22331],[-71.68174,42.22574],[-71.68232,42.22719],[-71.66996,42.22678],[-71.67226,42.22491],[-71.67323,42.22266],[-71.66915,42.2223],[-71.66918,42.2236],[-71.66256,42.22702],[-71.65799,42.22395],[-71.65781,42.22272],[-71.65493,42.22161],[-71.64777,42.22129],[-71.64382,42.22297],[-71.63728,42.18324]]]}},{"type":"Feature","properties":{"zcta":"01092","d":0},"geometry":{"type":"Polygon","coordinates":[[[-72.26392,42.18383],[-72.26328,42.1926],[-72.2644,42.19353],[-72.26469,42.19673],[-72.26279,42.20253],[-72.26016,42.20587],[-72.2575,42.20781],[-72.23913,42.22681],[-72.23782,42.22302],[-72.23454,42.22574],[-72.22885,42.22552],[-72.22803,42.22276],[-72.22496,42.22194],[-72.22526,42.22383],[-72.22282,42.22807],[-72.22208,42.22422],[-72.21962,42.2224],[-72.21809,42.21732],[-72.21998,42.21722],[-72.21915,42.21513],[-72.21368,42.21552],[-72.21376,42.20275],[-72.21427,42.19752],[-72.21318,42.19385],[-72.21074,42.19363],[-72.20975,42.19159],[-72.21785,42.18377],[-72.21641,42.18248],[-72.24131,42.17975],[-72.23998,42.17696],[-72.23686,42.17811],[-72.23844,42.17475],[-72.26392,42.18383]]]}},{"type":"Feature","properties":{"zcta":"01562","d":187},"geometry":{"type":"Polygon","coordinates":[[[-71.98941,42.31019],[-71.96729,42.31068],[-71.96053,42.28143],[-71.94189,42.20026],[-71.93936,42.18924],[-72.01989,42.18376],[-72.03036,42.2452],[-72.04117,42.3087],[-71.98941,42.31019]]]}},{"type":"Feature","properties":{"zcta":"01507","d":161},"geometry":{"type":"Polygon","coordinates":[[[-72.0186,42.1757],[-72.01989,42.18376],[-71.93936,42.18924],[-71.91697,42.19086],[-71.91542,42.18321],[-71.90538,42.13352],[-71.89949,42.10411],[-71.91189,42.10132],[-71.90923,42.09126],[-71.99284,42.07256],[-71.9925,42.07819],[-71.99574,42.07745],[-71.99659,42.08212],[-71.99266,42.08315],[-71.99336,42.08569],[-71.99487,42.08536],[-71.99388,42.08752],[-71.99608,42.08728],[-71.99814,42.09787],[-72.00299,42.09659],[-72.02711,42.10494],[-72.0255,42.10793],[-72.0276,42.10741],[-72.02905,42.11512],[-72.03176,42.11439],[-72.03084,42.1098],[-72.03599,42.10824],[-72.03619,42.10948],[-72.03908,42.10906],[-72.03961,42.1123],[-72.04201,42.11165],[-72.04682,42.13493],[-72.02402,42.14179],[-72.02944,42.17443],[-72.0186,42.1757]]]}},{"type":"Feature","properties":{"zcta":"01462","d":232},"geometry":{"type":"Polygon","coordinates":[[[-71.77575,42.64423],[-71.6646,42.6116],[-71.67769,42.53941],[-71.67897,42.53043],[-71.70224,42.5339],[-71.71123,42.53535],[-71.72042,42.55233],[-71.74506,42.5739],[-71.76295,42.56392],[-71.76489,42.56284],[-71.77294,42.56965],[-71.77089,42.60366],[-71.7715,42.60627],[-71.77487,42.60905],[-71.77654,42.62051],[-71.7769,42.63017],[-71.77752,42.63149],[-71.77705,42.63649],[-71.77548,42.63461],[-71.77532,42.63666],[-71.77575,42.64423]]]}},{"type":"Feature","properties":{"zcta":"01005","d":56},"geometry":{"type":"Polygon","coordinates":[[[-72.09969,42.48452],[-72.00739,42.42103],[-72.03508,42.40392],[-72.07085,42.38199],[-72.08856,42.38755],[-72.09344,42.38968],[-72.09632,42.38769],[-72.09845,42.38747],[-72.09759,42.38582],[-72.10143,42.38635],[-72.1023,42.38323],[-72.10673,42.38191],[-72.11099,42.3818],[-72.11379,42.38025],[-72.10577,42.37865],[-72.09962,42.38108],[-72.09914,42.38411],[-72.09781,42.38196],[-72.1023,42.37907],[-72.10792,42.37763],[-72.10294,42.37829],[-72.09861,42.37637],[-72.09812,42.37423],[-72.09419,42.37377],[-72.09014,42.37616],[-72.08553,42.37296],[-72.11247,42.35642],[-72.12367,42.36393],[-72.14511,42.37809],[-72.20515,42.41768],[-72.10094,42.48368],[-72.09969,42.48452]]]}},{"type":"Feature","properties":{"zcta":"01610","d":4341},"geometry":{"type":"Polygon","coordinates":[[[-71.82672,42.25387],[-71.82425,42.2573],[-71.8231,42.25701],[-71.82067,42.26149],[-71.81764,42.26069],[-71.80964,42.2606],[-71.80587,42.25998],[-71.80421,42.25893],[-71.80546,42.25745],[-71.80661,42.2586],[-71.80973,42.25693],[-71.80793,42.25567],[-71.8096,42.2549],[-71.81254,42.25547],[-71.80915,42.25275],[-71.80565,42.25208],[-71.80198,42.25277],[-71.80463,42.25564],[-71.80196,42.25732],[-71.79966,42.25739],[-71.79648,42.25659],[-71.79749,42.25443],[-71.79511,42.25176],[-71.79472,42.24748],[-71.79225,42.24764],[-71.7912,42.24297],[-71.79136,42.24125],[-71.79983,42.2427],[-71.8021,42.24071],[-71.80384,42.24397],[-71.80567,42.24293],[-71.81019,42.24248],[-71.80509,42.24178],[-71.80241,42.23765],[-71.80058,42.23602],[-71.80291,42.23402],[-71.80131,42.23279],[-71.80429,42.23119],[-71.80291,42.22936],[-71.80478,42.22788],[-71.8063,42.23159],[-71.80989,42.23093],[-71.81964,42.23032],[-71.82009,42.231],[-71.81712,42.2401],[-71.81109,42.24884],[-71.81373,42.24804],[-71.81496,42.24916],[-71.8217,42.24485],[-71.8231,42.24896],[-71.82912,42.25385],[-71.8282,42.2547],[-71.82672,42.25387]]]}},{"type":"Feature","properties":{"zcta":"01581","d":494},"geometry":{"type":"Polygon","coordinates":[[[-71.64279,42.28815],[-71.64259,42.29025],[-71.63797,42.29263],[-71.63716,42.2962],[-71.63418,42.29703],[-71.63321,42.30056],[-71.58003,42.30589],[-71.54274,42.26974],[-71.54294,42.26718],[-71.55012,42.26602],[-71.55241,42.26743],[-71.55658,42.26813],[-71.56456,42.26687],[-71.58676,42.25955],[-71.59932,42.22596],[-71.62107,42.23087],[-71.64444,42.22663],[-71.6484,42.24515],[-71.65017,42.2478],[-71.67093,42.2447],[-71.67417,42.24859],[-71.67445,42.25237],[-71.67644,42.25417],[-71.67063,42.26108],[-71.65914,42.2668],[-71.67011,42.27876],[-71.64279,42.28815]]]}}]}