{"type":"FeatureCollection","features":[{"type":"Feature","properties":{"id":"45091","name":"York Co., SC"},"geometry":{"type":"Polygon","coordinates":[[[-81.2417,35.1601],[-81.1093,35.1541],[-81.0436,35.1499],[-81.0429,35.1492],[-81.0471,35.1452],[-81.0512,35.1332],[-81.0504,35.131],[-81.039,35.1263],[-81.033,35.1137],[-81.0328,35.108],[-81.0374,35.1025],[-81.0465,35.1006],[-81.0521,35.0963],[-81.0572,35.0861],[-81.058,35.0732],[-81.0576,35.0624],[-81.05,35.0552],[-81.0415,35.0447],[-80.9579,35.0926],[-80.9349,35.1074],[-80.9062,35.0764],[-80.9073,35.0698],[-80.906,35.0637],[-80.8995,35.0601],[-80.9016,35.0561],[-80.9048,35.054],[-80.9025,35.0525],[-80.9059,35.0468],[-80.903,35.0458],[-80.8981,35.0392],[-80.8974,35.0331],[-80.8987,35.0295],[-80.9035,35.0211],[-80.903,35.0197],[-80.9077,35.0191],[-80.9095,35.0169],[-80.9041,35.0111],[-80.899,35.0144],[-80.8969,35.0133],[-80.9004,35.01],[-80.8995,35.0077],[-80.9023,35.0057],[-80.8933,34.9982],[-80.8942,34.9936],[-80.8919,34.9906],[-80.8857,34.9913],[-80.8858,34.9884],[-80.8886,34.9873],[-80.8888,34.9846],[-80.8865,34.981],[-80.8859,34.9767],[-80.8824,34.9708],[-80.8843,34.9658],[-80.8806,34.9656],[-80.8798,34.9625],[-80.8742,34.9653],[-80.8726,34.9617],[-80.8739,34.9567],[-80.8686,34.9507],[-80.8699,34.947],[-80.8677,34.9397],[-80.8701,34.9358],[-80.8691,34.9319],[-80.8654,34.9257],[-80.8651,34.922],[-80.8673,34.9134],[-80.8709,34.9084],[-80.8783,34.903],[-80.879,34.898],[-80.878,34.8918],[-80.8782,34.8852],[-80.8798,34.8777],[-80.8801,34.8715],[-80.8792,34.8634],[-80.8767,34.8602],[-80.8704,34.8568],[-80.8676,34.8539],[-80.8666,34.8488],[-80.8745,34.838],[-80.8828,34.8334],[-80.8939,34.8301],[-80.8986,34.8261],[-80.8982,34.8207],[-80.9744,34.8211],[-81.0329,34.821],[-81.1054,34.8205],[-81.1411,34.8206],[-81.3245,34.8223],[-81.3729,34.8222],[-81.4785,34.8215],[-81.4702,34.8275],[-81.4618,34.831],[-81.4583,34.836],[-81.4533,34.8464],[-81.4544,34.8486],[-81.4627,34.8536],[-81.465,34.8603],[-81.4688,34.8657],[-81.4714,34.8751],[-81.4729,34.8919],[-81.4777,34.896],[-81.4788,34.8984],[-81.4756,34.908],[-81.471,34.9123],[-81.4703,34.9151],[-81.472,34.919],[-81.4766,34.9228],[-81.4773,34.9265],[-81.474,34.9328],[-81.4742,34.9365],[-81.4843,34.9386],[-81.4904,34.9422],[-81.4924,34.9468],[-81.4914,34.9505],[-81.4879,34.9557],[-81.4862,34.9651],[-81.4809,34.9703],[-81.4759,34.9823],[-81.4762,34.984],[-81.484,34.9938],[-81.4847,35.0001],[-81.4806,35.0059],[-81.4835,35.0112],[-81.4845,35.0168],[-81.4884,35.0295],[-81.487,35.0349],[-81.4822,35.0369],[-81.4776,35.0407],[-81.4787,35.0421],[-81.4727,35.0437],[-81.4713,35.0481],[-81.4088,35.0471],[-81.4071,35.0725],[-81.4025,35.1369],[-81.3666,35.1649],[-81.328,35.1634],[-81.2417,35.1601]]]}},{"type":"Feature","properties":{"id":"37119","name":"Mecklenburg Co., NC"},"geometry":{"type":"Polygon","coordinates":[[[-81.0314,35.1484],[-81.0247,35.1489],[-81.0171,35.1543],[-81.0116,35.1527],[-81.0075,35.1545],[-81.0058,35.157],[-81.0073,35.1652],[-81.0039,35.1704],[-81.0024,35.1808],[-81.0061,35.1951],[-81.0053,35.2077],[-81.0101,35.2146],[-81.0141,35.222],[-81.0143,35.2243],[-81.0108,35.236],[-81.0102,35.2432],[-81.0083,35.2481],[-81.0141,35.2585],[-81.015,35.2687],[-81.013,35.2747],[-81.0093,35.2804],[-81.0071,35.2896],[-81.0009,35.3054],[-80.9954,35.3095],[-80.9892,35.3207],[-80.9827,35.3258],[-80.9808,35.3298],[-80.9818,35.3332],[-80.9853,35.3372],[-80.9849,35.3401],[-80.9815,35.3427],[-80.9744,35.3454],[-80.9727,35.3503],[-80.9671,35.3508],[-80.9621,35.347],[-80.9584,35.3495],[-80.952,35.351],[-80.9425,35.3509],[-80.935,35.3566],[-80.9282,35.3575],[-80.923,35.3599],[-80.9247,35.3618],[-80.9294,35.363],[-80.9359,35.3621],[-80.9417,35.3649],[-80.9516,35.3673],[-80.9554,35.3704],[-80.9583,35.375],[-80.9629,35.3751],[-80.9681,35.3677],[-80.9733,35.3642],[-80.9811,35.3659],[-80.9837,35.3684],[-80.9868,35.3757],[-80.9868,35.379],[-80.9838,35.3818],[-80.9766,35.3825],[-80.9654,35.3886],[-80.9575,35.391],[-80.9552,35.3932],[-80.9549,35.4001],[-80.957,35.4039],[-80.9587,35.4115],[-80.9556,35.4189],[-80.9557,35.4252],[-80.9587,35.4326],[-80.956,35.4381],[-80.9534,35.4407],[-80.9521,35.4447],[-80.949,35.4485],[-80.9431,35.4529],[-80.9425,35.4577],[-80.944,35.4601],[-80.9506,35.4653],[-80.9518,35.4689],[-80.9479,35.4807],[-80.9453,35.4836],[-80.9473,35.4885],[-80.9067,35.5148],[-80.8391,35.51],[-80.7842,35.506],[-80.7857,35.503],[-80.7868,35.493],[-80.7821,35.4843],[-80.7793,35.472],[-80.7733,35.4627],[-80.7727,35.4573],[-80.7522,35.4141],[-80.7635,35.4121],[-80.7664,35.4015],[-80.7553,35.3948],[-80.7514,35.389],[-80.7444,35.3807],[-80.7328,35.3719],[-80.7089,35.3554],[-80.6931,35.3464],[-80.683,35.3156],[-80.6705,35.2788],[-80.6661,35.2677],[-80.6279,35.2487],[-80.5525,35.2097],[-80.5503,35.2084],[-80.6362,35.1394],[-80.6811,35.1037],[-80.6986,35.0896],[-80.7418,35.0559],[-80.7676,35.0363],[-80.7732,35.0329],[-80.781,35.0333],[-80.7969,35.0298],[-80.8004,35.0279],[-80.8045,35.0277],[-80.8112,35.0215],[-80.821,35.0173],[-80.8251,35.012],[-80.8312,35.0078],[-80.838,35.005],[-80.8404,35.0016],[-80.8849,35.0535],[-80.9062,35.0764],[-80.9349,35.1074],[-80.9579,35.0926],[-81.0415,35.0447],[-81.05,35.0552],[-81.0576,35.0624],[-81.058,35.0732],[-81.0572,35.0861],[-81.0521,35.0963],[-81.0465,35.1006],[-81.0374,35.1025],[-81.0328,35.108],[-81.033,35.1137],[-81.039,35.1263],[-81.0504,35.131],[-81.0512,35.1332],[-81.0471,35.1452],[-81.0429,35.1492],[-81.0314,35.1484]]]}},{"type":"Feature","properties":{"id":"37007","name":"Anson Co., NC"},"geometry":{"type":"Polygon","coordinates":[[[-80.2715,35.2017],[-80.2646,35.2045],[-80.2635,35.2086],[-80.2592,35.2088],[-80.2559,35.2111],[-80.2531,35.2109],[-80.251,35.2076],[-80.2517,35.2045],[-80.2456,35.1948],[-80.2413,35.19],[-80.24,35.1868],[-80.2421,35.1816],[-80.2366,35.1715],[-80.2314,35.1669],[-80.2303,35.1641],[-80.225,35.1562],[-80.222,35.1555],[-80.2131,35.1554],[-80.2071,35.1566],[-80.2061,35.1638],[-80.2047,35.1658],[-80.2001,35.1668],[-80.1949,35.1654],[-80.1938,35.1596],[-80.1906,35.1555],[-80.1847,35.1538],[-80.1824,35.1519],[-80.1747,35.1482],[-80.1651,35.1475],[-80.1609,35.1487],[-80.1599,35.1512],[-80.1655,35.1571],[-80.1676,35.1622],[-80.1654,35.1648],[-80.1589,35.1678],[-80.1578,35.1728],[-80.1539,35.1749],[-80.1486,35.1731],[-80.1414,35.1681],[-80.1362,35.1675],[-80.1312,35.1736],[-80.1264,35.1739],[-80.1245,35.177],[-80.1287,35.1836],[-80.1291,35.1876],[-80.1221,35.1925],[-80.1148,35.1943],[-80.1088,35.1906],[-80.1081,35.1848],[-80.1083,35.1758],[-80.1061,35.1719],[-80.1023,35.1689],[-80.0933,35.1639],[-80.0863,35.1574],[-80.0777,35.1476],[-80.0754,35.1431],[-80.0754,35.1371],[-80.0742,35.1324],[-80.0692,35.1227],[-80.0697,35.1153],[-80.0681,35.112],[-80.0643,35.1102],[-80.0462,35.1045],[-80.0414,35.1026],[-80.0311,35.0944],[-80.0229,35.09],[-80.0156,35.0896],[-80.0005,35.0858],[-79.9929,35.0856],[-79.9866,35.0888],[-79.983,35.0923],[-79.9814,35.0974],[-79.9767,35.1025],[-79.9696,35.1062],[-79.9585,35.1137],[-79.9461,35.1186],[-79.9416,35.1192],[-79.9331,35.1189],[-79.9279,35.1179],[-79.924,35.1154],[-79.9219,35.1067],[-79.9142,35.0992],[-79.9118,35.0918],[-79.9126,35.0795],[-79.9122,35.0741],[-79.9079,35.0657],[-79.9031,35.0621],[-79.8849,35.0526],[-79.8783,35.0469],[-79.8759,35.0426],[-79.8772,35.0353],[-79.8853,35.0304],[-79.8924,35.0249],[-79.8951,35.0155],[-79.9005,35.008],[-79.8993,35.0037],[-79.8922,34.9986],[-79.8805,34.9888],[-79.8743,34.9849],[-79.8671,34.9823],[-79.8637,34.9766],[-79.8677,34.9636],[-79.8718,34.9562],[-79.8723,34.9504],[-79.867,34.9398],[-79.8592,34.9318],[-79.8496,34.9114],[-79.8486,34.9068],[-79.849,34.9013],[-79.8505,34.8984],[-79.8563,34.8923],[-79.863,34.8825],[-79.8704,34.8752],[-79.876,34.8715],[-79.8801,34.8668],[-79.8875,34.8624],[-79.8941,34.8611],[-79.8997,34.8585],[-79.903,34.8545],[-79.9089,34.8412],[-79.91,34.8348],[-79.9127,34.8265],[-79.9138,34.8189],[-79.9231,34.8088],[-79.9274,34.8066],[-80.0729,34.8097],[-80.099,34.8101],[-80.234,34.8129],[-80.3208,34.8141],[-80.2973,35.0187],[-80.2768,35.1957],[-80.2715,35.2017]]]}},{"type":"Feature","properties":{"id":"45057","name":"Lancaster Co., SC"},"geometry":{"type":"Polygon","coordinates":[[[-80.8849,35.0535],[-80.8404,35.0016],[-80.8216,34.9797],[-80.782,34.9358],[-80.7975,34.8198],[-80.7777,34.8197],[-80.6466,34.8186],[-80.6261,34.8182],[-80.5617,34.8175],[-80.5641,34.8148],[-80.5601,34.8072],[-80.5585,34.8015],[-80.5541,34.798],[-80.5515,34.791],[-80.545,34.7891],[-80.5469,34.7871],[-80.5445,34.784],[-80.5384,34.7821],[-80.5353,34.7834],[-80.533,34.7822],[-80.5344,34.7767],[-80.5278,34.7733],[-80.5298,34.7711],[-80.5232,34.7702],[-80.5221,34.7682],[-80.5164,34.768],[-80.5146,34.7659],[-80.5179,34.7627],[-80.5162,34.7589],[-80.5106,34.7547],[-80.5071,34.7455],[-80.5003,34.7396],[-80.5019,34.7379],[-80.4981,34.7302],[-80.4933,34.7251],[-80.4879,34.7219],[-80.4898,34.7202],[-80.4869,34.7191],[-80.4861,34.7162],[-80.4888,34.7145],[-80.4866,34.7128],[-80.4887,34.706],[-80.4822,34.7046],[-80.4752,34.6992],[-80.4752,34.6965],[-80.4719,34.6909],[-80.4681,34.6892],[-80.4708,34.6877],[-80.469,34.6854],[-80.4612,34.6826],[-80.4608,34.677],[-80.4503,34.6758],[-80.4534,34.6717],[-80.4461,34.6678],[-80.4455,34.6657],[-80.4394,34.6638],[-80.4402,34.658],[-80.4368,34.6606],[-80.4318,34.66],[-80.4299,34.6558],[-80.4326,34.6541],[-80.4351,34.6473],[-80.435,34.6421],[-80.4312,34.6373],[-80.426,34.6368],[-80.4204,34.6314],[-80.4139,34.6278],[-80.4125,34.6236],[-80.4191,34.6209],[-80.4158,34.6167],[-80.4084,34.6148],[-80.5043,34.5782],[-80.5428,34.5633],[-80.5507,34.56],[-80.5475,34.5554],[-80.5476,34.5519],[-80.5446,34.5493],[-80.5435,34.5458],[-80.5446,34.5431],[-80.5426,34.5402],[-80.5435,34.5374],[-80.5415,34.5339],[-80.5384,34.5353],[-80.536,34.5339],[-80.5348,34.5273],[-80.5276,34.5211],[-80.5269,34.5147],[-80.5244,34.5131],[-80.5239,34.5098],[-80.5273,34.5065],[-80.5278,34.504],[-80.5337,34.504],[-80.541,34.5056],[-80.544,34.5075],[-80.5456,34.5042],[-80.5452,34.5002],[-80.5489,34.4933],[-80.5595,34.4936],[-80.5671,34.4895],[-80.5761,34.4894],[-80.5758,34.4854],[-80.5794,34.4846],[-80.5825,34.4929],[-80.586,34.4968],[-80.5958,34.5021],[-80.598,34.4952],[-80.6041,34.4952],[-80.6104,34.4888],[-80.6143,34.4888],[-80.6144,34.4952],[-80.6102,34.4977],[-80.6136,34.4999],[-80.618,34.4989],[-80.6256,34.4952],[-80.6296,34.4987],[-80.6296,34.4912],[-80.6227,34.4915],[-80.6253,34.4884],[-80.6269,34.4838],[-80.6321,34.4806],[-80.6322,34.4914],[-80.6456,34.4915],[-80.6468,34.4889],[-80.6452,34.4837],[-80.6535,34.4793],[-80.6584,34.4786],[-80.6619,34.4833],[-80.6702,34.4895],[-80.6761,34.4931],[-80.6781,34.4976],[-80.6822,34.501],[-80.6828,34.507],[-80.6854,34.5091],[-80.6891,34.5153],[-80.6975,34.5146],[-80.7,34.5153],[-80.7006,34.5128],[-80.7063,34.5098],[-80.7092,34.5051],[-80.7098,34.5004],[-80.7136,34.4873],[-80.7206,34.4848],[-80.735,34.4813],[-80.7378,34.4826],[-80.74,34.48],[-80.7417,34.485],[-80.7452,34.4887],[-80.7456,34.4912],[-80.7402,34.5001],[-80.7401,34.5074],[-80.7448,34.5101],[-80.7456,34.5126],[-80.7424,34.5175],[-80.7397,34.5239],[-80.7387,34.536],[-80.7377,34.5395],[-80.7433,34.5399],[-80.8533,34.473],[-80.8734,34.4604],[-80.8792,34.4578],[-80.8829,34.4634],[-80.8882,34.4679],[-80.8961,34.4838],[-80.8987,34.4867],[-80.8972,34.4917],[-80.892,34.4954],[-80.8875,34.4954],[-80.8817,34.5001],[-80.8813,34.5063],[-80.8786,34.5175],[-80.8762,34.525],[-80.8755,34.5359],[-80.8775,34.5431],[-80.8773,34.5477],[-80.8729,34.553],[-80.8731,34.5569],[-80.8758,34.5642],[-80.8754,34.5666],[-80.8786,34.5711],[-80.8777,34.5771],[-80.8782,34.5811],[-80.8835,34.5854],[-80.8831,34.5884],[-80.8921,34.5981],[-80.8917,34.6043],[-80.8899,34.6078],[-80.8892,34.6182],[-80.8919,34.6251],[-80.8964,34.6318],[-80.8949,34.6417],[-80.8928,34.646],[-80.8874,34.6526],[-80.8865,34.6571],[-80.8882,34.663],[-80.8885,34.6686],[-80.8805,34.674],[-80.8769,34.6829],[-80.8697,34.6889],[-80.8638,34.6925],[-80.8603,34.6957],[-80.8598,34.7002],[-80.8612,34.7028],[-80.8663,34.7066],[-80.8688,34.7166],[-80.8687,34.7232],[-80.8745,34.7315],[-80.8748,34.7383],[-80.8776,34.7439],[-80.8783,34.7591],[-80.8743,34.7634],[-80.8752,34.7818],[-80.8761,34.788],[-80.878,34.7907],[-80.8844,34.7957],[-80.8868,34.8035],[-80.8904,34.8059],[-80.8959,34.8141],[-80.8982,34.8207],[-80.8986,34.8261],[-80.8939,34.8301],[-80.8828,34.8334],[-80.8745,34.838],[-80.8666,34.8488],[-80.8676,34.8539],[-80.8704,34.8568],[-80.8767,34.8602],[-80.8792,34.8634],[-80.8801,34.8715],[-80.8798,34.8777],[-80.8782,34.8852],[-80.878,34.8918],[-80.879,34.898],[-80.8783,34.903],[-80.8709,34.9084],[-80.8673,34.9134],[-80.8651,34.922],[-80.8654,34.9257],[-80.8691,34.9319],[-80.8701,34.9358],[-80.8677,34.9397],[-80.8699,34.947],[-80.8686,34.9507],[-80.8739,34.9567],[-80.8726,34.9617],[-80.8742,34.9653],[-80.8798,34.9625],[-80.8806,34.9656],[-80.8843,34.9658],[-80.8824,34.9708],[-80.8859,34.9767],[-80.8865,34.981],[-80.8888,34.9846],[-80.8886,34.9873],[-80.8858,34.9884],[-80.8857,34.9913],[-80.8919,34.9906],[-80.8942,34.9936],[-80.8933,34.9982],[-80.9023,35.0057],[-80.8995,35.0077],[-80.9004,35.01],[-80.8969,35.0133],[-80.899,35.0144],[-80.9041,35.0111],[-80.9095,35.0169],[-80.9077,35.0191],[-80.903,35.0197],[-80.9035,35.0211],[-80.8987,35.0295],[-80.8974,35.0331],[-80.8981,35.0392],[-80.903,35.0458],[-80.9059,35.0468],[-80.9025,35.0525],[-80.9048,35.054],[-80.9016,35.0561],[-80.8995,35.0601],[-80.906,35.0637],[-80.9073,35.0698],[-80.9062,35.0764],[-80.8849,35.0535]]]}},{"type":"Feature","properties":{"id":"37159","name":"Rowan Co., NC"},"geometry":{"type":"Polygon","coordinates":[[[-80.7002,35.8505],[-80.6961,35.8547],[-80.6929,35.8543],[-80.6918,35.8635],[-80.6874,35.8598],[-80.6768,35.8558],[-80.6744,35.8577],[-80.6722,35.8558],[-80.6688,35.8563],[-80.6701,35.8515],[-80.673,35.8496],[-80.6713,35.8465],[-80.6644,35.8448],[-80.6594,35.8447],[-80.6493,35.8462],[-80.6455,35.8445],[-80.632,35.8457],[-80.6309,35.8444],[-80.6307,35.8383],[-80.6222,35.8388],[-80.6209,35.8369],[-80.6099,35.829],[-80.6123,35.8251],[-80.6092,35.8231],[-80.6026,35.8257],[-80.6017,35.8233],[-80.5993,35.8273],[-80.5936,35.8269],[-80.5944,35.8244],[-80.591,35.8172],[-80.5873,35.8193],[-80.5897,35.8206],[-80.5871,35.823],[-80.5835,35.822],[-80.5774,35.8181],[-80.5743,35.818],[-80.5695,35.8155],[-80.5679,35.812],[-80.5627,35.8102],[-80.5546,35.8003],[-80.5467,35.7982],[-80.543,35.7923],[-80.5374,35.7899],[-80.5334,35.7908],[-80.5341,35.7862],[-80.5284,35.7835],[-80.5225,35.7848],[-80.5193,35.7833],[-80.5149,35.7781],[-80.5075,35.7748],[-80.5038,35.7813],[-80.5003,35.7835],[-80.4958,35.7823],[-80.4917,35.7782],[-80.492,35.776],[-80.4878,35.7666],[-80.4864,35.7671],[-80.487,35.7717],[-80.4834,35.7763],[-80.4783,35.7748],[-80.4718,35.7684],[-80.4689,35.7613],[-80.4685,35.757],[-80.4624,35.7514],[-80.4602,35.7455],[-80.4555,35.7359],[-80.4534,35.7345],[-80.4469,35.7353],[-80.442,35.7346],[-80.43,35.7296],[-80.4229,35.7259],[-80.4141,35.7226],[-80.4072,35.722],[-80.3983,35.7249],[-80.3932,35.7242],[-80.3896,35.7198],[-80.3825,35.7198],[-80.3728,35.7165],[-80.3687,35.7161],[-80.3579,35.7177],[-80.3401,35.7213],[-80.3363,35.7211],[-80.3324,35.7189],[-80.3259,35.7119],[-80.3243,35.7081],[-80.3248,35.7037],[-80.332,35.6973],[-80.3345,35.6897],[-80.3333,35.6836],[-80.3306,35.6788],[-80.324,35.6741],[-80.3148,35.6717],[-80.3073,35.6657],[-80.3063,35.657],[-80.3031,35.6518],[-80.2993,35.6491],[-80.2932,35.6424],[-80.2883,35.6353],[-80.2837,35.6333],[-80.2687,35.631],[-80.265,35.6296],[-80.2555,35.6217],[-80.2497,35.6192],[-80.2434,35.6144],[-80.2391,35.6098],[-80.2357,35.6045],[-80.2336,35.5984],[-80.2274,35.5932],[-80.2192,35.5875],[-80.2126,35.5847],[-80.2089,35.5813],[-80.207,35.5731],[-80.2077,35.566],[-80.2104,35.5555],[-80.2098,35.5523],[-80.2063,35.5489],[-80.1992,35.5456],[-80.1955,35.5359],[-80.1975,35.5309],[-80.195,35.5276],[-80.1901,35.5252],[-80.1839,35.5162],[-80.1847,35.5088],[-80.1829,35.5033],[-80.1894,35.5033],[-80.2954,35.5029],[-80.3597,35.5026],[-80.4223,35.502],[-80.4371,35.5022],[-80.5056,35.5026],[-80.5218,35.5023],[-80.5317,35.5028],[-80.572,35.5034],[-80.6092,35.5047],[-80.6379,35.5054],[-80.6574,35.5056],[-80.6577,35.5062],[-80.6734,35.5064],[-80.6789,35.5058],[-80.7372,35.5058],[-80.7363,35.5148],[-80.7373,35.5249],[-80.7408,35.5322],[-80.741,35.5383],[-80.7422,35.5407],[-80.7398,35.5441],[-80.7716,35.6722],[-80.7078,35.853],[-80.7002,35.8505]]]}},{"type":"Feature","properties":{"id":"37179","name":"Union Co., NC"},"geometry":{"type":"Polygon","coordinates":[[[-80.505,35.185],[-80.5053,35.1833],[-80.5009,35.1806],[-80.4931,35.1787],[-80.4884,35.1755],[-80.4811,35.1801],[-80.4775,35.1782],[-80.477,35.1731],[-80.4745,35.1705],[-80.4682,35.1667],[-80.465,35.1701],[-80.4616,35.169],[-80.4601,35.1657],[-80.4564,35.1643],[-80.4531,35.1655],[-80.4472,35.1648],[-80.4399,35.161],[-80.4352,35.1654],[-80.4307,35.1661],[-80.4257,35.1701],[-80.4193,35.1729],[-80.413,35.1638],[-80.4086,35.1637],[-80.4054,35.1665],[-80.4009,35.1673],[-80.3983,35.1656],[-80.3883,35.1659],[-80.3796,35.1728],[-80.3782,35.1759],[-80.3746,35.1787],[-80.3686,35.1791],[-80.366,35.1757],[-80.3642,35.1703],[-80.3576,35.1649],[-80.3547,35.1655],[-80.3521,35.1689],[-80.3475,35.1689],[-80.3432,35.171],[-80.3404,35.1741],[-80.3346,35.1738],[-80.3302,35.1764],[-80.3253,35.1757],[-80.3217,35.1731],[-80.3209,35.1787],[-80.319,35.18],[-80.3102,35.1806],[-80.3043,35.1831],[-80.3042,35.1875],[-80.2967,35.1934],[-80.2918,35.1939],[-80.2871,35.1914],[-80.284,35.1924],[-80.2814,35.1959],[-80.2768,35.1957],[-80.2973,35.0187],[-80.3208,34.8141],[-80.3999,34.8151],[-80.4517,34.8164],[-80.4918,34.8168],[-80.4998,34.8173],[-80.5617,34.8175],[-80.6261,34.8182],[-80.6466,34.8186],[-80.7777,34.8197],[-80.7975,34.8198],[-80.782,34.9358],[-80.8216,34.9797],[-80.8404,35.0016],[-80.838,35.005],[-80.8312,35.0078],[-80.8251,35.012],[-80.821,35.0173],[-80.8112,35.0215],[-80.8045,35.0277],[-80.8004,35.0279],[-80.7969,35.0298],[-80.781,35.0333],[-80.7732,35.0329],[-80.7676,35.0363],[-80.7418,35.0559],[-80.6986,35.0896],[-80.6811,35.1037],[-80.6362,35.1394],[-80.5503,35.2084],[-80.505,35.185]]]}},{"type":"Feature","properties":{"id":"37025","name":"Cabarrus Co., NC"},"geometry":{"type":"Polygon","coordinates":[[[-80.7372,35.5058],[-80.6789,35.5058],[-80.6734,35.5064],[-80.6577,35.5062],[-80.6574,35.5056],[-80.6379,35.5054],[-80.6092,35.5047],[-80.572,35.5034],[-80.5317,35.5028],[-80.5218,35.5023],[-80.5056,35.5026],[-80.4371,35.5022],[-80.4223,35.502],[-80.3597,35.5026],[-80.2954,35.5029],[-80.3738,35.3848],[-80.4054,35.3369],[-80.4349,35.2916],[-80.4844,35.2164],[-80.4834,35.2124],[-80.4902,35.2091],[-80.4959,35.2042],[-80.4992,35.1984],[-80.5062,35.1926],[-80.5042,35.1879],[-80.505,35.185],[-80.5503,35.2084],[-80.5525,35.2097],[-80.6279,35.2487],[-80.6661,35.2677],[-80.6705,35.2788],[-80.683,35.3156],[-80.6931,35.3464],[-80.7089,35.3554],[-80.7328,35.3719],[-80.7444,35.3807],[-80.7514,35.389],[-80.7553,35.3948],[-80.7664,35.4015],[-80.7635,35.4121],[-80.7522,35.4141],[-80.7727,35.4573],[-80.7733,35.4627],[-80.7793,35.472],[-80.7821,35.4843],[-80.7868,35.493],[-80.7857,35.503],[-80.7842,35.506],[-80.7372,35.5058]]]}},{"type":"Feature","properties":{"id":"37071","name":"Gaston Co., NC"},"geometry":{"type":"Polygon","coordinates":[[[-81.3641,35.4167],[-81.2897,35.4139],[-81.2409,35.4119],[-81.2335,35.4109],[-81.218,35.411],[-81.0307,35.4044],[-81.0114,35.4036],[-80.9549,35.4001],[-80.9552,35.3932],[-80.9575,35.391],[-80.9654,35.3886],[-80.9766,35.3825],[-80.9838,35.3818],[-80.9868,35.379],[-80.9868,35.3757],[-80.9837,35.3684],[-80.9811,35.3659],[-80.9733,35.3642],[-80.9681,35.3677],[-80.9629,35.3751],[-80.9583,35.375],[-80.9554,35.3704],[-80.9516,35.3673],[-80.9417,35.3649],[-80.9359,35.3621],[-80.9294,35.363],[-80.9247,35.3618],[-80.923,35.3599],[-80.9282,35.3575],[-80.935,35.3566],[-80.9425,35.3509],[-80.952,35.351],[-80.9584,35.3495],[-80.9621,35.347],[-80.9671,35.3508],[-80.9727,35.3503],[-80.9744,35.3454],[-80.9815,35.3427],[-80.9849,35.3401],[-80.9853,35.3372],[-80.9818,35.3332],[-80.9808,35.3298],[-80.9827,35.3258],[-80.9892,35.3207],[-80.9954,35.3095],[-81.0009,35.3054],[-81.0071,35.2896],[-81.0093,35.2804],[-81.013,35.2747],[-81.015,35.2687],[-81.0141,35.2585],[-81.0083,35.2481],[-81.0102,35.2432],[-81.0108,35.236],[-81.0143,35.2243],[-81.0141,35.222],[-81.0101,35.2146],[-81.0053,35.2077],[-81.0061,35.1951],[-81.0024,35.1808],[-81.0039,35.1704],[-81.0073,35.1652],[-81.0058,35.157],[-81.0075,35.1545],[-81.0116,35.1527],[-81.0171,35.1543],[-81.0247,35.1489],[-81.0314,35.1484],[-81.0429,35.1492],[-81.0436,35.1499],[-81.1093,35.1541],[-81.2417,35.1601],[-81.328,35.1634],[-81.3237,35.1896],[-81.3243,35.2411],[-81.3217,35.2604],[-81.3535,35.2774],[-81.3558,35.2808],[-81.3562,35.2881],[-81.3551,35.2944],[-81.3561,35.2977],[-81.3599,35.302],[-81.3666,35.3149],[-81.3636,35.3237],[-81.3567,35.3306],[-81.3828,35.3461],[-81.3989,35.3531],[-81.4553,35.4189],[-81.4556,35.4198],[-81.3641,35.4167]]]}},{"type":"Feature","properties":{"id":"45023","name":"Chester Co., SC"},"geometry":{"type":"Polygon","coordinates":[[[-81.3729,34.8222],[-81.3245,34.8223],[-81.1411,34.8206],[-81.1054,34.8205],[-81.0329,34.821],[-80.9744,34.8211],[-80.8982,34.8207],[-80.8959,34.8141],[-80.8904,34.8059],[-80.8868,34.8035],[-80.8844,34.7957],[-80.878,34.7907],[-80.8761,34.788],[-80.8752,34.7818],[-80.8743,34.7634],[-80.8783,34.7591],[-80.8776,34.7439],[-80.8748,34.7383],[-80.8745,34.7315],[-80.8687,34.7232],[-80.8688,34.7166],[-80.8663,34.7066],[-80.8612,34.7028],[-80.8598,34.7002],[-80.8603,34.6957],[-80.8638,34.6925],[-80.8697,34.6889],[-80.8769,34.6829],[-80.8805,34.674],[-80.8885,34.6686],[-80.8882,34.663],[-80.8865,34.6571],[-80.8874,34.6526],[-80.8928,34.646],[-80.8949,34.6417],[-80.8964,34.6318],[-80.8919,34.6251],[-80.8892,34.6182],[-80.8899,34.6078],[-80.8917,34.6043],[-80.8921,34.5981],[-80.8831,34.5884],[-80.8835,34.5854],[-80.8782,34.5811],[-80.8777,34.5771],[-80.8786,34.5711],[-80.8754,34.5666],[-80.8758,34.5642],[-80.8731,34.5569],[-80.8729,34.553],[-80.8773,34.5477],[-80.8775,34.5431],[-80.9509,34.5454],[-80.964,34.5464],[-80.9709,34.5464],[-81.0049,34.548],[-81.06,34.5532],[-81.0709,34.5536],[-81.1202,34.5565],[-81.1248,34.5566],[-81.1711,34.5594],[-81.276,34.5652],[-81.3116,34.5668],[-81.4227,34.572],[-81.4268,34.5785],[-81.422,34.5897],[-81.4179,34.6041],[-81.4184,34.6125],[-81.4179,34.6292],[-81.4159,34.6336],[-81.421,34.6403],[-81.4296,34.6486],[-81.4419,34.6537],[-81.4438,34.6562],[-81.4479,34.6669],[-81.4508,34.6721],[-81.4542,34.6752],[-81.4536,34.6923],[-81.4554,34.6967],[-81.4548,34.6993],[-81.4555,34.7113],[-81.4541,34.7209],[-81.4564,34.7238],[-81.4619,34.7265],[-81.476,34.7232],[-81.4793,34.7239],[-81.4883,34.733],[-81.4872,34.7382],[-81.4824,34.7444],[-81.475,34.7489],[-81.469,34.7534],[-81.4616,34.7576],[-81.4563,34.7586],[-81.4531,34.7609],[-81.4535,34.7672],[-81.4552,34.7737],[-81.4535,34.7822],[-81.456,34.7875],[-81.4563,34.7925],[-81.4592,34.7975],[-81.4692,34.8028],[-81.469,34.811],[-81.4709,34.8114],[-81.4799,34.8084],[-81.4873,34.8134],[-81.4871,34.8166],[-81.4785,34.8215],[-81.3729,34.8222]]]}},{"type":"Feature","properties":{"id":"37097","name":"Iredell Co., NC"},"geometry":{"type":"Polygon","coordinates":[[[-80.7716,35.6722],[-80.7398,35.5441],[-80.7422,35.5407],[-80.741,35.5383],[-80.7408,35.5322],[-80.7373,35.5249],[-80.7363,35.5148],[-80.7372,35.5058],[-80.7842,35.506],[-80.8391,35.51],[-80.9067,35.5148],[-80.9473,35.4885],[-80.9487,35.4917],[-80.9579,35.4946],[-80.9621,35.4987],[-80.9635,35.506],[-80.9628,35.5078],[-80.9565,35.5139],[-80.9563,35.5183],[-80.9577,35.5237],[-80.9555,35.5325],[-80.9448,35.526],[-80.9397,35.5286],[-80.9408,35.5315],[-80.9524,35.5408],[-80.9588,35.5446],[-80.96,35.547],[-80.9535,35.5543],[-80.9566,35.5639],[-80.9569,35.569],[-80.9557,35.5738],[-80.9513,35.5813],[-80.9455,35.5853],[-80.937,35.5875],[-80.9336,35.5909],[-80.9336,35.5937],[-80.9361,35.5976],[-80.941,35.6008],[-80.9435,35.6049],[-80.9407,35.6108],[-80.9373,35.614],[-80.9317,35.615],[-80.9262,35.6181],[-80.9255,35.6209],[-80.9308,35.6264],[-80.938,35.6311],[-80.9438,35.6375],[-80.9507,35.641],[-80.9534,35.6439],[-80.9552,35.6503],[-80.9588,35.6544],[-80.9609,35.6599],[-80.9656,35.6644],[-80.9667,35.671],[-80.9736,35.6769],[-80.9815,35.6817],[-80.9831,35.6871],[-80.9868,35.6919],[-80.9909,35.6941],[-80.9944,35.7021],[-81.0018,35.7082],[-81.0067,35.7107],[-81.0177,35.7127],[-81.0287,35.7105],[-81.0356,35.7081],[-81.0432,35.7074],[-81.0487,35.7079],[-81.0568,35.7102],[-81.0602,35.7103],[-81.0651,35.7149],[-81.0657,35.7213],[-81.064,35.7285],[-81.0671,35.7368],[-81.0693,35.7395],[-81.0776,35.7452],[-81.0828,35.7511],[-81.0905,35.7574],[-81.0888,35.7649],[-81.0923,35.7682],[-81.1012,35.768],[-81.1043,35.7701],[-81.1095,35.7766],[-81.1066,35.7784],[-81.1061,35.7815],[-81.1017,35.7839],[-81.101,35.7875],[-81.0937,35.794],[-81.087,35.7967],[-81.0789,35.8028],[-81.0792,35.8092],[-81.0757,35.815],[-81.0709,35.8174],[-81.0633,35.8266],[-81.0605,35.8351],[-81.0413,35.8579],[-81.0055,35.9583],[-81.0034,35.9967],[-81.0288,36.0457],[-80.9757,36.0588],[-80.9492,36.0571],[-80.8313,36.0546],[-80.6932,36.0513],[-80.7078,35.853],[-80.7716,35.6722]]]}},{"type":"Feature","properties":{"id":"37109","name":"Lincoln Co., NC"},"geometry":{"type":"Polygon","coordinates":[[[-80.9588,35.5446],[-80.9524,35.5408],[-80.9408,35.5315],[-80.9397,35.5286],[-80.9448,35.526],[-80.9555,35.5325],[-80.9577,35.5237],[-80.9563,35.5183],[-80.9565,35.5139],[-80.9628,35.5078],[-80.9635,35.506],[-80.9621,35.4987],[-80.9579,35.4946],[-80.9487,35.4917],[-80.9473,35.4885],[-80.9453,35.4836],[-80.9479,35.4807],[-80.9518,35.4689],[-80.9506,35.4653],[-80.944,35.4601],[-80.9425,35.4577],[-80.9431,35.4529],[-80.949,35.4485],[-80.9521,35.4447],[-80.9534,35.4407],[-80.956,35.4381],[-80.9587,35.4326],[-80.9557,35.4252],[-80.9556,35.4189],[-80.9587,35.4115],[-80.957,35.4039],[-80.9549,35.4001],[-81.0114,35.4036],[-81.0307,35.4044],[-81.218,35.411],[-81.2335,35.4109],[-81.2409,35.4119],[-81.2897,35.4139],[-81.3641,35.4167],[-81.4556,35.4198],[-81.4588,35.4237],[-81.4669,35.4422],[-81.4755,35.4602],[-81.4814,35.4715],[-81.4917,35.4868],[-81.4952,35.4941],[-81.5007,35.5024],[-81.513,35.5233],[-81.5106,35.5296],[-81.5091,35.54],[-81.5092,35.5504],[-81.5154,35.5583],[-81.5376,35.5642],[-81.5354,35.5681],[-81.4722,35.5661],[-81.4386,35.5648],[-81.3956,35.5634],[-81.3337,35.5611],[-81.2453,35.5572],[-81.2001,35.5555],[-81.1844,35.5551],[-81.0872,35.5515],[-81.075,35.5513],[-81.0156,35.5486],[-80.96,35.547],[-80.9588,35.5446]]]}}]}