{"type":"FeatureCollection","features":[{"type":"Feature","properties":{"id":"48229","name":"Hudspeth Co."},"geometry":{"type":"Polygon","coordinates":[[[-105.9006,32.0021],[-105.8862,32.002],[-105.8541,32.0024],[-105.7505,32.0022],[-105.7314,32.0016],[-105.4293,32.0006],[-105.3904,32.0006],[-105.118,32.0005],[-105.077,32.0006],[-104.9184,32.0004],[-104.9177,31.8852],[-104.9185,31.8852],[-104.9173,31.7639],[-104.9164,31.7277],[-104.9154,31.7194],[-104.9138,31.6607],[-104.9092,31.1611],[-104.9089,31.0424],[-104.9089,31.0001],[-104.908,30.9849],[-104.9074,30.941],[-104.9076,30.8359],[-104.9164,30.836],[-104.9169,30.7508],[-104.9167,30.7479],[-104.9172,30.6636],[-104.9796,30.6294],[-104.9818,30.63],[-104.984,30.6352],[-104.9838,30.6426],[-104.9855,30.6501],[-104.9852,30.6554],[-104.9862,30.6629],[-104.9931,30.665],[-104.994,30.6686],[-104.9979,30.669],[-105.0012,30.6726],[-105.0021,30.681],[-105.0055,30.683],[-105.0074,30.6865],[-105.016,30.6828],[-105.0179,30.6852],[-105.0212,30.6815],[-105.0246,30.6815],[-105.0272,30.6789],[-105.0316,30.6807],[-105.0359,30.6866],[-105.0413,30.6889],[-105.0472,30.6876],[-105.0444,30.6833],[-105.0455,30.6799],[-105.0487,30.6825],[-105.0555,30.6824],[-105.0543,30.6853],[-105.059,30.6881],[-105.0616,30.6857],[-105.0635,30.6887],[-105.0617,30.6945],[-105.0626,30.6986],[-105.0671,30.6995],[-105.0692,30.7022],[-105.0756,30.7018],[-105.0805,30.6996],[-105.0819,30.703],[-105.0793,30.7048],[-105.0804,30.7081],[-105.0836,30.71],[-105.0872,30.7097],[-105.087,30.7143],[-105.0911,30.7172],[-105.0982,30.7165],[-105.0995,30.7218],[-105.1054,30.7237],[-105.1033,30.7288],[-105.1059,30.7306],[-105.1088,30.7301],[-105.1118,30.7333],[-105.1099,30.7393],[-105.1122,30.7407],[-105.1107,30.7434],[-105.1138,30.746],[-105.1171,30.743],[-105.1209,30.7452],[-105.12,30.75],[-105.1285,30.7484],[-105.1291,30.75],[-105.1406,30.7522],[-105.1438,30.7552],[-105.1485,30.7523],[-105.1524,30.7515],[-105.1565,30.7539],[-105.1611,30.7521],[-105.1605,30.7577],[-105.1578,30.7617],[-105.1576,30.7666],[-105.1561,30.7696],[-105.1628,30.7707],[-105.1667,30.7766],[-105.1688,30.7759],[-105.1739,30.7676],[-105.1768,30.7681],[-105.1823,30.7764],[-105.1851,30.7777],[-105.1862,30.7847],[-105.191,30.786],[-105.1928,30.7901],[-105.1958,30.7922],[-105.2005,30.7874],[-105.2028,30.788],[-105.2114,30.7818],[-105.2186,30.7852],[-105.22,30.7889],[-105.2169,30.7934],[-105.2132,30.7931],[-105.2096,30.7978],[-105.2138,30.8017],[-105.215,30.8059],[-105.2177,30.806],[-105.2234,30.8008],[-105.2279,30.7992],[-105.23,30.8038],[-105.2356,30.8027],[-105.2383,30.8036],[-105.2445,30.7998],[-105.2501,30.7992],[-105.2528,30.7958],[-105.2579,30.7947],[-105.2655,30.8025],[-105.2659,30.8069],[-105.2685,30.8094],[-105.272,30.8092],[-105.2756,30.8069],[-105.2794,30.8157],[-105.2822,30.8182],[-105.2885,30.8185],[-105.2893,30.8238],[-105.2922,30.8263],[-105.3002,30.8247],[-105.3005,30.8193],[-105.306,30.81],[-105.3089,30.8111],[-105.3085,30.8151],[-105.317,30.811],[-105.3186,30.8122],[-105.3176,30.8172],[-105.316,30.8187],[-105.319,30.8249],[-105.3181,30.8276],[-105.3244,30.8283],[-105.3289,30.8248],[-105.33,30.8265],[-105.3283,30.8315],[-105.3341,30.8336],[-105.3372,30.8335],[-105.3393,30.8405],[-105.3458,30.8406],[-105.3518,30.8356],[-105.3544,30.838],[-105.3539,30.8428],[-105.3599,30.8463],[-105.3616,30.8505],[-105.3676,30.8477],[-105.3719,30.8476],[-105.3772,30.8513],[-105.3855,30.8512],[-105.387,30.8536],[-105.3941,30.8508],[-105.3954,30.8491],[-105.4017,30.8546],[-105.3991,30.8579],[-105.3952,30.8593],[-105.3944,30.8631],[-105.3958,30.8647],[-105.3936,30.867],[-105.395,30.8711],[-105.3914,30.8743],[-105.394,30.8764],[-105.4004,30.8769],[-105.4042,30.8797],[-105.3993,30.884],[-105.3999,30.8891],[-105.4044,30.8919],[-105.4082,30.8893],[-105.4123,30.8887],[-105.4107,30.8925],[-105.4138,30.8996],[-105.4263,30.9008],[-105.4288,30.9047],[-105.4346,30.9077],[-105.4422,30.9093],[-105.4471,30.9196],[-105.4511,30.9159],[-105.4544,30.9194],[-105.452,30.9201],[-105.4516,30.9248],[-105.4565,30.9245],[-105.4649,30.9258],[-105.4665,30.9242],[-105.4676,30.9297],[-105.4708,30.9312],[-105.4709,30.9338],[-105.4759,30.9338],[-105.4782,30.9382],[-105.488,30.9433],[-105.4937,30.9495],[-105.499,30.9507],[-105.4941,30.9573],[-105.5001,30.966],[-105.5037,30.968],[-105.5067,30.9665],[-105.5142,30.9661],[-105.5157,30.9649],[-105.5179,30.9711],[-105.5216,30.976],[-105.5274,30.9784],[-105.5323,30.9843],[-105.538,30.9857],[-105.5437,30.9847],[-105.5562,30.9889],[-105.5637,30.9975],[-105.5657,31.0023],[-105.5701,31.0082],[-105.569,31.0154],[-105.572,31.0189],[-105.5769,31.0195],[-105.5791,31.0216],[-105.5814,31.0268],[-105.5795,31.0354],[-105.5848,31.0563],[-105.5886,31.0606],[-105.5959,31.0648],[-105.5988,31.0749],[-105.6033,31.0826],[-105.6061,31.085],[-105.6273,31.0985],[-105.6398,31.0976],[-105.6426,31.0994],[-105.6467,31.1139],[-105.6488,31.1159],[-105.6691,31.1231],[-105.6794,31.126],[-105.7095,31.1364],[-105.7162,31.1406],[-105.7195,31.1492],[-105.7416,31.1644],[-105.7444,31.1654],[-105.7635,31.1641],[-105.7696,31.1649],[-105.7733,31.1669],[-105.7761,31.1765],[-105.78,31.1827],[-105.7797,31.1913],[-105.7829,31.1976],[-105.7847,31.199],[-105.7944,31.2022],[-105.8188,31.2307],[-105.8357,31.2468],[-105.8505,31.2653],[-105.8541,31.2727],[-105.8585,31.2761],[-105.8692,31.2888],[-105.8751,31.2915],[-105.8909,31.29],[-105.8967,31.2931],[-105.9035,31.307],[-105.9088,31.3128],[-105.9142,31.313],[-105.9221,31.312],[-105.9326,31.3131],[-105.9385,31.3187],[-105.9478,31.3399],[-105.9455,31.3507],[-105.9459,31.3532],[-105.9538,31.3647],[-105.9556,31.3653],[-105.9701,31.3659],[-105.982,31.3759],[-105.9971,31.3872],[-105.9543,31.4235],[-105.9585,31.4235],[-105.9593,31.4784],[-105.9933,31.4784],[-105.9927,31.5001],[-105.9948,31.6797],[-105.9954,31.7482],[-105.9958,31.7501],[-105.9962,31.8294],[-105.9968,31.9016],[-105.9978,32.0001],[-105.998,32.0023],[-105.9006,32.0021]]]}},{"type":"Feature","properties":{"id":"48141","name":"El Paso Co."},"geometry":{"type":"Polygon","coordinates":[[[-106.0049,31.3925],[-106.0745,31.3976],[-106.0803,31.3987],[-106.085,31.4014],[-106.1033,31.4187],[-106.1069,31.4214],[-106.1122,31.4236],[-106.1245,31.4237],[-106.1328,31.4254],[-106.1542,31.4357],[-106.1593,31.4392],[-106.1703,31.4513],[-106.1756,31.4552],[-106.1803,31.4571],[-106.1943,31.4607],[-106.2033,31.464],[-106.2088,31.4684],[-106.2183,31.479],[-106.2196,31.4816],[-106.2237,31.4984],[-106.2254,31.5018],[-106.2356,31.5116],[-106.2375,31.5145],[-106.2451,31.5388],[-106.2482,31.5435],[-106.2548,31.548],[-106.2796,31.5611],[-106.2811,31.5627],[-106.2887,31.5872],[-106.2929,31.5943],[-106.2967,31.6035],[-106.3009,31.6096],[-106.3006,31.6133],[-106.303,31.6213],[-106.3081,31.6297],[-106.3251,31.6508],[-106.3347,31.6641],[-106.3495,31.6967],[-106.357,31.7022],[-106.3701,31.7107],[-106.3738,31.7148],[-106.378,31.7283],[-106.381,31.7321],[-106.4179,31.752],[-106.4355,31.7552],[-106.4511,31.7643],[-106.4553,31.7641],[-106.4669,31.7596],[-106.4725,31.7509],[-106.4846,31.7478],[-106.4895,31.7484],[-106.5001,31.7555],[-106.5058,31.7605],[-106.5101,31.7613],[-106.5125,31.769],[-106.5149,31.7716],[-106.5178,31.7718],[-106.5236,31.7762],[-106.5286,31.7818],[-106.5276,31.7891],[-106.5305,31.7921],[-106.533,31.7919],[-106.5358,31.7986],[-106.5421,31.8021],[-106.5471,31.8073],[-106.5629,31.8111],[-106.5668,31.8133],[-106.5709,31.8102],[-106.5772,31.8104],[-106.588,31.8221],[-106.5938,31.8249],[-106.6027,31.825],[-106.6053,31.8279],[-106.6019,31.8396],[-106.602,31.8444],[-106.6058,31.8463],[-106.6146,31.8465],[-106.6258,31.8563],[-106.6278,31.8606],[-106.6359,31.8662],[-106.6349,31.8745],[-106.6308,31.8797],[-106.6292,31.8837],[-106.6307,31.8864],[-106.6382,31.8917],[-106.6453,31.8949],[-106.6455,31.8987],[-106.6408,31.9046],[-106.6337,31.9098],[-106.6259,31.9122],[-106.6234,31.914],[-106.6143,31.918],[-106.6118,31.92],[-106.6239,31.9253],[-106.6287,31.9236],[-106.6297,31.9266],[-106.6253,31.9301],[-106.6225,31.9349],[-106.6224,31.9409],[-106.6237,31.9455],[-106.6161,31.9484],[-106.6147,31.956],[-106.6177,31.956],[-106.6228,31.9529],[-106.6251,31.9545],[-106.6243,31.9611],[-106.6205,31.9634],[-106.6187,31.967],[-106.6196,31.9716],[-106.6232,31.9729],[-106.6265,31.9707],[-106.6301,31.9713],[-106.6382,31.9768],[-106.6395,31.9803],[-106.6365,31.9857],[-106.6312,31.9898],[-106.6236,31.991],[-106.6194,31.9947],[-106.6185,32.0005],[-106.5953,32.0008],[-106.5651,32.0007],[-106.4111,32.0013],[-106.3943,32.0015],[-106.3769,32.0012],[-106.3133,32.0015],[-106.2059,32.0018],[-106.1255,32.0025],[-105.998,32.0023],[-105.9978,32.0001],[-105.9968,31.9016],[-105.9962,31.8294],[-105.9958,31.7501],[-105.9954,31.7482],[-105.9948,31.6797],[-105.9927,31.5001],[-105.9933,31.4784],[-105.9593,31.4784],[-105.9585,31.4235],[-105.9543,31.4235],[-105.9971,31.3872],[-106.0049,31.3925]]]}}]}