{"type":"FeatureCollection","features":[{"type":"Feature","properties":{"zcta":"79935","d":2262},"geometry":{"type":"Polygon","coordinates":[[[-106.32285,31.79938],[-106.32335,31.79594],[-106.32323,31.77922],[-106.32253,31.77679],[-106.32472,31.76906],[-106.31912,31.76903],[-106.31904,31.76045],[-106.31979,31.75895],[-106.32384,31.75579],[-106.32181,31.75432],[-106.31898,31.7542],[-106.31896,31.7476],[-106.32736,31.74995],[-106.32926,31.74728],[-106.32629,31.74542],[-106.32457,31.74311],[-106.32697,31.74165],[-106.32484,31.73986],[-106.34525,31.75268],[-106.33976,31.75966],[-106.33985,31.77759],[-106.33807,31.78329],[-106.33608,31.78499],[-106.33418,31.78381],[-106.33401,31.78688],[-106.3314,31.78982],[-106.33112,31.79334],[-106.33265,31.79804],[-106.32985,31.79847],[-106.32285,31.79938]]]}},{"type":"Feature","properties":{"zcta":"79908","d":55},"geometry":{"type":"Polygon","coordinates":[[[-106.40129,31.82758],[-106.39569,31.83241],[-106.3909,31.83253],[-106.3908,31.82926],[-106.38889,31.82926],[-106.38886,31.82679],[-106.3715,31.82721],[-106.36868,31.82923],[-106.36709,31.83658],[-106.35273,31.8467],[-106.34883,31.84301],[-106.34284,31.84229],[-106.34202,31.84135],[-106.33709,31.84108],[-106.32487,31.84133],[-106.33086,31.841],[-106.34541,31.84085],[-106.34852,31.84044],[-106.35272,31.83852],[-106.36404,31.82985],[-106.37609,31.82181],[-106.38139,31.82009],[-106.40319,31.81953],[-106.40451,31.81986],[-106.40464,31.82498],[-106.40342,31.82686],[-106.40129,31.82758]]]}},{"type":"Feature","properties":{"zcta":"79847","d":0},"geometry":{"type":"Polygon","coordinates":[[[-105.7501,31.75403],[-105.74253,31.75443],[-105.73748,31.75277],[-105.72827,31.75173],[-105.71419,31.75164],[-105.70619,31.7527],[-105.70207,31.75385],[-105.69589,31.75659],[-105.68617,31.75888],[-105.68106,31.75924],[-105.67947,31.76138],[-105.65755,31.76581],[-105.64786,31.7687],[-105.62558,31.77067],[-105.62065,31.77065],[-105.62139,31.77286],[-105.6315,31.78532],[-105.63481,31.78869],[-105.64147,31.79642],[-105.64194,31.80197],[-105.63669,31.80823],[-105.55777,31.79454],[-105.55625,31.78923],[-105.55552,31.78476],[-105.55908,31.77702],[-105.56039,31.77338],[-105.52288,31.76413],[-105.52132,31.76475],[-105.52055,31.7683],[-105.51459,31.77132],[-105.51849,31.77631],[-105.51693,31.7858],[-105.51751,31.78751],[-105.48072,31.78109],[-105.48112,31.81591],[-105.48204,31.81713],[-105.49488,31.82969],[-105.49849,31.83235],[-105.49986,31.83552],[-105.49617,31.83698],[-105.48773,31.83904],[-105.48217,31.8411],[-105.48543,31.89083],[-105.48583,31.89392],[-105.47808,31.89938],[-105.47326,31.90149],[-105.47326,31.96395],[-105.4691,31.96253],[-105.4655,31.962],[-105.46189,31.96039],[-105.45638,31.95498],[-105.45308,31.95259],[-105.44793,31.94694],[-105.44752,31.94421],[-105.4482,31.94158],[-105.45943,31.92595],[-105.45735,31.92486],[-105.45509,31.9201],[-105.4511,31.91874],[-105.44857,31.91503],[-105.44872,31.9119],[-105.44077,31.90636],[-105.43378,31.90404],[-105.4317,31.90106],[-105.42801,31.90008],[-105.42453,31.89832],[-105.41851,31.89366],[-105.41628,31.88976],[-105.41426,31.88784],[-105.41209,31.88325],[-105.40785,31.87994],[-105.40204,31.88472],[-105.39986,31.88588],[-105.39718,31.88923],[-105.39423,31.89012],[-105.39121,31.88701],[-105.38702,31.88937],[-105.38228,31.88908],[-105.37601,31.89277],[-105.37239,31.89385],[-105.36987,31.89296],[-105.36777,31.89075],[-105.36249,31.8909],[-105.35905,31.89042],[-105.35618,31.89143],[-105.35498,31.89064],[-105.35026,31.89147],[-105.34813,31.89354],[-105.34345,31.89312],[-105.33902,31.89374],[-105.34011,31.89192],[-105.33897,31.8903],[-105.34009,31.88584],[-105.34087,31.87513],[-105.33841,31.87676],[-105.3061,31.87681],[-105.30604,31.86089],[-105.28864,31.86094],[-105.28907,31.86581],[-105.28794,31.87689],[-105.27223,31.87695],[-105.27099,31.87725],[-105.24557,31.87729],[-105.2447,31.87634],[-105.23623,31.8812],[-105.23603,31.87734],[-105.20124,31.87739],[-105.20122,31.8613],[-105.19723,31.86029],[-105.18728,31.8565],[-105.18743,31.86136],[-105.14786,31.86155],[-105.14661,31.84091],[-105.14208,31.83463],[-105.13602,31.82709],[-105.1335,31.82289],[-105.1305,31.81908],[-105.12878,31.81342],[-105.07867,31.81339],[-105.07715,31.81206],[-105.07538,31.74537],[-104.97894,31.75526],[-104.97635,31.75576],[-104.97606,31.75969],[-104.97737,31.76415],[-104.97695,31.7693],[-104.97464,31.7764],[-104.97309,31.78397],[-104.97172,31.78733],[-104.97132,31.79272],[-104.96467,31.80506],[-104.96127,31.80772],[-104.96093,31.80921],[-104.96202,31.81393],[-104.96186,31.81612],[-104.95956,31.81812],[-104.96016,31.82628],[-104.96086,31.8305],[-104.96309,31.83807],[-104.96295,31.83947],[-104.95606,31.84399],[-104.95297,31.84696],[-104.95361,31.84795],[-104.9678,31.8511],[-104.97067,31.85628],[-104.9713,31.86208],[-104.98933,31.86207],[-104.98909,31.87873],[-105.02331,31.87864],[-105.02367,31.90821],[-105.00694,31.9082],[-105.00733,31.92348],[-105.00708,31.93812],[-105.00601,31.93813],[-105.00598,31.94464],[-105.00711,31.94516],[-105.00713,31.95467],[-105.00216,31.95471],[-105.00217,31.96321],[-105.00782,31.99938],[-105.00445,32.00051],[-104.91888,32.00042],[-104.84774,32.00008],[-104.83289,32.00001],[-104.77211,31.99749],[-104.75479,31.99777],[-104.75456,32.00053],[-104.66646,32.00041],[-104.60759,32.00028],[-104.60741,31.99475],[-104.60418,31.99337],[-104.60488,31.99138],[-104.60142,31.98979],[-104.59353,31.98991],[-104.59022,31.98544],[-104.58542,31.98329],[-104.60119,31.97654],[-104.60522,31.97538],[-104.67772,31.96139],[-104.684,31.95899],[-104.69702,31.95098],[-104.70807,31.94241],[-104.70573,31.93962],[-104.69218,31.92971],[-104.69071,31.92773],[-104.69042,31.92289],[-104.68894,31.92051],[-104.6911,31.91519],[-104.69184,31.91205],[-104.70083,31.90629],[-104.70315,31.90205],[-104.70503,31.90137],[-104.70775,31.90325],[-104.70783,31.90113],[-104.70929,31.90093],[-104.706,31.89789],[-104.70728,31.89277],[-104.70666,31.89121],[-104.70173,31.88973],[-104.70459,31.88724],[-104.70317,31.88439],[-104.70147,31.88392],[-104.70475,31.88067],[-104.70493,31.87838],[-104.70919,31.87616],[-104.70697,31.87438],[-104.70356,31.86941],[-104.70226,31.86597],[-104.70467,31.86277],[-104.70625,31.85711],[-104.70591,31.85307],[-104.70402,31.84967],[-104.70474,31.8452],[-104.70573,31.84423],[-104.70941,31.83768],[-104.70911,31.83595],[-104.71119,31.8339],[-104.71111,31.82557],[-104.71149,31.81836],[-104.7102,31.81491],[-104.70815,31.8137],[-104.70274,31.81221],[-104.69987,31.81051],[-104.69506,31.80869],[-104.69139,31.80609],[-104.68954,31.80389],[-104.68553,31.79587],[-104.68599,31.78963],[-104.68196,31.7897],[-104.68003,31.78652],[-104.67329,31.78574],[-104.66836,31.78402],[-104.66552,31.78198],[-104.66376,31.7786],[-104.66143,31.7786],[-104.65586,31.77992],[-104.65506,31.77811],[-104.6516,31.77673],[-104.65305,31.77033],[-104.65362,31.76573],[-104.65489,31.76439],[-104.65532,31.7604],[-104.6539,31.75546],[-104.65104,31.75718],[-104.64721,31.75829],[-104.6402,31.75702],[-104.63302,31.75646],[-104.63038,31.75336],[-104.62825,31.75275],[-104.6263,31.74987],[-104.62487,31.74974],[-104.62705,31.74727],[-104.6276,31.74487],[-104.62715,31.74051],[-104.62407,31.73587],[-104.62128,31.73585],[-104.61791,31.73759],[-104.61123,31.73421],[-104.60828,31.73128],[-104.60647,31.72756],[-104.60346,31.72484],[-104.60119,31.72379],[-104.5976,31.72006],[-104.5942,31.71542],[-104.58937,31.71538],[-104.58494,31.71396],[-104.58468,31.71065],[-104.58312,31.70719],[-104.5833,31.70058],[-104.58247,31.69829],[-104.57673,31.69628],[-104.58141,31.69206],[-104.57934,31.67857],[-104.58411,31.66885],[-104.58806,31.66567],[-104.59107,31.66237],[-104.59448,31.66093],[-104.59806,31.66048],[-104.6028,31.6564],[-104.60821,31.65427],[-104.61269,31.65088],[-104.61184,31.6487],[-104.6144,31.65003],[-104.61937,31.65508],[-104.62295,31.6593],[-104.62728,31.65968],[-104.63106,31.65541],[-104.63432,31.65371],[-104.63891,31.65353],[-104.64077,31.65155],[-104.64447,31.65257],[-104.64724,31.6594],[-104.6488,31.66191],[-104.65025,31.65954],[-104.65584,31.65731],[-104.65876,31.65706],[-104.66624,31.65827],[-104.66635,31.65977],[-104.67088,31.66357],[-104.67271,31.66383],[-104.67485,31.66748],[-104.67861,31.66583],[-104.68232,31.66728],[-104.68745,31.66736],[-104.69301,31.66908],[-104.69555,31.66718],[-104.69931,31.6664],[-104.70013,31.66727],[-104.70422,31.66516],[-104.70559,31.66334],[-104.70661,31.65942],[-104.7053,31.65926],[-104.70156,31.65115],[-104.70249,31.6508],[-104.70085,31.64793],[-104.70212,31.64595],[-104.70238,31.64307],[-104.70479,31.63873],[-104.70878,31.63617],[-104.70955,31.63217],[-104.71154,31.62878],[-104.71605,31.62333],[-104.71412,31.62215],[-104.71148,31.62353],[-104.70575,31.62071],[-104.70102,31.62292],[-104.69915,31.62198],[-104.69925,31.61919],[-104.69601,31.61773],[-104.69304,31.61515],[-104.69767,31.60908],[-104.70089,31.60561],[-104.70232,31.6006],[-104.70068,31.59622],[-104.70118,31.59482],[-104.69885,31.59328],[-104.69773,31.59032],[-104.69727,31.58647],[-104.69499,31.5869],[-104.69536,31.58461],[-104.69389,31.57815],[-104.69453,31.57578],[-104.69653,31.5738],[-104.69534,31.57045],[-104.69679,31.56777],[-104.70245,31.57332],[-104.70366,31.57607],[-104.70567,31.5781],[-104.70964,31.57847],[-104.7164,31.58559],[-104.71454,31.5818],[-104.71729,31.57781],[-104.7219,31.57435],[-104.72217,31.57195],[-104.72393,31.57067],[-104.72442,31.56775],[-104.72658,31.56733],[-104.7284,31.56514],[-104.72935,31.55751],[-104.7285,31.55327],[-104.72855,31.54991],[-104.72741,31.5479],[-104.72869,31.5453],[-104.73422,31.54113],[-104.73937,31.53563],[-104.74096,31.53544],[-104.74311,31.5315],[-104.7449,31.52544],[-104.74968,31.52265],[-104.75039,31.52081],[-104.75971,31.51012],[-104.7597,31.50853],[-104.76698,31.52151],[-104.77352,31.51902],[-104.79862,31.51552],[-104.8003,31.51457],[-104.80318,31.50831],[-104.80138,31.50499],[-104.80257,31.49811],[-104.80424,31.49294],[-104.81502,31.49931],[-104.81819,31.50197],[-104.81976,31.50752],[-104.82998,31.51848],[-104.8323,31.51984],[-104.83476,31.5228],[-104.83599,31.52829],[-104.84005,31.53679],[-104.84198,31.53936],[-104.84532,31.54193],[-104.84976,31.54318],[-104.85724,31.61086],[-104.86436,31.61496],[-104.86691,31.61806],[-104.86807,31.61789],[-104.88163,31.60617],[-104.8904,31.59803],[-104.90434,31.58691],[-104.90525,31.58473],[-104.91309,31.5869],[-104.91382,31.66071],[-104.91446,31.66183],[-104.9675,31.66212],[-104.96785,31.70517],[-105.15476,31.70533],[-105.15476,31.74199],[-105.17559,31.74705],[-105.1771,31.74721],[-105.26748,31.7467],[-105.26576,31.74835],[-105.27215,31.74834],[-105.27304,31.75235],[-105.27339,31.76525],[-105.27384,31.76866],[-105.27483,31.78417],[-105.27029,31.78688],[-105.26963,31.78879],[-105.27045,31.79181],[-105.27522,31.79145],[-105.27617,31.79735],[-105.28149,31.79731],[-105.28167,31.80302],[-105.28049,31.80479],[-105.28144,31.81321],[-105.33917,31.81336],[-105.33913,31.78679],[-105.32879,31.77995],[-105.32231,31.78002],[-105.31917,31.77753],[-105.31195,31.77282],[-105.30816,31.77108],[-105.29378,31.7696],[-105.28575,31.76905],[-105.29769,31.76179],[-105.30158,31.76029],[-105.30344,31.75013],[-105.29379,31.74847],[-105.31682,31.7487],[-105.31869,31.74601],[-105.31767,31.7302],[-105.31623,31.72092],[-105.31939,31.71578],[-105.31977,31.71323],[-105.32575,31.71888],[-105.36189,31.71481],[-105.36749,31.7148],[-105.36901,31.71623],[-105.39468,31.71239],[-105.39899,31.71466],[-105.40599,31.72152],[-105.40899,31.72649],[-105.40883,31.73077],[-105.40998,31.7335],[-105.41537,31.73775],[-105.41891,31.74312],[-105.41964,31.74552],[-105.46235,31.74519],[-105.46467,31.7416],[-105.46522,31.73896],[-105.47999,31.73874],[-105.47979,31.70623],[-105.47958,31.69833],[-105.48417,31.69772],[-105.48411,31.69991],[-105.4807,31.70602],[-105.48009,31.70858],[-105.49905,31.71431],[-105.5364,31.72801],[-105.54032,31.73094],[-105.54693,31.72731],[-105.5543,31.72605],[-105.56177,31.72554],[-105.56616,31.72608],[-105.58463,31.73577],[-105.58469,31.73867],[-105.75546,31.7454],[-105.75535,31.74859],[-105.7501,31.75403]]]}},{"type":"Feature","properties":{"zcta":"79924","d":2201},"geometry":{"type":"Polygon","coordinates":[[[-106.38857,31.89891],[-106.4069,31.87002],[-106.40722,31.87022],[-106.44145,31.86962],[-106.44135,31.87336],[-106.44192,31.89827],[-106.4408,31.89827],[-106.4413,31.91779],[-106.44052,31.92069],[-106.43759,31.92383],[-106.4236,31.93069],[-106.42177,31.92875],[-106.4193,31.92815],[-106.40984,31.92847],[-106.37349,31.92833],[-106.37064,31.92717],[-106.38857,31.89891]]]}},{"type":"Feature","properties":{"zcta":"79938","d":115},"geometry":{"type":"Polygon","coordinates":[[[-106.32347,32.00146],[-106.26786,32.00162],[-106.26736,31.85574],[-106.23381,31.85576],[-106.23384,31.84038],[-106.24361,31.8404],[-106.24379,31.83384],[-106.20563,31.83371],[-106.20463,31.83391],[-106.20493,31.82666],[-106.2001,31.82663],[-106.20032,31.85697],[-106.20074,31.88467],[-106.19973,31.88762],[-106.11635,31.88807],[-106.1135,31.88955],[-106.10272,31.88964],[-106.09992,31.89156],[-106.09971,31.95185],[-106.10044,31.96658],[-106.10026,31.97579],[-106.09679,31.97689],[-106.08916,31.97808],[-106.08037,31.97811],[-106.0726,31.97859],[-106.06782,31.97816],[-106.07267,31.98365],[-106.07857,31.99137],[-106.08107,31.99699],[-106.08299,32.00246],[-105.998,32.00233],[-105.99781,32.0001],[-105.99714,31.937],[-105.99377,31.93976],[-105.99138,31.94028],[-105.98942,31.94264],[-105.98884,31.94638],[-105.98757,31.94629],[-105.98644,31.94868],[-105.9891,31.95171],[-105.99103,31.95712],[-105.98856,31.95513],[-105.9845,31.95525],[-105.98325,31.95954],[-105.97964,31.96109],[-105.97818,31.96405],[-105.97392,31.96433],[-105.96948,31.96237],[-105.96792,31.96486],[-105.96611,31.96565],[-105.96667,31.96748],[-105.96489,31.96724],[-105.95948,31.96438],[-105.95461,31.95922],[-105.95647,31.95774],[-105.95421,31.94926],[-105.95613,31.94538],[-105.95201,31.9435],[-105.95066,31.94104],[-105.94959,31.9428],[-105.94276,31.94106],[-105.93691,31.95277],[-105.93407,31.95709],[-105.9298,31.96032],[-105.91846,31.96243],[-105.91248,31.96317],[-105.90898,31.96305],[-105.89515,31.96383],[-105.88189,31.96412],[-105.88347,31.9596],[-105.88166,31.94956],[-105.87796,31.94476],[-105.87757,31.94206],[-105.87879,31.93558],[-105.87755,31.9317],[-105.87632,31.92304],[-105.87658,31.92],[-105.87339,31.91904],[-105.86581,31.91931],[-105.851,31.91548],[-105.84673,31.91092],[-105.84577,31.90427],[-105.84775,31.89574],[-105.84205,31.89995],[-105.83706,31.90042],[-105.8341,31.90131],[-105.83323,31.90365],[-105.83435,31.90635],[-105.83216,31.90747],[-105.82619,31.90594],[-105.82222,31.90577],[-105.81356,31.90414],[-105.80848,31.90384],[-105.79882,31.90434],[-105.79413,31.90402],[-105.7953,31.9023],[-105.80025,31.89817],[-105.80136,31.89518],[-105.79908,31.89156],[-105.79972,31.88624],[-105.79892,31.88245],[-105.7981,31.88235],[-105.7867,31.88547],[-105.78454,31.8869],[-105.77485,31.88533],[-105.76679,31.88718],[-105.75348,31.88969],[-105.75022,31.88722],[-105.74614,31.88555],[-105.74408,31.88384],[-105.73267,31.87794],[-105.73069,31.87784],[-105.72541,31.87976],[-105.72515,31.88146],[-105.72148,31.88391],[-105.71836,31.8849],[-105.71477,31.8871],[-105.71095,31.88763],[-105.70455,31.89052],[-105.70003,31.89332],[-105.69671,31.89319],[-105.6967,31.89434],[-105.68198,31.90026],[-105.67307,31.90244],[-105.66779,31.90324],[-105.66234,31.90579],[-105.65932,31.90633],[-105.66004,31.90404],[-105.67548,31.86871],[-105.68142,31.85849],[-105.6835,31.85412],[-105.68578,31.85147],[-105.69372,31.84426],[-105.70228,31.84739],[-105.71162,31.84957],[-105.72201,31.85058],[-105.72827,31.85167],[-105.7327,31.85142],[-105.73418,31.85001],[-105.73649,31.85099],[-105.74911,31.85486],[-105.75223,31.85545],[-105.75291,31.8583],[-105.75651,31.85779],[-105.76033,31.85627],[-105.76634,31.8557],[-105.76927,31.85783],[-105.77477,31.85974],[-105.77598,31.85849],[-105.77819,31.85957],[-105.78307,31.86009],[-105.78752,31.86388],[-105.78861,31.86719],[-105.79065,31.86945],[-105.79353,31.87066],[-105.80281,31.87151],[-105.80912,31.87475],[-105.81602,31.87471],[-105.81567,31.86939],[-105.81423,31.86146],[-105.81033,31.84957],[-105.81056,31.84697],[-105.82345,31.84547],[-105.83075,31.84515],[-105.83554,31.84248],[-105.83529,31.83851],[-105.83895,31.83348],[-105.83821,31.83158],[-105.81431,31.82817],[-105.80489,31.82666],[-105.80485,31.82014],[-105.80616,31.8135],[-105.80916,31.80889],[-105.81464,31.80232],[-105.81768,31.79661],[-105.8229,31.78942],[-105.82992,31.78174],[-105.83387,31.77794],[-105.83008,31.77329],[-105.82763,31.76791],[-105.82404,31.76521],[-105.82254,31.76077],[-105.81699,31.75874],[-105.81145,31.75936],[-105.80448,31.758],[-105.80074,31.76366],[-105.79685,31.76439],[-105.79357,31.76302],[-105.79207,31.76099],[-105.78378,31.75965],[-105.7767,31.75721],[-105.77169,31.75416],[-105.76867,31.75311],[-105.75924,31.7534],[-105.75535,31.74859],[-105.75546,31.7454],[-105.89469,31.75093],[-105.89808,31.75261],[-105.90159,31.75307],[-105.90303,31.75427],[-105.90387,31.75759],[-105.90687,31.76036],[-105.91131,31.76122],[-105.91307,31.76368],[-105.91744,31.76507],[-105.91669,31.76684],[-105.92675,31.77585],[-105.93493,31.77924],[-105.9369,31.7792],[-105.94332,31.78217],[-105.94618,31.78293],[-105.95025,31.78127],[-105.95993,31.7816],[-105.96359,31.784],[-105.96574,31.78636],[-105.96782,31.78661],[-105.9686,31.78833],[-105.97072,31.78866],[-105.9728,31.79034],[-105.97516,31.79009],[-105.9808,31.79238],[-105.9669,31.78486],[-105.96034,31.78015],[-105.94762,31.77016],[-105.94245,31.76579],[-105.92578,31.75276],[-105.92587,31.75132],[-105.92998,31.74425],[-105.92996,31.739],[-105.92767,31.72466],[-105.92349,31.71202],[-105.92433,31.70291],[-105.92037,31.69945],[-105.91788,31.69844],[-105.91612,31.69518],[-105.91377,31.69498],[-105.90966,31.69338],[-105.90819,31.69192],[-105.90399,31.69296],[-105.90111,31.69211],[-105.89939,31.69415],[-105.89399,31.69647],[-105.89174,31.6955],[-105.88752,31.69063],[-105.8865,31.68695],[-105.88967,31.67778],[-105.89458,31.67397],[-105.89822,31.67212],[-105.94521,31.68245],[-105.94949,31.68311],[-105.97045,31.68868],[-105.99495,31.70042],[-105.99541,31.74817],[-105.99577,31.75011],[-105.99593,31.78374],[-106.16546,31.78383],[-106.19974,31.7838],[-106.1993,31.75112],[-106.20555,31.75448],[-106.20966,31.75501],[-106.21703,31.75517],[-106.2311,31.75501],[-106.24947,31.75504],[-106.25053,31.75672],[-106.25058,31.76075],[-106.26728,31.76077],[-106.26782,31.79805],[-106.26775,31.80749],[-106.26831,31.81536],[-106.27097,31.81888],[-106.27291,31.81966],[-106.31922,31.83468],[-106.32199,31.83652],[-106.32454,31.84134],[-106.33025,31.85008],[-106.33978,31.86638],[-106.35615,31.89429],[-106.36177,31.89816],[-106.36613,31.89907],[-106.38857,31.89891],[-106.37064,31.92717],[-106.32347,32.00146]]]}},{"type":"Feature","properties":{"zcta":"79903","d":2461},"geometry":{"type":"Polygon","coordinates":[[[-106.47127,31.77701],[-106.46504,31.78346],[-106.45682,31.78805],[-106.45034,31.79259],[-106.44313,31.80125],[-106.43609,31.80126],[-106.4313,31.79702],[-106.43071,31.79495],[-106.42007,31.7891],[-106.41762,31.7891],[-106.41788,31.78715],[-106.42017,31.78706],[-106.42004,31.7837],[-106.42298,31.7837],[-106.42007,31.78183],[-106.42212,31.77772],[-106.42324,31.77753],[-106.44648,31.77762],[-106.45089,31.7782],[-106.46148,31.77827],[-106.46376,31.77792],[-106.47348,31.77197],[-106.47345,31.77674],[-106.47127,31.77701]]]}},{"type":"Feature","properties":{"zcta":"79839","d":1},"geometry":{"type":"Polygon","coordinates":[[[-105.97227,31.40831],[-105.97207,31.40849],[-105.94968,31.39592],[-105.94823,31.39497],[-105.92566,31.3824],[-105.92167,31.37902],[-105.88193,31.33247],[-105.87741,31.32856],[-105.83984,31.30423],[-105.80041,31.27883],[-105.79747,31.27594],[-105.79463,31.27001],[-105.78948,31.24959],[-105.78975,31.24953],[-105.78723,31.23942],[-105.78426,31.23476],[-105.71141,31.17921],[-105.70822,31.17775],[-105.69705,31.17619],[-105.69626,31.17775],[-105.69169,31.17905],[-105.68952,31.18091],[-105.68789,31.1839],[-105.68243,31.18937],[-105.67448,31.19935],[-105.67102,31.20327],[-105.6685,31.2052],[-105.66412,31.21234],[-105.65495,31.22343],[-105.65383,31.21914],[-105.65358,31.21407],[-105.65251,31.21115],[-105.65016,31.20826],[-105.64947,31.206],[-105.64884,31.1946],[-105.64299,31.18937],[-105.63712,31.1951],[-105.62839,31.20428],[-105.62385,31.2117],[-105.62055,31.21835],[-105.61751,31.22566],[-105.61815,31.22905],[-105.61583,31.23462],[-105.60852,31.24838],[-105.61419,31.25344],[-105.61193,31.25787],[-105.62207,31.25783],[-105.63001,31.25879],[-105.63337,31.26051],[-105.63359,31.26235],[-105.63549,31.26438],[-105.63881,31.26577],[-105.63703,31.26972],[-105.63741,31.2715],[-105.63442,31.27222],[-105.63577,31.27554],[-105.63735,31.28401],[-105.63684,31.28629],[-105.64147,31.29447],[-105.64154,31.29644],[-105.64387,31.29721],[-105.64952,31.303],[-105.64981,31.30603],[-105.65423,31.31706],[-105.65572,31.31856],[-105.65518,31.32603],[-105.65817,31.3358],[-105.65812,31.34071],[-105.65635,31.34748],[-105.65488,31.34966],[-105.65825,31.34876],[-105.66146,31.34985],[-105.6696,31.3514],[-105.67357,31.35108],[-105.6765,31.35289],[-105.6767,31.35528],[-105.67944,31.35759],[-105.68024,31.36013],[-105.68294,31.36225],[-105.68404,31.3646],[-105.68796,31.36972],[-105.68328,31.37539],[-105.69472,31.37404],[-105.70717,31.37367],[-105.70897,31.36009],[-105.72658,31.35816],[-105.73461,31.35702],[-105.73585,31.35726],[-105.73635,31.3608],[-105.74115,31.36486],[-105.7523,31.37844],[-105.7552,31.38275],[-105.75911,31.38717],[-105.75348,31.38973],[-105.74662,31.39457],[-105.74042,31.39766],[-105.73304,31.40256],[-105.73105,31.40464],[-105.7435,31.40457],[-105.7423,31.40644],[-105.72777,31.44125],[-105.72794,31.44235],[-105.73775,31.44252],[-105.75228,31.44336],[-105.75274,31.44186],[-105.75499,31.44185],[-105.7579,31.4459],[-105.77602,31.45765],[-105.77709,31.45803],[-105.80308,31.47718],[-105.80457,31.47758],[-105.81357,31.47567],[-105.8204,31.47302],[-105.83329,31.46871],[-105.83752,31.46827],[-105.84489,31.4663],[-105.84663,31.46765],[-105.84695,31.4729],[-105.84487,31.47817],[-105.86732,31.47895],[-105.85851,31.48895],[-105.84883,31.52112],[-105.85416,31.52739],[-105.85691,31.53198],[-105.84597,31.53557],[-105.83085,31.54298],[-105.8274,31.54357],[-105.81927,31.56691],[-105.81748,31.5703],[-105.81778,31.5746],[-105.81949,31.5754],[-105.81548,31.57869],[-105.80802,31.58723],[-105.80295,31.59356],[-105.79712,31.59849],[-105.78735,31.60278],[-105.78329,31.60543],[-105.78524,31.61102],[-105.78284,31.61382],[-105.78242,31.62209],[-105.78022,31.62844],[-105.77967,31.63463],[-105.77592,31.64332],[-105.77116,31.65225],[-105.76368,31.65521],[-105.74101,31.66041],[-105.73981,31.65558],[-105.7386,31.65313],[-105.73566,31.64987],[-105.73792,31.64553],[-105.73945,31.64399],[-105.73946,31.64066],[-105.74039,31.63802],[-105.74427,31.63316],[-105.74442,31.63139],[-105.74712,31.62566],[-105.74811,31.6215],[-105.75005,31.61662],[-105.74985,31.61556],[-105.72501,31.57358],[-105.72457,31.57223],[-105.72363,31.55481],[-105.72242,31.54627],[-105.72137,31.5341],[-105.72519,31.52643],[-105.72873,31.52043],[-105.72787,31.52006],[-105.72213,31.52461],[-105.71522,31.52392],[-105.7143,31.52042],[-105.71734,31.51232],[-105.71834,31.5082],[-105.71861,31.49994],[-105.71723,31.49364],[-105.71713,31.48875],[-105.71509,31.48392],[-105.70976,31.47971],[-105.70758,31.47941],[-105.70565,31.47677],[-105.70256,31.47469],[-105.69529,31.46863],[-105.6942,31.46574],[-105.69076,31.46089],[-105.67013,31.4578],[-105.665,31.4593],[-105.6599,31.45797],[-105.65662,31.45538],[-105.65218,31.45385],[-105.64463,31.45611],[-105.64026,31.45662],[-105.63543,31.45514],[-105.62983,31.45508],[-105.6277,31.45351],[-105.62893,31.44927],[-105.62766,31.44665],[-105.62018,31.44339],[-105.61628,31.44085],[-105.61224,31.44028],[-105.6063,31.44119],[-105.60129,31.44252],[-105.5963,31.44866],[-105.59237,31.45488],[-105.59113,31.45313],[-105.58533,31.44974],[-105.58021,31.45032],[-105.57645,31.45263],[-105.57098,31.46125],[-105.56785,31.4632],[-105.56324,31.46343],[-105.55611,31.46579],[-105.55761,31.47076],[-105.552,31.47197],[-105.54524,31.47246],[-105.53313,31.47274],[-105.52043,31.47191],[-105.51445,31.46998],[-105.50378,31.46818],[-105.50126,31.46881],[-105.49337,31.46899],[-105.49448,31.42387],[-105.49967,31.42082],[-105.50525,31.41816],[-105.50863,31.4153],[-105.50986,31.41528],[-105.52954,31.41174],[-105.53356,31.41072],[-105.54007,31.41034],[-105.54775,31.40663],[-105.54899,31.40545],[-105.5491,31.40276],[-105.54814,31.39504],[-105.55316,31.3907],[-105.55394,31.38651],[-105.55142,31.38304],[-105.54998,31.37992],[-105.54755,31.37688],[-105.54078,31.37434],[-105.53646,31.37375],[-105.53066,31.37206],[-105.52676,31.37299],[-105.52419,31.3708],[-105.52188,31.37011],[-105.52127,31.3633],[-105.52163,31.36188],[-105.51926,31.3609],[-105.51865,31.35543],[-105.51631,31.35254],[-105.51705,31.35141],[-105.51491,31.35009],[-105.51228,31.34707],[-105.50926,31.34647],[-105.50832,31.34478],[-105.50987,31.34403],[-105.50959,31.33825],[-105.51191,31.33419],[-105.50996,31.33092],[-105.51023,31.32717],[-105.50756,31.32413],[-105.50825,31.32203],[-105.50385,31.31827],[-105.50558,31.31596],[-105.50402,31.31364],[-105.50498,31.31312],[-105.50204,31.30936],[-105.50289,31.30591],[-105.50158,31.30282],[-105.50211,31.30109],[-105.5052,31.30184],[-105.51162,31.30813],[-105.51702,31.29298],[-105.52096,31.28374],[-105.52086,31.28042],[-105.51892,31.2768],[-105.5212,31.27142],[-105.52421,31.26975],[-105.52763,31.27139],[-105.53523,31.26771],[-105.53356,31.26623],[-105.52868,31.26531],[-105.51829,31.25787],[-105.5152,31.25618],[-105.49921,31.24508],[-105.49978,31.23171],[-105.50051,31.21025],[-105.52792,31.19451],[-105.53195,31.19316],[-105.53459,31.1932],[-105.54576,31.19525],[-105.56488,31.19673],[-105.58586,31.19728],[-105.59132,31.1972],[-105.60606,31.19289],[-105.60995,31.19125],[-105.61827,31.18465],[-105.62101,31.18309],[-105.65643,31.17167],[-105.65586,31.16935],[-105.65748,31.16342],[-105.65792,31.15909],[-105.65612,31.14848],[-105.65231,31.13897],[-105.64747,31.13131],[-105.63552,31.12377],[-105.63071,31.11973],[-105.61991,31.10821],[-105.61482,31.10372],[-105.59955,31.09088],[-105.59333,31.08465],[-105.58891,31.07704],[-105.57962,31.06583],[-105.57875,31.06423],[-105.57587,31.04775],[-105.576,31.04427],[-105.57495,31.04189],[-105.5745,31.03805],[-105.57986,31.03666],[-105.58485,31.05633],[-105.5886,31.06055],[-105.59592,31.06484],[-105.59877,31.07493],[-105.60333,31.08263],[-105.6061,31.08503],[-105.62735,31.09855],[-105.63983,31.09765],[-105.64259,31.09937],[-105.64673,31.11391],[-105.64883,31.1159],[-105.66912,31.12311],[-105.67942,31.12603],[-105.70949,31.13638],[-105.71618,31.14057],[-105.71752,31.14242],[-105.7183,31.14721],[-105.71954,31.14916],[-105.74156,31.16438],[-105.74443,31.16536],[-105.76353,31.16412],[-105.76956,31.16488],[-105.77326,31.1669],[-105.77613,31.17652],[-105.78002,31.18267],[-105.77972,31.19128],[-105.78289,31.19756],[-105.78468,31.19898],[-105.79439,31.20224],[-105.81883,31.23068],[-105.83572,31.24681],[-105.85051,31.26527],[-105.85406,31.27275],[-105.85846,31.27611],[-105.86916,31.28882],[-105.87511,31.29149],[-105.87809,31.29154],[-105.89087,31.29001],[-105.89459,31.29101],[-105.8967,31.29312],[-105.9021,31.30373],[-105.90347,31.30699],[-105.90877,31.31277],[-105.9142,31.31304],[-105.92209,31.31198],[-105.93255,31.31312],[-105.93845,31.31874],[-105.94781,31.33987],[-105.94783,31.34116],[-105.9455,31.35072],[-105.94585,31.35321],[-105.95379,31.36475],[-105.9556,31.3653],[-105.96871,31.36562],[-105.9701,31.36594],[-105.98205,31.37587],[-105.99713,31.38725],[-105.97227,31.40831]]]}},{"type":"Feature","properties":{"zcta":"79851","d":0},"geometry":{"type":"Polygon","coordinates":[[[-105.49849,31.2316],[-105.48673,31.23427],[-105.48366,31.23384],[-105.48082,31.23189],[-105.47987,31.22998],[-105.48048,31.22737],[-105.47876,31.22497],[-105.47477,31.22342],[-105.47244,31.22169],[-105.46753,31.22137],[-105.46195,31.21777],[-105.46095,31.21367],[-105.45985,31.21392],[-105.45409,31.20809],[-105.44152,31.19805],[-105.43704,31.19525],[-105.43422,31.19434],[-105.41939,31.19077],[-105.41819,31.19354],[-105.41861,31.20148],[-105.41781,31.20511],[-105.41442,31.2085],[-105.40546,31.21231],[-105.40244,31.21508],[-105.40143,31.21762],[-105.40184,31.22319],[-105.40071,31.22278],[-105.39694,31.22609],[-105.39395,31.23014],[-105.39851,31.23235],[-105.39549,31.23716],[-105.39553,31.24087],[-105.39667,31.24305],[-105.39274,31.24483],[-105.38494,31.24931],[-105.37986,31.25147],[-105.37299,31.25064],[-105.36586,31.25215],[-105.36147,31.25195],[-105.35562,31.25003],[-105.35029,31.24993],[-105.35199,31.25465],[-105.34889,31.26073],[-105.34675,31.26349],[-105.34258,31.26592],[-105.33887,31.2665],[-105.33404,31.26565],[-105.33444,31.27007],[-105.33929,31.27549],[-105.33976,31.27811],[-105.33831,31.28204],[-105.33419,31.29008],[-105.33403,31.30717],[-105.31653,31.31756],[-105.31212,31.31749],[-105.30651,31.31934],[-105.30536,31.32452],[-105.30295,31.32891],[-105.29463,31.33533],[-105.29302,31.33726],[-105.28741,31.33745],[-105.27602,31.34505],[-105.26521,31.34934],[-105.26141,31.3519],[-105.25842,31.35283],[-105.25384,31.36331],[-105.23234,31.40258],[-105.23026,31.41133],[-105.22714,31.41849],[-105.22687,31.42511],[-105.22573,31.43149],[-105.22632,31.44554],[-105.22599,31.4478],[-105.22188,31.461],[-105.2212,31.4744],[-105.22159,31.47544],[-105.23687,31.48127],[-105.25283,31.48377],[-105.27016,31.48327],[-105.28854,31.48396],[-105.30132,31.48359],[-105.30389,31.48384],[-105.30665,31.49292],[-105.30925,31.49603],[-105.31034,31.49947],[-105.31041,31.50827],[-105.30873,31.51345],[-105.30864,31.51556],[-105.31073,31.52114],[-105.31329,31.52319],[-105.32431,31.52934],[-105.32694,31.53042],[-105.33055,31.53059],[-105.33342,31.52991],[-105.33668,31.52759],[-105.33874,31.52487],[-105.34161,31.5191],[-105.34473,31.51388],[-105.35244,31.51415],[-105.35729,31.56398],[-105.35317,31.5644],[-105.33865,31.56662],[-105.33665,31.56999],[-105.33446,31.57594],[-105.33138,31.57958],[-105.33007,31.58273],[-105.32584,31.58217],[-105.32119,31.58367],[-105.31761,31.58415],[-105.30913,31.58332],[-105.29901,31.5804],[-105.29624,31.57723],[-105.29258,31.5745],[-105.28753,31.57254],[-105.28247,31.57304],[-105.27969,31.57457],[-105.27287,31.58082],[-105.26961,31.5792],[-105.266,31.57504],[-105.23681,31.56166],[-105.23307,31.56172],[-105.19381,31.56421],[-105.1863,31.5639],[-105.1819,31.56254],[-105.17863,31.56517],[-105.17591,31.56371],[-105.17111,31.56395],[-105.16749,31.56551],[-105.16467,31.56836],[-105.16499,31.57602],[-105.16624,31.57871],[-105.16963,31.57898],[-105.16767,31.58232],[-105.16694,31.58525],[-105.1645,31.58762],[-105.16292,31.58526],[-105.15913,31.5849],[-105.15801,31.58388],[-105.15851,31.57898],[-105.15799,31.57806],[-105.16088,31.57287],[-105.1586,31.57122],[-105.15872,31.56935],[-105.15597,31.56843],[-105.15447,31.5663],[-105.15524,31.53531],[-105.1679,31.53513],[-105.16788,31.49226],[-105.17525,31.46668],[-105.16787,31.46532],[-105.16781,31.41744],[-105.16029,31.41375],[-105.14907,31.40599],[-105.14995,31.41184],[-105.14854,31.41573],[-105.1479,31.42038],[-105.14425,31.42326],[-105.14038,31.42516],[-105.1343,31.42501],[-105.10008,31.4257],[-105.097,31.43082],[-105.09386,31.43444],[-105.08509,31.44103],[-105.08328,31.44466],[-105.08181,31.44492],[-105.0793,31.43987],[-105.07767,31.43802],[-105.07318,31.43473],[-105.07391,31.43368],[-105.06928,31.42833],[-105.06428,31.42336],[-105.06107,31.42094],[-105.05765,31.42593],[-105.05596,31.42731],[-105.053,31.42767],[-105.05086,31.42617],[-105.04403,31.4307],[-105.04371,31.43219],[-105.0407,31.4354],[-105.04196,31.43797],[-105.04007,31.44069],[-105.03645,31.44233],[-105.03646,31.44349],[-105.03987,31.44473],[-105.04391,31.4453],[-105.04518,31.44796],[-105.04768,31.44994],[-105.04635,31.45244],[-105.03494,31.45169],[-105.02931,31.45075],[-105.0318,31.44872],[-105.02816,31.44612],[-105.02404,31.44436],[-105.02021,31.44407],[-105.00879,31.44101],[-104.99658,31.43623],[-104.9897,31.43553],[-104.99023,31.43274],[-104.99628,31.42801],[-105.00136,31.42729],[-105.00167,31.42597],[-105.0067,31.42027],[-105.00936,31.41431],[-105.01191,31.41137],[-105.01492,31.40924],[-105.01539,31.40633],[-105.01982,31.40231],[-105.02097,31.39674],[-105.02746,31.38791],[-105.02731,31.38433],[-105.02871,31.38554],[-105.03266,31.38533],[-105.03795,31.38234],[-105.04608,31.38297],[-105.05553,31.38535],[-105.06483,31.38803],[-105.08296,31.38863],[-105.08297,31.37631],[-105.07503,31.36385],[-105.0731,31.35874],[-105.07133,31.35726],[-105.07162,31.35393],[-105.06153,31.34838],[-105.06061,31.34488],[-105.06588,31.3412],[-105.0659,31.33515],[-105.06422,31.32561],[-105.06148,31.32221],[-105.06005,31.31698],[-105.05715,31.3097],[-105.04535,31.30941],[-105.04517,31.31323],[-105.04133,31.31774],[-105.0378,31.31154],[-105.03812,31.30771],[-105.03643,31.29873],[-105.03471,31.29576],[-105.03103,31.29235],[-105.03104,31.28974],[-105.02404,31.2897],[-105.02,31.28496],[-105.01718,31.27925],[-105.01897,31.27707],[-105.0241,31.2784],[-105.02703,31.27829],[-105.03132,31.28009],[-105.05263,31.28015],[-105.05257,31.2772],[-105.05459,31.26106],[-105.05454,31.25927],[-105.05646,31.25754],[-105.06164,31.25514],[-105.06545,31.25972],[-105.06744,31.26033],[-105.07215,31.25852],[-105.07652,31.25812],[-105.07794,31.25336],[-105.0818,31.24944],[-105.0867,31.25036],[-105.09818,31.25665],[-105.11065,31.26856],[-105.11203,31.27058],[-105.11034,31.27529],[-105.11171,31.27806],[-105.11517,31.2811],[-105.11602,31.28431],[-105.12249,31.28514],[-105.12867,31.28712],[-105.14258,31.29747],[-105.14505,31.30102],[-105.15019,31.30558],[-105.15105,31.30812],[-105.1565,31.30501],[-105.16515,31.30405],[-105.16974,31.30313],[-105.18799,31.29746],[-105.21681,31.29357],[-105.21812,31.29323],[-105.22333,31.28843],[-105.22695,31.28644],[-105.23432,31.28026],[-105.23758,31.27873],[-105.24322,31.27415],[-105.31222,31.21385],[-105.31468,31.20797],[-105.31949,31.20748],[-105.31951,31.16479],[-105.16795,31.11987],[-105.15025,31.11457],[-105.01369,31.08045],[-105.01171,31.0796],[-104.98254,31.0725],[-104.96896,31.06884],[-104.9623,31.06657],[-104.95933,31.06338],[-104.95544,31.06143],[-104.95163,31.05757],[-104.94657,31.05666],[-104.94255,31.05827],[-104.93526,31.05869],[-104.93076,31.05617],[-104.92794,31.0556],[-104.91649,31.05679],[-104.90881,31.05666],[-104.90886,31.03753],[-104.91314,31.04035],[-104.92164,31.04525],[-104.92518,31.04152],[-104.93182,31.03924],[-104.93455,31.03902],[-104.93849,31.03619],[-104.93966,31.03685],[-104.9396,31.03394],[-104.94482,31.03057],[-104.94498,31.02905],[-104.94762,31.02684],[-104.95145,31.02507],[-104.95387,31.02478],[-104.9557,31.02244],[-104.96101,31.01919],[-104.96752,31.01818],[-104.97059,31.01696],[-104.9738,31.01732],[-104.97451,31.01509],[-104.9831,31.01349],[-104.98754,31.01307],[-104.99159,31.01431],[-104.99729,31.02124],[-104.99958,31.03014],[-104.99742,31.03501],[-104.99405,31.03802],[-104.99473,31.0393],[-105.00009,31.04038],[-105.01078,31.04376],[-105.01299,31.0331],[-105.0211,31.03564],[-105.02347,31.03422],[-105.03139,31.02469],[-105.03547,31.02668],[-105.03813,31.02929],[-105.04393,31.03246],[-105.04884,31.0375],[-105.05603,31.04066],[-105.05885,31.04381],[-105.06186,31.04372],[-105.06532,31.04612],[-105.07324,31.04961],[-105.07891,31.05145],[-105.08262,31.05451],[-105.08559,31.05868],[-105.0906,31.061],[-105.09337,31.06069],[-105.10022,31.06356],[-105.10236,31.06066],[-105.11078,31.06159],[-105.113,31.06305],[-105.11378,31.06669],[-105.11338,31.08184],[-105.11471,31.08271],[-105.13525,31.08085],[-105.12896,31.10506],[-105.14007,31.10832],[-105.16798,31.11519],[-105.16816,31.08593],[-105.12488,31.06507],[-105.13423,31.05938],[-105.1352,31.05829],[-105.13473,31.05405],[-105.1363,31.03975],[-105.15217,31.04289],[-105.15627,31.03957],[-105.16568,31.04663],[-105.16773,31.04753],[-105.1677,31.04598],[-105.18086,31.04857],[-105.21623,31.04326],[-105.22279,31.04724],[-105.22741,31.04879],[-105.23039,31.04813],[-105.23381,31.0454],[-105.23381,31.04086],[-105.2386,31.04596],[-105.24605,31.05468],[-105.24562,31.05698],[-105.24151,31.05908],[-105.24135,31.0604],[-105.23761,31.0645],[-105.24091,31.0712],[-105.24772,31.07624],[-105.24997,31.08021],[-105.24934,31.08732],[-105.24383,31.09244],[-105.2396,31.09413],[-105.24637,31.10046],[-105.24069,31.10405],[-105.24303,31.10625],[-105.25084,31.10753],[-105.25426,31.10879],[-105.26337,31.11505],[-105.26911,31.11056],[-105.26911,31.11154],[-105.27633,31.13676],[-105.27935,31.13736],[-105.28445,31.12271],[-105.28371,31.11293],[-105.29471,31.11246],[-105.29472,31.11345],[-105.30166,31.12309],[-105.30177,31.12452],[-105.30394,31.12619],[-105.31035,31.13477],[-105.31293,31.13218],[-105.31432,31.13224],[-105.31882,31.13671],[-105.32262,31.13823],[-105.32601,31.13758],[-105.32996,31.13782],[-105.33396,31.13549],[-105.33567,31.1385],[-105.33911,31.14133],[-105.35311,31.14138],[-105.35316,31.12867],[-105.35429,31.12712],[-105.36877,31.12015],[-105.37516,31.11551],[-105.40375,31.10285],[-105.41165,31.09784],[-105.42119,31.09851],[-105.43115,31.08625],[-105.43407,31.08528],[-105.43858,31.08549],[-105.4427,31.0865],[-105.44481,31.08439],[-105.4474,31.08538],[-105.45122,31.08508],[-105.45284,31.08059],[-105.45678,31.07841],[-105.46089,31.07714],[-105.46216,31.07594],[-105.46767,31.07524],[-105.47041,31.07386],[-105.47274,31.07451],[-105.47838,31.06914],[-105.48149,31.07441],[-105.48451,31.07601],[-105.48502,31.07955],[-105.48396,31.08315],[-105.48606,31.08268],[-105.49123,31.08367],[-105.49687,31.08268],[-105.50315,31.07844],[-105.5059,31.07757],[-105.50836,31.07547],[-105.51277,31.07365],[-105.51666,31.07359],[-105.52479,31.07044],[-105.52774,31.0671],[-105.53238,31.06393],[-105.53545,31.0666],[-105.55483,31.08615],[-105.55133,31.09178],[-105.54676,31.09378],[-105.54515,31.09717],[-105.5385,31.10036],[-105.53441,31.10013],[-105.53106,31.10105],[-105.53446,31.104],[-105.5362,31.10781],[-105.53394,31.11306],[-105.53383,31.11641],[-105.53131,31.12078],[-105.52984,31.12867],[-105.53116,31.12867],[-105.53356,31.13198],[-105.53844,31.13637],[-105.53748,31.14352],[-105.53523,31.14657],[-105.53328,31.14769],[-105.53174,31.1504],[-105.53659,31.15668],[-105.53883,31.15784],[-105.55211,31.16287],[-105.55415,31.16284],[-105.56575,31.15908],[-105.57218,31.15211],[-105.57866,31.1414],[-105.58079,31.13857],[-105.58358,31.14006],[-105.59121,31.13289],[-105.59325,31.13479],[-105.59684,31.13406],[-105.59796,31.13576],[-105.59848,31.14078],[-105.60057,31.14257],[-105.60245,31.14224],[-105.60711,31.1387],[-105.60712,31.14091],[-105.60526,31.14592],[-105.60346,31.15715],[-105.60102,31.16538],[-105.59662,31.1769],[-105.59447,31.18095],[-105.59955,31.17719],[-105.601,31.17397],[-105.60525,31.16897],[-105.60996,31.16627],[-105.61549,31.15886],[-105.619,31.15674],[-105.62054,31.15359],[-105.62341,31.15271],[-105.62811,31.14891],[-105.6308,31.14856],[-105.63618,31.14421],[-105.63859,31.14375],[-105.63934,31.1423],[-105.61994,31.12896],[-105.61431,31.12449],[-105.60521,31.11883],[-105.60715,31.11641],[-105.60917,31.11564],[-105.60802,31.1133],[-105.6102,31.10843],[-105.61332,31.10617],[-105.61482,31.10372],[-105.61991,31.10821],[-105.63071,31.11973],[-105.63552,31.12377],[-105.64747,31.13131],[-105.65231,31.13897],[-105.65612,31.14848],[-105.65792,31.15909],[-105.65748,31.16342],[-105.65586,31.16935],[-105.65643,31.17167],[-105.62101,31.18309],[-105.61827,31.18465],[-105.60995,31.19125],[-105.60606,31.19289],[-105.59132,31.1972],[-105.58586,31.19728],[-105.56488,31.19673],[-105.54576,31.19525],[-105.53459,31.1932],[-105.53195,31.19316],[-105.52792,31.19451],[-105.50051,31.21025],[-105.49978,31.23171],[-105.49849,31.2316]]]}},{"type":"Feature","properties":{"zcta":"79918","d":0},"geometry":{"type":"Polygon","coordinates":[[[-106.33025,31.85008],[-106.32454,31.84134],[-106.32487,31.84133],[-106.33709,31.84108],[-106.34202,31.84135],[-106.34284,31.84229],[-106.34883,31.84301],[-106.35273,31.8467],[-106.36709,31.83658],[-106.36868,31.82923],[-106.3715,31.82721],[-106.38886,31.82679],[-106.38889,31.82926],[-106.3908,31.82926],[-106.3909,31.83253],[-106.39569,31.83241],[-106.40129,31.82758],[-106.40342,31.82686],[-106.40343,31.82794],[-106.41322,31.82773],[-106.41325,31.82943],[-106.41506,31.82994],[-106.41517,31.83352],[-106.40528,31.83367],[-106.40536,31.84044],[-106.39938,31.84592],[-106.39683,31.84581],[-106.39767,31.84741],[-106.3847,31.85898],[-106.37659,31.8592],[-106.36403,31.87032],[-106.35718,31.87009],[-106.35397,31.86735],[-106.35774,31.864],[-106.35739,31.86072],[-106.35394,31.86089],[-106.35406,31.85985],[-106.34797,31.86189],[-106.34582,31.86354],[-106.33978,31.86638],[-106.33025,31.85008]]]}},{"type":"Feature","properties":{"zcta":"79920","d":0},"geometry":{"type":"Polygon","coordinates":[[[-106.45569,31.82568],[-106.45107,31.82566],[-106.45072,31.82492],[-106.45662,31.82402],[-106.45843,31.82262],[-106.46149,31.82246],[-106.46141,31.81828],[-106.46433,31.81826],[-106.46434,31.82316],[-106.46164,31.82461],[-106.45569,31.82568]]]}},{"type":"Feature","properties":{"zcta":"79838","d":0},"geometry":{"type":"Polygon","coordinates":[[[-106.23055,31.53182],[-106.23125,31.53325],[-106.22628,31.53332],[-106.22104,31.52854],[-106.2175,31.53081],[-106.21554,31.52824],[-106.20227,31.51621],[-106.19528,31.51102],[-106.18985,31.50883],[-106.17806,31.50963],[-106.1826,31.51208],[-106.18045,31.51834],[-106.19442,31.52686],[-106.1985,31.52983],[-106.19492,31.53414],[-106.19784,31.53641],[-106.19251,31.54042],[-106.18344,31.54619],[-106.18478,31.54785],[-106.18212,31.54982],[-106.17979,31.54756],[-106.16967,31.55461],[-106.17903,31.56678],[-106.16777,31.56656],[-106.13125,31.51937],[-106.13574,31.51691],[-106.1447,31.51266],[-106.14235,31.51045],[-106.14239,31.50209],[-106.13845,31.4976],[-106.1452,31.49157],[-106.12714,31.47672],[-106.13153,31.47309],[-106.13243,31.46833],[-106.13136,31.46405],[-106.13278,31.45884],[-106.12821,31.45628],[-106.11944,31.45357],[-106.12115,31.45005],[-106.12071,31.44726],[-106.12174,31.44517],[-106.12613,31.44497],[-106.12782,31.43903],[-106.12379,31.43215],[-106.12393,31.42373],[-106.12967,31.42435],[-106.13278,31.42537],[-106.15423,31.43572],[-106.15927,31.43919],[-106.16607,31.44696],[-106.17028,31.45129],[-106.17562,31.45521],[-106.1803,31.45711],[-106.19434,31.46066],[-106.19961,31.46231],[-106.20325,31.46401],[-106.20883,31.46835],[-106.21729,31.4779],[-106.21711,31.48099],[-106.21362,31.48584],[-106.21422,31.48894],[-106.21037,31.49117],[-106.20812,31.49157],[-106.21392,31.50013],[-106.21528,31.501],[-106.23006,31.51769],[-106.22915,31.51879],[-106.23694,31.52763],[-106.23055,31.53182]]]}},{"type":"Feature","properties":{"zcta":"79912","d":1557},"geometry":{"type":"Polygon","coordinates":[[[-106.57922,31.90835],[-106.56646,31.90735],[-106.5677,31.90468],[-106.57209,31.90186],[-106.57458,31.89769],[-106.57455,31.89542],[-106.57048,31.88095],[-106.56963,31.87951],[-106.56173,31.8801],[-106.55639,31.87944],[-106.55136,31.88042],[-106.54933,31.88158],[-106.54848,31.88018],[-106.53988,31.88149],[-106.53553,31.87944],[-106.5187,31.8794],[-106.5203,31.88477],[-106.50834,31.8847],[-106.5083,31.88349],[-106.50393,31.88352],[-106.50064,31.88021],[-106.49724,31.87852],[-106.49494,31.86891],[-106.49365,31.86146],[-106.49374,31.85071],[-106.49542,31.84851],[-106.49737,31.84331],[-106.49734,31.83913],[-106.48982,31.82711],[-106.48859,31.82281],[-106.48843,31.81591],[-106.48732,31.8126],[-106.48396,31.80671],[-106.48344,31.80321],[-106.50015,31.80482],[-106.49581,31.80591],[-106.49573,31.80945],[-106.50283,31.80939],[-106.50407,31.80864],[-106.50321,31.80512],[-106.50488,31.80511],[-106.50588,31.80227],[-106.50996,31.79887],[-106.51227,31.79969],[-106.51201,31.80554],[-106.52307,31.80698],[-106.52513,31.80854],[-106.52853,31.80944],[-106.54245,31.80967],[-106.54494,31.81077],[-106.56702,31.83306],[-106.57016,31.8393],[-106.57206,31.84446],[-106.57434,31.85256],[-106.58236,31.88531],[-106.58265,31.88735],[-106.58268,31.90836],[-106.57922,31.90835]]]}},{"type":"Feature","properties":{"zcta":"79907","d":1712},"geometry":{"type":"Polygon","coordinates":[[[-106.32484,31.73986],[-106.29309,31.70944],[-106.28412,31.70135],[-106.29643,31.6878],[-106.2992,31.68589],[-106.30816,31.68236],[-106.31245,31.67992],[-106.31131,31.67865],[-106.30727,31.6813],[-106.30573,31.67886],[-106.31131,31.67744],[-106.31496,31.67587],[-106.31422,31.6747],[-106.31765,31.67444],[-106.31517,31.67006],[-106.31646,31.6694],[-106.31976,31.67425],[-106.32263,31.67383],[-106.32339,31.67578],[-106.33266,31.67348],[-106.33602,31.67465],[-106.33638,31.67176],[-106.33795,31.6712],[-106.34954,31.69671],[-106.35701,31.70219],[-106.36832,31.70953],[-106.36643,31.71373],[-106.36512,31.7131],[-106.36408,31.71559],[-106.36511,31.7159],[-106.36388,31.71878],[-106.36209,31.71987],[-106.3569,31.7192],[-106.35327,31.72077],[-106.3514,31.7228],[-106.34991,31.72719],[-106.34644,31.7297],[-106.34406,31.73311],[-106.34581,31.73848],[-106.34519,31.74226],[-106.34553,31.75236],[-106.34525,31.75268],[-106.32484,31.73986]]]}},{"type":"Feature","properties":{"zcta":"79849","d":435},"geometry":{"type":"MultiPolygon","coordinates":[[[[-106.23694,31.52763],[-106.22915,31.51879],[-106.23006,31.51769],[-106.21528,31.501],[-106.21392,31.50013],[-106.20812,31.49157],[-106.21037,31.49117],[-106.21422,31.48894],[-106.21362,31.48584],[-106.21711,31.48099],[-106.21729,31.4779],[-106.21962,31.48156],[-106.22366,31.49842],[-106.22539,31.50185],[-106.23558,31.51163],[-106.23746,31.51446],[-106.24165,31.52774],[-106.23694,31.52763]]],[[[-106.25937,31.61005],[-106.25881,31.60815],[-106.24981,31.59036],[-106.24676,31.58471],[-106.23784,31.58583],[-106.23556,31.57976],[-106.2312,31.57543],[-106.23555,31.57247],[-106.21339,31.5489],[-106.21435,31.54739],[-106.21387,31.54177],[-106.2188,31.54334],[-106.22888,31.54329],[-106.23099,31.54024],[-106.24177,31.54123],[-106.24757,31.54272],[-106.25478,31.548],[-106.27959,31.56114],[-106.28114,31.56267],[-106.28874,31.58716],[-106.29294,31.59433],[-106.29567,31.60104],[-106.25937,31.61005]]]]}},{"type":"Feature","properties":{"zcta":"79934","d":214},"geometry":{"type":"Polygon","coordinates":[[[-106.41107,32.00133],[-106.3943,32.00148],[-106.37686,32.00117],[-106.32347,32.00146],[-106.37064,31.92717],[-106.37349,31.92833],[-106.40984,31.92847],[-106.4193,31.92815],[-106.42177,31.92875],[-106.4236,31.93069],[-106.43759,31.92383],[-106.44052,31.92069],[-106.4413,31.91779],[-106.4408,31.89827],[-106.44192,31.89827],[-106.44135,31.87336],[-106.44145,31.86962],[-106.45704,31.8694],[-106.49033,31.86851],[-106.49034,31.8693],[-106.49494,31.86891],[-106.49724,31.87852],[-106.49722,31.88321],[-106.49624,31.91567],[-106.49513,31.94887],[-106.49673,31.95579],[-106.49623,31.96172],[-106.49914,31.97156],[-106.50564,31.98009],[-106.51444,31.98613],[-106.51454,31.99085],[-106.51644,31.99376],[-106.51398,31.99781],[-106.51398,31.99926],[-106.51706,32.00092],[-106.41107,32.00133]]]}},{"type":"Feature","properties":{"zcta":"79936","d":1903},"geometry":{"type":"Polygon","coordinates":[[[-106.32487,31.84133],[-106.32454,31.84134],[-106.32199,31.83652],[-106.31922,31.83468],[-106.27291,31.81966],[-106.27097,31.81888],[-106.26831,31.81536],[-106.26775,31.80749],[-106.26782,31.79805],[-106.26728,31.76077],[-106.26724,31.74545],[-106.26686,31.72414],[-106.26738,31.72136],[-106.26983,31.71693],[-106.28412,31.70135],[-106.29309,31.70944],[-106.32484,31.73986],[-106.32697,31.74165],[-106.32457,31.74311],[-106.32629,31.74542],[-106.32926,31.74728],[-106.32736,31.74995],[-106.31896,31.7476],[-106.31898,31.7542],[-106.32181,31.75432],[-106.32384,31.75579],[-106.31979,31.75895],[-106.31904,31.76045],[-106.31912,31.76903],[-106.32472,31.76906],[-106.32253,31.77679],[-106.32323,31.77922],[-106.32335,31.79594],[-106.32285,31.79938],[-106.32985,31.79847],[-106.33086,31.841],[-106.32487,31.84133]]]}},{"type":"Feature","properties":{"zcta":"79932","d":1023},"geometry":{"type":"Polygon","coordinates":[[[-106.61967,31.91494],[-106.60529,31.91519],[-106.60575,31.90417],[-106.60317,31.90415],[-106.60286,31.90117],[-106.60575,31.90117],[-106.60562,31.89353],[-106.5993,31.89256],[-106.60094,31.90828],[-106.59995,31.90817],[-106.59891,31.89685],[-106.59769,31.89266],[-106.59086,31.90336],[-106.58749,31.90798],[-106.58268,31.90836],[-106.58265,31.88735],[-106.58236,31.88531],[-106.57434,31.85256],[-106.57206,31.84446],[-106.57016,31.8393],[-106.57629,31.84048],[-106.57879,31.83894],[-106.57975,31.84124],[-106.60575,31.84624],[-106.61464,31.84649],[-106.62576,31.85628],[-106.62781,31.86059],[-106.63593,31.86624],[-106.63588,31.87151],[-106.63487,31.87448],[-106.6308,31.8797],[-106.6292,31.88372],[-106.63069,31.88641],[-106.63393,31.88918],[-106.63815,31.89166],[-106.6429,31.89293],[-106.6453,31.89486],[-106.64548,31.89867],[-106.64084,31.9046],[-106.63367,31.90979],[-106.62595,31.91223],[-106.61961,31.91571],[-106.61967,31.91494]]]}},{"type":"Feature","properties":{"zcta":"79835","d":472},"geometry":{"type":"Polygon","coordinates":[[[-106.61543,31.95986],[-106.60803,31.95984],[-106.60395,31.95926],[-106.60289,31.94136],[-106.60252,31.93978],[-106.59137,31.93962],[-106.59137,31.94065],[-106.58506,31.94059],[-106.58291,31.94188],[-106.58265,31.94998],[-106.58264,31.97455],[-106.58226,31.97334],[-106.56306,31.97342],[-106.56179,31.94602],[-106.56729,31.94549],[-106.57028,31.94355],[-106.57748,31.94284],[-106.58266,31.94189],[-106.58268,31.90836],[-106.58749,31.90798],[-106.59086,31.90336],[-106.59769,31.89266],[-106.59891,31.89685],[-106.59995,31.90817],[-106.60094,31.90828],[-106.5993,31.89256],[-106.60562,31.89353],[-106.60575,31.90117],[-106.60286,31.90117],[-106.60317,31.90415],[-106.60575,31.90417],[-106.60529,31.91519],[-106.61967,31.91494],[-106.61961,31.91571],[-106.62075,31.922],[-106.61777,31.92261],[-106.62393,31.92534],[-106.62866,31.92361],[-106.62975,31.92657],[-106.62532,31.93005],[-106.62253,31.93486],[-106.62238,31.94086],[-106.62366,31.94551],[-106.61614,31.94844],[-106.6147,31.956],[-106.61543,31.95986]]]}},{"type":"Feature","properties":{"zcta":"79836","d":174},"geometry":{"type":"Polygon","coordinates":[[[-106.17903,31.56678],[-106.16967,31.55461],[-106.17979,31.54756],[-106.18212,31.54982],[-106.18478,31.54785],[-106.18344,31.54619],[-106.19251,31.54042],[-106.19784,31.53641],[-106.19492,31.53414],[-106.1985,31.52983],[-106.19442,31.52686],[-106.18045,31.51834],[-106.1826,31.51208],[-106.17806,31.50963],[-106.18985,31.50883],[-106.19528,31.51102],[-106.20227,31.51621],[-106.21554,31.52824],[-106.2175,31.53081],[-106.22104,31.52854],[-106.22628,31.53332],[-106.23125,31.53325],[-106.23055,31.53182],[-106.23694,31.52763],[-106.24165,31.52774],[-106.24512,31.53876],[-106.24757,31.54272],[-106.24177,31.54123],[-106.23099,31.54024],[-106.22888,31.54329],[-106.2188,31.54334],[-106.21387,31.54177],[-106.21435,31.54739],[-106.21339,31.5489],[-106.23555,31.57247],[-106.2312,31.57543],[-106.23556,31.57976],[-106.23784,31.58583],[-106.24676,31.58471],[-106.24981,31.59036],[-106.25881,31.60815],[-106.25937,31.61005],[-106.25974,31.61136],[-106.2547,31.6112],[-106.23453,31.61632],[-106.23212,31.61454],[-106.22843,31.60967],[-106.22602,31.61049],[-106.22746,31.61375],[-106.23157,31.61747],[-106.22483,31.61864],[-106.22251,31.6196],[-106.21746,31.61233],[-106.21487,31.61409],[-106.2152,31.60908],[-106.21283,31.60565],[-106.20403,31.61067],[-106.19908,31.604],[-106.20382,31.60132],[-106.20302,31.59919],[-106.20043,31.59632],[-106.19847,31.59826],[-106.19377,31.6001],[-106.16777,31.56656],[-106.17903,31.56678]]]}},{"type":"Feature","properties":{"zcta":"79853","d":0},"geometry":{"type":"Polygon","coordinates":[[[-106.1227,31.48099],[-106.12128,31.47964],[-106.10369,31.49616],[-106.06497,31.47493],[-106.05933,31.47099],[-106.02356,31.43752],[-106.02055,31.43536],[-105.97227,31.40831],[-105.99713,31.38725],[-106.0023,31.39115],[-106.00493,31.39246],[-106.01371,31.39333],[-106.0273,31.39413],[-106.07449,31.39756],[-106.08026,31.3987],[-106.08498,31.40145],[-106.10333,31.41866],[-106.10688,31.4214],[-106.11217,31.42358],[-106.12393,31.42373],[-106.12379,31.43215],[-106.12782,31.43903],[-106.12613,31.44497],[-106.12174,31.44517],[-106.12071,31.44726],[-106.12115,31.45005],[-106.11944,31.45357],[-106.12821,31.45628],[-106.13278,31.45884],[-106.13136,31.46405],[-106.13243,31.46833],[-106.13153,31.47309],[-106.12714,31.47672],[-106.1227,31.48099]]]}},{"type":"Feature","properties":{"zcta":"79902","d":1370},"geometry":{"type":"Polygon","coordinates":[[[-106.51201,31.80554],[-106.51227,31.79969],[-106.50996,31.79887],[-106.50588,31.80227],[-106.50488,31.80511],[-106.50321,31.80512],[-106.50407,31.80864],[-106.50283,31.80939],[-106.49573,31.80945],[-106.49581,31.80591],[-106.50015,31.80482],[-106.48344,31.80321],[-106.48394,31.80163],[-106.48235,31.79849],[-106.48045,31.79219],[-106.48096,31.78757],[-106.47907,31.78324],[-106.47588,31.78638],[-106.47512,31.78817],[-106.47355,31.78735],[-106.47345,31.77674],[-106.47348,31.77197],[-106.48443,31.76495],[-106.48918,31.76345],[-106.49534,31.75979],[-106.49749,31.75908],[-106.50297,31.75955],[-106.50544,31.76222],[-106.50845,31.76601],[-106.50778,31.76637],[-106.51096,31.77098],[-106.51466,31.77482],[-106.51758,31.78077],[-106.51974,31.79309],[-106.51964,31.79812],[-106.52019,31.80131],[-106.52307,31.80698],[-106.51201,31.80554]]]}},{"type":"Feature","properties":{"zcta":"79904","d":1458},"geometry":{"type":"Polygon","coordinates":[[[-106.49034,31.8693],[-106.49033,31.86851],[-106.45704,31.8694],[-106.44145,31.86962],[-106.40722,31.87022],[-106.4069,31.87002],[-106.42904,31.83507],[-106.43484,31.82593],[-106.445,31.82584],[-106.45569,31.82568],[-106.46164,31.82461],[-106.46443,31.82331],[-106.4647,31.8254],[-106.46797,31.82179],[-106.47107,31.82187],[-106.47535,31.82412],[-106.47609,31.83293],[-106.47873,31.83649],[-106.48062,31.83649],[-106.48381,31.84007],[-106.48661,31.84215],[-106.48927,31.84264],[-106.4918,31.84863],[-106.49374,31.85071],[-106.49365,31.86146],[-106.49494,31.86891],[-106.49034,31.8693]]]}},{"type":"Feature","properties":{"zcta":"79905","d":1554},"geometry":{"type":"Polygon","coordinates":[[[-106.46376,31.77792],[-106.46148,31.77827],[-106.45089,31.7782],[-106.44648,31.77762],[-106.42324,31.77753],[-106.42212,31.77772],[-106.42071,31.77798],[-106.41444,31.78158],[-106.40696,31.7817],[-106.40128,31.78227],[-106.39256,31.77865],[-106.39777,31.78056],[-106.39367,31.77086],[-106.39308,31.76829],[-106.39441,31.75898],[-106.39388,31.75788],[-106.40198,31.76394],[-106.40274,31.76369],[-106.40137,31.75971],[-106.39916,31.75744],[-106.39826,31.75244],[-106.40415,31.74457],[-106.41794,31.75201],[-106.42185,31.75293],[-106.43154,31.75421],[-106.43548,31.75519],[-106.45106,31.76433],[-106.45529,31.76408],[-106.46691,31.75957],[-106.46761,31.76572],[-106.46158,31.76981],[-106.46163,31.77555],[-106.46476,31.77472],[-106.47349,31.76996],[-106.47348,31.77197],[-106.46376,31.77792]]]}},{"type":"Feature","properties":{"zcta":"79906","d":450},"geometry":{"type":"Polygon","coordinates":[[[-106.43484,31.82593],[-106.42904,31.83507],[-106.42928,31.82797],[-106.42361,31.82803],[-106.4219,31.82644],[-106.42157,31.81307],[-106.4309,31.81264],[-106.4308,31.80781],[-106.42948,31.80669],[-106.42113,31.80682],[-106.42125,31.81175],[-106.41676,31.80766],[-106.41368,31.81057],[-106.41143,31.80878],[-106.41065,31.81254],[-106.40473,31.81195],[-106.40451,31.81986],[-106.40319,31.81953],[-106.38139,31.82009],[-106.37609,31.82181],[-106.36404,31.82985],[-106.36294,31.82851],[-106.36874,31.82648],[-106.37769,31.82006],[-106.38355,31.81924],[-106.38365,31.81608],[-106.39575,31.81588],[-106.39567,31.81078],[-106.39427,31.80835],[-106.40106,31.80385],[-106.40069,31.80677],[-106.40429,31.80678],[-106.40421,31.79318],[-106.40484,31.79152],[-106.40965,31.79301],[-106.40986,31.78911],[-106.41762,31.7891],[-106.42007,31.7891],[-106.43071,31.79495],[-106.4313,31.79702],[-106.43609,31.80126],[-106.44313,31.80125],[-106.44214,31.80432],[-106.44058,31.81483],[-106.43911,31.81906],[-106.44297,31.81906],[-106.44293,31.82169],[-106.44464,31.82166],[-106.445,31.82584],[-106.43484,31.82593]]]}},{"type":"Feature","properties":{"zcta":"79915","d":1756},"geometry":{"type":"Polygon","coordinates":[[[-106.37065,31.7684],[-106.34525,31.75268],[-106.34553,31.75236],[-106.34519,31.74226],[-106.34581,31.73848],[-106.34406,31.73311],[-106.34644,31.7297],[-106.34991,31.72719],[-106.3514,31.7228],[-106.35327,31.72077],[-106.3569,31.7192],[-106.36209,31.71987],[-106.36388,31.71878],[-106.36511,31.7159],[-106.36408,31.71559],[-106.36512,31.7131],[-106.36643,31.71373],[-106.36832,31.70953],[-106.37237,31.71257],[-106.37384,31.71481],[-106.37804,31.72831],[-106.38104,31.73211],[-106.40415,31.74457],[-106.39826,31.75244],[-106.39916,31.75744],[-106.40137,31.75971],[-106.40274,31.76369],[-106.40198,31.76394],[-106.39388,31.75788],[-106.39441,31.75898],[-106.39308,31.76829],[-106.39367,31.77086],[-106.39777,31.78056],[-106.39256,31.77865],[-106.37065,31.7684]]]}},{"type":"Feature","properties":{"zcta":"79916","d":0},"geometry":{"type":"Polygon","coordinates":[[[-106.4069,31.87002],[-106.38857,31.89891],[-106.36613,31.89907],[-106.36177,31.89816],[-106.35615,31.89429],[-106.33978,31.86638],[-106.34582,31.86354],[-106.34797,31.86189],[-106.35406,31.85985],[-106.35394,31.86089],[-106.35739,31.86072],[-106.35774,31.864],[-106.35397,31.86735],[-106.35718,31.87009],[-106.36403,31.87032],[-106.37659,31.8592],[-106.3847,31.85898],[-106.39767,31.84741],[-106.39683,31.84581],[-106.39938,31.84592],[-106.40536,31.84044],[-106.40528,31.83367],[-106.41517,31.83352],[-106.41506,31.82994],[-106.41325,31.82943],[-106.41322,31.82773],[-106.40343,31.82794],[-106.40342,31.82686],[-106.40464,31.82498],[-106.40451,31.81986],[-106.40473,31.81195],[-106.41065,31.81254],[-106.41143,31.80878],[-106.41368,31.81057],[-106.41676,31.80766],[-106.42125,31.81175],[-106.42113,31.80682],[-106.42948,31.80669],[-106.4308,31.80781],[-106.4309,31.81264],[-106.42157,31.81307],[-106.4219,31.82644],[-106.42361,31.82803],[-106.42928,31.82797],[-106.42904,31.83507],[-106.4069,31.87002]]]}},{"type":"Feature","properties":{"zcta":"79925","d":1059},"geometry":{"type":"Polygon","coordinates":[[[-106.40986,31.78911],[-106.40965,31.79301],[-106.40484,31.79152],[-106.40421,31.79318],[-106.40429,31.80678],[-106.40069,31.80677],[-106.40106,31.80385],[-106.39427,31.80835],[-106.39567,31.81078],[-106.39575,31.81588],[-106.38365,31.81608],[-106.38355,31.81924],[-106.37769,31.82006],[-106.36874,31.82648],[-106.36294,31.82851],[-106.36404,31.82985],[-106.35272,31.83852],[-106.34852,31.84044],[-106.34541,31.84085],[-106.33086,31.841],[-106.32985,31.79847],[-106.33265,31.79804],[-106.33112,31.79334],[-106.3314,31.78982],[-106.33401,31.78688],[-106.33418,31.78381],[-106.33608,31.78499],[-106.33807,31.78329],[-106.33985,31.77759],[-106.33976,31.75966],[-106.34525,31.75268],[-106.37065,31.7684],[-106.39256,31.77865],[-106.40128,31.78227],[-106.40696,31.7817],[-106.41444,31.78158],[-106.42071,31.77798],[-106.42212,31.77772],[-106.42007,31.78183],[-106.42298,31.7837],[-106.42004,31.7837],[-106.42017,31.78706],[-106.41788,31.78715],[-106.41762,31.7891],[-106.40986,31.78911]]]}},{"type":"Feature","properties":{"zcta":"79928","d":382},"geometry":{"type":"Polygon","coordinates":[[[-106.26983,31.71693],[-106.26738,31.72136],[-106.26686,31.72414],[-106.26724,31.74545],[-106.26728,31.76077],[-106.25058,31.76075],[-106.25053,31.75672],[-106.24947,31.75504],[-106.2311,31.75501],[-106.21703,31.75517],[-106.20966,31.75501],[-106.20555,31.75448],[-106.1993,31.75112],[-106.19974,31.7838],[-106.16546,31.78383],[-105.99593,31.78374],[-105.99577,31.75011],[-105.99541,31.74817],[-105.99495,31.70042],[-105.99476,31.67969],[-105.99341,31.56375],[-106.04505,31.56401],[-106.16564,31.56419],[-106.23975,31.65977],[-106.24543,31.66698],[-106.24841,31.66972],[-106.28412,31.70135],[-106.26983,31.71693]]]}},{"type":"Feature","properties":{"zcta":"79930","d":994},"geometry":{"type":"Polygon","coordinates":[[[-106.4918,31.84863],[-106.48927,31.84264],[-106.48661,31.84215],[-106.48381,31.84007],[-106.48062,31.83649],[-106.47873,31.83649],[-106.47609,31.83293],[-106.47535,31.82412],[-106.47107,31.82187],[-106.46797,31.82179],[-106.4647,31.8254],[-106.46443,31.82331],[-106.46164,31.82461],[-106.46434,31.82316],[-106.46433,31.81826],[-106.46141,31.81828],[-106.46149,31.82246],[-106.45843,31.82262],[-106.45662,31.82402],[-106.45072,31.82492],[-106.45107,31.82566],[-106.45569,31.82568],[-106.445,31.82584],[-106.44464,31.82166],[-106.44293,31.82169],[-106.44297,31.81906],[-106.43911,31.81906],[-106.44058,31.81483],[-106.44214,31.80432],[-106.44313,31.80125],[-106.45034,31.79259],[-106.45682,31.78805],[-106.46504,31.78346],[-106.47127,31.77701],[-106.47345,31.77674],[-106.47355,31.78735],[-106.47512,31.78817],[-106.47588,31.78638],[-106.47907,31.78324],[-106.48096,31.78757],[-106.48045,31.79219],[-106.48235,31.79849],[-106.48394,31.80163],[-106.48344,31.80321],[-106.48396,31.80671],[-106.48732,31.8126],[-106.48843,31.81591],[-106.48859,31.82281],[-106.48982,31.82711],[-106.49734,31.83913],[-106.49737,31.84331],[-106.49542,31.84851],[-106.49374,31.85071],[-106.4918,31.84863]]]}},{"type":"Feature","properties":{"zcta":"79821","d":215},"geometry":{"type":"Polygon","coordinates":[[[-106.56306,31.97342],[-106.58226,31.97334],[-106.58264,31.97455],[-106.58265,31.94998],[-106.58291,31.94188],[-106.58506,31.94059],[-106.59137,31.94065],[-106.59137,31.93962],[-106.60252,31.93978],[-106.60289,31.94136],[-106.60395,31.95926],[-106.60803,31.95984],[-106.61543,31.95986],[-106.6147,31.956],[-106.61771,31.95601],[-106.62282,31.95289],[-106.62512,31.95453],[-106.62553,31.95748],[-106.6243,31.96105],[-106.62045,31.9634],[-106.61874,31.96696],[-106.61957,31.97158],[-106.62322,31.97291],[-106.62647,31.97069],[-106.63011,31.97126],[-106.63819,31.97682],[-106.63953,31.98035],[-106.63649,31.98572],[-106.63118,31.98981],[-106.62357,31.991],[-106.61945,31.99473],[-106.61849,32.0005],[-106.59533,32.00078],[-106.56421,32.00074],[-106.56306,31.97342]]]}},{"type":"Feature","properties":{"zcta":"79901","d":2242},"geometry":{"type":"Polygon","coordinates":[[[-106.50297,31.75955],[-106.49749,31.75908],[-106.49534,31.75979],[-106.48918,31.76345],[-106.48443,31.76495],[-106.47348,31.77197],[-106.47349,31.76996],[-106.46476,31.77472],[-106.46163,31.77555],[-106.46158,31.76981],[-106.46761,31.76572],[-106.46691,31.75957],[-106.4685,31.75825],[-106.47099,31.75221],[-106.47249,31.75085],[-106.48464,31.74781],[-106.48954,31.74841],[-106.49468,31.7518],[-106.49648,31.75384],[-106.50009,31.75553],[-106.50582,31.76047],[-106.50853,31.76122],[-106.50544,31.76222],[-106.50297,31.75955]]]}},{"type":"Feature","properties":{"zcta":"79911","d":685},"geometry":{"type":"Polygon","coordinates":[[[-106.56421,32.00074],[-106.51706,32.00092],[-106.51398,31.99926],[-106.51398,31.99781],[-106.51644,31.99376],[-106.51454,31.99085],[-106.51444,31.98613],[-106.50564,31.98009],[-106.49914,31.97156],[-106.49623,31.96172],[-106.49673,31.95579],[-106.49513,31.94887],[-106.49624,31.91567],[-106.49722,31.88321],[-106.49724,31.87852],[-106.50064,31.88021],[-106.50393,31.88352],[-106.5083,31.88349],[-106.50834,31.8847],[-106.5203,31.88477],[-106.5187,31.8794],[-106.53553,31.87944],[-106.53988,31.88149],[-106.54848,31.88018],[-106.54933,31.88158],[-106.55136,31.88042],[-106.55639,31.87944],[-106.56173,31.8801],[-106.56963,31.87951],[-106.57048,31.88095],[-106.57455,31.89542],[-106.57458,31.89769],[-106.57209,31.90186],[-106.5677,31.90468],[-106.56646,31.90735],[-106.57922,31.90835],[-106.58268,31.90836],[-106.58266,31.94189],[-106.57748,31.94284],[-106.57028,31.94355],[-106.56729,31.94549],[-106.56179,31.94602],[-106.56306,31.97342],[-106.56421,32.00074]]]}},{"type":"Feature","properties":{"zcta":"79922","d":582},"geometry":{"type":"Polygon","coordinates":[[[-106.57975,31.84124],[-106.57879,31.83894],[-106.57629,31.84048],[-106.57016,31.8393],[-106.56702,31.83306],[-106.54494,31.81077],[-106.54245,31.80967],[-106.52853,31.80944],[-106.52513,31.80854],[-106.52307,31.80698],[-106.52019,31.80131],[-106.51964,31.79812],[-106.51974,31.79309],[-106.51758,31.78077],[-106.51466,31.77482],[-106.51096,31.77098],[-106.50778,31.76637],[-106.50845,31.76601],[-106.50544,31.76222],[-106.50853,31.76122],[-106.51006,31.76126],[-106.51249,31.76904],[-106.51487,31.77159],[-106.51784,31.77181],[-106.52364,31.77621],[-106.52864,31.78181],[-106.52824,31.78315],[-106.5317,31.7839],[-106.56033,31.78388],[-106.55858,31.78625],[-106.55693,31.79052],[-106.5509,31.79579],[-106.54378,31.79909],[-106.54134,31.79964],[-106.5389,31.79879],[-106.53507,31.79253],[-106.53305,31.79103],[-106.52794,31.79051],[-106.53051,31.7921],[-106.53304,31.79191],[-106.53584,31.79861],[-106.5421,31.80215],[-106.54714,31.80731],[-106.55844,31.81041],[-106.56294,31.8111],[-106.56344,31.81261],[-106.56684,31.81331],[-106.57094,31.81021],[-106.57724,31.81041],[-106.58134,31.81391],[-106.58214,31.81551],[-106.58804,31.82211],[-106.59383,31.8249],[-106.60273,31.82502],[-106.60527,31.82791],[-106.60194,31.83961],[-106.60204,31.84441],[-106.60575,31.84624],[-106.57975,31.84124]]]}},{"type":"Feature","properties":{"zcta":"79927","d":692},"geometry":{"type":"Polygon","coordinates":[[[-106.24841,31.66972],[-106.24543,31.66698],[-106.23975,31.65977],[-106.16564,31.56419],[-106.12924,31.51718],[-106.13125,31.51937],[-106.16777,31.56656],[-106.19377,31.6001],[-106.19847,31.59826],[-106.20043,31.59632],[-106.20302,31.59919],[-106.20382,31.60132],[-106.19908,31.604],[-106.20403,31.61067],[-106.21283,31.60565],[-106.2152,31.60908],[-106.21487,31.61409],[-106.21746,31.61233],[-106.22251,31.6196],[-106.22483,31.61864],[-106.23157,31.61747],[-106.22746,31.61375],[-106.22602,31.61049],[-106.22843,31.60967],[-106.23212,31.61454],[-106.23453,31.61632],[-106.2547,31.6112],[-106.25974,31.61136],[-106.25937,31.61005],[-106.29567,31.60104],[-106.30089,31.60962],[-106.30062,31.61326],[-106.30289,31.6186],[-106.30303,31.62127],[-106.3081,31.62971],[-106.32514,31.65081],[-106.32725,31.65438],[-106.33474,31.66411],[-106.33795,31.6712],[-106.33638,31.67176],[-106.33602,31.67465],[-106.33266,31.67348],[-106.32339,31.67578],[-106.32263,31.67383],[-106.31976,31.67425],[-106.31646,31.6694],[-106.31517,31.67006],[-106.31765,31.67444],[-106.31422,31.6747],[-106.31496,31.67587],[-106.31131,31.67744],[-106.30573,31.67886],[-106.30727,31.6813],[-106.31131,31.67865],[-106.31245,31.67992],[-106.30816,31.68236],[-106.2992,31.68589],[-106.29643,31.6878],[-106.28412,31.70135],[-106.24841,31.66972]]]}},{"type":"Feature","properties":{"zcta":"79837","d":0},"geometry":{"type":"Polygon","coordinates":[[[-105.20108,31.89285],[-105.19227,31.89286],[-105.19179,31.89963],[-105.19213,31.90386],[-105.19188,31.92132],[-105.19241,31.92354],[-105.20114,31.92353],[-105.20112,31.90821],[-105.21871,31.90815],[-105.2187,31.89285],[-105.25344,31.89283],[-105.25346,31.90814],[-105.27115,31.90815],[-105.27111,31.9157],[-105.26221,31.91573],[-105.26232,31.9235],[-105.24478,31.92349],[-105.2448,31.93887],[-105.26211,31.93888],[-105.26207,31.95405],[-105.27116,31.95401],[-105.27098,31.96957],[-105.28311,31.96981],[-105.28817,31.97593],[-105.28815,31.98028],[-105.28903,31.98255],[-105.29225,31.9852],[-105.30082,31.98783],[-105.30394,31.98834],[-105.31008,31.99093],[-105.31283,31.99099],[-105.31816,31.99342],[-105.32603,31.99317],[-105.3322,31.9949],[-105.33682,31.99832],[-105.33906,31.9993],[-105.34074,32.00229],[-105.34515,32.00577],[-105.36246,32.01311],[-105.36805,32.01596],[-105.37179,32.01719],[-105.3916,32.0259],[-105.39159,32.02707],[-105.38875,32.03137],[-105.39257,32.0305],[-105.40047,32.03157],[-105.40359,32.03448],[-105.40852,32.0366],[-105.41544,32.04071],[-105.42232,32.04293],[-105.42864,32.04572],[-105.43248,32.04925],[-105.43242,32.0519],[-105.43365,32.05401],[-105.44025,32.05493],[-105.44737,32.06188],[-105.44989,32.06235],[-105.4543,32.06461],[-105.46311,32.06246],[-105.46551,32.06353],[-105.47225,32.06296],[-105.48147,32.06264],[-105.48584,32.0634],[-105.4906,32.06502],[-105.49537,32.0649],[-105.49806,32.06324],[-105.50206,32.06322],[-105.50367,32.06074],[-105.5078,32.05915],[-105.5185,32.05596],[-105.52438,32.05587],[-105.52464,32.05406],[-105.52681,32.05273],[-105.5332,32.05231],[-105.53648,32.04684],[-105.54085,32.04248],[-105.54265,32.04186],[-105.54399,32.03647],[-105.54416,32.02953],[-105.55016,32.02871],[-105.55245,32.02771],[-105.563,32.02621],[-105.56994,32.02495],[-105.5874,32.01684],[-105.58984,32.01514],[-105.59636,32.01356],[-105.5966,32.0236],[-105.59759,32.02589],[-105.59485,32.03098],[-105.5958,32.03743],[-105.59202,32.04678],[-105.59575,32.04771],[-105.60523,32.04549],[-105.6108,32.04343],[-105.61371,32.04475],[-105.6139,32.04999],[-105.61276,32.05812],[-105.61336,32.06063],[-105.61247,32.06409],[-105.61294,32.06896],[-105.61094,32.07219],[-105.6116,32.07352],[-105.61133,32.08001],[-105.6103,32.08451],[-105.61383,32.09179],[-105.61415,32.09807],[-105.61241,32.10323],[-105.60617,32.10894],[-105.59926,32.11378],[-105.5954,32.11862],[-105.59138,32.11659],[-105.58232,32.11579],[-105.58252,32.11727],[-105.57951,32.12271],[-105.57728,32.12462],[-105.58171,32.12909],[-105.58497,32.13066],[-105.58615,32.13393],[-105.58398,32.13879],[-105.58652,32.17355],[-105.59029,32.16936],[-105.60214,32.16121],[-105.60311,32.16016],[-105.60429,32.15523],[-105.60567,32.15576],[-105.61221,32.16112],[-105.61857,32.16359],[-105.62242,32.16462],[-105.6262,32.16648],[-105.63661,32.17284],[-105.63999,32.17377],[-105.64083,32.21074],[-105.65749,32.22357],[-105.66109,32.22498],[-105.65967,32.22826],[-105.65924,32.23145],[-105.65272,32.2376],[-105.64854,32.24089],[-105.63789,32.25119],[-105.63555,32.25117],[-105.6336,32.25342],[-105.62928,32.25446],[-105.63345,32.26054],[-105.64093,32.28643],[-105.64263,32.30986],[-105.63896,32.30889],[-105.63593,32.30917],[-105.6341,32.30834],[-105.62553,32.30882],[-105.61537,32.30845],[-105.61184,32.31582],[-105.61012,32.31793],[-105.60599,32.31981],[-105.59887,32.32487],[-105.59652,32.32022],[-105.58945,32.31644],[-105.58756,32.31622],[-105.58367,32.31305],[-105.58308,32.31354],[-105.58363,32.31973],[-105.58176,32.32994],[-105.58111,32.33595],[-105.57866,32.34134],[-105.4357,32.34154],[-105.41722,32.34152],[-105.35704,32.34174],[-105.35702,32.34057],[-105.31918,32.34056],[-105.31712,32.3355],[-105.31527,32.33365],[-105.31011,32.33175],[-105.30714,32.33233],[-105.30576,32.3306],[-105.30072,32.32912],[-105.29206,32.32906],[-105.28894,32.32715],[-105.28287,32.32751],[-105.27974,32.32621],[-105.27955,32.32486],[-105.27338,32.32293],[-105.268,32.3234],[-105.26639,32.32296],[-105.25942,32.32448],[-105.25499,32.32411],[-105.24596,32.3282],[-105.24225,32.32827],[-105.23801,32.32948],[-105.2299,32.32768],[-105.22822,32.32587],[-105.22316,32.3241],[-105.21597,32.32345],[-105.21483,32.32226],[-105.21841,32.32131],[-105.22284,32.32219],[-105.21638,32.31612],[-105.20135,32.31828],[-105.19817,32.31779],[-105.18849,32.31276],[-105.1688,32.29486],[-105.16516,32.2932],[-105.15646,32.29116],[-105.15446,32.28985],[-105.15023,32.28941],[-105.14819,32.28812],[-105.14494,32.28176],[-105.14041,32.27394],[-105.13307,32.27846],[-105.13056,32.27916],[-105.1062,32.28205],[-105.10131,32.28284],[-105.08377,32.28913],[-105.08409,32.29038],[-105.07978,32.29055],[-105.06846,32.29023],[-105.06062,32.28774],[-105.05463,32.28623],[-105.05248,32.2852],[-105.04206,32.28209],[-105.03841,32.28064],[-105.03049,32.28076],[-105.02202,32.28042],[-105.02007,32.27952],[-105.01303,32.28076],[-105.00675,32.27727],[-105.00226,32.27736],[-104.99819,32.27815],[-104.99067,32.28186],[-104.98795,32.28493],[-104.9876,32.28341],[-104.98461,32.28361],[-104.97813,32.28854],[-104.97525,32.2888],[-104.96696,32.28625],[-104.96482,32.28483],[-104.95771,32.282],[-104.95301,32.27486],[-104.95251,32.27316],[-104.94837,32.26985],[-104.94422,32.26466],[-104.9411,32.25642],[-104.93462,32.24741],[-104.92693,32.24031],[-104.91275,32.2228],[-104.90872,32.21439],[-104.90113,32.18883],[-104.89181,32.16488],[-104.8893,32.1618],[-104.88632,32.16074],[-104.87991,32.15557],[-104.87688,32.15223],[-104.87322,32.14988],[-104.8703,32.14625],[-104.86193,32.14103],[-104.86001,32.14027],[-104.86014,32.13777],[-104.85758,32.13359],[-104.85466,32.1308],[-104.85088,32.12599],[-104.85211,32.12279],[-104.85523,32.12062],[-104.85505,32.11593],[-104.8532,32.10912],[-104.84884,32.1053],[-104.84949,32.10457],[-104.84777,32.10207],[-104.84774,32.00008],[-104.91888,32.00042],[-105.00445,32.00051],[-105.00782,31.99938],[-105.00217,31.96321],[-105.00216,31.95471],[-105.00713,31.95467],[-105.00711,31.94516],[-105.00598,31.94464],[-105.00601,31.93813],[-105.00708,31.93812],[-105.00733,31.92348],[-105.00694,31.9082],[-105.02367,31.90821],[-105.02331,31.87864],[-104.98909,31.87873],[-104.98933,31.86207],[-104.9713,31.86208],[-104.97067,31.85628],[-104.9678,31.8511],[-104.95361,31.84795],[-104.95297,31.84696],[-104.95606,31.84399],[-104.96295,31.83947],[-104.96309,31.83807],[-104.96086,31.8305],[-104.96016,31.82628],[-104.95956,31.81812],[-104.96186,31.81612],[-104.96202,31.81393],[-104.96093,31.80921],[-104.96127,31.80772],[-104.96467,31.80506],[-104.97132,31.79272],[-104.97172,31.78733],[-104.97309,31.78397],[-104.97464,31.7764],[-104.97695,31.7693],[-104.97737,31.76415],[-104.97606,31.75969],[-104.97635,31.75576],[-104.97894,31.75526],[-105.07538,31.74537],[-105.07715,31.81206],[-105.07867,31.81339],[-105.12878,31.81342],[-105.1305,31.81908],[-105.1335,31.82289],[-105.13602,31.82709],[-105.14208,31.83463],[-105.14661,31.84091],[-105.14786,31.86155],[-105.18743,31.86136],[-105.18728,31.8565],[-105.19723,31.86029],[-105.20122,31.8613],[-105.20124,31.87739],[-105.20108,31.89285]]]}}]}