{"type":"FeatureCollection","features":[{"type":"Feature","properties":{"id":"49057","name":"Weber Co."},"geometry":{"type":"Polygon","coordinates":[[[-112.3397,41.2337],[-112.2382,41.3366],[-112.1332,41.3369],[-112.0287,41.3365],[-112.0259,41.3386],[-112.0233,41.3431],[-112.0203,41.3442],[-112.0127,41.3433],[-112.0084,41.3438],[-112.004,41.3464],[-112.0032,41.3495],[-111.9953,41.35],[-111.9922,41.3533],[-111.9781,41.3584],[-111.9702,41.3637],[-111.9632,41.3655],[-111.9752,41.3779],[-111.9742,41.3821],[-111.9758,41.3842],[-111.9685,41.3922],[-111.9675,41.3957],[-111.9672,41.4042],[-111.9678,41.4099],[-111.9715,41.4144],[-111.9724,41.4201],[-111.9638,41.4252],[-111.9583,41.4339],[-111.9549,41.4321],[-111.9534,41.4286],[-111.9447,41.4239],[-111.9405,41.4205],[-111.9381,41.4158],[-111.9315,41.4162],[-111.9272,41.4128],[-111.9179,41.4124],[-111.909,41.4158],[-111.9055,41.4149],[-111.904,41.4189],[-111.893,41.4181],[-111.8915,41.4228],[-111.8855,41.4263],[-111.8757,41.4237],[-111.8726,41.422],[-111.8762,41.4179],[-111.879,41.4168],[-111.8792,41.4125],[-111.8756,41.4101],[-111.8752,41.4049],[-111.8699,41.4011],[-111.8686,41.3987],[-111.8629,41.3996],[-111.8613,41.3964],[-111.857,41.3967],[-111.8546,41.3943],[-111.8427,41.3922],[-111.8365,41.3879],[-111.8328,41.3899],[-111.8295,41.3895],[-111.8275,41.3927],[-111.8199,41.3918],[-111.8136,41.388],[-111.8064,41.3893],[-111.8048,41.3909],[-111.7972,41.3924],[-111.7927,41.3913],[-111.7892,41.3846],[-111.7836,41.3821],[-111.7807,41.3786],[-111.7731,41.3764],[-111.7665,41.37],[-111.7606,41.3688],[-111.7531,41.3705],[-111.7463,41.3698],[-111.7437,41.3717],[-111.7356,41.3748],[-111.7258,41.3763],[-111.7272,41.382],[-111.7267,41.385],[-111.7219,41.3906],[-111.716,41.395],[-111.7124,41.395],[-111.7122,41.3985],[-111.7065,41.4049],[-111.7068,41.4131],[-111.7126,41.4137],[-111.7186,41.4169],[-111.7229,41.4234],[-111.7219,41.427],[-111.7178,41.4246],[-111.7138,41.425],[-111.7116,41.4232],[-111.708,41.4253],[-111.7041,41.421],[-111.696,41.4171],[-111.6901,41.4184],[-111.6859,41.4227],[-111.6789,41.4273],[-111.6664,41.4286],[-111.6642,41.4236],[-111.6613,41.4218],[-111.6606,41.4189],[-111.6571,41.4147],[-111.6529,41.4114],[-111.6524,41.4077],[-111.6475,41.4054],[-111.6438,41.4063],[-111.6431,41.4106],[-111.6401,41.4145],[-111.6377,41.4147],[-111.6311,41.4183],[-111.6266,41.4176],[-111.6184,41.4224],[-111.6123,41.4216],[-111.6106,41.4192],[-111.6043,41.4195],[-111.5995,41.4213],[-111.5888,41.4186],[-111.5838,41.4185],[-111.575,41.4289],[-111.5716,41.4251],[-111.5644,41.4232],[-111.557,41.4248],[-111.5542,41.4238],[-111.5514,41.4137],[-111.5448,41.4093],[-111.5435,41.4055],[-111.5415,41.4051],[-111.5403,41.409],[-111.5342,41.4113],[-111.5314,41.4146],[-111.5214,41.416],[-111.5176,41.4217],[-111.5108,41.4231],[-111.5107,41.4209],[-111.5065,41.4182],[-111.508,41.4141],[-111.5008,41.4118],[-111.4999,41.4089],[-111.4908,41.4048],[-111.4851,41.4049],[-111.482,41.4014],[-111.4754,41.3998],[-111.4784,41.3906],[-111.4776,41.3843],[-111.4711,41.3819],[-111.4656,41.381],[-111.4616,41.3784],[-111.4608,41.3742],[-111.4548,41.3729],[-111.4478,41.3729],[-111.4457,41.3713],[-111.4469,41.3681],[-111.4422,41.3662],[-111.4377,41.3667],[-111.4342,41.3623],[-111.4277,41.363],[-111.4238,41.3651],[-111.4207,41.3613],[-111.424,41.3563],[-111.4241,41.3468],[-111.4268,41.3427],[-111.4293,41.3415],[-111.4344,41.3423],[-111.438,41.3379],[-111.4366,41.3313],[-111.4377,41.3233],[-111.4431,41.3222],[-111.4447,41.3182],[-111.4494,41.3157],[-111.4484,41.3106],[-111.4441,41.3063],[-111.4426,41.2982],[-111.4391,41.2948],[-111.4428,41.2924],[-111.4401,41.2896],[-111.4445,41.2875],[-111.4465,41.2816],[-111.4451,41.2781],[-111.4525,41.2746],[-111.4581,41.2733],[-111.4581,41.2679],[-111.4623,41.2665],[-111.4665,41.2625],[-111.4644,41.2581],[-111.4711,41.2557],[-111.4717,41.2515],[-111.4782,41.2505],[-111.4776,41.2452],[-111.4823,41.2455],[-111.4848,41.2436],[-111.4946,41.241],[-111.4915,41.2369],[-111.4968,41.2306],[-111.4972,41.2269],[-111.5039,41.2289],[-111.5061,41.2309],[-111.5103,41.2309],[-111.512,41.229],[-111.5227,41.2302],[-111.5261,41.2288],[-111.529,41.2298],[-111.5299,41.2328],[-111.5368,41.2365],[-111.5541,41.2378],[-111.5596,41.2401],[-111.5716,41.2387],[-111.576,41.2394],[-111.584,41.2383],[-111.5888,41.241],[-111.5964,41.2387],[-111.609,41.2294],[-111.6066,41.2248],[-111.609,41.2162],[-111.6117,41.2099],[-111.6148,41.208],[-111.6228,41.2058],[-111.625,41.2],[-111.6331,41.1985],[-111.6404,41.1989],[-111.6431,41.1976],[-111.6477,41.1918],[-111.6544,41.1893],[-111.6586,41.1857],[-111.6666,41.1876],[-111.6725,41.1854],[-111.6727,41.1831],[-111.6758,41.1835],[-111.6781,41.1812],[-111.6817,41.182],[-111.6848,41.1806],[-111.696,41.1825],[-111.6984,41.1818],[-111.7059,41.1832],[-111.7133,41.1863],[-111.7174,41.1866],[-111.7215,41.1916],[-111.7273,41.1947],[-111.7275,41.1969],[-111.7328,41.198],[-111.7371,41.2013],[-111.7455,41.2038],[-111.7467,41.2075],[-111.746,41.2124],[-111.7491,41.2145],[-111.7547,41.2148],[-111.7576,41.2107],[-111.7649,41.208],[-111.7637,41.2104],[-111.7707,41.2147],[-111.7745,41.2181],[-111.7789,41.2167],[-111.7897,41.2186],[-111.7936,41.2159],[-111.8,41.2172],[-111.8061,41.2159],[-111.8079,41.2127],[-111.8123,41.2121],[-111.8126,41.2098],[-111.8175,41.2048],[-111.8289,41.2048],[-111.8363,41.2017],[-111.8366,41.2002],[-111.8494,41.1979],[-111.8582,41.1976],[-111.8603,41.1939],[-111.873,41.1878],[-111.8713,41.1833],[-111.8688,41.1811],[-111.8712,41.1762],[-111.8746,41.1735],[-111.8766,41.1697],[-111.8715,41.165],[-111.8701,41.1608],[-111.8669,41.1591],[-111.8572,41.1565],[-111.8545,41.1543],[-111.8549,41.1505],[-111.8575,41.1483],[-111.8562,41.1391],[-111.8616,41.1402],[-111.8613,41.1375],[-111.869,41.1381],[-111.8784,41.1375],[-111.8899,41.1376],[-111.8976,41.1356],[-111.9034,41.1363],[-111.9108,41.1346],[-111.915,41.1372],[-111.9203,41.1386],[-111.9284,41.1386],[-111.9316,41.1372],[-111.9341,41.1384],[-111.9429,41.1374],[-111.9495,41.1381],[-111.9562,41.1406],[-111.9576,41.146],[-111.9623,41.1494],[-111.971,41.1526],[-112.0549,41.1526],[-112.1229,41.1527],[-112.1865,41.153],[-112.1993,41.1499],[-112.4516,41.0873],[-112.4935,41.0769],[-112.3397,41.2337]]]}},{"type":"Feature","properties":{"id":"49011","name":"Davis Co."},"geometry":{"type":"Polygon","coordinates":[[[-111.857,41.1369],[-111.849,41.1338],[-111.8464,41.1292],[-111.8468,41.1271],[-111.8446,41.1218],[-111.8496,41.1155],[-111.8542,41.1141],[-111.8561,41.1119],[-111.854,41.1081],[-111.8565,41.1029],[-111.8518,41.0977],[-111.8551,41.0927],[-111.8508,41.0879],[-111.852,41.0825],[-111.8484,41.0757],[-111.8518,41.0667],[-111.849,41.0624],[-111.8462,41.0611],[-111.8439,41.0562],[-111.8442,41.0499],[-111.8387,41.0448],[-111.8395,41.0407],[-111.8337,41.037],[-111.8368,41.0362],[-111.8394,41.0314],[-111.8374,41.0256],[-111.8384,41.0235],[-111.8346,41.0203],[-111.8288,41.0208],[-111.8257,41.0185],[-111.8205,41.0108],[-111.8219,41.0078],[-111.82,41.0065],[-111.8105,41.0051],[-111.8061,41.0017],[-111.8067,40.9999],[-111.8042,40.995],[-111.7988,40.9893],[-111.793,40.9857],[-111.7853,40.9748],[-111.7828,40.9689],[-111.7756,40.9614],[-111.775,40.9593],[-111.7847,40.9572],[-111.7908,40.9609],[-111.7947,40.9609],[-111.7982,40.959],[-111.8038,40.9593],[-111.8097,40.9575],[-111.8139,40.96],[-111.8153,40.9572],[-111.8117,40.9502],[-111.8069,40.9492],[-111.8039,40.9442],[-111.804,40.9407],[-111.796,40.9341],[-111.7911,40.927],[-111.7931,40.9247],[-111.7937,40.916],[-111.7831,40.9128],[-111.7788,40.9041],[-111.7761,40.9005],[-111.7815,40.8956],[-111.7778,40.8965],[-111.7726,40.8933],[-111.7703,40.8879],[-111.764,40.889],[-111.7617,40.8853],[-111.7651,40.8783],[-111.7683,40.8756],[-111.7687,40.8723],[-111.7636,40.8736],[-111.7588,40.8722],[-111.7524,40.8725],[-111.7464,40.8709],[-111.7403,40.8652],[-111.7389,40.8612],[-111.7468,40.8602],[-111.7487,40.8564],[-111.752,40.8533],[-111.755,40.8539],[-111.7683,40.8484],[-111.7721,40.8488],[-111.778,40.8447],[-111.7817,40.8439],[-111.7892,40.8456],[-111.7928,40.8444],[-111.8049,40.8379],[-111.812,40.84],[-111.817,40.8385],[-111.8218,40.8343],[-111.8285,40.8335],[-111.8304,40.8318],[-111.8384,40.8308],[-111.8444,40.8319],[-111.8463,40.8296],[-111.8537,40.8292],[-111.8585,40.8242],[-111.8616,40.8248],[-111.8692,40.8238],[-111.8705,40.8217],[-111.9009,40.8218],[-111.9009,40.8199],[-111.9057,40.8199],[-111.9057,40.8218],[-111.9459,40.8218],[-111.9467,40.8238],[-111.9436,40.8274],[-111.9429,40.8305],[-111.9467,40.838],[-111.9512,40.842],[-111.9539,40.8476],[-111.9589,40.8492],[-111.9597,40.8522],[-111.9645,40.8534],[-111.9664,40.8579],[-111.9627,40.8636],[-111.9636,40.8716],[-111.9695,40.8723],[-111.9711,40.8766],[-111.9676,40.8801],[-111.9687,40.8869],[-111.9663,40.8888],[-111.9661,40.8917],[-111.9617,40.8934],[-111.9593,40.8963],[-111.9586,40.9002],[-111.9587,40.9218],[-112.0066,40.9218],[-112.1483,40.8461],[-112.2602,40.7691],[-112.4935,41.0769],[-112.4516,41.0873],[-112.1993,41.1499],[-112.1865,41.153],[-112.1229,41.1527],[-112.0549,41.1526],[-111.971,41.1526],[-111.9623,41.1494],[-111.9576,41.146],[-111.9562,41.1406],[-111.9495,41.1381],[-111.9429,41.1374],[-111.9341,41.1384],[-111.9316,41.1372],[-111.9284,41.1386],[-111.9203,41.1386],[-111.915,41.1372],[-111.9108,41.1346],[-111.9034,41.1363],[-111.8976,41.1356],[-111.8899,41.1376],[-111.8784,41.1375],[-111.869,41.1381],[-111.8613,41.1375],[-111.8616,41.1402],[-111.8562,41.1391],[-111.857,41.1369]]]}},{"type":"Feature","properties":{"id":"49029","name":"Morgan Co."},"geometry":{"type":"Polygon","coordinates":[[[-111.4179,41.3622],[-111.4099,41.3617],[-111.4046,41.3622],[-111.4035,41.3693],[-111.4011,41.3695],[-111.3961,41.3733],[-111.3841,41.374],[-111.3679,41.3653],[-111.3671,41.3617],[-111.3612,41.3617],[-111.3536,41.3628],[-111.3479,41.3623],[-111.3466,41.3594],[-111.3416,41.3574],[-111.3402,41.3555],[-111.3319,41.3575],[-111.3271,41.3532],[-111.3269,41.3455],[-111.3188,41.3438],[-111.3159,41.3405],[-111.3053,41.3337],[-111.2949,41.33],[-111.2941,41.3197],[-111.2968,41.3185],[-111.2945,41.3159],[-111.2946,41.3128],[-111.2924,41.3094],[-111.2839,41.3083],[-111.286,41.3056],[-111.2745,41.3011],[-111.2747,41.2997],[-111.2618,41.2967],[-111.2594,41.2908],[-111.2614,41.2869],[-111.2656,41.2843],[-111.27,41.2835],[-111.2746,41.2788],[-111.2773,41.2774],[-111.2772,41.2744],[-111.2742,41.2644],[-111.2809,41.2614],[-111.2766,41.2569],[-111.2772,41.2449],[-111.2708,41.2405],[-111.2697,41.2368],[-111.2758,41.2342],[-111.283,41.2281],[-111.2813,41.225],[-111.2698,41.2271],[-111.2669,41.2268],[-111.2538,41.229],[-111.2531,41.2227],[-111.2561,41.2174],[-111.2509,41.2144],[-111.247,41.2158],[-111.2428,41.2154],[-111.2336,41.2183],[-111.2268,41.2173],[-111.2221,41.2153],[-111.2215,41.2127],[-111.2274,41.2081],[-111.2271,41.2054],[-111.2317,41.2027],[-111.2303,41.2003],[-111.2319,41.1978],[-111.2305,41.195],[-111.2257,41.1913],[-111.2293,41.1863],[-111.2353,41.1842],[-111.2361,41.182],[-111.2331,41.1777],[-111.2378,41.1704],[-111.2418,41.167],[-111.2426,41.1645],[-111.2522,41.1568],[-111.2597,41.149],[-111.261,41.1463],[-111.265,41.144],[-111.2747,41.1426],[-111.2914,41.1429],[-111.2944,41.1391],[-111.3001,41.1372],[-111.3016,41.1344],[-111.3066,41.1311],[-111.3102,41.1305],[-111.3185,41.1324],[-111.3245,41.1374],[-111.3319,41.138],[-111.3379,41.133],[-111.341,41.1328],[-111.3458,41.1287],[-111.3527,41.1303],[-111.3543,41.1294],[-111.3643,41.1283],[-111.3672,41.1295],[-111.3687,41.122],[-111.3676,41.1196],[-111.3705,41.1154],[-111.3754,41.1122],[-111.3777,41.1078],[-111.3785,41.0984],[-111.3816,41.0969],[-111.38,41.0897],[-111.3807,41.087],[-111.3863,41.0849],[-111.3895,41.0854],[-111.3922,41.0816],[-111.396,41.0802],[-111.4003,41.0813],[-111.4084,41.0749],[-111.417,41.074],[-111.4229,41.0766],[-111.4234,41.0797],[-111.4302,41.0811],[-111.4339,41.0804],[-111.4461,41.0821],[-111.4513,41.0791],[-111.4545,41.0747],[-111.4585,41.0726],[-111.4631,41.0726],[-111.4674,41.0704],[-111.4736,41.0644],[-111.4754,41.0648],[-111.4835,41.0616],[-111.4905,41.0611],[-111.4946,41.0641],[-111.5003,41.0613],[-111.5013,41.0624],[-111.5081,41.0631],[-111.5118,41.059],[-111.5236,41.0562],[-111.5327,41.0511],[-111.5365,41.0475],[-111.541,41.0453],[-111.5454,41.0374],[-111.5507,41.0358],[-111.5551,41.0322],[-111.553,41.0297],[-111.5563,41.0271],[-111.5573,41.0227],[-111.5534,41.0207],[-111.5544,41.0166],[-111.5587,41.011],[-111.5625,41.0091],[-111.5687,41.0029],[-111.5666,41.0005],[-111.5728,41.0007],[-111.5799,40.9959],[-111.5876,40.9963],[-111.5926,40.9933],[-111.5937,40.9863],[-111.5876,40.9787],[-111.588,40.9659],[-111.5846,40.962],[-111.5807,40.9611],[-111.5778,40.9585],[-111.5738,40.961],[-111.5667,40.9595],[-111.5587,40.9593],[-111.5517,40.9541],[-111.5428,40.9547],[-111.5343,40.9582],[-111.5249,40.9538],[-111.5254,40.9501],[-111.5236,40.9459],[-111.5265,40.9385],[-111.5263,40.931],[-111.5272,40.9236],[-111.5288,40.9191],[-111.5231,40.9192],[-111.5149,40.9169],[-111.5134,40.9132],[-111.5085,40.9094],[-111.5102,40.905],[-111.5098,40.8978],[-111.5065,40.8971],[-111.506,40.8946],[-111.5032,40.8941],[-111.4994,40.8894],[-111.4986,40.8845],[-111.4948,40.8795],[-111.4862,40.8731],[-111.4817,40.8647],[-111.4797,40.8585],[-111.481,40.8546],[-111.4839,40.8535],[-111.4878,40.8543],[-111.4919,40.8501],[-111.4949,40.8422],[-111.4971,40.8405],[-111.5001,40.832],[-111.5101,40.8211],[-111.5167,40.8195],[-111.5162,40.8128],[-111.511,40.8105],[-111.5145,40.8055],[-111.5143,40.8004],[-111.518,40.7982],[-111.5194,40.7917],[-111.5253,40.789],[-111.5275,40.7858],[-111.5312,40.7843],[-111.5474,40.7817],[-111.5545,40.78],[-111.5578,40.7807],[-111.5593,40.7847],[-111.571,40.7856],[-111.5758,40.7885],[-111.5815,40.7893],[-111.5819,40.7916],[-111.5879,40.7937],[-111.588,40.7975],[-111.5912,40.8],[-111.5942,40.805],[-111.6038,40.8089],[-111.611,40.8111],[-111.6166,40.8106],[-111.6243,40.8047],[-111.6377,40.8011],[-111.6411,40.7989],[-111.6408,40.8051],[-111.6425,40.8057],[-111.639,40.8093],[-111.6423,40.8185],[-111.6456,40.8205],[-111.6456,40.8241],[-111.6518,40.824],[-111.6525,40.8273],[-111.6567,40.8305],[-111.6645,40.8299],[-111.6661,40.8321],[-111.664,40.8409],[-111.6605,40.8451],[-111.664,40.8502],[-111.6726,40.8538],[-111.6741,40.8553],[-111.6833,40.8563],[-111.6872,40.8588],[-111.6909,40.8588],[-111.6959,40.8618],[-111.7013,40.8612],[-111.7039,40.8558],[-111.7073,40.8526],[-111.7124,40.8517],[-111.7176,40.8531],[-111.7208,40.8558],[-111.7246,40.8547],[-111.729,40.8563],[-111.7333,40.8594],[-111.7389,40.8612],[-111.7403,40.8652],[-111.7464,40.8709],[-111.7524,40.8725],[-111.7588,40.8722],[-111.7636,40.8736],[-111.7687,40.8723],[-111.7683,40.8756],[-111.7651,40.8783],[-111.7617,40.8853],[-111.764,40.889],[-111.7703,40.8879],[-111.7726,40.8933],[-111.7778,40.8965],[-111.7815,40.8956],[-111.7761,40.9005],[-111.7788,40.9041],[-111.7831,40.9128],[-111.7937,40.916],[-111.7931,40.9247],[-111.7911,40.927],[-111.796,40.9341],[-111.804,40.9407],[-111.8039,40.9442],[-111.8069,40.9492],[-111.8117,40.9502],[-111.8153,40.9572],[-111.8139,40.96],[-111.8097,40.9575],[-111.8038,40.9593],[-111.7982,40.959],[-111.7947,40.9609],[-111.7908,40.9609],[-111.7847,40.9572],[-111.775,40.9593],[-111.7756,40.9614],[-111.7828,40.9689],[-111.7853,40.9748],[-111.793,40.9857],[-111.7988,40.9893],[-111.8042,40.995],[-111.8067,40.9999],[-111.8061,41.0017],[-111.8105,41.0051],[-111.82,41.0065],[-111.8219,41.0078],[-111.8205,41.0108],[-111.8257,41.0185],[-111.8288,41.0208],[-111.8346,41.0203],[-111.8384,41.0235],[-111.8374,41.0256],[-111.8394,41.0314],[-111.8368,41.0362],[-111.8337,41.037],[-111.8395,41.0407],[-111.8387,41.0448],[-111.8442,41.0499],[-111.8439,41.0562],[-111.8462,41.0611],[-111.849,41.0624],[-111.8518,41.0667],[-111.8484,41.0757],[-111.852,41.0825],[-111.8508,41.0879],[-111.8551,41.0927],[-111.8518,41.0977],[-111.8565,41.1029],[-111.854,41.1081],[-111.8561,41.1119],[-111.8542,41.1141],[-111.8496,41.1155],[-111.8446,41.1218],[-111.8468,41.1271],[-111.8464,41.1292],[-111.849,41.1338],[-111.857,41.1369],[-111.8562,41.1391],[-111.8575,41.1483],[-111.8549,41.1505],[-111.8545,41.1543],[-111.8572,41.1565],[-111.8669,41.1591],[-111.8701,41.1608],[-111.8715,41.165],[-111.8766,41.1697],[-111.8746,41.1735],[-111.8712,41.1762],[-111.8688,41.1811],[-111.8713,41.1833],[-111.873,41.1878],[-111.8603,41.1939],[-111.8582,41.1976],[-111.8494,41.1979],[-111.8366,41.2002],[-111.8363,41.2017],[-111.8289,41.2048],[-111.8175,41.2048],[-111.8126,41.2098],[-111.8123,41.2121],[-111.8079,41.2127],[-111.8061,41.2159],[-111.8,41.2172],[-111.7936,41.2159],[-111.7897,41.2186],[-111.7789,41.2167],[-111.7745,41.2181],[-111.7707,41.2147],[-111.7637,41.2104],[-111.7649,41.208],[-111.7576,41.2107],[-111.7547,41.2148],[-111.7491,41.2145],[-111.746,41.2124],[-111.7467,41.2075],[-111.7455,41.2038],[-111.7371,41.2013],[-111.7328,41.198],[-111.7275,41.1969],[-111.7273,41.1947],[-111.7215,41.1916],[-111.7174,41.1866],[-111.7133,41.1863],[-111.7059,41.1832],[-111.6984,41.1818],[-111.696,41.1825],[-111.6848,41.1806],[-111.6817,41.182],[-111.6781,41.1812],[-111.6758,41.1835],[-111.6727,41.1831],[-111.6725,41.1854],[-111.6666,41.1876],[-111.6586,41.1857],[-111.6544,41.1893],[-111.6477,41.1918],[-111.6431,41.1976],[-111.6404,41.1989],[-111.6331,41.1985],[-111.625,41.2],[-111.6228,41.2058],[-111.6148,41.208],[-111.6117,41.2099],[-111.609,41.2162],[-111.6066,41.2248],[-111.609,41.2294],[-111.5964,41.2387],[-111.5888,41.241],[-111.584,41.2383],[-111.576,41.2394],[-111.5716,41.2387],[-111.5596,41.2401],[-111.5541,41.2378],[-111.5368,41.2365],[-111.5299,41.2328],[-111.529,41.2298],[-111.5261,41.2288],[-111.5227,41.2302],[-111.512,41.229],[-111.5103,41.2309],[-111.5061,41.2309],[-111.5039,41.2289],[-111.4972,41.2269],[-111.4968,41.2306],[-111.4915,41.2369],[-111.4946,41.241],[-111.4848,41.2436],[-111.4823,41.2455],[-111.4776,41.2452],[-111.4782,41.2505],[-111.4717,41.2515],[-111.4711,41.2557],[-111.4644,41.2581],[-111.4665,41.2625],[-111.4623,41.2665],[-111.4581,41.2679],[-111.4581,41.2733],[-111.4525,41.2746],[-111.4451,41.2781],[-111.4465,41.2816],[-111.4445,41.2875],[-111.4401,41.2896],[-111.4428,41.2924],[-111.4391,41.2948],[-111.4426,41.2982],[-111.4441,41.3063],[-111.4484,41.3106],[-111.4494,41.3157],[-111.4447,41.3182],[-111.4431,41.3222],[-111.4377,41.3233],[-111.4366,41.3313],[-111.438,41.3379],[-111.4344,41.3423],[-111.4293,41.3415],[-111.4268,41.3427],[-111.4241,41.3468],[-111.424,41.3563],[-111.4207,41.3613],[-111.4179,41.3622]]]}}]}