{"type":"FeatureCollection","features":[{"type":"Feature","properties":{"zcta":"84037","d":899},"geometry":{"type":"Polygon","coordinates":[[[-111.9991,41.04025],[-111.99504,41.03639],[-111.98742,41.0413],[-111.98681,41.04369],[-111.98077,41.04561],[-111.97603,41.04917],[-111.97246,41.04516],[-111.97004,41.04823],[-111.96873,41.04777],[-111.96689,41.04437],[-111.96258,41.04665],[-111.96355,41.04772],[-111.95908,41.04974],[-111.95588,41.04525],[-111.95214,41.04564],[-111.954,41.04833],[-111.9498,41.04976],[-111.94772,41.04917],[-111.94214,41.05188],[-111.94121,41.05415],[-111.93647,41.05507],[-111.9346,41.0565],[-111.93058,41.05702],[-111.93057,41.05611],[-111.92624,41.05709],[-111.92587,41.06008],[-111.92055,41.06015],[-111.91826,41.05773],[-111.9104,41.05907],[-111.90403,41.05943],[-111.90159,41.06011],[-111.9016,41.05652],[-111.89928,41.05602],[-111.89514,41.05649],[-111.89093,41.05409],[-111.8888,41.05523],[-111.88562,41.05494],[-111.88074,41.05251],[-111.87754,41.05315],[-111.87014,41.05287],[-111.86632,41.05347],[-111.86356,41.05262],[-111.85486,41.05475],[-111.85221,41.058],[-111.84443,41.05886],[-111.84394,41.05624],[-111.84416,41.04985],[-111.84085,41.04587],[-111.83869,41.04466],[-111.83834,41.04242],[-111.83944,41.04065],[-111.83756,41.04013],[-111.83369,41.03701],[-111.83683,41.03618],[-111.8394,41.03137],[-111.83744,41.02557],[-111.83839,41.02348],[-111.83462,41.02032],[-111.82879,41.02078],[-111.8257,41.0185],[-111.82053,41.01084],[-111.82192,41.00812],[-111.81998,41.00645],[-111.81047,41.00509],[-111.80613,41.00169],[-111.80673,40.99994],[-111.80417,40.99497],[-111.79885,40.98935],[-111.79651,40.98868],[-111.79304,40.98574],[-111.79191,40.98307],[-111.78853,40.97972],[-111.78533,40.97483],[-111.78277,40.96885],[-111.77562,40.96136],[-111.77504,40.95932],[-111.78004,40.95817],[-111.78253,40.9568],[-111.78469,40.95722],[-111.79076,40.96085],[-111.79473,40.96093],[-111.79817,40.95905],[-111.80034,40.95971],[-111.80382,40.95935],[-111.8077,40.95741],[-111.80972,40.9575],[-111.81465,40.95977],[-111.8185,40.96212],[-111.82008,40.95949],[-111.82698,40.95889],[-111.83005,40.95912],[-111.83324,40.95816],[-111.83794,40.9595],[-111.84417,40.96313],[-111.84691,40.96426],[-111.85347,40.96199],[-111.85723,40.96467],[-111.86095,40.96453],[-111.87293,40.96598],[-111.87302,40.97279],[-111.87568,40.98046],[-111.87784,40.98537],[-111.88196,40.99615],[-111.88018,40.99808],[-111.88298,40.9984],[-111.88381,40.99994],[-111.8873,41.00186],[-111.89037,41.00206],[-111.89212,41.00384],[-111.89223,41.01653],[-111.89696,41.01648],[-111.89696,41.01402],[-111.90169,41.01285],[-111.90168,41.01644],[-111.90649,41.01642],[-111.91196,41.01132],[-111.91406,41.0128],[-111.91897,41.01287],[-111.91998,41.00997],[-111.92272,41.00832],[-111.92597,41.00818],[-111.92596,41.00546],[-111.93112,41.00561],[-111.923,41.00028],[-111.9257,40.99945],[-111.93091,40.99981],[-111.92989,40.99707],[-111.93093,40.99618],[-111.94303,40.99612],[-111.94406,40.99373],[-111.94407,40.99056],[-111.93992,40.98741],[-111.94123,40.9818],[-111.93901,40.97285],[-111.93875,40.96938],[-111.93428,40.96537],[-111.93473,40.96051],[-111.9325,40.95811],[-111.92853,40.95699],[-111.92485,40.95783],[-111.91677,40.95427],[-111.91114,40.9523],[-111.90605,40.94943],[-111.90222,40.94343],[-111.90155,40.94347],[-111.90098,40.94157],[-111.90168,40.93682],[-111.90779,40.93179],[-111.91154,40.92233],[-111.91774,40.92006],[-111.9218,40.91717],[-111.92435,40.91115],[-111.94556,40.91116],[-111.94803,40.9124],[-111.94807,40.91895],[-111.95414,40.91935],[-111.95866,40.91806],[-111.95867,40.92182],[-112.00075,40.92185],[-112.00078,40.98437],[-112.00059,40.98538],[-112.00762,40.98548],[-112.00739,40.99994],[-111.99647,41.01754],[-112.00691,41.03261],[-112.00678,41.03412],[-111.9991,41.04025]]]}},{"type":"Feature","properties":{"zcta":"84050","d":14},"geometry":{"type":"Polygon","coordinates":[[[-111.86027,41.19388],[-111.85821,41.1976],[-111.8494,41.19794],[-111.84018,41.19929],[-111.83657,41.20024],[-111.83615,41.20186],[-111.83059,41.20339],[-111.82897,41.20476],[-111.82293,41.20537],[-111.82052,41.20438],[-111.81757,41.20471],[-111.81247,41.20993],[-111.81225,41.21205],[-111.80778,41.21278],[-111.80597,41.2159],[-111.80402,41.21573],[-111.79981,41.21718],[-111.79726,41.21579],[-111.79359,41.21591],[-111.78971,41.21863],[-111.78811,41.21792],[-111.78298,41.21775],[-111.7812,41.21867],[-111.77892,41.21669],[-111.77448,41.21815],[-111.77202,41.2168],[-111.77072,41.21469],[-111.76626,41.21249],[-111.76367,41.21045],[-111.76493,41.20803],[-111.76168,41.20836],[-111.76074,41.20973],[-111.75759,41.21068],[-111.75709,41.21253],[-111.75464,41.21477],[-111.75189,41.21368],[-111.74908,41.21454],[-111.74598,41.21245],[-111.74669,41.20747],[-111.74552,41.20376],[-111.73986,41.20167],[-111.73713,41.20129],[-111.73309,41.19881],[-111.73262,41.19779],[-111.72812,41.19726],[-111.72624,41.19342],[-111.72478,41.19345],[-111.71848,41.18903],[-111.71711,41.18641],[-111.71329,41.18629],[-111.70586,41.18319],[-111.70441,41.18341],[-111.69837,41.18181],[-111.69603,41.18246],[-111.69103,41.18123],[-111.68476,41.18061],[-111.68168,41.182],[-111.67802,41.18121],[-111.67582,41.18354],[-111.67268,41.18309],[-111.6725,41.18541],[-111.67012,41.18557],[-111.66737,41.18742],[-111.66278,41.18747],[-111.65864,41.18572],[-111.65687,41.18614],[-111.65439,41.18932],[-111.64766,41.19178],[-111.64637,41.19275],[-111.64312,41.19758],[-111.64092,41.19881],[-111.63042,41.19879],[-111.62429,41.20037],[-111.62287,41.20576],[-111.615,41.20797],[-111.61198,41.20956],[-111.60911,41.21589],[-111.60686,41.22312],[-111.6068,41.22546],[-111.6095,41.22779],[-111.60925,41.22922],[-111.60535,41.23174],[-111.60331,41.23413],[-111.59672,41.23855],[-111.59131,41.24081],[-111.58881,41.24099],[-111.58404,41.23834],[-111.57958,41.23855],[-111.57604,41.23939],[-111.57203,41.23879],[-111.56833,41.23903],[-111.56169,41.24031],[-111.55973,41.24024],[-111.55538,41.23792],[-111.54566,41.23698],[-111.53842,41.23679],[-111.53526,41.23618],[-111.52949,41.2324],[-111.52896,41.22984],[-111.53277,41.22938],[-111.53538,41.22552],[-111.53894,41.22147],[-111.54285,41.21901],[-111.54203,41.21116],[-111.54493,41.20592],[-111.54459,41.20285],[-111.54341,41.20093],[-111.54322,41.19686],[-111.54591,41.19475],[-111.54984,41.19337],[-111.5526,41.1892],[-111.55505,41.19018],[-111.55984,41.18687],[-111.56012,41.18536],[-111.56293,41.18294],[-111.56393,41.18078],[-111.56229,41.17964],[-111.56356,41.17671],[-111.56342,41.16901],[-111.56599,41.16848],[-111.56706,41.16502],[-111.56694,41.16023],[-111.56132,41.15532],[-111.56101,41.15142],[-111.55819,41.14661],[-111.55649,41.14645],[-111.55523,41.14386],[-111.5535,41.14271],[-111.55311,41.14006],[-111.55519,41.13546],[-111.55524,41.13289],[-111.554,41.12866],[-111.55163,41.12387],[-111.54608,41.11945],[-111.54501,41.11512],[-111.54639,41.11149],[-111.54467,41.11058],[-111.54344,41.1071],[-111.54372,41.10327],[-111.54168,41.10252],[-111.5395,41.09803],[-111.54038,41.09637],[-111.54025,41.09249],[-111.54172,41.08884],[-111.54536,41.08609],[-111.5449,41.08311],[-111.54331,41.08042],[-111.54105,41.07998],[-111.54127,41.0786],[-111.53575,41.07552],[-111.53061,41.07429],[-111.52569,41.07101],[-111.52921,41.06657],[-111.53054,41.0624],[-111.53539,41.06044],[-111.53955,41.06032],[-111.54013,41.05916],[-111.53782,41.05794],[-111.53291,41.05704],[-111.53101,41.05558],[-111.52977,41.05284],[-111.53273,41.05112],[-111.53655,41.0475],[-111.54105,41.04528],[-111.5437,41.04055],[-111.54559,41.03924],[-111.54537,41.03739],[-111.55066,41.03577],[-111.55507,41.0322],[-111.55297,41.02971],[-111.55629,41.02707],[-111.55731,41.02265],[-111.55397,41.02157],[-111.55333,41.02046],[-111.55434,41.01705],[-111.55875,41.011],[-111.56047,41.01042],[-111.56439,41.00738],[-111.56873,41.00288],[-111.56663,41.00048],[-111.56882,41.00008],[-111.57278,41.00069],[-111.57508,40.99853],[-111.57985,40.99591],[-111.58765,40.9963],[-111.59257,40.9933],[-111.59347,40.99162],[-111.59368,40.98634],[-111.59141,40.98441],[-111.59063,40.98215],[-111.58765,40.97872],[-111.58831,40.97496],[-111.58763,40.97179],[-111.58803,40.96586],[-111.58587,40.96452],[-111.58422,40.9616],[-111.58066,40.9611],[-111.5776,40.95837],[-111.57427,40.96072],[-111.56935,40.96073],[-111.5667,40.95952],[-111.56245,40.96018],[-111.5601,40.95978],[-111.55691,40.95801],[-111.55173,40.95407],[-111.54747,40.95487],[-111.54276,40.95467],[-111.53715,40.95636],[-111.53426,40.95815],[-111.53231,40.95794],[-111.52703,40.95427],[-111.52489,40.95384],[-111.52544,40.95013],[-111.52359,40.94592],[-111.5265,40.9385],[-111.5263,40.93097],[-111.52744,40.92688],[-111.52715,40.92361],[-111.52828,40.92251],[-111.52875,40.91896],[-111.52356,40.91927],[-111.51491,40.91689],[-111.51341,40.91324],[-111.51009,40.91185],[-111.50858,40.9097],[-111.51024,40.90497],[-111.50957,40.90242],[-111.51059,40.90041],[-111.50977,40.89778],[-111.50649,40.89706],[-111.50597,40.89462],[-111.5032,40.89405],[-111.49943,40.88936],[-111.49858,40.8845],[-111.49612,40.88249],[-111.49477,40.87953],[-111.48952,40.87552],[-111.48907,40.87413],[-111.48616,40.87312],[-111.48166,40.86466],[-111.47966,40.85854],[-111.48042,40.8554],[-111.48338,40.85358],[-111.48784,40.85432],[-111.49193,40.8501],[-111.49367,40.84575],[-111.49847,40.83757],[-111.50006,40.83202],[-111.50127,40.8315],[-111.50573,40.82538],[-111.51006,40.82107],[-111.51692,40.81939],[-111.51617,40.81279],[-111.51306,40.81046],[-111.51084,40.81038],[-111.51161,40.8079],[-111.51455,40.80546],[-111.51429,40.80043],[-111.51795,40.79818],[-111.51942,40.79169],[-111.5253,40.78902],[-111.52798,40.78536],[-111.53418,40.78372],[-111.54128,40.78293],[-111.54743,40.78171],[-111.54912,40.78077],[-111.55447,40.77995],[-111.55784,40.78069],[-111.55741,40.78254],[-111.55977,40.78488],[-111.56443,40.78467],[-111.56662,40.78551],[-111.57102,40.78558],[-111.57585,40.78846],[-111.58146,40.78927],[-111.58193,40.79158],[-111.5879,40.79369],[-111.58796,40.79751],[-111.59118,40.80004],[-111.59422,40.805],[-111.59809,40.80611],[-111.60385,40.80887],[-111.61103,40.81106],[-111.61661,40.81064],[-111.62129,40.80771],[-111.62432,40.8047],[-111.62747,40.8044],[-111.6292,40.8033],[-111.63773,40.80114],[-111.64105,40.79892],[-111.64082,40.80506],[-111.64248,40.80574],[-111.63905,40.80929],[-111.64038,40.81479],[-111.64227,40.81845],[-111.64559,40.82054],[-111.64565,40.82406],[-111.64887,40.82455],[-111.65176,40.82404],[-111.65246,40.82735],[-111.65673,40.8305],[-111.6645,40.8299],[-111.66613,40.83211],[-111.66389,40.84092],[-111.66048,40.84508],[-111.66203,40.84838],[-111.664,40.85019],[-111.66887,40.85237],[-111.6698,40.85353],[-111.67253,40.85376],[-111.67411,40.85528],[-111.67926,40.85618],[-111.68332,40.8563],[-111.68721,40.85881],[-111.69088,40.85883],[-111.69591,40.86178],[-111.70129,40.86124],[-111.70385,40.85583],[-111.70673,40.85277],[-111.71236,40.85168],[-111.71622,40.8536],[-111.71763,40.85315],[-111.72084,40.85576],[-111.72462,40.85469],[-111.72903,40.85633],[-111.73331,40.8594],[-111.73874,40.861],[-111.7405,40.8654],[-111.74423,40.86955],[-111.74699,40.87118],[-111.75447,40.87278],[-111.759,40.87231],[-111.76377,40.87371],[-111.76829,40.87253],[-111.7682,40.87515],[-111.76508,40.87872],[-111.76344,40.88311],[-111.76178,40.88503],[-111.76177,40.88737],[-111.76309,40.88862],[-111.77022,40.88842],[-111.77177,40.89245],[-111.77553,40.89568],[-111.7817,40.89604],[-111.78006,40.89797],[-111.77641,40.89897],[-111.77606,40.90112],[-111.77831,40.90319],[-111.77869,40.90589],[-111.78123,40.90877],[-111.7826,40.91279],[-111.79347,40.91586],[-111.794,40.91844],[-111.7927,40.92084],[-111.7931,40.92411],[-111.79081,40.92779],[-111.7932,40.93036],[-111.79543,40.93203],[-111.79598,40.93411],[-111.80083,40.93757],[-111.80398,40.9407],[-111.80388,40.94424],[-111.80687,40.94919],[-111.81169,40.95017],[-111.81318,40.95393],[-111.8153,40.95718],[-111.81465,40.95977],[-111.80972,40.9575],[-111.8077,40.95741],[-111.80382,40.95935],[-111.80034,40.95971],[-111.79817,40.95905],[-111.79473,40.96093],[-111.79076,40.96085],[-111.78469,40.95722],[-111.78253,40.9568],[-111.78004,40.95817],[-111.77504,40.95932],[-111.77562,40.96136],[-111.78277,40.96885],[-111.78533,40.97483],[-111.78853,40.97972],[-111.79191,40.98307],[-111.79304,40.98574],[-111.79651,40.98868],[-111.79885,40.98935],[-111.80417,40.99497],[-111.80673,40.99994],[-111.80613,41.00169],[-111.81047,41.00509],[-111.81998,41.00645],[-111.82192,41.00812],[-111.82053,41.01084],[-111.8257,41.0185],[-111.82879,41.02078],[-111.83462,41.02032],[-111.83839,41.02348],[-111.83744,41.02557],[-111.8394,41.03137],[-111.83683,41.03618],[-111.83369,41.03701],[-111.83756,41.04013],[-111.83944,41.04065],[-111.83834,41.04242],[-111.83869,41.04466],[-111.84085,41.04587],[-111.84416,41.04985],[-111.84394,41.05624],[-111.84443,41.05886],[-111.84623,41.06114],[-111.84902,41.06236],[-111.8518,41.06665],[-111.85045,41.07138],[-111.84836,41.07574],[-111.85033,41.0779],[-111.85078,41.08148],[-111.85195,41.08246],[-111.85083,41.0879],[-111.85334,41.08954],[-111.85513,41.09272],[-111.85176,41.09769],[-111.8546,41.09951],[-111.8565,41.10288],[-111.85396,41.10814],[-111.85611,41.11191],[-111.85415,41.11414],[-111.84916,41.1156],[-111.84814,41.11819],[-111.84652,41.11893],[-111.84455,41.12179],[-111.84649,41.12602],[-111.84633,41.12885],[-111.84935,41.13393],[-111.85716,41.13751],[-111.85625,41.13908],[-111.85653,41.14304],[-111.85759,41.14409],[-111.85751,41.14829],[-111.85494,41.15048],[-111.85456,41.15452],[-111.85839,41.15708],[-111.86687,41.1591],[-111.87055,41.1611],[-111.8714,41.16491],[-111.8766,41.16974],[-111.87463,41.17345],[-111.87116,41.17617],[-111.87106,41.17803],[-111.86883,41.18106],[-111.87133,41.18327],[-111.87295,41.18777],[-111.8713,41.18909],[-111.86531,41.19151],[-111.86027,41.19388]]]}},{"type":"Feature","properties":{"zcta":"84310","d":21},"geometry":{"type":"Polygon","coordinates":[[[-111.72237,41.38553],[-111.7124,41.38664],[-111.70636,41.38611],[-111.70321,41.38505],[-111.69679,41.37344],[-111.696,41.36813],[-111.69486,41.36467],[-111.6958,41.36202],[-111.69561,41.3547],[-111.69267,41.35063],[-111.6927,41.34745],[-111.69643,41.34411],[-111.69661,41.33991],[-111.69533,41.33743],[-111.69587,41.33555],[-111.69949,41.33413],[-111.71068,41.32271],[-111.71084,41.31974],[-111.7204,41.31403],[-111.72397,41.31228],[-111.73563,41.30482],[-111.74185,41.30325],[-111.74926,41.2969],[-111.75798,41.29459],[-111.7581,41.29124],[-111.76727,41.28794],[-111.77499,41.28665],[-111.77626,41.28753],[-111.78252,41.28843],[-111.78571,41.28773],[-111.79022,41.29075],[-111.79033,41.29259],[-111.79401,41.28929],[-111.79239,41.2862],[-111.794,41.28406],[-111.7937,41.28127],[-111.79228,41.27935],[-111.79406,41.27713],[-111.79739,41.27905],[-111.79625,41.28177],[-111.79959,41.28139],[-111.8005,41.27784],[-111.7981,41.2786],[-111.79709,41.27754],[-111.80155,41.27438],[-111.80686,41.27336],[-111.80955,41.27104],[-111.81269,41.27124],[-111.8132,41.27292],[-111.8102,41.27518],[-111.81081,41.27902],[-111.80922,41.2862],[-111.81622,41.28942],[-111.81639,41.29218],[-111.81807,41.2927],[-111.82485,41.29002],[-111.82265,41.28783],[-111.81943,41.28184],[-111.81907,41.27617],[-111.81948,41.27139],[-111.81779,41.26754],[-111.81871,41.26606],[-111.82175,41.26474],[-111.82182,41.26627],[-111.82471,41.26589],[-111.82607,41.26278],[-111.83062,41.25946],[-111.83655,41.25847],[-111.83907,41.25644],[-111.84258,41.25527],[-111.84617,41.25683],[-111.87347,41.25682],[-111.88357,41.25609],[-111.89076,41.2519],[-111.90372,41.24612],[-111.91725,41.24193],[-111.92615,41.24052],[-111.92891,41.24461],[-111.93285,41.24887],[-111.93627,41.25055],[-111.93555,41.25382],[-111.9403,41.26123],[-111.94427,41.26438],[-111.94525,41.26969],[-111.94397,41.27325],[-111.94395,41.28468],[-111.94263,41.28748],[-111.94204,41.29192],[-111.9404,41.29594],[-111.93667,41.30073],[-111.93701,41.30227],[-111.93496,41.30325],[-111.9326,41.30277],[-111.93301,41.31005],[-111.9318,41.31195],[-111.92146,41.31061],[-111.9154,41.31109],[-111.90897,41.31401],[-111.90798,41.31584],[-111.90302,41.3196],[-111.89966,41.32032],[-111.91026,41.32502],[-111.91546,41.32992],[-111.91546,41.33782],[-111.91646,41.34903],[-111.92557,41.35423],[-111.94067,41.35263],[-111.94937,41.35754],[-111.95517,41.36364],[-111.96258,41.36494],[-111.96325,41.36549],[-111.9676,41.36989],[-111.97183,41.37494],[-111.97523,41.37787],[-111.97422,41.38206],[-111.97576,41.38416],[-111.9731,41.3877],[-111.96868,41.39187],[-111.9675,41.39514],[-111.96771,41.39931],[-111.96718,41.40466],[-111.96776,41.40994],[-111.9715,41.41438],[-111.97236,41.42009],[-111.97009,41.42069],[-111.96376,41.42519],[-111.95949,41.43096],[-111.95829,41.43387],[-111.95477,41.43184],[-111.95387,41.42923],[-111.94918,41.42605],[-111.94472,41.42393],[-111.94392,41.42228],[-111.94055,41.42047],[-111.93881,41.41845],[-111.93828,41.41588],[-111.93154,41.41616],[-111.92635,41.41254],[-111.92345,41.41327],[-111.91829,41.41236],[-111.91378,41.41317],[-111.91353,41.41413],[-111.90896,41.4158],[-111.9055,41.41492],[-111.90412,41.41877],[-111.90107,41.41948],[-111.89806,41.41801],[-111.89297,41.41816],[-111.8915,41.42279],[-111.89029,41.42402],[-111.88544,41.42637],[-111.88255,41.42489],[-111.87577,41.42357],[-111.87224,41.42135],[-111.87559,41.41819],[-111.87946,41.41626],[-111.87932,41.4126],[-111.87554,41.40978],[-111.87499,41.40461],[-111.86986,41.40088],[-111.86851,41.3985],[-111.86371,41.39957],[-111.86184,41.39858],[-111.86024,41.39597],[-111.85702,41.39663],[-111.85517,41.3943],[-111.8516,41.3934],[-111.84825,41.39348],[-111.84139,41.39132],[-111.83921,41.39003],[-111.83922,41.38869],[-111.8364,41.38787],[-111.83267,41.38983],[-111.8296,41.3893],[-111.82784,41.39261],[-111.82614,41.39177],[-111.82014,41.3919],[-111.8182,41.39014],[-111.81411,41.38796],[-111.80742,41.38891],[-111.8048,41.39073],[-111.80076,41.39073],[-111.79742,41.39232],[-111.7926,41.39086],[-111.79039,41.38821],[-111.78911,41.38453],[-111.78406,41.38241],[-111.78084,41.37861],[-111.77533,41.37656],[-111.77159,41.37583],[-111.76654,41.37002],[-111.76211,41.36904],[-111.75662,41.36923],[-111.75216,41.37069],[-111.7463,41.36979],[-111.74371,41.3717],[-111.73773,41.37421],[-111.73001,41.37506],[-111.72618,41.37599],[-111.72513,41.37763],[-111.72723,41.38141],[-111.72689,41.38505],[-111.72513,41.38656],[-111.72237,41.38553]]]}},{"type":"Feature","properties":{"zcta":"84408","d":0},"geometry":{"type":"Polygon","coordinates":[[[-111.94384,41.19479],[-111.94206,41.19573],[-111.93822,41.19575],[-111.93763,41.19745],[-111.92949,41.19738],[-111.92967,41.19026],[-111.9408,41.1903],[-111.944,41.18611],[-111.94897,41.18747],[-111.94875,41.19585],[-111.94384,41.19479]]]}},{"type":"Feature","properties":{"zcta":"84317","d":6},"geometry":{"type":"Polygon","coordinates":[[[-111.83982,41.25106],[-111.84258,41.25527],[-111.83907,41.25644],[-111.83655,41.25847],[-111.83062,41.25946],[-111.82607,41.26278],[-111.82471,41.26589],[-111.82182,41.26627],[-111.82175,41.26474],[-111.81871,41.26606],[-111.81779,41.26754],[-111.81948,41.27139],[-111.81907,41.27617],[-111.81943,41.28184],[-111.82265,41.28783],[-111.82485,41.29002],[-111.81807,41.2927],[-111.81639,41.29218],[-111.81622,41.28942],[-111.80922,41.2862],[-111.81081,41.27902],[-111.8102,41.27518],[-111.8132,41.27292],[-111.81269,41.27124],[-111.80955,41.27104],[-111.80686,41.27336],[-111.80155,41.27438],[-111.79709,41.27754],[-111.7981,41.2786],[-111.8005,41.27784],[-111.79959,41.28139],[-111.79625,41.28177],[-111.79739,41.27905],[-111.79406,41.27713],[-111.79228,41.27935],[-111.7937,41.28127],[-111.794,41.28406],[-111.79239,41.2862],[-111.79401,41.28929],[-111.79033,41.29259],[-111.79022,41.29075],[-111.78571,41.28773],[-111.78252,41.28843],[-111.77626,41.28753],[-111.77499,41.28665],[-111.76727,41.28794],[-111.7581,41.29124],[-111.75798,41.29459],[-111.74926,41.2969],[-111.74185,41.30325],[-111.73563,41.30482],[-111.72397,41.31228],[-111.7204,41.31403],[-111.71084,41.31974],[-111.71068,41.32271],[-111.69949,41.33413],[-111.69587,41.33555],[-111.69533,41.33743],[-111.69661,41.33991],[-111.69643,41.34411],[-111.6927,41.34745],[-111.69267,41.35063],[-111.69561,41.3547],[-111.6958,41.36202],[-111.69486,41.36467],[-111.696,41.36813],[-111.69679,41.37344],[-111.70321,41.38505],[-111.70636,41.38611],[-111.7124,41.38664],[-111.72237,41.38553],[-111.72513,41.38656],[-111.72293,41.38978],[-111.71701,41.39337],[-111.71595,41.39497],[-111.71203,41.39503],[-111.71053,41.3978],[-111.71219,41.39849],[-111.7094,41.4026],[-111.70652,41.40484],[-111.70697,41.40899],[-111.70618,41.41086],[-111.70678,41.41308],[-111.71241,41.41352],[-111.71368,41.41504],[-111.71874,41.41703],[-111.72023,41.42031],[-111.7229,41.42316],[-111.72147,41.42732],[-111.71818,41.42458],[-111.71459,41.42519],[-111.71181,41.42314],[-111.70779,41.42542],[-111.70409,41.42105],[-111.69649,41.41707],[-111.69345,41.41814],[-111.68974,41.41841],[-111.68854,41.42085],[-111.68551,41.42125],[-111.68558,41.42314],[-111.68303,41.42486],[-111.68024,41.42554],[-111.67907,41.4273],[-111.67347,41.42738],[-111.66693,41.4288],[-111.66411,41.42358],[-111.66133,41.42191],[-111.66057,41.41868],[-111.65813,41.41724],[-111.65626,41.41363],[-111.65289,41.41138],[-111.65264,41.40779],[-111.64876,41.40677],[-111.64752,41.40546],[-111.64384,41.40609],[-111.6431,41.41057],[-111.63986,41.41464],[-111.63748,41.41479],[-111.63092,41.41836],[-111.62679,41.4176],[-111.62294,41.41929],[-111.62273,41.42035],[-111.61899,41.42209],[-111.61231,41.4215],[-111.61031,41.41892],[-111.60412,41.41944],[-111.59911,41.42131],[-111.59485,41.41967],[-111.58996,41.41872],[-111.58386,41.41842],[-111.57548,41.42877],[-111.57378,41.42838],[-111.57165,41.42508],[-111.56657,41.42439],[-111.56466,41.42312],[-111.55978,41.4234],[-111.55735,41.42477],[-111.55404,41.42343],[-111.55168,41.41408],[-111.54829,41.41088],[-111.545,41.40957],[-111.5434,41.40536],[-111.54019,41.40653],[-111.54072,41.40803],[-111.53721,41.4112],[-111.53417,41.41126],[-111.53185,41.41452],[-111.52818,41.41455],[-111.52434,41.41601],[-111.52135,41.41597],[-111.52091,41.41807],[-111.51742,41.42165],[-111.51407,41.42175],[-111.51084,41.4231],[-111.51069,41.42068],[-111.5064,41.41788],[-111.50786,41.41384],[-111.50375,41.41347],[-111.50049,41.41144],[-111.49989,41.4089],[-111.49414,41.40575],[-111.49039,41.40464],[-111.4843,41.40465],[-111.48165,41.4011],[-111.47551,41.39987],[-111.47775,41.39466],[-111.47842,41.39057],[-111.4783,41.3858],[-111.47762,41.38435],[-111.47433,41.38374],[-111.4711,41.38185],[-111.4652,41.38074],[-111.46187,41.37862],[-111.46251,41.37686],[-111.46079,41.37419],[-111.45537,41.37282],[-111.44817,41.37286],[-111.44571,41.37134],[-111.44686,41.36814],[-111.44594,41.36667],[-111.43936,41.36619],[-111.43777,41.36669],[-111.4365,41.36434],[-111.43406,41.36224],[-111.43016,41.36211],[-111.42412,41.36479],[-111.42346,41.36314],[-111.42073,41.36131],[-111.42078,41.35971],[-111.42401,41.35634],[-111.42367,41.34829],[-111.42668,41.34278],[-111.42933,41.3415],[-111.43436,41.34226],[-111.43658,41.33889],[-111.43815,41.33811],[-111.43635,41.33612],[-111.4378,41.33429],[-111.43659,41.33125],[-111.43741,41.32356],[-111.44339,41.32206],[-111.44471,41.31823],[-111.44941,41.31571],[-111.44804,41.31389],[-111.44842,41.31057],[-111.44518,41.30812],[-111.44411,41.30629],[-111.44424,41.30291],[-111.44185,41.30006],[-111.44255,41.29824],[-111.43918,41.29512],[-111.44282,41.29236],[-111.44011,41.28959],[-111.44448,41.28748],[-111.44601,41.28527],[-111.44647,41.28157],[-111.44514,41.27839],[-111.44855,41.27599],[-111.45254,41.27462],[-111.45406,41.27492],[-111.4577,41.27368],[-111.4573,41.26941],[-111.45814,41.26787],[-111.46188,41.26679],[-111.46261,41.26517],[-111.46646,41.26248],[-111.46649,41.26102],[-111.46443,41.25811],[-111.4689,41.25709],[-111.47112,41.25575],[-111.47068,41.2531],[-111.47169,41.25146],[-111.47431,41.25058],[-111.47793,41.2508],[-111.47822,41.24794],[-111.47718,41.24553],[-111.48231,41.24549],[-111.48494,41.24356],[-111.49446,41.24126],[-111.49404,41.23983],[-111.49127,41.2382],[-111.49131,41.23711],[-111.49681,41.23061],[-111.49667,41.22729],[-111.50389,41.22887],[-111.50606,41.23093],[-111.51029,41.23093],[-111.51198,41.22897],[-111.52266,41.23025],[-111.52612,41.22875],[-111.52896,41.22984],[-111.52949,41.2324],[-111.53526,41.23618],[-111.53842,41.23679],[-111.54566,41.23698],[-111.55538,41.23792],[-111.55973,41.24024],[-111.56169,41.24031],[-111.56833,41.23903],[-111.57203,41.23879],[-111.57604,41.23939],[-111.57958,41.23855],[-111.58404,41.23834],[-111.58881,41.24099],[-111.59131,41.24081],[-111.59672,41.23855],[-111.60331,41.23413],[-111.60535,41.23174],[-111.60925,41.22922],[-111.6095,41.22779],[-111.6068,41.22546],[-111.60686,41.22312],[-111.60911,41.21589],[-111.61198,41.20956],[-111.615,41.20797],[-111.62287,41.20576],[-111.62429,41.20037],[-111.63042,41.19879],[-111.64092,41.19881],[-111.64312,41.19758],[-111.64637,41.19275],[-111.64766,41.19178],[-111.65439,41.18932],[-111.65687,41.18614],[-111.65864,41.18572],[-111.66278,41.18747],[-111.66737,41.18742],[-111.67012,41.18557],[-111.6725,41.18541],[-111.67268,41.18309],[-111.67582,41.18354],[-111.67802,41.18121],[-111.68168,41.182],[-111.68476,41.18061],[-111.69103,41.18123],[-111.69603,41.18246],[-111.69837,41.18181],[-111.70441,41.18341],[-111.70586,41.18319],[-111.71329,41.18629],[-111.71711,41.18641],[-111.71848,41.18903],[-111.72478,41.19345],[-111.72624,41.19342],[-111.72812,41.19726],[-111.73262,41.19779],[-111.73309,41.19881],[-111.73713,41.20129],[-111.73986,41.20167],[-111.74552,41.20376],[-111.74669,41.20747],[-111.74598,41.21245],[-111.74908,41.21454],[-111.75189,41.21368],[-111.75464,41.21477],[-111.75709,41.21253],[-111.75759,41.21068],[-111.76074,41.20973],[-111.76168,41.20836],[-111.76493,41.20803],[-111.76367,41.21045],[-111.76626,41.21249],[-111.77072,41.21469],[-111.77202,41.2168],[-111.77448,41.21815],[-111.77892,41.21669],[-111.7812,41.21867],[-111.78298,41.21775],[-111.78811,41.21792],[-111.78971,41.21863],[-111.79359,41.21591],[-111.79726,41.21579],[-111.79981,41.21718],[-111.80402,41.21573],[-111.80597,41.2159],[-111.80778,41.21278],[-111.81225,41.21205],[-111.81247,41.20993],[-111.81757,41.20471],[-111.82052,41.20438],[-111.82293,41.20537],[-111.82897,41.20476],[-111.83059,41.20339],[-111.83615,41.20186],[-111.83657,41.20024],[-111.84018,41.19929],[-111.8494,41.19794],[-111.85821,41.1976],[-111.86027,41.19388],[-111.86531,41.19151],[-111.86901,41.19394],[-111.86671,41.19329],[-111.86802,41.19539],[-111.86645,41.19587],[-111.86685,41.19796],[-111.86602,41.20137],[-111.86763,41.20272],[-111.86515,41.20507],[-111.86141,41.20981],[-111.86057,41.21189],[-111.86263,41.21567],[-111.86229,41.21708],[-111.85789,41.21728],[-111.85545,41.22061],[-111.85905,41.22258],[-111.85934,41.22607],[-111.85565,41.22728],[-111.85026,41.22794],[-111.85019,41.22884],[-111.84656,41.22772],[-111.84081,41.22899],[-111.83614,41.23221],[-111.83601,41.23655],[-111.83365,41.24068],[-111.83431,41.24407],[-111.83661,41.24778],[-111.84032,41.25076],[-111.83982,41.25106]]]}},{"type":"Feature","properties":{"zcta":"84015","d":1485},"geometry":{"type":"Polygon","coordinates":[[[-112.12311,41.13982],[-112.10853,41.13986],[-112.1096,41.14349],[-112.10778,41.14368],[-112.10664,41.14711],[-112.10297,41.14712],[-112.10299,41.15273],[-112.08381,41.15271],[-112.05486,41.15261],[-112.0251,41.15265],[-112.02514,41.13259],[-112.02499,41.12735],[-112.02353,41.12457],[-112.01706,41.11815],[-112.01055,41.11091],[-112.00683,41.11088],[-112.0069,41.10803],[-112.00387,41.10503],[-112.00061,41.10353],[-111.98917,41.10361],[-111.98773,41.10077],[-111.98776,41.09287],[-111.99728,41.0928],[-111.99728,41.09143],[-112.0033,41.09139],[-112.0069,41.09068],[-112.00695,41.08188],[-112.02139,41.08191],[-112.0214,41.07467],[-112.02623,41.07468],[-112.02772,41.07683],[-112.03568,41.07684],[-112.03578,41.08915],[-112.04533,41.08915],[-112.04531,41.0964],[-112.05494,41.0964],[-112.05493,41.09998],[-112.05371,41.1],[-112.05372,41.10364],[-112.04529,41.1056],[-112.04527,41.11087],[-112.0549,41.11098],[-112.08376,41.1109],[-112.09311,41.11105],[-112.09311,41.1037],[-112.10789,41.10372],[-112.10785,41.1005],[-112.10544,41.10009],[-112.10546,41.09646],[-112.11746,41.09644],[-112.11744,41.10003],[-112.1223,41.1],[-112.12228,41.11773],[-112.12708,41.11773],[-112.1271,41.13773],[-112.12311,41.13982]]]}},{"type":"Feature","properties":{"zcta":"84087","d":562},"geometry":{"type":"Polygon","coordinates":[[[-111.95414,40.91935],[-111.94807,40.91895],[-111.94803,40.9124],[-111.94556,40.91116],[-111.92435,40.91115],[-111.9218,40.91717],[-111.91774,40.92006],[-111.91154,40.92233],[-111.90779,40.93179],[-111.90168,40.93682],[-111.90098,40.94157],[-111.90155,40.94347],[-111.89881,40.94372],[-111.89797,40.93737],[-111.90019,40.92646],[-111.89911,40.92616],[-111.90037,40.91965],[-111.90191,40.91614],[-111.89478,40.91589],[-111.89481,40.91318],[-111.89117,40.91308],[-111.89126,40.90695],[-111.89159,40.90157],[-111.89432,40.89759],[-111.89576,40.89391],[-111.89634,40.88974],[-111.89673,40.87477],[-111.89331,40.87476],[-111.89335,40.87194],[-111.89665,40.87066],[-111.89743,40.86785],[-111.89976,40.86337],[-111.89938,40.86153],[-111.90377,40.86166],[-111.92986,40.86164],[-111.92988,40.86308],[-111.94341,40.86308],[-111.94363,40.85752],[-111.94873,40.85751],[-111.95415,40.84895],[-111.95587,40.84911],[-111.963,40.84817],[-111.9589,40.84925],[-111.9597,40.85217],[-111.96179,40.85188],[-111.96449,40.85345],[-111.96175,40.85388],[-111.96378,40.85533],[-111.96604,40.85496],[-111.96645,40.85787],[-111.96407,40.85997],[-111.96477,40.86148],[-111.96265,40.8636],[-111.96384,40.86453],[-111.9639,40.8675],[-111.96256,40.86873],[-111.96371,40.87131],[-111.96657,40.87232],[-111.96954,40.87232],[-111.96891,40.87411],[-111.97107,40.87665],[-111.96756,40.88006],[-111.96916,40.88566],[-111.96629,40.8888],[-111.96615,40.89165],[-111.96174,40.89336],[-111.96153,40.89528],[-111.95927,40.89633],[-111.9586,40.90017],[-111.95866,40.91806],[-111.95414,40.91935]]]}},{"type":"Feature","properties":{"zcta":"84403","d":476},"geometry":{"type":"Polygon","coordinates":[[[-111.96884,41.20006],[-111.96864,41.20768],[-111.96926,41.21068],[-111.96775,41.21643],[-111.96693,41.21729],[-111.9594,41.21644],[-111.94281,41.21609],[-111.93189,41.21634],[-111.92895,41.218],[-111.92891,41.21921],[-111.92426,41.21926],[-111.92439,41.23005],[-111.92774,41.23001],[-111.92472,41.23303],[-111.92539,41.23519],[-111.916,41.23632],[-111.90815,41.23832],[-111.90364,41.23909],[-111.8935,41.2424],[-111.88801,41.2468],[-111.88372,41.24798],[-111.87943,41.25056],[-111.87497,41.25231],[-111.85171,41.25237],[-111.8467,41.25282],[-111.8441,41.25247],[-111.84032,41.25076],[-111.83661,41.24778],[-111.83431,41.24407],[-111.83365,41.24068],[-111.83601,41.23655],[-111.83614,41.23221],[-111.84081,41.22899],[-111.84656,41.22772],[-111.85019,41.22884],[-111.85026,41.22794],[-111.85565,41.22728],[-111.85934,41.22607],[-111.85905,41.22258],[-111.85545,41.22061],[-111.85789,41.21728],[-111.86229,41.21708],[-111.86263,41.21567],[-111.86057,41.21189],[-111.86141,41.20981],[-111.86515,41.20507],[-111.86763,41.20272],[-111.86602,41.20137],[-111.86685,41.19796],[-111.86645,41.19587],[-111.86802,41.19539],[-111.86671,41.19329],[-111.86901,41.19394],[-111.86531,41.19151],[-111.8713,41.18909],[-111.87295,41.18777],[-111.87133,41.18327],[-111.86883,41.18106],[-111.87106,41.17803],[-111.87116,41.17617],[-111.87463,41.17345],[-111.8766,41.16974],[-111.8714,41.16491],[-111.87055,41.1611],[-111.86687,41.1591],[-111.85839,41.15708],[-111.85456,41.15452],[-111.85494,41.15048],[-111.85751,41.14829],[-111.85759,41.14409],[-111.85653,41.14304],[-111.85625,41.13908],[-111.85822,41.13881],[-111.86165,41.14022],[-111.86125,41.13751],[-111.8661,41.13726],[-111.86904,41.13806],[-111.87417,41.13814],[-111.87836,41.13748],[-111.88987,41.13762],[-111.8976,41.13563],[-111.90148,41.1365],[-111.91356,41.14011],[-111.91411,41.14137],[-111.91107,41.14071],[-111.91849,41.14413],[-111.92171,41.14667],[-111.93083,41.1486],[-111.93403,41.1505],[-111.94603,41.15991],[-111.9492,41.16192],[-111.96789,41.17004],[-111.9699,41.17166],[-111.97149,41.17605],[-111.97119,41.19052],[-111.97478,41.19194],[-111.97117,41.1919],[-111.971,41.19779],[-111.97244,41.19904],[-111.96884,41.20006]],[[-111.94897,41.18747],[-111.944,41.18611],[-111.9408,41.1903],[-111.92967,41.19026],[-111.92949,41.19738],[-111.93763,41.19745],[-111.93822,41.19575],[-111.94206,41.19573],[-111.94384,41.19479],[-111.94875,41.19585],[-111.94897,41.18747]]]}},{"type":"Feature","properties":{"zcta":"84025","d":844},"geometry":{"type":"Polygon","coordinates":[[[-111.82216,40.95712],[-111.82875,40.95405],[-111.83254,40.95062],[-111.83576,40.94969],[-111.84446,40.94953],[-111.85365,40.94751],[-111.85365,40.95267],[-111.87885,40.95264],[-111.88116,40.95216],[-111.89316,40.9522],[-111.89286,40.94507],[-111.8967,40.94512],[-111.89881,40.94372],[-111.90155,40.94347],[-111.90222,40.94343],[-111.90605,40.94943],[-111.91114,40.9523],[-111.91677,40.95427],[-111.92485,40.95783],[-111.92853,40.95699],[-111.9325,40.95811],[-111.93473,40.96051],[-111.93428,40.96537],[-111.93875,40.96938],[-111.93901,40.97285],[-111.94123,40.9818],[-111.93992,40.98741],[-111.94407,40.99056],[-111.94406,40.99373],[-111.94303,40.99612],[-111.93093,40.99618],[-111.92989,40.99707],[-111.93091,40.99981],[-111.9257,40.99945],[-111.923,41.00028],[-111.93112,41.00561],[-111.92596,41.00546],[-111.92597,41.00818],[-111.92272,41.00832],[-111.91998,41.00997],[-111.91897,41.01287],[-111.91406,41.0128],[-111.91196,41.01132],[-111.90649,41.01642],[-111.90168,41.01644],[-111.90169,41.01285],[-111.89696,41.01402],[-111.89696,41.01648],[-111.89223,41.01653],[-111.89212,41.00384],[-111.89037,41.00206],[-111.8873,41.00186],[-111.88381,40.99994],[-111.88298,40.9984],[-111.88018,40.99808],[-111.88196,40.99615],[-111.87784,40.98537],[-111.87568,40.98046],[-111.87302,40.97279],[-111.87293,40.96598],[-111.86095,40.96453],[-111.85723,40.96467],[-111.85347,40.96199],[-111.84691,40.96426],[-111.84417,40.96313],[-111.83794,40.9595],[-111.83324,40.95816],[-111.83005,40.95912],[-111.82698,40.95889],[-111.82008,40.95949],[-111.82216,40.95712]]]}},{"type":"Feature","properties":{"zcta":"84054","d":1184},"geometry":{"type":"Polygon","coordinates":[[[-111.89631,40.86161],[-111.89953,40.85761],[-111.89647,40.85764],[-111.89647,40.85641],[-111.90145,40.85514],[-111.90675,40.84842],[-111.90795,40.84619],[-111.90291,40.84389],[-111.89618,40.8502],[-111.89256,40.84826],[-111.88897,40.84951],[-111.88661,40.84779],[-111.88356,40.84781],[-111.88379,40.83582],[-111.87977,40.8364],[-111.87523,40.83293],[-111.87236,40.83296],[-111.87235,40.82742],[-111.87306,40.82719],[-111.89095,40.82735],[-111.89096,40.82183],[-111.90091,40.82183],[-111.90091,40.81988],[-111.90567,40.81988],[-111.90566,40.82182],[-111.94586,40.82179],[-111.94669,40.82385],[-111.94359,40.82739],[-111.94287,40.83049],[-111.94466,40.83218],[-111.94429,40.83415],[-111.94673,40.83796],[-111.95162,40.84157],[-111.94978,40.84313],[-111.95293,40.84468],[-111.95392,40.84764],[-111.95587,40.84911],[-111.95415,40.84895],[-111.94873,40.85751],[-111.94363,40.85752],[-111.94341,40.86308],[-111.92988,40.86308],[-111.92986,40.86164],[-111.90377,40.86166],[-111.89938,40.86153],[-111.89631,40.86161]]]}},{"type":"Feature","properties":{"zcta":"84075","d":1026},"geometry":{"type":"Polygon","coordinates":[[[-112.15671,41.13581],[-112.1522,41.13483],[-112.14701,41.13253],[-112.14329,41.12943],[-112.14077,41.12823],[-112.13765,41.13203],[-112.13748,41.1338],[-112.13513,41.13592],[-112.13167,41.13588],[-112.13005,41.13733],[-112.1271,41.13773],[-112.12708,41.11773],[-112.12228,41.11773],[-112.1223,41.1],[-112.11744,41.10003],[-112.11746,41.09644],[-112.10546,41.09646],[-112.10544,41.10009],[-112.10785,41.1005],[-112.10789,41.10372],[-112.09311,41.1037],[-112.09311,41.11105],[-112.08376,41.1109],[-112.0549,41.11098],[-112.04527,41.11087],[-112.04529,41.1056],[-112.05372,41.10364],[-112.05371,41.1],[-112.05493,41.09998],[-112.05494,41.0964],[-112.04531,41.0964],[-112.04533,41.08915],[-112.03578,41.08915],[-112.03568,41.07684],[-112.03588,41.05908],[-112.03447,41.05908],[-112.03383,41.05604],[-112.02756,41.05534],[-112.02514,41.05362],[-112.02514,41.05953],[-112.01892,41.05953],[-112.01897,41.05043],[-112.01667,41.04913],[-112.0093,41.04911],[-112.00711,41.04502],[-112.00678,41.03412],[-112.00691,41.03261],[-111.99647,41.01754],[-112.00739,40.99994],[-112.00762,40.98548],[-112.01272,40.98613],[-112.03119,40.98736],[-112.04337,40.98942],[-112.04904,40.9921],[-112.05361,40.9987],[-112.058,41.00767],[-112.05609,41.00776],[-112.05732,41.01085],[-112.06128,41.01645],[-112.06569,41.02181],[-112.07539,41.02441],[-112.07744,41.02545],[-112.0862,41.03207],[-112.09208,41.03226],[-112.0949,41.03318],[-112.09749,41.03529],[-112.09974,41.03936],[-112.10099,41.0441],[-112.10407,41.04903],[-112.10899,41.05401],[-112.1156,41.05921],[-112.11969,41.06425],[-112.12213,41.06995],[-112.12358,41.07659],[-112.12517,41.07992],[-112.12489,41.0846],[-112.1274,41.08998],[-112.1314,41.09202],[-112.13389,41.09565],[-112.1346,41.09977],[-112.13673,41.1045],[-112.13915,41.10641],[-112.13964,41.10931],[-112.14334,41.11241],[-112.15089,41.11446],[-112.15462,41.11632],[-112.15376,41.11785],[-112.15628,41.11719],[-112.15884,41.1192],[-112.16136,41.11938],[-112.16264,41.12182],[-112.1654,41.1213],[-112.16984,41.12403],[-112.17383,41.12727],[-112.17478,41.12889],[-112.17322,41.13251],[-112.16623,41.13219],[-112.16494,41.13315],[-112.1654,41.13516],[-112.16304,41.13609],[-112.15671,41.13581]]]}},{"type":"Feature","properties":{"zcta":"84315","d":254},"geometry":{"type":"Polygon","coordinates":[[[-112.11871,41.204],[-112.11815,41.20576],[-112.11552,41.20728],[-112.11698,41.21025],[-112.11474,41.21043],[-112.11104,41.21648],[-112.10714,41.21482],[-112.10431,41.21282],[-112.10255,41.21323],[-112.10273,41.20552],[-112.1029,41.17615],[-112.08361,41.17616],[-112.08361,41.1739],[-112.08094,41.17431],[-112.0809,41.17245],[-112.08363,41.17245],[-112.08312,41.16948],[-112.08366,41.1662],[-112.08381,41.15271],[-112.10299,41.15273],[-112.10297,41.14712],[-112.10664,41.14711],[-112.10778,41.14368],[-112.1096,41.14349],[-112.10853,41.13986],[-112.12311,41.13982],[-112.1271,41.13773],[-112.13005,41.13733],[-112.13167,41.13588],[-112.13513,41.13592],[-112.13748,41.1338],[-112.13765,41.13203],[-112.14077,41.12823],[-112.14329,41.12943],[-112.14701,41.13253],[-112.1522,41.13483],[-112.15671,41.13581],[-112.16304,41.13609],[-112.17331,41.13705],[-112.1775,41.13826],[-112.17835,41.14008],[-112.17538,41.14373],[-112.17394,41.14905],[-112.17469,41.15076],[-112.17365,41.15246],[-112.17526,41.15296],[-112.18669,41.15303],[-112.19934,41.1499],[-112.20084,41.15487],[-112.20013,41.1589],[-112.19742,41.16228],[-112.19454,41.16242],[-112.19064,41.16599],[-112.18826,41.16722],[-112.18522,41.17219],[-112.18149,41.17503],[-112.17828,41.17643],[-112.17414,41.18116],[-112.16914,41.18285],[-112.1659,41.18512],[-112.1608,41.18686],[-112.15623,41.19046],[-112.15032,41.19319],[-112.14971,41.19399],[-112.14487,41.19483],[-112.13886,41.19271],[-112.13564,41.19241],[-112.13387,41.19407],[-112.13185,41.19779],[-112.12493,41.2007],[-112.12283,41.20208],[-112.11871,41.204]]]}},{"type":"Feature","properties":{"zcta":"84404","d":328},"geometry":{"type":"Polygon","coordinates":[[[-112.00815,41.30986],[-112.00323,41.3043],[-111.99809,41.30426],[-112.00067,41.30321],[-112.00039,41.30187],[-111.99773,41.30185],[-111.99781,41.29977],[-111.99629,41.29916],[-111.99625,41.29657],[-111.98939,41.28687],[-111.98613,41.28687],[-111.98608,41.28875],[-111.97693,41.28914],[-111.95479,41.28891],[-111.95452,41.28782],[-111.94946,41.28778],[-111.94775,41.28718],[-111.94634,41.28884],[-111.94341,41.28904],[-111.94263,41.28748],[-111.94395,41.28468],[-111.94397,41.27325],[-111.94525,41.26969],[-111.94427,41.26438],[-111.9403,41.26123],[-111.93555,41.25382],[-111.93627,41.25055],[-111.93285,41.24887],[-111.92891,41.24461],[-111.92615,41.24052],[-111.92652,41.23837],[-111.92514,41.23603],[-111.92883,41.23668],[-111.93238,41.23869],[-111.93557,41.23837],[-111.93767,41.23913],[-111.94107,41.23695],[-111.94618,41.23678],[-111.9478,41.23564],[-111.95475,41.23591],[-111.95981,41.23666],[-111.96405,41.23633],[-111.97015,41.23485],[-111.97854,41.23496],[-111.98443,41.23186],[-111.98689,41.23178],[-111.99653,41.22998],[-111.99638,41.23427],[-112.00448,41.23447],[-112.00821,41.23709],[-112.01037,41.23664],[-112.01412,41.23722],[-112.01578,41.24465],[-112.0332,41.24527],[-112.04386,41.24448],[-112.05277,41.24426],[-112.08317,41.24441],[-112.08761,41.24593],[-112.09258,41.24591],[-112.0926,41.24417],[-112.11799,41.2443],[-112.11902,41.2424],[-112.12132,41.24166],[-112.12072,41.23941],[-112.12481,41.24004],[-112.12385,41.24299],[-112.1262,41.24241],[-112.12684,41.23676],[-112.12427,41.23519],[-112.1266,41.23347],[-112.12549,41.23075],[-112.12828,41.22769],[-112.1273,41.22386],[-112.12577,41.22345],[-112.12421,41.22165],[-112.12429,41.21724],[-112.12135,41.21528],[-112.12443,41.21731],[-112.12432,41.22176],[-112.12614,41.22348],[-112.13031,41.21692],[-112.12913,41.21416],[-112.13244,41.21051],[-112.13248,41.20804],[-112.13376,41.20519],[-112.13915,41.20518],[-112.14785,41.2121],[-112.15012,41.21276],[-112.16087,41.21322],[-112.16084,41.21695],[-112.16348,41.2167],[-112.1678,41.21781],[-112.17367,41.22165],[-112.18046,41.22147],[-112.18351,41.22287],[-112.18918,41.22385],[-112.19893,41.22692],[-112.20136,41.22668],[-112.20453,41.22826],[-112.21178,41.2278],[-112.21618,41.22875],[-112.22229,41.22774],[-112.22325,41.22415],[-112.22862,41.22407],[-112.23255,41.22267],[-112.23683,41.22001],[-112.24007,41.21692],[-112.24582,41.21535],[-112.24764,41.21212],[-112.25054,41.21432],[-112.24886,41.21786],[-112.25078,41.2217],[-112.25779,41.22347],[-112.2629,41.22785],[-112.27049,41.23225],[-112.26903,41.23622],[-112.27333,41.24354],[-112.27283,41.24464],[-112.2749,41.24643],[-112.27405,41.24995],[-112.27737,41.24994],[-112.27731,41.2462],[-112.28571,41.24608],[-112.28572,41.24484],[-112.29645,41.24319],[-112.29657,41.25106],[-112.29,41.25105],[-112.30466,41.2648],[-112.30905,41.26479],[-112.27584,41.2985],[-112.26953,41.29829],[-112.26428,41.29537],[-112.26765,41.28729],[-112.25154,41.2871],[-112.24589,41.28608],[-112.23954,41.2834],[-112.23759,41.28143],[-112.23122,41.28118],[-112.23157,41.26819],[-112.23091,41.26821],[-112.23009,41.27827],[-112.23009,41.29011],[-112.22868,41.29332],[-112.2066,41.30812],[-112.20361,41.30886],[-112.13595,41.30869],[-112.12176,41.31366],[-112.11865,41.31406],[-112.11779,41.31832],[-112.11572,41.31991],[-112.11616,41.32299],[-112.11302,41.32648],[-112.11385,41.32928],[-112.11248,41.33157],[-112.10385,41.33236],[-112.10249,41.33296],[-112.10239,41.33638],[-112.0989,41.33679],[-112.02963,41.33653],[-112.02828,41.33664],[-112.00815,41.30986]]]}},{"type":"Feature","properties":{"zcta":"84405","d":868},"geometry":{"type":"Polygon","coordinates":[[[-111.971,41.19779],[-111.97117,41.1919],[-111.97478,41.19194],[-111.97119,41.19052],[-111.97149,41.17605],[-111.9699,41.17166],[-111.96789,41.17004],[-111.9492,41.16192],[-111.94603,41.15991],[-111.93403,41.1505],[-111.93083,41.1486],[-111.92171,41.14667],[-111.91849,41.14413],[-111.91107,41.14071],[-111.91411,41.14137],[-111.91356,41.14011],[-111.90148,41.1365],[-111.8976,41.13563],[-111.88987,41.13762],[-111.87836,41.13748],[-111.87417,41.13814],[-111.86904,41.13806],[-111.8661,41.13726],[-111.86125,41.13751],[-111.86165,41.14022],[-111.85822,41.13881],[-111.85625,41.13908],[-111.85716,41.13751],[-111.84935,41.13393],[-111.89614,41.13189],[-111.89762,41.13002],[-111.89812,41.12681],[-111.90113,41.12122],[-111.90118,41.11327],[-111.90525,41.11325],[-111.90672,41.11176],[-111.90673,41.10931],[-111.90946,41.10933],[-111.90876,41.11511],[-111.92036,41.11517],[-111.92034,41.11764],[-111.92991,41.11763],[-111.92991,41.12036],[-111.93477,41.12153],[-111.93968,41.11797],[-111.9401,41.1201],[-111.94244,41.12037],[-111.94242,41.12135],[-111.94724,41.12176],[-111.94723,41.12525],[-111.9494,41.12569],[-111.95414,41.12889],[-111.95907,41.12889],[-111.9681,41.13235],[-111.9706,41.13804],[-111.97318,41.13965],[-111.9758,41.13988],[-111.98044,41.14328],[-111.98442,41.14951],[-111.99138,41.14683],[-111.99277,41.14966],[-112.00019,41.15267],[-112.02123,41.15265],[-112.02119,41.16119],[-112.02174,41.16411],[-112.01957,41.171],[-112.02252,41.16933],[-112.01949,41.17875],[-112.0147,41.18352],[-112.02106,41.1835],[-112.02098,41.19312],[-112.02322,41.19689],[-112.02549,41.19694],[-112.02499,41.19767],[-112.0178,41.20112],[-112.00596,41.20496],[-111.99828,41.20501],[-111.98669,41.20617],[-111.98435,41.20699],[-111.98539,41.20045],[-111.98533,41.19788],[-111.97389,41.19783],[-111.97244,41.19904],[-111.971,41.19779]]]}},{"type":"Feature","properties":{"zcta":"84414","d":938},"geometry":{"type":"Polygon","coordinates":[[[-111.96258,41.36494],[-111.95517,41.36364],[-111.94937,41.35754],[-111.94067,41.35263],[-111.92557,41.35423],[-111.91646,41.34903],[-111.91546,41.33782],[-111.91546,41.32992],[-111.91026,41.32502],[-111.89966,41.32032],[-111.90302,41.3196],[-111.90798,41.31584],[-111.90897,41.31401],[-111.9154,41.31109],[-111.92146,41.31061],[-111.9318,41.31195],[-111.93301,41.31005],[-111.9326,41.30277],[-111.93496,41.30325],[-111.93701,41.30227],[-111.93667,41.30073],[-111.9404,41.29594],[-111.94204,41.29192],[-111.94263,41.28748],[-111.94341,41.28904],[-111.94634,41.28884],[-111.94775,41.28718],[-111.94946,41.28778],[-111.95452,41.28782],[-111.95479,41.28891],[-111.97693,41.28914],[-111.98608,41.28875],[-111.98613,41.28687],[-111.98939,41.28687],[-111.99625,41.29657],[-111.99629,41.29916],[-111.99781,41.29977],[-111.99773,41.30185],[-112.00039,41.30187],[-112.00067,41.30321],[-111.99809,41.30426],[-112.00323,41.3043],[-112.00815,41.30986],[-112.02828,41.33664],[-112.02594,41.33859],[-112.02327,41.3431],[-112.0203,41.34423],[-112.01451,41.34407],[-112.01274,41.34334],[-112.00839,41.34385],[-112.004,41.3464],[-112.00316,41.34946],[-111.99534,41.35001],[-111.99221,41.35328],[-111.98647,41.35493],[-111.98197,41.35715],[-111.97806,41.35844],[-111.97018,41.36366],[-111.96325,41.36549],[-111.96258,41.36494]]]}},{"type":"Feature","properties":{"zcta":"84040","d":1160},"geometry":{"type":"Polygon","coordinates":[[[-111.9401,41.1201],[-111.93968,41.11797],[-111.93477,41.12153],[-111.92991,41.12036],[-111.92991,41.11763],[-111.92034,41.11764],[-111.92036,41.11517],[-111.90876,41.11511],[-111.90946,41.10933],[-111.90673,41.10931],[-111.90672,41.11176],[-111.90525,41.11325],[-111.90118,41.11327],[-111.90113,41.12122],[-111.89812,41.12681],[-111.89762,41.13002],[-111.89614,41.13189],[-111.84935,41.13393],[-111.84633,41.12885],[-111.84649,41.12602],[-111.84455,41.12179],[-111.84652,41.11893],[-111.84814,41.11819],[-111.84916,41.1156],[-111.85415,41.11414],[-111.85611,41.11191],[-111.85396,41.10814],[-111.8565,41.10288],[-111.8546,41.09951],[-111.85176,41.09769],[-111.85513,41.09272],[-111.85334,41.08954],[-111.85083,41.0879],[-111.85195,41.08246],[-111.85078,41.08148],[-111.85033,41.0779],[-111.84836,41.07574],[-111.85045,41.07138],[-111.8518,41.06665],[-111.84902,41.06236],[-111.84623,41.06114],[-111.84443,41.05886],[-111.85221,41.058],[-111.85486,41.05475],[-111.86356,41.05262],[-111.86632,41.05347],[-111.87014,41.05287],[-111.87754,41.05315],[-111.88074,41.05251],[-111.88562,41.05494],[-111.8888,41.05523],[-111.89093,41.05409],[-111.89514,41.05649],[-111.89928,41.05602],[-111.9016,41.05652],[-111.90159,41.06011],[-111.90403,41.05943],[-111.9104,41.05907],[-111.91826,41.05773],[-111.92055,41.06015],[-111.92587,41.06008],[-111.92624,41.05709],[-111.93057,41.05611],[-111.93058,41.05702],[-111.9346,41.0565],[-111.93647,41.05507],[-111.94121,41.05415],[-111.9464,41.06322],[-111.94553,41.06358],[-111.94823,41.06868],[-111.94902,41.07136],[-111.94822,41.07425],[-111.95011,41.07437],[-111.95013,41.07896],[-111.9509,41.08158],[-111.95015,41.08536],[-111.94999,41.09165],[-111.9461,41.0907],[-111.94603,41.09596],[-111.94997,41.09574],[-111.94771,41.09709],[-111.94996,41.09762],[-111.94945,41.10717],[-111.95139,41.10955],[-111.95123,41.11653],[-111.95662,41.11657],[-111.9566,41.11787],[-111.94726,41.11802],[-111.94726,41.11975],[-111.94244,41.12037],[-111.9401,41.1201]]]}},{"type":"Feature","properties":{"zcta":"84041","d":1626},"geometry":{"type":"Polygon","coordinates":[[[-112.02772,41.07683],[-112.02623,41.07468],[-112.0214,41.07467],[-112.02139,41.08191],[-112.00695,41.08188],[-112.0069,41.09068],[-112.0033,41.09139],[-111.99728,41.09143],[-111.99728,41.0928],[-111.98776,41.09287],[-111.98773,41.10077],[-111.98917,41.10361],[-111.98769,41.10481],[-111.98244,41.10447],[-111.98157,41.10602],[-111.97329,41.10602],[-111.97325,41.1036],[-111.95834,41.10353],[-111.95456,41.1032],[-111.95466,41.10564],[-111.95672,41.10926],[-111.95662,41.11657],[-111.95123,41.11653],[-111.95139,41.10955],[-111.94945,41.10717],[-111.94996,41.09762],[-111.94771,41.09709],[-111.94997,41.09574],[-111.94603,41.09596],[-111.9461,41.0907],[-111.94999,41.09165],[-111.95015,41.08536],[-111.9509,41.08158],[-111.95013,41.07896],[-111.95011,41.07437],[-111.94822,41.07425],[-111.94902,41.07136],[-111.94823,41.06868],[-111.94553,41.06358],[-111.9464,41.06322],[-111.94121,41.05415],[-111.94214,41.05188],[-111.94772,41.04917],[-111.9498,41.04976],[-111.954,41.04833],[-111.95214,41.04564],[-111.95588,41.04525],[-111.95908,41.04974],[-111.96355,41.04772],[-111.96258,41.04665],[-111.96689,41.04437],[-111.96873,41.04777],[-111.97004,41.04823],[-111.97246,41.04516],[-111.97603,41.04917],[-111.98077,41.04561],[-111.98681,41.04369],[-111.98742,41.0413],[-111.99504,41.03639],[-111.9991,41.04025],[-112.00678,41.03412],[-112.00711,41.04502],[-112.0093,41.04911],[-112.01667,41.04913],[-112.01897,41.05043],[-112.01892,41.05953],[-112.02514,41.05953],[-112.02514,41.05362],[-112.02756,41.05534],[-112.03383,41.05604],[-112.03447,41.05908],[-112.03588,41.05908],[-112.03568,41.07684],[-112.02772,41.07683]]]}},{"type":"Feature","properties":{"zcta":"84010","d":1394},"geometry":{"type":"Polygon","coordinates":[[[-111.89976,40.86337],[-111.89743,40.86785],[-111.89665,40.87066],[-111.89335,40.87194],[-111.89331,40.87476],[-111.89673,40.87477],[-111.89634,40.88974],[-111.89576,40.89391],[-111.89432,40.89759],[-111.89159,40.90157],[-111.89126,40.90695],[-111.89009,40.90935],[-111.88227,40.90931],[-111.88229,40.90659],[-111.879,40.90655],[-111.87897,40.90428],[-111.87556,40.90378],[-111.87556,40.90537],[-111.87242,40.90608],[-111.86312,40.90649],[-111.86194,40.90749],[-111.86225,40.91136],[-111.86374,40.91648],[-111.86083,40.91595],[-111.8543,40.91628],[-111.85042,40.91517],[-111.84157,40.91812],[-111.839,40.91803],[-111.83252,40.92102],[-111.83074,40.92067],[-111.82663,40.92218],[-111.82307,40.92184],[-111.81899,40.92263],[-111.80993,40.92565],[-111.80683,40.9247],[-111.80446,40.92511],[-111.79999,40.92103],[-111.79568,40.92617],[-111.7934,40.92777],[-111.7932,40.93036],[-111.79081,40.92779],[-111.7931,40.92411],[-111.7927,40.92084],[-111.794,40.91844],[-111.79347,40.91586],[-111.7826,40.91279],[-111.78123,40.90877],[-111.77869,40.90589],[-111.77831,40.90319],[-111.77606,40.90112],[-111.77641,40.89897],[-111.78006,40.89797],[-111.7817,40.89604],[-111.77553,40.89568],[-111.77177,40.89245],[-111.77022,40.88842],[-111.76309,40.88862],[-111.76177,40.88737],[-111.76178,40.88503],[-111.76344,40.88311],[-111.76508,40.87872],[-111.7682,40.87515],[-111.76829,40.87253],[-111.76377,40.87371],[-111.759,40.87231],[-111.75447,40.87278],[-111.74699,40.87118],[-111.74423,40.86955],[-111.7405,40.8654],[-111.73874,40.861],[-111.74477,40.86066],[-111.74804,40.85897],[-111.74966,40.85523],[-111.75219,40.8535],[-111.75505,40.85407],[-111.75873,40.85241],[-111.75997,40.85297],[-111.76271,40.85093],[-111.76872,40.84875],[-111.77123,40.84901],[-111.77488,40.84763],[-111.77853,40.84458],[-111.78174,40.8439],[-111.78576,40.84535],[-111.78922,40.84555],[-111.79288,40.8445],[-111.79474,40.84308],[-111.80439,40.83835],[-111.81311,40.83992],[-111.81839,40.83761],[-111.82213,40.83424],[-111.82814,40.83377],[-111.83019,40.83193],[-111.83329,40.83183],[-111.83785,40.83068],[-111.84168,40.83243],[-111.84404,40.83223],[-111.8468,40.8297],[-111.85365,40.82928],[-111.85728,40.82618],[-111.85813,40.82434],[-111.86081,40.82501],[-111.86332,40.82398],[-111.86532,40.82455],[-111.86928,40.82381],[-111.87089,40.8217],[-111.89096,40.82183],[-111.89095,40.82735],[-111.87306,40.82719],[-111.87235,40.82742],[-111.87236,40.83296],[-111.87523,40.83293],[-111.87977,40.8364],[-111.88379,40.83582],[-111.88356,40.84781],[-111.88661,40.84779],[-111.88897,40.84951],[-111.89256,40.84826],[-111.89618,40.8502],[-111.90291,40.84389],[-111.90795,40.84619],[-111.90675,40.84842],[-111.90145,40.85514],[-111.89647,40.85641],[-111.89647,40.85764],[-111.89953,40.85761],[-111.89631,40.86161],[-111.89938,40.86153],[-111.89976,40.86337]]]}},{"type":"Feature","properties":{"zcta":"84014","d":1395},"geometry":{"type":"Polygon","coordinates":[[[-111.8967,40.94512],[-111.89286,40.94507],[-111.89316,40.9522],[-111.88116,40.95216],[-111.87885,40.95264],[-111.85365,40.95267],[-111.85365,40.94751],[-111.84446,40.94953],[-111.83576,40.94969],[-111.83254,40.95062],[-111.82875,40.95405],[-111.82216,40.95712],[-111.82008,40.95949],[-111.8185,40.96212],[-111.81465,40.95977],[-111.8153,40.95718],[-111.81318,40.95393],[-111.81169,40.95017],[-111.80687,40.94919],[-111.80388,40.94424],[-111.80398,40.9407],[-111.80083,40.93757],[-111.79598,40.93411],[-111.79543,40.93203],[-111.7932,40.93036],[-111.7934,40.92777],[-111.79568,40.92617],[-111.79999,40.92103],[-111.80446,40.92511],[-111.80683,40.9247],[-111.80993,40.92565],[-111.81899,40.92263],[-111.82307,40.92184],[-111.82663,40.92218],[-111.83074,40.92067],[-111.83252,40.92102],[-111.839,40.91803],[-111.84157,40.91812],[-111.85042,40.91517],[-111.8543,40.91628],[-111.86083,40.91595],[-111.86374,40.91648],[-111.86225,40.91136],[-111.86194,40.90749],[-111.86312,40.90649],[-111.87242,40.90608],[-111.87556,40.90537],[-111.87556,40.90378],[-111.87897,40.90428],[-111.879,40.90655],[-111.88229,40.90659],[-111.88227,40.90931],[-111.89009,40.90935],[-111.89126,40.90695],[-111.89117,40.91308],[-111.89481,40.91318],[-111.89478,40.91589],[-111.90191,40.91614],[-111.90037,40.91965],[-111.89911,40.92616],[-111.90019,40.92646],[-111.89797,40.93737],[-111.89881,40.94372],[-111.8967,40.94512]]]}},{"type":"Feature","properties":{"zcta":"84067","d":2227},"geometry":{"type":"Polygon","coordinates":[[[-112.08362,41.17878],[-112.0812,41.17976],[-112.07408,41.17977],[-112.07406,41.18093],[-112.0654,41.18099],[-112.06475,41.18172],[-112.06445,41.17691],[-112.06357,41.17794],[-112.05166,41.18747],[-112.04518,41.19362],[-112.04004,41.19769],[-112.03539,41.19745],[-112.03486,41.20162],[-112.02927,41.20147],[-112.02582,41.20534],[-112.02586,41.19694],[-112.02549,41.19694],[-112.02322,41.19689],[-112.02098,41.19312],[-112.02106,41.1835],[-112.0147,41.18352],[-112.01949,41.17875],[-112.02252,41.16933],[-112.01957,41.171],[-112.02174,41.16411],[-112.02119,41.16119],[-112.02123,41.15265],[-112.0251,41.15265],[-112.05486,41.15261],[-112.08381,41.15271],[-112.08366,41.1662],[-112.08312,41.16948],[-112.08363,41.17245],[-112.0809,41.17245],[-112.08094,41.17431],[-112.08361,41.1739],[-112.08361,41.17616],[-112.08362,41.17878]]]}},{"type":"Feature","properties":{"zcta":"84056","d":137},"geometry":{"type":"Polygon","coordinates":[[[-112.02123,41.15265],[-112.00019,41.15267],[-111.99277,41.14966],[-111.99138,41.14683],[-111.98442,41.14951],[-111.98044,41.14328],[-111.9758,41.13988],[-111.97318,41.13965],[-111.9706,41.13804],[-111.9681,41.13235],[-111.95907,41.12889],[-111.95414,41.12889],[-111.9494,41.12569],[-111.94723,41.12525],[-111.94724,41.12176],[-111.94242,41.12135],[-111.94244,41.12037],[-111.94726,41.11975],[-111.94726,41.11802],[-111.9566,41.11787],[-111.95662,41.11657],[-111.95672,41.10926],[-111.95466,41.10564],[-111.95456,41.1032],[-111.95834,41.10353],[-111.97325,41.1036],[-111.97329,41.10602],[-111.98157,41.10602],[-111.98244,41.10447],[-111.98769,41.10481],[-111.98917,41.10361],[-112.00061,41.10353],[-112.00387,41.10503],[-112.0069,41.10803],[-112.00683,41.11088],[-112.01055,41.11091],[-112.01706,41.11815],[-112.02353,41.12457],[-112.02499,41.12735],[-112.02514,41.13259],[-112.0251,41.15265],[-112.02123,41.15265]]]}},{"type":"Feature","properties":{"zcta":"84401","d":734},"geometry":{"type":"Polygon","coordinates":[[[-111.91725,41.24193],[-111.90372,41.24612],[-111.89076,41.2519],[-111.88357,41.25609],[-111.87347,41.25682],[-111.84617,41.25683],[-111.84258,41.25527],[-111.83982,41.25106],[-111.84032,41.25076],[-111.8441,41.25247],[-111.8467,41.25282],[-111.85171,41.25237],[-111.87497,41.25231],[-111.87943,41.25056],[-111.88372,41.24798],[-111.88801,41.2468],[-111.8935,41.2424],[-111.90364,41.23909],[-111.90815,41.23832],[-111.916,41.23632],[-111.92539,41.23519],[-111.92472,41.23303],[-111.92774,41.23001],[-111.92439,41.23005],[-111.92426,41.21926],[-111.92891,41.21921],[-111.92895,41.218],[-111.93189,41.21634],[-111.94281,41.21609],[-111.9594,41.21644],[-111.96693,41.21729],[-111.96775,41.21643],[-111.96926,41.21068],[-111.96864,41.20768],[-111.96884,41.20006],[-111.97244,41.19904],[-111.97389,41.19783],[-111.98533,41.19788],[-111.98539,41.20045],[-111.98435,41.20699],[-111.98669,41.20617],[-111.99828,41.20501],[-112.00596,41.20496],[-112.0178,41.20112],[-112.02499,41.19767],[-112.02549,41.19694],[-112.02586,41.19694],[-112.02582,41.20534],[-112.02927,41.20147],[-112.03486,41.20162],[-112.03539,41.19745],[-112.04004,41.19769],[-112.04518,41.19362],[-112.05166,41.18747],[-112.06357,41.17794],[-112.06445,41.17691],[-112.06475,41.18172],[-112.0654,41.18099],[-112.07406,41.18093],[-112.07408,41.17977],[-112.0812,41.17976],[-112.08362,41.17878],[-112.08361,41.17616],[-112.1029,41.17615],[-112.10273,41.20552],[-112.10255,41.21323],[-112.10431,41.21282],[-112.10714,41.21482],[-112.11104,41.21648],[-112.11474,41.21043],[-112.11698,41.21025],[-112.11552,41.20728],[-112.11815,41.20576],[-112.11871,41.204],[-112.12283,41.20208],[-112.12347,41.20446],[-112.12128,41.20523],[-112.1198,41.20805],[-112.12306,41.2088],[-112.12483,41.21045],[-112.12396,41.21368],[-112.12135,41.21528],[-112.12429,41.21724],[-112.12421,41.22165],[-112.12577,41.22345],[-112.1273,41.22386],[-112.12828,41.22769],[-112.12549,41.23075],[-112.1266,41.23347],[-112.12427,41.23519],[-112.12684,41.23676],[-112.1262,41.24241],[-112.12385,41.24299],[-112.12481,41.24004],[-112.12072,41.23941],[-112.12132,41.24166],[-112.11902,41.2424],[-112.11799,41.2443],[-112.0926,41.24417],[-112.09258,41.24591],[-112.08761,41.24593],[-112.08317,41.24441],[-112.05277,41.24426],[-112.04386,41.24448],[-112.0332,41.24527],[-112.01578,41.24465],[-112.01412,41.23722],[-112.01037,41.23664],[-112.00821,41.23709],[-112.00448,41.23447],[-111.99638,41.23427],[-111.99653,41.22998],[-111.98689,41.23178],[-111.98443,41.23186],[-111.97854,41.23496],[-111.97015,41.23485],[-111.96405,41.23633],[-111.95981,41.23666],[-111.95475,41.23591],[-111.9478,41.23564],[-111.94618,41.23678],[-111.94107,41.23695],[-111.93767,41.23913],[-111.93557,41.23837],[-111.93238,41.23869],[-111.92883,41.23668],[-111.92514,41.23603],[-111.92652,41.23837],[-111.92615,41.24052],[-111.91725,41.24193]]]}}]}