{"type":"FeatureCollection","features":[{"type":"Feature","properties":{"id":"06017","name":"El Dorado Co."},"geometry":{"type":"Polygon","coordinates":[[[-121.1345,38.712],[-121.1332,38.7165],[-121.1333,38.7315],[-121.1283,38.7336],[-121.1214,38.7488],[-121.121,38.7525],[-121.1175,38.7578],[-121.1193,38.7658],[-121.1172,38.7705],[-121.1117,38.7738],[-121.1077,38.7801],[-121.103,38.7855],[-121.1012,38.79],[-121.1022,38.7962],[-121.0981,38.8033],[-121.0978,38.8073],[-121.1008,38.8154],[-121.0934,38.8138],[-121.0845,38.8164],[-121.0831,38.8231],[-121.0887,38.8271],[-121.0873,38.8333],[-121.0819,38.8352],[-121.0758,38.8396],[-121.0727,38.8429],[-121.0624,38.8451],[-121.0584,38.8471],[-121.0576,38.8513],[-121.0618,38.8599],[-121.0586,38.8635],[-121.0545,38.865],[-121.0533,38.8683],[-121.0569,38.8773],[-121.062,38.8815],[-121.0586,38.8843],[-121.0461,38.8889],[-121.0442,38.8908],[-121.0482,38.8953],[-121.053,38.8968],[-121.0529,38.9001],[-121.0498,38.9018],[-121.048,38.9051],[-121.043,38.9085],[-121.0415,38.9142],[-121.0375,38.9157],[-121.0338,38.9128],[-121.0254,38.915],[-121.0235,38.9172],[-121.0189,38.9182],[-121.0123,38.9166],[-121.0071,38.9179],[-121.0049,38.9201],[-121.0011,38.9178],[-120.997,38.9211],[-120.9912,38.9236],[-120.992,38.9272],[-120.9841,38.9291],[-120.9773,38.9293],[-120.9704,38.9331],[-120.966,38.9326],[-120.9627,38.9343],[-120.9578,38.9391],[-120.9516,38.9388],[-120.9434,38.9357],[-120.9383,38.9358],[-120.9377,38.9467],[-120.9382,38.9566],[-120.9406,38.9599],[-120.9403,38.9623],[-120.9362,38.9639],[-120.9325,38.9621],[-120.9263,38.9618],[-120.9139,38.9552],[-120.9021,38.9532],[-120.9,38.9533],[-120.8905,38.9596],[-120.8852,38.959],[-120.8816,38.9567],[-120.8774,38.957],[-120.8686,38.9542],[-120.8631,38.9539],[-120.8589,38.9523],[-120.8577,38.9566],[-120.8521,38.9595],[-120.8555,38.9668],[-120.8532,38.9728],[-120.8494,38.9768],[-120.8406,38.9754],[-120.8388,38.9718],[-120.8342,38.9719],[-120.8326,38.978],[-120.8294,38.9804],[-120.8297,38.9873],[-120.8247,38.9927],[-120.8155,38.9948],[-120.8123,39.0001],[-120.8019,39.0011],[-120.7981,38.9961],[-120.7908,38.9996],[-120.7868,38.9996],[-120.7802,39.0042],[-120.7702,39.007],[-120.7683,39.0092],[-120.7644,39.0097],[-120.7636,39.0082],[-120.7671,39.0054],[-120.7641,39.002],[-120.7601,39.0031],[-120.7641,39.0048],[-120.7576,39.0077],[-120.7518,39.0058],[-120.7499,39.0095],[-120.7459,39.0098],[-120.7485,39.0052],[-120.7472,39.003],[-120.7439,39.0048],[-120.7416,39.0014],[-120.736,39.0006],[-120.7296,39.004],[-120.7232,38.9993],[-120.7223,38.9935],[-120.7163,38.9867],[-120.7113,38.9858],[-120.7044,38.9812],[-120.7002,38.982],[-120.6921,38.9859],[-120.6879,38.9899],[-120.6846,38.9892],[-120.6852,38.9836],[-120.6809,38.9779],[-120.6834,38.9746],[-120.6837,38.9678],[-120.6797,38.9665],[-120.6777,38.9636],[-120.6747,38.9627],[-120.6727,38.9586],[-120.6645,38.9571],[-120.6604,38.9541],[-120.6552,38.9531],[-120.6544,38.9484],[-120.651,38.9489],[-120.6449,38.9468],[-120.6425,38.9444],[-120.6354,38.9434],[-120.6311,38.9463],[-120.6247,38.9448],[-120.6223,38.9431],[-120.6128,38.9431],[-120.61,38.9409],[-120.6069,38.9352],[-120.6044,38.9342],[-120.5985,38.9368],[-120.5944,38.9361],[-120.5935,38.9321],[-120.5873,38.9314],[-120.5852,38.9274],[-120.587,38.9243],[-120.5844,38.9213],[-120.5805,38.9202],[-120.5789,38.9166],[-120.5724,38.9144],[-120.5678,38.9148],[-120.5643,38.9136],[-120.5591,38.9158],[-120.5563,38.9152],[-120.5521,38.9206],[-120.5461,38.9207],[-120.5454,38.9267],[-120.5428,38.9275],[-120.5345,38.926],[-120.5323,38.9291],[-120.5273,38.9316],[-120.5228,38.9303],[-120.5169,38.9316],[-120.5123,38.9312],[-120.5108,38.9342],[-120.5048,38.9352],[-120.5029,38.9408],[-120.4961,38.9418],[-120.4918,38.9452],[-120.493,38.9471],[-120.4912,38.9507],[-120.4877,38.9522],[-120.4862,38.9586],[-120.4833,38.9602],[-120.4793,38.96],[-120.4748,38.9644],[-120.471,38.9655],[-120.4685,38.9714],[-120.4646,38.9739],[-120.4617,38.9784],[-120.4596,38.985],[-120.4515,38.9879],[-120.4538,38.9949],[-120.4507,38.9994],[-120.4489,39.0067],[-120.4454,39.0101],[-120.4452,39.0176],[-120.4424,39.0228],[-120.4392,39.0242],[-120.4353,39.0282],[-120.4122,39.0265],[-120.376,39.0245],[-120.3739,39.0246],[-120.3281,39.0224],[-120.3097,39.0234],[-120.2594,39.0235],[-120.2591,39.0247],[-120.251,39.0247],[-120.2404,39.0237],[-120.2402,39.0309],[-120.1844,39.031],[-120.1836,39.0384],[-120.165,39.0385],[-120.165,39.0458],[-120.153,39.0458],[-120.153,39.0603],[-120.1436,39.0602],[-120.1437,39.0673],[-120.0439,39.0675],[-120.0025,39.0675],[-120.001,38.9996],[-119.9043,38.9333],[-119.9054,38.9283],[-119.8993,38.923],[-119.8916,38.9181],[-119.8873,38.9179],[-119.884,38.9102],[-119.8833,38.9045],[-119.8799,38.8994],[-119.8845,38.8942],[-119.881,38.8909],[-119.8795,38.887],[-119.8828,38.881],[-119.8888,38.879],[-119.8847,38.8765],[-119.8794,38.8753],[-119.8779,38.8736],[-119.8777,38.8683],[-119.8803,38.8648],[-119.8919,38.8573],[-119.8952,38.8566],[-119.9008,38.8574],[-119.9068,38.8547],[-119.9085,38.8461],[-119.9085,38.8343],[-119.9119,38.8327],[-119.9227,38.83],[-119.9238,38.8249],[-119.9219,38.821],[-119.9258,38.8193],[-119.9317,38.8141],[-119.9315,38.8121],[-119.9361,38.8073],[-119.9421,38.8031],[-119.9438,38.7966],[-119.9399,38.7953],[-119.9431,38.7889],[-119.9478,38.7849],[-119.9479,38.7816],[-119.9552,38.7787],[-119.9595,38.7787],[-119.9649,38.776],[-120.0035,38.7499],[-120.0051,38.7486],[-120.0724,38.7028],[-120.08,38.7003],[-120.0824,38.702],[-120.0777,38.7021],[-120.0776,38.7089],[-120.0983,38.709],[-120.0984,38.704],[-120.103,38.706],[-120.1109,38.7057],[-120.116,38.7013],[-120.1176,38.6986],[-120.1222,38.6957],[-120.1243,38.6908],[-120.1234,38.6869],[-120.1167,38.6798],[-120.1219,38.6705],[-120.1231,38.6667],[-120.1289,38.6646],[-120.1322,38.6603],[-120.1351,38.6545],[-120.1319,38.6515],[-120.1317,38.6491],[-120.1357,38.6446],[-120.137,38.6412],[-120.1417,38.6381],[-120.1454,38.6397],[-120.1501,38.6374],[-120.1524,38.6379],[-120.1543,38.6352],[-120.1581,38.6332],[-120.1702,38.6324],[-120.1786,38.6338],[-120.1857,38.6316],[-120.1913,38.6312],[-120.1971,38.6292],[-120.1977,38.6258],[-120.2029,38.6247],[-120.2047,38.6277],[-120.2128,38.6294],[-120.2157,38.6268],[-120.2146,38.6236],[-120.2207,38.6214],[-120.2272,38.6098],[-120.2236,38.6047],[-120.2287,38.6008],[-120.2326,38.6],[-120.2332,38.5964],[-120.2318,38.5922],[-120.2338,38.5883],[-120.2392,38.586],[-120.2432,38.5864],[-120.251,38.5844],[-120.2529,38.5826],[-120.2626,38.5786],[-120.2664,38.5735],[-120.2666,38.5677],[-120.2745,38.5595],[-120.2776,38.5598],[-120.2896,38.5561],[-120.2992,38.5561],[-120.2989,38.5521],[-120.3017,38.5491],[-120.3068,38.5482],[-120.3171,38.5451],[-120.325,38.5462],[-120.3284,38.5452],[-120.3313,38.5477],[-120.3387,38.5469],[-120.3512,38.5472],[-120.3545,38.5481],[-120.3631,38.5446],[-120.3678,38.5441],[-120.3767,38.5447],[-120.3808,38.5429],[-120.3848,38.5385],[-120.3887,38.5406],[-120.3966,38.5389],[-120.3988,38.5373],[-120.4051,38.5361],[-120.4131,38.5311],[-120.4246,38.5303],[-120.435,38.5267],[-120.4389,38.5289],[-120.45,38.5285],[-120.4549,38.5253],[-120.4592,38.5239],[-120.4737,38.5216],[-120.4852,38.5214],[-120.4902,38.5179],[-120.4982,38.5163],[-120.5,38.5144],[-120.5106,38.5115],[-120.519,38.5113],[-120.531,38.51],[-120.5427,38.5098],[-120.5538,38.5119],[-120.5642,38.5086],[-120.5751,38.5044],[-120.5797,38.5034],[-120.5921,38.5046],[-120.5945,38.5036],[-120.6022,38.5039],[-120.6062,38.5023],[-120.6116,38.5045],[-120.6142,38.5032],[-120.6221,38.5044],[-120.6284,38.5032],[-120.639,38.5078],[-120.648,38.5102],[-120.6508,38.51],[-120.6577,38.5134],[-120.6589,38.5154],[-120.666,38.5171],[-120.6772,38.5178],[-120.6787,38.5222],[-120.6831,38.5264],[-120.687,38.528],[-120.6906,38.5278],[-120.697,38.5317],[-120.7,38.5323],[-120.7045,38.5362],[-120.706,38.5352],[-120.7183,38.5418],[-120.7223,38.5469],[-120.7274,38.5468],[-120.7303,38.5481],[-120.7365,38.5456],[-120.739,38.5483],[-120.7473,38.5484],[-120.7489,38.5534],[-120.7548,38.5512],[-120.76,38.5549],[-120.7684,38.5527],[-120.7791,38.5544],[-120.7831,38.5509],[-120.7885,38.5542],[-120.7923,38.5546],[-120.7947,38.5576],[-120.8009,38.5563],[-120.8018,38.5591],[-120.8105,38.5578],[-120.8126,38.5596],[-120.81,38.5609],[-120.8147,38.5618],[-120.8172,38.5581],[-120.8233,38.5597],[-120.8254,38.5559],[-120.8311,38.5564],[-120.8366,38.5515],[-120.8409,38.556],[-120.8472,38.5538],[-120.8496,38.5506],[-120.8552,38.5493],[-120.857,38.5426],[-120.8624,38.5433],[-120.863,38.536],[-120.8708,38.5362],[-120.8736,38.5383],[-120.8733,38.5417],[-120.8767,38.543],[-120.8778,38.5399],[-120.8824,38.5376],[-120.8837,38.5352],[-120.8807,38.5309],[-120.8836,38.5259],[-120.8894,38.5247],[-120.8928,38.529],[-120.8952,38.5282],[-120.9024,38.5312],[-120.9054,38.5243],[-120.9088,38.5239],[-120.911,38.5205],[-120.9221,38.5194],[-120.9238,38.5161],[-120.9274,38.5151],[-120.9298,38.5178],[-120.9364,38.5194],[-120.939,38.5279],[-120.9436,38.5275],[-120.9457,38.5237],[-120.9525,38.521],[-120.9576,38.5228],[-120.9646,38.5203],[-120.9703,38.5208],[-120.9744,38.516],[-120.9801,38.5152],[-120.9857,38.5165],[-120.9901,38.5162],[-120.9946,38.5136],[-120.9999,38.5181],[-121.0053,38.5196],[-121.0097,38.5176],[-121.0095,38.5146],[-121.0193,38.5089],[-121.0275,38.5083],[-121.0396,38.5371],[-121.0474,38.554],[-121.0705,38.6076],[-121.0793,38.6329],[-121.0854,38.6478],[-121.1187,38.7171],[-121.124,38.7105],[-121.1338,38.7054],[-121.1382,38.7082],[-121.1416,38.7119],[-121.1345,38.712]]]}},{"type":"Feature","properties":{"id":"06067","name":"Sacramento Co."},"geometry":{"type":"Polygon","coordinates":[[[-121.5903,38.3175],[-121.5898,38.3227],[-121.5852,38.3255],[-121.5857,38.3288],[-121.584,38.3317],[-121.5809,38.3311],[-121.5752,38.3272],[-121.5719,38.331],[-121.5594,38.3426],[-121.5369,38.3478],[-121.5339,38.3498],[-121.5254,38.3579],[-121.5216,38.3601],[-121.521,38.3669],[-121.524,38.3752],[-121.5232,38.3806],[-121.5158,38.3858],[-121.5143,38.3883],[-121.5131,38.3969],[-121.5142,38.4022],[-121.5175,38.4089],[-121.5313,38.4275],[-121.5326,38.4315],[-121.527,38.4348],[-121.5154,38.4345],[-121.5066,38.4373],[-121.5019,38.4429],[-121.501,38.4501],[-121.5041,38.4666],[-121.5061,38.4709],[-121.5089,38.4728],[-121.5173,38.4745],[-121.5333,38.4738],[-121.5386,38.4746],[-121.5443,38.4776],[-121.5484,38.4825],[-121.5588,38.4975],[-121.5585,38.5032],[-121.555,38.5102],[-121.5518,38.5139],[-121.5408,38.5165],[-121.5314,38.5173],[-121.5255,38.5188],[-121.5242,38.5215],[-121.5299,38.5268],[-121.531,38.529],[-121.5285,38.5321],[-121.5204,38.5354],[-121.5132,38.5407],[-121.5113,38.5463],[-121.5151,38.5552],[-121.521,38.5662],[-121.5116,38.575],[-121.5083,38.5805],[-121.5063,38.5863],[-121.5087,38.5968],[-121.5116,38.6009],[-121.5158,38.6027],[-121.5277,38.6046],[-121.5391,38.6019],[-121.5446,38.5977],[-121.5499,38.5994],[-121.5583,38.6082],[-121.5616,38.6186],[-121.5651,38.6423],[-121.5705,38.6476],[-121.5761,38.6486],[-121.5872,38.6427],[-121.5941,38.6441],[-121.6035,38.6552],[-121.6096,38.6611],[-121.628,38.6748],[-121.6319,38.6806],[-121.6342,38.6898],[-121.6319,38.6958],[-121.6287,38.6989],[-121.6142,38.709],[-121.6084,38.7146],[-121.6058,38.7183],[-121.6029,38.7358],[-121.5675,38.7358],[-121.5583,38.7363],[-121.5218,38.7364],[-121.4844,38.7346],[-121.4741,38.734],[-121.3925,38.7286],[-121.3646,38.7265],[-121.3059,38.7226],[-121.2341,38.7176],[-121.2259,38.7168],[-121.1752,38.7134],[-121.1466,38.7114],[-121.1416,38.7119],[-121.1382,38.7082],[-121.1338,38.7054],[-121.124,38.7105],[-121.1187,38.7171],[-121.0854,38.6478],[-121.0793,38.6329],[-121.0705,38.6076],[-121.0474,38.554],[-121.0396,38.5371],[-121.0275,38.5083],[-121.0273,38.4893],[-121.0272,38.3865],[-121.0271,38.3003],[-121.0305,38.2989],[-121.0406,38.2977],[-121.0436,38.2937],[-121.0475,38.2911],[-121.0534,38.2932],[-121.0648,38.2995],[-121.0685,38.2985],[-121.0739,38.2933],[-121.0782,38.2917],[-121.0842,38.2864],[-121.0854,38.2871],[-121.0899,38.284],[-121.0954,38.2816],[-121.1021,38.2832],[-121.1095,38.2811],[-121.1168,38.2773],[-121.1201,38.2782],[-121.1278,38.2774],[-121.1338,38.2719],[-121.1377,38.2716],[-121.1416,38.2692],[-121.147,38.2639],[-121.157,38.2608],[-121.1615,38.2608],[-121.1691,38.2581],[-121.1731,38.2552],[-121.1802,38.2553],[-121.182,38.2568],[-121.1941,38.2557],[-121.2034,38.2488],[-121.215,38.2488],[-121.2225,38.2444],[-121.2292,38.2475],[-121.2375,38.2475],[-121.2424,38.2454],[-121.2476,38.2454],[-121.2527,38.2469],[-121.259,38.2503],[-121.2684,38.2523],[-121.2768,38.2493],[-121.2812,38.2501],[-121.2881,38.2456],[-121.2913,38.2403],[-121.2955,38.2376],[-121.3053,38.2348],[-121.309,38.2358],[-121.3131,38.2348],[-121.3177,38.2352],[-121.3218,38.2327],[-121.3293,38.2328],[-121.339,38.2289],[-121.344,38.2283],[-121.3547,38.231],[-121.3624,38.2299],[-121.3643,38.2287],[-121.367,38.2312],[-121.3709,38.2297],[-121.3732,38.2311],[-121.3779,38.2306],[-121.3825,38.2321],[-121.3854,38.2314],[-121.3891,38.2332],[-121.3957,38.228],[-121.3982,38.2274],[-121.4017,38.2307],[-121.4052,38.23],[-121.4098,38.2329],[-121.4112,38.2319],[-121.4157,38.2356],[-121.4205,38.2372],[-121.4239,38.2423],[-121.4272,38.2448],[-121.4251,38.2504],[-121.4291,38.2547],[-121.4344,38.2543],[-121.4445,38.2568],[-121.4504,38.2546],[-121.4558,38.2576],[-121.4616,38.2592],[-121.471,38.2599],[-121.4757,38.2581],[-121.4801,38.2536],[-121.4785,38.2511],[-121.4787,38.246],[-121.4866,38.2405],[-121.4877,38.2347],[-121.4908,38.2322],[-121.4917,38.2277],[-121.501,38.2268],[-121.5075,38.2226],[-121.5043,38.2121],[-121.5081,38.2092],[-121.5099,38.2046],[-121.5127,38.2026],[-121.5199,38.2032],[-121.5221,38.2019],[-121.5292,38.1938],[-121.5245,38.1855],[-121.5278,38.181],[-121.5246,38.1748],[-121.5251,38.1713],[-121.5293,38.169],[-121.5314,38.1631],[-121.5335,38.1627],[-121.5362,38.1582],[-121.5345,38.1558],[-121.5363,38.1516],[-121.5427,38.1508],[-121.5434,38.1476],[-121.5469,38.1481],[-121.5499,38.1461],[-121.5592,38.1439],[-121.5601,38.1421],[-121.5573,38.1391],[-121.5577,38.1368],[-121.5624,38.136],[-121.5765,38.129],[-121.5809,38.1249],[-121.5841,38.1202],[-121.5835,38.1135],[-121.5808,38.111],[-121.5732,38.1089],[-121.5658,38.1053],[-121.564,38.1014],[-121.5672,38.0973],[-121.5741,38.0964],[-121.5813,38.0939],[-121.5853,38.0964],[-121.6049,38.0999],[-121.6137,38.0996],[-121.6274,38.0984],[-121.629,38.0973],[-121.6326,38.0886],[-121.6381,38.0861],[-121.6452,38.0874],[-121.6488,38.09],[-121.6619,38.0956],[-121.6731,38.0935],[-121.6793,38.0893],[-121.6819,38.082],[-121.6802,38.0766],[-121.6798,38.0651],[-121.6815,38.0612],[-121.6917,38.0535],[-121.6998,38.0452],[-121.7096,38.0399],[-121.7169,38.0377],[-121.7256,38.0338],[-121.7326,38.029],[-121.7378,38.0266],[-121.7491,38.0243],[-121.7583,38.0241],[-121.7651,38.0232],[-121.7775,38.0189],[-121.7888,38.0184],[-121.7949,38.0195],[-121.8013,38.0216],[-121.8093,38.0203],[-121.8182,38.0222],[-121.8281,38.028],[-121.8321,38.0311],[-121.8379,38.0389],[-121.8406,38.0453],[-121.8417,38.052],[-121.8468,38.06],[-121.8536,38.0648],[-121.8625,38.066],[-121.8616,38.0699],[-121.8576,38.072],[-121.8485,38.0742],[-121.8432,38.0767],[-121.8393,38.0755],[-121.8279,38.0662],[-121.8108,38.0608],[-121.8016,38.0595],[-121.7964,38.0608],[-121.7668,38.076],[-121.7557,38.0807],[-121.7432,38.0872],[-121.7414,38.0871],[-121.7318,38.0826],[-121.7274,38.0824],[-121.7139,38.0845],[-121.7109,38.0865],[-121.7084,38.0915],[-121.7078,38.1051],[-121.7065,38.1119],[-121.6999,38.1192],[-121.6958,38.1255],[-121.6921,38.1331],[-121.6907,38.1397],[-121.6877,38.1468],[-121.6859,38.1546],[-121.6856,38.1597],[-121.6803,38.1628],[-121.6716,38.1725],[-121.6684,38.175],[-121.6629,38.1819],[-121.6551,38.1831],[-121.6458,38.1865],[-121.6421,38.19],[-121.6319,38.1944],[-121.6214,38.1936],[-121.6154,38.1957],[-121.6121,38.2001],[-121.6113,38.2063],[-121.608,38.2129],[-121.6024,38.2204],[-121.6025,38.2327],[-121.6032,38.2373],[-121.6021,38.2417],[-121.602,38.2524],[-121.6002,38.2578],[-121.6015,38.264],[-121.604,38.2701],[-121.6008,38.2794],[-121.6054,38.2861],[-121.6039,38.2895],[-121.6052,38.2961],[-121.5999,38.3015],[-121.5976,38.3072],[-121.5987,38.3099],[-121.5933,38.3131],[-121.5903,38.3175]]]}},{"type":"Feature","properties":{"id":"06113","name":"Yolo Co."},"geometry":{"type":"Polygon","coordinates":[[[-121.6169,38.3131],[-121.6937,38.3137],[-121.6945,38.3296],[-121.6939,38.3442],[-121.6936,38.4876],[-121.6958,38.4876],[-121.6952,38.5228],[-121.6947,38.5271],[-121.7007,38.5274],[-121.7061,38.532],[-121.708,38.5354],[-121.712,38.538],[-121.7212,38.5349],[-121.7266,38.5362],[-121.7326,38.5364],[-121.7386,38.5377],[-121.7446,38.5329],[-121.7489,38.531],[-121.7567,38.5296],[-121.7651,38.5259],[-121.7682,38.5272],[-121.7685,38.5308],[-121.7714,38.5323],[-121.7797,38.5299],[-121.783,38.527],[-121.7836,38.5235],[-121.7858,38.5231],[-121.7952,38.5269],[-121.8092,38.5269],[-121.8133,38.526],[-121.8251,38.5293],[-121.8326,38.5298],[-121.8393,38.5334],[-121.8488,38.5366],[-121.8627,38.5384],[-121.8674,38.5374],[-121.8717,38.5385],[-121.8814,38.5382],[-121.8836,38.5391],[-121.8884,38.5378],[-121.8938,38.5334],[-121.9005,38.5324],[-121.909,38.5296],[-121.9253,38.5297],[-121.9403,38.5334],[-121.9475,38.5271],[-121.9604,38.523],[-121.9636,38.5228],[-121.9678,38.5201],[-121.9707,38.5158],[-121.9746,38.5137],[-121.9781,38.5083],[-121.9857,38.5044],[-121.9866,38.503],[-121.9959,38.5004],[-122.003,38.494],[-122.0091,38.4917],[-122.0114,38.4892],[-122.0185,38.4892],[-122.0308,38.4936],[-122.0356,38.4961],[-122.0384,38.4991],[-122.0416,38.5057],[-122.0523,38.5131],[-122.0574,38.5174],[-122.0598,38.5161],[-122.0685,38.5141],[-122.0869,38.5145],[-122.0908,38.516],[-122.0967,38.5129],[-122.1041,38.5134],[-122.104,38.5157],[-122.1116,38.5241],[-122.1132,38.5293],[-122.1116,38.5309],[-122.1153,38.5352],[-122.1139,38.5379],[-122.1195,38.5536],[-122.121,38.5605],[-122.1233,38.565],[-122.1214,38.5684],[-122.1269,38.5818],[-122.127,38.5874],[-122.1316,38.5948],[-122.1316,38.5977],[-122.1344,38.6046],[-122.138,38.6103],[-122.1417,38.6117],[-122.1435,38.6161],[-122.1494,38.6232],[-122.149,38.6252],[-122.1557,38.6228],[-122.1595,38.6193],[-122.164,38.6179],[-122.1665,38.6197],[-122.1662,38.625],[-122.1687,38.6299],[-122.1608,38.6328],[-122.1592,38.6351],[-122.1642,38.6414],[-122.1604,38.644],[-122.1615,38.6478],[-122.1664,38.6555],[-122.1743,38.6589],[-122.1809,38.6572],[-122.1904,38.6638],[-122.1932,38.6677],[-122.1966,38.6698],[-122.2021,38.6777],[-122.1981,38.6836],[-122.2014,38.6907],[-122.2065,38.6958],[-122.2112,38.6958],[-122.2124,38.6933],[-122.2198,38.6961],[-122.2229,38.7001],[-122.2215,38.7047],[-122.2236,38.7079],[-122.2241,38.7142],[-122.2267,38.7206],[-122.2237,38.7225],[-122.2293,38.7311],[-122.2301,38.7344],[-122.2331,38.7369],[-122.234,38.7404],[-122.2404,38.7434],[-122.2427,38.7497],[-122.246,38.7512],[-122.2488,38.7558],[-122.2499,38.765],[-122.2532,38.7748],[-122.2543,38.7812],[-122.2586,38.7863],[-122.2587,38.7899],[-122.2612,38.7939],[-122.2645,38.7964],[-122.2658,38.8006],[-122.2682,38.8017],[-122.2741,38.8115],[-122.2737,38.8132],[-122.2776,38.8216],[-122.2817,38.8259],[-122.2849,38.8357],[-122.2877,38.84],[-122.2953,38.8388],[-122.3017,38.8396],[-122.303,38.8425],[-122.3112,38.8399],[-122.3156,38.8397],[-122.3187,38.8433],[-122.324,38.8463],[-122.3303,38.8423],[-122.3347,38.8438],[-122.3385,38.842],[-122.3424,38.8421],[-122.3477,38.8364],[-122.3507,38.8359],[-122.356,38.8387],[-122.3727,38.8452],[-122.3762,38.849],[-122.3814,38.85],[-122.3854,38.8527],[-122.3881,38.8563],[-122.3922,38.8588],[-122.3953,38.864],[-122.3908,38.868],[-122.3954,38.8707],[-122.3964,38.8741],[-122.4061,38.8804],[-122.4053,38.8834],[-122.4111,38.8894],[-122.4156,38.8971],[-122.4191,38.8982],[-122.422,38.9009],[-122.4219,38.9038],[-122.4158,38.9077],[-122.4165,38.9096],[-122.4124,38.9125],[-122.4099,38.9186],[-122.4047,38.9231],[-122.4039,38.9253],[-122.3547,38.9252],[-122.338,38.9239],[-122.3234,38.9241],[-122.2615,38.9241],[-122.2473,38.9239],[-122.2294,38.9248],[-122.0611,38.9259],[-122.0004,38.9255],[-121.9159,38.9253],[-121.8888,38.925],[-121.8826,38.9251],[-121.8355,38.9245],[-121.8325,38.9227],[-121.83,38.9191],[-121.8192,38.9175],[-121.8132,38.9154],[-121.8048,38.9145],[-121.8046,38.9119],[-121.809,38.9102],[-121.8143,38.9117],[-121.815,38.9106],[-121.8077,38.9069],[-121.7972,38.9055],[-121.7926,38.9064],[-121.7911,38.9033],[-121.7946,38.9005],[-121.804,38.9017],[-121.8031,38.8974],[-121.8068,38.8903],[-121.8092,38.8877],[-121.8163,38.885],[-121.8172,38.8829],[-121.8148,38.8766],[-121.8098,38.8721],[-121.8039,38.87],[-121.8017,38.8643],[-121.796,38.8667],[-121.793,38.863],[-121.7888,38.8642],[-121.7851,38.8626],[-121.7843,38.8567],[-121.7767,38.8613],[-121.77,38.8615],[-121.7653,38.8642],[-121.7581,38.8626],[-121.7602,38.8672],[-121.7587,38.8687],[-121.7497,38.8712],[-121.7474,38.87],[-121.7448,38.8642],[-121.7378,38.8608],[-121.7305,38.8591],[-121.7285,38.8573],[-121.7282,38.8534],[-121.7235,38.8523],[-121.7238,38.8504],[-121.7283,38.8474],[-121.7287,38.8447],[-121.726,38.8413],[-121.7299,38.8393],[-121.7306,38.8347],[-121.727,38.8315],[-121.7234,38.8256],[-121.7244,38.8184],[-121.7235,38.8136],[-121.7233,38.8038],[-121.7207,38.8021],[-121.7174,38.8027],[-121.7075,38.801],[-121.7013,38.803],[-121.6983,38.8013],[-121.6967,38.7974],[-121.6907,38.7956],[-121.6934,38.7898],[-121.6886,38.7821],[-121.6864,38.7754],[-121.6921,38.7696],[-121.6921,38.7672],[-121.686,38.7634],[-121.6803,38.7634],[-121.6777,38.7607],[-121.67,38.7593],[-121.6766,38.752],[-121.6775,38.7493],[-121.6745,38.7437],[-121.67,38.7448],[-121.6685,38.7493],[-121.669,38.7533],[-121.6641,38.7557],[-121.6585,38.7553],[-121.6599,38.761],[-121.6643,38.7653],[-121.6622,38.7698],[-121.6589,38.7696],[-121.656,38.7651],[-121.6524,38.7645],[-121.639,38.7677],[-121.6486,38.7728],[-121.6453,38.774],[-121.6404,38.7728],[-121.6363,38.7674],[-121.6334,38.7685],[-121.6315,38.7761],[-121.6279,38.7792],[-121.6308,38.7832],[-121.6253,38.7853],[-121.6138,38.7817],[-121.6081,38.7809],[-121.603,38.7781],[-121.5998,38.7749],[-121.5926,38.7629],[-121.5934,38.754],[-121.5955,38.7488],[-121.6011,38.7406],[-121.6029,38.7358],[-121.6058,38.7183],[-121.6084,38.7146],[-121.6142,38.709],[-121.6287,38.6989],[-121.6319,38.6958],[-121.6342,38.6898],[-121.6319,38.6806],[-121.628,38.6748],[-121.6096,38.6611],[-121.6035,38.6552],[-121.5941,38.6441],[-121.5872,38.6427],[-121.5761,38.6486],[-121.5705,38.6476],[-121.5651,38.6423],[-121.5616,38.6186],[-121.5583,38.6082],[-121.5499,38.5994],[-121.5446,38.5977],[-121.5391,38.6019],[-121.5277,38.6046],[-121.5158,38.6027],[-121.5116,38.6009],[-121.5087,38.5968],[-121.5063,38.5863],[-121.5083,38.5805],[-121.5116,38.575],[-121.521,38.5662],[-121.5151,38.5552],[-121.5113,38.5463],[-121.5132,38.5407],[-121.5204,38.5354],[-121.5285,38.5321],[-121.531,38.529],[-121.5299,38.5268],[-121.5242,38.5215],[-121.5255,38.5188],[-121.5314,38.5173],[-121.5408,38.5165],[-121.5518,38.5139],[-121.555,38.5102],[-121.5585,38.5032],[-121.5588,38.4975],[-121.5484,38.4825],[-121.5443,38.4776],[-121.5386,38.4746],[-121.5333,38.4738],[-121.5173,38.4745],[-121.5089,38.4728],[-121.5061,38.4709],[-121.5041,38.4666],[-121.501,38.4501],[-121.5019,38.4429],[-121.5066,38.4373],[-121.5154,38.4345],[-121.527,38.4348],[-121.5326,38.4315],[-121.5313,38.4275],[-121.5175,38.4089],[-121.5142,38.4022],[-121.5131,38.3969],[-121.5143,38.3883],[-121.5158,38.3858],[-121.5232,38.3806],[-121.524,38.3752],[-121.521,38.3669],[-121.5216,38.3601],[-121.5254,38.3579],[-121.5339,38.3498],[-121.5369,38.3478],[-121.5594,38.3426],[-121.5719,38.331],[-121.5752,38.3272],[-121.5809,38.3311],[-121.584,38.3317],[-121.5857,38.3288],[-121.5852,38.3255],[-121.5898,38.3227],[-121.5903,38.3175],[-121.5933,38.3131],[-121.6169,38.3131]]]}},{"type":"Feature","properties":{"id":"06061","name":"Placer Co."},"geometry":{"type":"Polygon","coordinates":[[[-120.0439,39.0675],[-120.1437,39.0673],[-120.1436,39.0602],[-120.153,39.0603],[-120.153,39.0458],[-120.165,39.0458],[-120.165,39.0385],[-120.1836,39.0384],[-120.1844,39.031],[-120.2402,39.0309],[-120.2404,39.0237],[-120.251,39.0247],[-120.2591,39.0247],[-120.2594,39.0235],[-120.3097,39.0234],[-120.3281,39.0224],[-120.3739,39.0246],[-120.376,39.0245],[-120.4122,39.0265],[-120.4353,39.0282],[-120.4392,39.0242],[-120.4424,39.0228],[-120.4452,39.0176],[-120.4454,39.0101],[-120.4489,39.0067],[-120.4507,38.9994],[-120.4538,38.9949],[-120.4515,38.9879],[-120.4596,38.985],[-120.4617,38.9784],[-120.4646,38.9739],[-120.4685,38.9714],[-120.471,38.9655],[-120.4748,38.9644],[-120.4793,38.96],[-120.4833,38.9602],[-120.4862,38.9586],[-120.4877,38.9522],[-120.4912,38.9507],[-120.493,38.9471],[-120.4918,38.9452],[-120.4961,38.9418],[-120.5029,38.9408],[-120.5048,38.9352],[-120.5108,38.9342],[-120.5123,38.9312],[-120.5169,38.9316],[-120.5228,38.9303],[-120.5273,38.9316],[-120.5323,38.9291],[-120.5345,38.926],[-120.5428,38.9275],[-120.5454,38.9267],[-120.5461,38.9207],[-120.5521,38.9206],[-120.5563,38.9152],[-120.5591,38.9158],[-120.5643,38.9136],[-120.5678,38.9148],[-120.5724,38.9144],[-120.5789,38.9166],[-120.5805,38.9202],[-120.5844,38.9213],[-120.587,38.9243],[-120.5852,38.9274],[-120.5873,38.9314],[-120.5935,38.9321],[-120.5944,38.9361],[-120.5985,38.9368],[-120.6044,38.9342],[-120.6069,38.9352],[-120.61,38.9409],[-120.6128,38.9431],[-120.6223,38.9431],[-120.6247,38.9448],[-120.6311,38.9463],[-120.6354,38.9434],[-120.6425,38.9444],[-120.6449,38.9468],[-120.651,38.9489],[-120.6544,38.9484],[-120.6552,38.9531],[-120.6604,38.9541],[-120.6645,38.9571],[-120.6727,38.9586],[-120.6747,38.9627],[-120.6777,38.9636],[-120.6797,38.9665],[-120.6837,38.9678],[-120.6834,38.9746],[-120.6809,38.9779],[-120.6852,38.9836],[-120.6846,38.9892],[-120.6879,38.9899],[-120.6921,38.9859],[-120.7002,38.982],[-120.7044,38.9812],[-120.7113,38.9858],[-120.7163,38.9867],[-120.7223,38.9935],[-120.7232,38.9993],[-120.7296,39.004],[-120.736,39.0006],[-120.7416,39.0014],[-120.7439,39.0048],[-120.7472,39.003],[-120.7485,39.0052],[-120.7459,39.0098],[-120.7499,39.0095],[-120.7518,39.0058],[-120.7576,39.0077],[-120.7641,39.0048],[-120.7601,39.0031],[-120.7641,39.002],[-120.7671,39.0054],[-120.7636,39.0082],[-120.7644,39.0097],[-120.7683,39.0092],[-120.7702,39.007],[-120.7802,39.0042],[-120.7868,38.9996],[-120.7908,38.9996],[-120.7981,38.9961],[-120.8019,39.0011],[-120.8123,39.0001],[-120.8155,38.9948],[-120.8247,38.9927],[-120.8297,38.9873],[-120.8294,38.9804],[-120.8326,38.978],[-120.8342,38.9719],[-120.8388,38.9718],[-120.8406,38.9754],[-120.8494,38.9768],[-120.8532,38.9728],[-120.8555,38.9668],[-120.8521,38.9595],[-120.8577,38.9566],[-120.8589,38.9523],[-120.8631,38.9539],[-120.8686,38.9542],[-120.8774,38.957],[-120.8816,38.9567],[-120.8852,38.959],[-120.8905,38.9596],[-120.9,38.9533],[-120.9021,38.9532],[-120.9139,38.9552],[-120.9263,38.9618],[-120.9325,38.9621],[-120.9362,38.9639],[-120.9403,38.9623],[-120.9406,38.9599],[-120.9382,38.9566],[-120.9377,38.9467],[-120.9383,38.9358],[-120.9434,38.9357],[-120.9516,38.9388],[-120.9578,38.9391],[-120.9627,38.9343],[-120.966,38.9326],[-120.9704,38.9331],[-120.9773,38.9293],[-120.9841,38.9291],[-120.992,38.9272],[-120.9912,38.9236],[-120.997,38.9211],[-121.0011,38.9178],[-121.0049,38.9201],[-121.0071,38.9179],[-121.0123,38.9166],[-121.0189,38.9182],[-121.0235,38.9172],[-121.0254,38.915],[-121.0338,38.9128],[-121.0375,38.9157],[-121.0415,38.9142],[-121.043,38.9085],[-121.048,38.9051],[-121.0498,38.9018],[-121.0529,38.9001],[-121.053,38.8968],[-121.0482,38.8953],[-121.0442,38.8908],[-121.0461,38.8889],[-121.0586,38.8843],[-121.062,38.8815],[-121.0569,38.8773],[-121.0533,38.8683],[-121.0545,38.865],[-121.0586,38.8635],[-121.0618,38.8599],[-121.0576,38.8513],[-121.0584,38.8471],[-121.0624,38.8451],[-121.0727,38.8429],[-121.0758,38.8396],[-121.0819,38.8352],[-121.0873,38.8333],[-121.0887,38.8271],[-121.0831,38.8231],[-121.0845,38.8164],[-121.0934,38.8138],[-121.1008,38.8154],[-121.0978,38.8073],[-121.0981,38.8033],[-121.1022,38.7962],[-121.1012,38.79],[-121.103,38.7855],[-121.1077,38.7801],[-121.1117,38.7738],[-121.1172,38.7705],[-121.1193,38.7658],[-121.1175,38.7578],[-121.121,38.7525],[-121.1214,38.7488],[-121.1283,38.7336],[-121.1333,38.7315],[-121.1332,38.7165],[-121.1345,38.712],[-121.1416,38.7119],[-121.1466,38.7114],[-121.1752,38.7134],[-121.2259,38.7168],[-121.2341,38.7176],[-121.3059,38.7226],[-121.3646,38.7265],[-121.3925,38.7286],[-121.4741,38.734],[-121.4844,38.7346],[-121.4844,38.7514],[-121.4698,38.7519],[-121.4696,38.7952],[-121.4698,38.8243],[-121.4697,38.8441],[-121.47,38.846],[-121.4695,38.8969],[-121.4694,38.926],[-121.4144,38.9262],[-121.4144,38.9585],[-121.4146,38.9591],[-121.4148,38.9984],[-121.4079,38.999],[-121.4052,39.0016],[-121.3977,39.0059],[-121.3969,39.0092],[-121.3897,39.0128],[-121.3883,39.0145],[-121.3845,39.0145],[-121.3851,39.0177],[-121.3771,39.021],[-121.3724,39.0277],[-121.3656,39.0317],[-121.3612,39.0326],[-121.3584,39.0302],[-121.3539,39.0313],[-121.3488,39.0345],[-121.3357,39.0388],[-121.3312,39.0428],[-121.3274,39.0442],[-121.324,39.0429],[-121.321,39.0441],[-121.3198,39.0485],[-121.3116,39.052],[-121.3045,39.0525],[-121.3027,39.0483],[-121.2933,39.044],[-121.2902,39.0369],[-121.2795,39.0346],[-121.273,39.0342],[-121.266,39.0304],[-121.2539,39.0276],[-121.2482,39.0282],[-121.2479,39.0261],[-121.2407,39.0214],[-121.2383,39.0238],[-121.2332,39.0247],[-121.2301,39.0231],[-121.2218,39.012],[-121.2135,39.0129],[-121.2059,39.0119],[-121.2048,39.0155],[-121.1989,39.0175],[-121.1919,39.0153],[-121.1877,39.0125],[-121.1809,39.0175],[-121.1793,39.02],[-121.1737,39.0184],[-121.1636,39.0225],[-121.162,39.0244],[-121.1525,39.0268],[-121.1503,39.0321],[-121.1448,39.0337],[-121.1394,39.0375],[-121.1367,39.0377],[-121.1334,39.0344],[-121.1251,39.0325],[-121.1267,39.0296],[-121.1235,39.0279],[-121.1232,39.0244],[-121.1151,39.0186],[-121.1089,39.0182],[-121.106,39.016],[-121.1051,39.0121],[-121.0973,39.0133],[-121.095,39.0115],[-121.0897,39.0144],[-121.0808,39.0097],[-121.0795,39.0069],[-121.0686,39.0052],[-121.0617,39.0101],[-121.0522,39.0107],[-121.0494,39.0127],[-121.0416,39.0138],[-121.037,39.0176],[-121.0377,39.0208],[-121.0311,39.0279],[-121.0295,39.0326],[-121.0303,39.0369],[-121.029,39.0384],[-121.0214,39.0394],[-121.0206,39.0453],[-121.0145,39.0475],[-121.0124,39.0494],[-121.0136,39.0519],[-121.0083,39.0521],[-121.0071,39.0612],[-121.0029,39.0627],[-121.0027,39.0675],[-120.9969,39.0682],[-120.9986,39.072],[-120.9929,39.0746],[-120.9916,39.0769],[-120.995,39.0786],[-120.9959,39.081],[-120.9914,39.0819],[-120.989,39.0845],[-120.9863,39.1022],[-120.9897,39.1095],[-120.9887,39.1118],[-120.9793,39.1104],[-120.9759,39.1138],[-120.9734,39.1197],[-120.968,39.1221],[-120.9658,39.1282],[-120.9611,39.1297],[-120.9558,39.1327],[-120.9521,39.1367],[-120.9491,39.1376],[-120.9475,39.1434],[-120.9449,39.1454],[-120.9396,39.1461],[-120.9369,39.1514],[-120.9299,39.154],[-120.9306,39.1565],[-120.9264,39.1553],[-120.9232,39.1576],[-120.9245,39.1608],[-120.921,39.1623],[-120.9112,39.164],[-120.9085,39.1638],[-120.9061,39.1672],[-120.909,39.1702],[-120.9004,39.1741],[-120.8974,39.1764],[-120.8923,39.1753],[-120.8911,39.1771],[-120.8869,39.1766],[-120.8816,39.179],[-120.8799,39.1781],[-120.8688,39.1807],[-120.8692,39.1852],[-120.8652,39.1881],[-120.8669,39.1896],[-120.8608,39.1925],[-120.8614,39.1948],[-120.8578,39.1974],[-120.8566,39.2041],[-120.8581,39.2061],[-120.8553,39.2069],[-120.8517,39.212],[-120.8448,39.2134],[-120.834,39.2182],[-120.8288,39.2232],[-120.8227,39.2255],[-120.8166,39.2299],[-120.8042,39.2333],[-120.8001,39.2359],[-120.7992,39.238],[-120.7914,39.2411],[-120.7849,39.2466],[-120.7851,39.2482],[-120.7766,39.2523],[-120.7733,39.2555],[-120.7687,39.2563],[-120.7644,39.2628],[-120.7622,39.2641],[-120.7566,39.2642],[-120.7492,39.2705],[-120.7472,39.2749],[-120.7301,39.2856],[-120.7279,39.2881],[-120.7151,39.2923],[-120.7103,39.2925],[-120.7023,39.2998],[-120.693,39.3019],[-120.6822,39.3069],[-120.6762,39.3072],[-120.6714,39.3104],[-120.6686,39.3081],[-120.6626,39.3101],[-120.6595,39.3081],[-120.6487,39.3115],[-120.6458,39.3152],[-120.5678,39.3156],[-120.501,39.3158],[-120.4644,39.3161],[-120.3224,39.3164],[-120.2043,39.3162],[-120.1363,39.3162],[-120.0063,39.3165],[-120.0065,39.2722],[-120.0057,39.2252],[-120.0025,39.0675],[-120.0439,39.0675]]]}}]}