{"type":"FeatureCollection","features":[{"type":"Feature","properties":{"id":"39133","name":"Portage Co."},"geometry":{"type":"Polygon","coordinates":[[[-81.2986,41.3473],[-81.1914,41.3476],[-81.1137,41.3474],[-81.0791,41.3475],[-81.0536,41.3478],[-81.0032,41.3479],[-81.0032,41.3099],[-81.0029,41.2718],[-81.0027,41.2027],[-81.0026,41.1927],[-81.0025,41.1342],[-81.0023,41.1342],[-81.0024,41.104],[-81.0024,41.0421],[-81.0019,41.0344],[-81.0017,40.9878],[-81.0413,40.988],[-81.0507,40.9878],[-81.1443,40.9882],[-81.1957,40.9882],[-81.2031,40.988],[-81.2494,40.9884],[-81.3575,40.9887],[-81.3932,40.9885],[-81.3933,41.029],[-81.3928,41.0832],[-81.3922,41.1355],[-81.3924,41.1398],[-81.3922,41.1985],[-81.3919,41.2029],[-81.3921,41.2397],[-81.3918,41.2841],[-81.3917,41.3483],[-81.2986,41.3473]]]}},{"type":"Feature","properties":{"id":"39153","name":"Summit Co."},"geometry":{"type":"Polygon","coordinates":[[[-81.4163,40.9885],[-81.4178,40.9506],[-81.4204,40.9065],[-81.466,40.9079],[-81.5364,40.9103],[-81.5653,40.9115],[-81.6138,40.9131],[-81.6477,40.914],[-81.6477,40.9886],[-81.6885,40.9886],[-81.6878,41.0257],[-81.6873,41.1105],[-81.687,41.136],[-81.6856,41.2021],[-81.6849,41.2771],[-81.6361,41.2775],[-81.5905,41.2776],[-81.5651,41.2778],[-81.5624,41.2804],[-81.5648,41.2842],[-81.5681,41.286],[-81.5651,41.2879],[-81.5665,41.29],[-81.5709,41.2908],[-81.572,41.2939],[-81.573,41.3027],[-81.5786,41.3058],[-81.5816,41.3058],[-81.5854,41.3089],[-81.5836,41.3115],[-81.5836,41.3157],[-81.5877,41.3198],[-81.5873,41.3237],[-81.5915,41.3279],[-81.5912,41.3313],[-81.5879,41.3363],[-81.5881,41.3427],[-81.5947,41.3435],[-81.5968,41.3472],[-81.5933,41.3496],[-81.5972,41.3493],[-81.5981,41.3512],[-81.5266,41.3505],[-81.5189,41.3502],[-81.4688,41.3496],[-81.4613,41.3493],[-81.3996,41.3486],[-81.3917,41.3483],[-81.3918,41.2841],[-81.3921,41.2397],[-81.3919,41.2029],[-81.3922,41.1985],[-81.3924,41.1398],[-81.3922,41.1355],[-81.3928,41.0832],[-81.3933,41.029],[-81.3932,40.9885],[-81.4163,40.9885]]]}}]}