{"type":"FeatureCollection","features":[{"type":"Feature","properties":{"zcta":"44301","d":1868},"geometry":{"type":"Polygon","coordinates":[[[-81.54045,41.06158],[-81.54029,41.05952],[-81.53766,41.0583],[-81.53006,41.05838],[-81.52856,41.05946],[-81.52904,41.05651],[-81.52651,41.05783],[-81.52479,41.0565],[-81.51944,41.05653],[-81.51952,41.05312],[-81.51815,41.05538],[-81.51304,41.05538],[-81.51306,41.05448],[-81.50546,41.05447],[-81.50562,41.04402],[-81.50504,41.04027],[-81.50518,41.03028],[-81.50489,41.02913],[-81.51254,41.02886],[-81.51257,41.03098],[-81.51511,41.03095],[-81.51514,41.02953],[-81.52131,41.02879],[-81.52127,41.02983],[-81.52935,41.0295],[-81.53303,41.02873],[-81.53694,41.03286],[-81.53904,41.03605],[-81.54235,41.04275],[-81.543,41.04612],[-81.54594,41.05428],[-81.54596,41.05623],[-81.54198,41.06156],[-81.54045,41.06158]]]}},{"type":"Feature","properties":{"zcta":"44056","d":671},"geometry":{"type":"Polygon","coordinates":[[[-81.48899,41.34975],[-81.48917,41.32794],[-81.4794,41.3279],[-81.47972,41.31623],[-81.47641,41.31616],[-81.47644,41.31142],[-81.47453,41.30993],[-81.47452,41.30552],[-81.47783,41.30558],[-81.47784,41.30303],[-81.47995,41.30307],[-81.47364,41.29937],[-81.47357,41.29775],[-81.47157,41.29776],[-81.47213,41.29275],[-81.4742,41.29274],[-81.47426,41.28806],[-81.47128,41.28805],[-81.47128,41.28926],[-81.46485,41.28925],[-81.46481,41.28086],[-81.46483,41.27697],[-81.48943,41.27718],[-81.48934,41.29162],[-81.50906,41.29196],[-81.51169,41.29436],[-81.51907,41.29421],[-81.51916,41.30665],[-81.52388,41.30671],[-81.52384,41.31403],[-81.52577,41.31864],[-81.52575,41.32115],[-81.52718,41.32122],[-81.53086,41.32868],[-81.52876,41.32866],[-81.52876,41.33585],[-81.51893,41.33572],[-81.51885,41.35016],[-81.48899,41.34975]]]}},{"type":"Feature","properties":{"zcta":"44243","d":0},"geometry":{"type":"Polygon","coordinates":[[[-81.34506,41.15368],[-81.33892,41.15377],[-81.33619,41.15204],[-81.33629,41.14898],[-81.33462,41.14485],[-81.33323,41.1454],[-81.33322,41.14285],[-81.33167,41.14294],[-81.3317,41.1402],[-81.33338,41.1411],[-81.33411,41.14325],[-81.3355,41.14109],[-81.33952,41.14278],[-81.34942,41.14886],[-81.34506,41.15368]]]}},{"type":"Feature","properties":{"zcta":"44262","d":1164},"geometry":{"type":"Polygon","coordinates":[[[-81.44993,41.15214],[-81.42146,41.15221],[-81.42145,41.14478],[-81.41854,41.14478],[-81.4185,41.1358],[-81.41424,41.13577],[-81.41504,41.12899],[-81.4211,41.126],[-81.42348,41.12407],[-81.42748,41.12414],[-81.42698,41.13569],[-81.43623,41.13579],[-81.43623,41.13396],[-81.43973,41.13475],[-81.44007,41.12432],[-81.45297,41.12442],[-81.45264,41.13584],[-81.45004,41.13583],[-81.44993,41.14806],[-81.44993,41.15214]]]}},{"type":"Feature","properties":{"zcta":"44266","d":176},"geometry":{"type":"Polygon","coordinates":[[[-81.30564,41.20244],[-81.30421,41.20662],[-81.30408,41.21079],[-81.30612,41.21315],[-81.30012,41.2157],[-81.30228,41.2192],[-81.30135,41.22059],[-81.30802,41.22467],[-81.30978,41.22769],[-81.30697,41.22923],[-81.30632,41.2334],[-81.30391,41.23805],[-81.30124,41.24008],[-81.2989,41.24058],[-81.2989,41.24212],[-81.29605,41.24358],[-81.28924,41.2437],[-81.28586,41.24503],[-81.28394,41.24362],[-81.27927,41.24354],[-81.27925,41.24439],[-81.27174,41.24399],[-81.26553,41.24469],[-81.26518,41.24679],[-81.25531,41.24599],[-81.25684,41.24491],[-81.24964,41.24067],[-81.244,41.23905],[-81.23852,41.23326],[-81.23847,41.23586],[-81.2336,41.23584],[-81.23367,41.23829],[-81.22663,41.24092],[-81.22142,41.24085],[-81.2214,41.24156],[-81.21509,41.24135],[-81.21511,41.24007],[-81.20828,41.23977],[-81.20556,41.24115],[-81.20566,41.24363],[-81.19241,41.24354],[-81.19239,41.23854],[-81.17979,41.23829],[-81.17915,41.24139],[-81.17612,41.24133],[-81.17561,41.23819],[-81.16173,41.2379],[-81.16176,41.24335],[-81.15139,41.24315],[-81.15139,41.23837],[-81.1484,41.23637],[-81.14839,41.23354],[-81.14951,41.23095],[-81.15154,41.23039],[-81.15175,41.22186],[-81.1548,41.22188],[-81.15486,41.21249],[-81.15534,41.20319],[-81.15733,41.20215],[-81.16681,41.19772],[-81.19275,41.19287],[-81.19266,41.17745],[-81.18665,41.17744],[-81.18682,41.17231],[-81.18874,41.17133],[-81.18882,41.16696],[-81.14741,41.16686],[-81.14705,41.16951],[-81.14697,41.17918],[-81.11819,41.17919],[-81.11792,41.1844],[-81.10955,41.19198],[-81.10229,41.19197],[-81.09061,41.19089],[-81.08538,41.19079],[-81.08529,41.16688],[-81.07144,41.17211],[-81.07133,41.17145],[-81.02651,41.1855],[-81.02664,41.18235],[-81.02518,41.1823],[-81.02516,41.18011],[-81.02319,41.1783],[-81.02313,41.1715],[-81.02714,41.16795],[-81.02406,41.1663],[-81.02653,41.16399],[-81.02824,41.16032],[-81.03038,41.1586],[-81.03387,41.1591],[-81.03651,41.15523],[-81.03761,41.15561],[-81.04503,41.1554],[-81.04918,41.15703],[-81.05146,41.15704],[-81.05118,41.15264],[-81.04646,41.15259],[-81.04138,41.15316],[-81.03083,41.15304],[-81.03098,41.14504],[-81.03229,41.14472],[-81.03222,41.14155],[-81.03624,41.14153],[-81.03618,41.13807],[-81.03812,41.13803],[-81.03815,41.13532],[-81.04762,41.13512],[-81.05111,41.13571],[-81.06865,41.13519],[-81.07021,41.13284],[-81.07995,41.13287],[-81.07995,41.12801],[-81.08711,41.1279],[-81.08707,41.12012],[-81.08834,41.11816],[-81.08463,41.11752],[-81.07805,41.11774],[-81.07582,41.11661],[-81.07579,41.11317],[-81.07827,41.11038],[-81.07898,41.10615],[-81.08936,41.10618],[-81.08932,41.09904],[-81.08685,41.09902],[-81.08691,41.09547],[-81.09435,41.09571],[-81.09589,41.09634],[-81.09593,41.0984],[-81.09863,41.09837],[-81.09865,41.10582],[-81.10987,41.10495],[-81.12603,41.10593],[-81.14297,41.10587],[-81.14296,41.10264],[-81.14482,41.10009],[-81.14828,41.09967],[-81.15637,41.10596],[-81.17714,41.10573],[-81.18855,41.1064],[-81.19366,41.10632],[-81.19351,41.10985],[-81.19724,41.11017],[-81.20694,41.11025],[-81.20694,41.11188],[-81.21167,41.11192],[-81.21155,41.11451],[-81.21323,41.11543],[-81.22021,41.11579],[-81.2202,41.11687],[-81.22732,41.11682],[-81.2219,41.11064],[-81.22024,41.11059],[-81.2203,41.10709],[-81.22246,41.10735],[-81.23187,41.11011],[-81.24232,41.10934],[-81.25139,41.11034],[-81.26995,41.11075],[-81.27859,41.11095],[-81.288,41.10983],[-81.28787,41.11572],[-81.29519,41.11585],[-81.29853,41.11492],[-81.29873,41.11229],[-81.3005,41.11164],[-81.30063,41.10853],[-81.29652,41.1085],[-81.28801,41.10963],[-81.28814,41.10414],[-81.2869,41.10409],[-81.28692,41.10013],[-81.28819,41.10015],[-81.28877,41.09507],[-81.29227,41.09479],[-81.29736,41.09544],[-81.29733,41.08428],[-81.3011,41.08572],[-81.30093,41.09456],[-81.30366,41.0908],[-81.30715,41.09085],[-81.30785,41.09342],[-81.31076,41.09339],[-81.31076,41.09602],[-81.31412,41.09585],[-81.31503,41.09971],[-81.3185,41.10094],[-81.31804,41.10407],[-81.32005,41.10409],[-81.32007,41.10862],[-81.31323,41.10874],[-81.3091,41.11341],[-81.31101,41.11401],[-81.31105,41.12292],[-81.30175,41.12285],[-81.30044,41.12533],[-81.30052,41.13425],[-81.30559,41.13432],[-81.30546,41.1371],[-81.30053,41.13797],[-81.30006,41.15784],[-81.31189,41.15664],[-81.31241,41.15762],[-81.31632,41.1571],[-81.31736,41.15963],[-81.31405,41.16271],[-81.31251,41.16551],[-81.31011,41.16789],[-81.30752,41.16717],[-81.31275,41.17246],[-81.31767,41.17512],[-81.32574,41.17792],[-81.33301,41.18147],[-81.33103,41.18326],[-81.33192,41.1881],[-81.32675,41.18725],[-81.32442,41.18472],[-81.32086,41.1855],[-81.32002,41.18681],[-81.31633,41.18437],[-81.31244,41.18697],[-81.31351,41.18828],[-81.3112,41.19149],[-81.31355,41.19241],[-81.31232,41.1938],[-81.31301,41.19544],[-81.31049,41.20024],[-81.3116,41.20239],[-81.30564,41.20244]],[[-81.05115,41.16622],[-81.07344,41.16632],[-81.08768,41.16437],[-81.0871,41.16281],[-81.08189,41.16354],[-81.07646,41.16042],[-81.07452,41.15637],[-81.06746,41.15874],[-81.06738,41.16039],[-81.06529,41.16082],[-81.06167,41.15965],[-81.0569,41.15894],[-81.0562,41.15654],[-81.05146,41.15704],[-81.05115,41.16622]]]}},{"type":"Feature","properties":{"zcta":"44305","d":1523},"geometry":{"type":"MultiPolygon","coordinates":[[[[-81.41667,41.06055],[-81.41691,41.05422],[-81.4225,41.0567],[-81.4219,41.05958],[-81.42407,41.06153],[-81.41667,41.06055]]],[[[-81.48757,41.08625],[-81.4862,41.09045],[-81.48386,41.09344],[-81.48406,41.09669],[-81.47703,41.09696],[-81.47715,41.09606],[-81.47355,41.09695],[-81.47053,41.09689],[-81.46744,41.09546],[-81.46585,41.09603],[-81.46596,41.09334],[-81.45083,41.09295],[-81.45084,41.08957],[-81.45366,41.0896],[-81.45699,41.08743],[-81.45623,41.08506],[-81.42881,41.08453],[-81.4295,41.06668],[-81.42085,41.06661],[-81.42093,41.06218],[-81.41783,41.06074],[-81.42289,41.06169],[-81.42861,41.06095],[-81.43473,41.06412],[-81.43468,41.0652],[-81.43947,41.06448],[-81.4483,41.06396],[-81.45691,41.06128],[-81.46265,41.06093],[-81.46343,41.05956],[-81.47182,41.05915],[-81.47706,41.06054],[-81.47937,41.06234],[-81.48243,41.0627],[-81.4884,41.06746],[-81.49068,41.06748],[-81.48857,41.0695],[-81.49063,41.07238],[-81.49443,41.07542],[-81.49876,41.07779],[-81.49821,41.08316],[-81.49609,41.08391],[-81.50186,41.08698],[-81.50114,41.08836],[-81.49843,41.08749],[-81.49589,41.08517],[-81.49397,41.08557],[-81.49122,41.08766],[-81.48757,41.08625]]]]}},{"type":"Feature","properties":{"zcta":"44308","d":1016},"geometry":{"type":"Polygon","coordinates":[[[-81.52476,41.08144],[-81.52133,41.08285],[-81.51958,41.08597],[-81.51865,41.08857],[-81.51784,41.09028],[-81.51389,41.08883],[-81.51468,41.08702],[-81.51195,41.08634],[-81.51328,41.08452],[-81.50878,41.0833],[-81.5079,41.08163],[-81.50923,41.07979],[-81.50927,41.07778],[-81.51116,41.07811],[-81.51114,41.08051],[-81.51283,41.08122],[-81.51515,41.07997],[-81.51875,41.07522],[-81.52045,41.07452],[-81.52285,41.07549],[-81.52356,41.07712],[-81.52615,41.07681],[-81.52681,41.0784],[-81.52476,41.08144]]]}},{"type":"Feature","properties":{"zcta":"44313","d":1012},"geometry":{"type":"MultiPolygon","coordinates":[[[[-81.54535,41.09566],[-81.54666,41.09601],[-81.54664,41.09802],[-81.54535,41.09566]]],[[[-81.57944,41.17665],[-81.58104,41.18036],[-81.58344,41.18216],[-81.57904,41.18286],[-81.57744,41.18585],[-81.57544,41.18656],[-81.57525,41.18881],[-81.57684,41.18966],[-81.57274,41.19056],[-81.57104,41.19326],[-81.56894,41.19276],[-81.56724,41.19396],[-81.56754,41.1994],[-81.56833,41.20082],[-81.56634,41.201],[-81.5672,41.19898],[-81.5664,41.19543],[-81.56693,41.1938],[-81.57164,41.19044],[-81.57303,41.18878],[-81.56691,41.1887],[-81.56669,41.17343],[-81.57175,41.17316],[-81.56424,41.15836],[-81.56154,41.15816],[-81.55694,41.15966],[-81.54721,41.15876],[-81.54718,41.16166],[-81.53891,41.16162],[-81.53857,41.15941],[-81.5428,41.15874],[-81.54295,41.15602],[-81.54519,41.15666],[-81.54584,41.15469],[-81.54411,41.15435],[-81.54845,41.15131],[-81.551,41.14701],[-81.54474,41.14616],[-81.54604,41.14336],[-81.54324,41.14176],[-81.54139,41.14308],[-81.54233,41.14409],[-81.54226,41.14797],[-81.53746,41.14785],[-81.53736,41.15122],[-81.53561,41.15132],[-81.5357,41.14719],[-81.53449,41.14849],[-81.53425,41.15134],[-81.53182,41.14995],[-81.53162,41.14447],[-81.53432,41.14445],[-81.53604,41.14321],[-81.53645,41.13902],[-81.53203,41.13934],[-81.53208,41.14307],[-81.52867,41.14308],[-81.52866,41.13956],[-81.52761,41.13719],[-81.52273,41.13717],[-81.52143,41.13847],[-81.51977,41.13583],[-81.51958,41.12443],[-81.52024,41.12006],[-81.52574,41.11706],[-81.52664,41.11906],[-81.53294,41.12056],[-81.53394,41.12236],[-81.53114,41.12456],[-81.53234,41.12595],[-81.53714,41.12726],[-81.53904,41.13306],[-81.54274,41.13555],[-81.54848,41.133],[-81.54452,41.13254],[-81.54002,41.12981],[-81.53724,41.12526],[-81.53553,41.12135],[-81.52986,41.1171],[-81.53461,41.11676],[-81.53598,41.11774],[-81.53913,41.11764],[-81.54219,41.12151],[-81.54561,41.12281],[-81.54855,41.12289],[-81.54805,41.11989],[-81.54852,41.11637],[-81.5507,41.11555],[-81.55153,41.11366],[-81.55333,41.11309],[-81.55335,41.11111],[-81.5497,41.11023],[-81.54926,41.10739],[-81.54805,41.10746],[-81.54723,41.10382],[-81.54883,41.10325],[-81.54766,41.09951],[-81.54823,41.09889],[-81.55621,41.09965],[-81.55133,41.09609],[-81.5569,41.09712],[-81.55715,41.09244],[-81.55822,41.09243],[-81.56089,41.09576],[-81.56461,41.09528],[-81.56455,41.0993],[-81.56932,41.09941],[-81.56933,41.09666],[-81.571,41.09628],[-81.57101,41.09387],[-81.57528,41.0929],[-81.58036,41.0928],[-81.58095,41.09197],[-81.5846,41.09216],[-81.58748,41.09925],[-81.58506,41.09988],[-81.58459,41.10151],[-81.58154,41.10148],[-81.58151,41.10947],[-81.58034,41.10851],[-81.57846,41.10968],[-81.57897,41.11189],[-81.59293,41.10669],[-81.59663,41.10552],[-81.60405,41.10902],[-81.60403,41.11393],[-81.60481,41.11385],[-81.60487,41.10942],[-81.61133,41.11383],[-81.60979,41.11394],[-81.6074,41.12135],[-81.60447,41.12127],[-81.60456,41.12558],[-81.59098,41.11908],[-81.59086,41.12397],[-81.58918,41.12768],[-81.58752,41.12795],[-81.58737,41.14354],[-81.58885,41.14407],[-81.5881,41.14847],[-81.58732,41.14847],[-81.58721,41.16088],[-81.58146,41.16197],[-81.57614,41.16204],[-81.57784,41.17004],[-81.58117,41.17665],[-81.57944,41.17665]]]]}},{"type":"Feature","properties":{"zcta":"44087","d":663},"geometry":{"type":"Polygon","coordinates":[[[-81.4731,41.34963],[-81.45033,41.34915],[-81.41901,41.34875],[-81.41894,41.34164],[-81.40686,41.34162],[-81.40699,41.33266],[-81.3998,41.33274],[-81.40014,41.3267],[-81.40754,41.3269],[-81.40772,41.32001],[-81.40208,41.32005],[-81.40211,41.31685],[-81.40037,41.31686],[-81.40044,41.31172],[-81.39174,41.31174],[-81.39176,41.28405],[-81.39414,41.28517],[-81.39513,41.28776],[-81.39823,41.28696],[-81.39943,41.28816],[-81.4059,41.28516],[-81.41285,41.28688],[-81.41381,41.28999],[-81.41601,41.28975],[-81.41813,41.29135],[-81.4182,41.29448],[-81.41644,41.29309],[-81.41642,41.29533],[-81.41937,41.29774],[-81.42498,41.29788],[-81.42567,41.28463],[-81.43862,41.28469],[-81.43791,41.28286],[-81.44899,41.28289],[-81.46102,41.28086],[-81.46481,41.28086],[-81.46485,41.28925],[-81.47128,41.28926],[-81.47128,41.28805],[-81.47426,41.28806],[-81.4742,41.29274],[-81.47213,41.29275],[-81.47157,41.29776],[-81.47357,41.29775],[-81.47364,41.29937],[-81.47995,41.30307],[-81.47784,41.30303],[-81.47783,41.30558],[-81.47452,41.30552],[-81.47453,41.30993],[-81.47644,41.31142],[-81.47641,41.31616],[-81.47972,41.31623],[-81.4794,41.3279],[-81.48917,41.32794],[-81.48899,41.34975],[-81.4731,41.34963]]]}},{"type":"Feature","properties":{"zcta":"44311","d":1179},"geometry":{"type":"Polygon","coordinates":[[[-81.54034,41.06374],[-81.5332,41.06838],[-81.52795,41.06856],[-81.52793,41.06968],[-81.53139,41.07032],[-81.52964,41.07342],[-81.52615,41.07681],[-81.52356,41.07712],[-81.52285,41.07549],[-81.52045,41.07452],[-81.51875,41.07522],[-81.51986,41.07289],[-81.51709,41.07179],[-81.51457,41.07357],[-81.51611,41.07067],[-81.5157,41.06842],[-81.51242,41.06971],[-81.51182,41.07246],[-81.51094,41.07211],[-81.51114,41.07062],[-81.50975,41.07162],[-81.50862,41.07001],[-81.50415,41.07115],[-81.50417,41.06595],[-81.50546,41.05447],[-81.51306,41.05448],[-81.51304,41.05538],[-81.51815,41.05538],[-81.51952,41.05312],[-81.51944,41.05653],[-81.52479,41.0565],[-81.52651,41.05783],[-81.52904,41.05651],[-81.52856,41.05946],[-81.53006,41.05838],[-81.53766,41.0583],[-81.54029,41.05952],[-81.54045,41.06158],[-81.54198,41.06156],[-81.54169,41.06207],[-81.54034,41.06374]]]}},{"type":"Feature","properties":{"zcta":"44067","d":662},"geometry":{"type":"Polygon","coordinates":[[[-81.51893,41.33572],[-81.52876,41.33585],[-81.52876,41.32866],[-81.53086,41.32868],[-81.52718,41.32122],[-81.52575,41.32115],[-81.52577,41.31864],[-81.52384,41.31403],[-81.52388,41.30671],[-81.51916,41.30665],[-81.51907,41.29421],[-81.51169,41.29436],[-81.50906,41.29196],[-81.48934,41.29162],[-81.48943,41.27718],[-81.50383,41.27736],[-81.50626,41.28304],[-81.50957,41.28214],[-81.50735,41.27773],[-81.52635,41.27768],[-81.5265,41.27052],[-81.5435,41.27027],[-81.54774,41.27026],[-81.54785,41.27751],[-81.54317,41.27638],[-81.54304,41.27705],[-81.54914,41.27875],[-81.54934,41.28316],[-81.55474,41.28516],[-81.55464,41.28596],[-81.56444,41.28542],[-81.56628,41.28776],[-81.56649,41.29002],[-81.5709,41.29081],[-81.56988,41.29342],[-81.57205,41.2939],[-81.57107,41.29587],[-81.57251,41.2965],[-81.57286,41.30075],[-81.57573,41.30091],[-81.57551,41.30368],[-81.57855,41.30582],[-81.58163,41.30579],[-81.58429,41.30698],[-81.58544,41.30886],[-81.58362,41.31152],[-81.58364,41.31568],[-81.58766,41.31977],[-81.58734,41.32371],[-81.59154,41.32788],[-81.59123,41.33128],[-81.5879,41.33631],[-81.5881,41.34265],[-81.58974,41.34375],[-81.59473,41.34354],[-81.59682,41.34721],[-81.59357,41.34769],[-81.59332,41.34963],[-81.59546,41.35028],[-81.59724,41.34931],[-81.59805,41.35116],[-81.58525,41.35109],[-81.52662,41.35048],[-81.51885,41.35016],[-81.51893,41.33572]]]}},{"type":"Feature","properties":{"zcta":"44321","d":540},"geometry":{"type":"Polygon","coordinates":[[[-81.68516,41.1369],[-81.68355,41.13867],[-81.68352,41.14188],[-81.68197,41.14326],[-81.67666,41.1432],[-81.67681,41.13582],[-81.67545,41.13715],[-81.66984,41.13805],[-81.6704,41.13595],[-81.64624,41.13593],[-81.64513,41.133],[-81.64756,41.13275],[-81.64605,41.13146],[-81.63749,41.12856],[-81.64845,41.12853],[-81.64847,41.12307],[-81.64773,41.12033],[-81.64384,41.11984],[-81.63979,41.12149],[-81.63793,41.12133],[-81.63924,41.11923],[-81.64527,41.11926],[-81.64521,41.11752],[-81.64291,41.11312],[-81.64452,41.11019],[-81.6345,41.11019],[-81.6347,41.10557],[-81.62616,41.10766],[-81.62054,41.10723],[-81.6201,41.11018],[-81.6178,41.10901],[-81.61463,41.11232],[-81.61288,41.1103],[-81.60985,41.10854],[-81.6099,41.10646],[-81.61327,41.10645],[-81.61331,41.10488],[-81.61,41.10485],[-81.60994,41.10385],[-81.6132,41.10386],[-81.60996,41.10066],[-81.60999,41.09918],[-81.61236,41.09916],[-81.61157,41.09055],[-81.60719,41.09081],[-81.60537,41.08881],[-81.60413,41.08449],[-81.60625,41.08451],[-81.60629,41.08072],[-81.61014,41.08076],[-81.61054,41.07717],[-81.61246,41.07717],[-81.61253,41.07529],[-81.61514,41.0742],[-81.61955,41.07358],[-81.61953,41.07018],[-81.6131,41.07001],[-81.61323,41.0626],[-81.61249,41.06219],[-81.60765,41.05936],[-81.60254,41.05777],[-81.60204,41.05667],[-81.60896,41.05508],[-81.61539,41.05726],[-81.6188,41.05984],[-81.62065,41.06216],[-81.62341,41.06222],[-81.62704,41.06535],[-81.63014,41.06656],[-81.63184,41.06815],[-81.64775,41.07465],[-81.64875,41.07574],[-81.65007,41.07368],[-81.65275,41.07282],[-81.6559,41.07292],[-81.65589,41.07089],[-81.65949,41.07017],[-81.66076,41.07378],[-81.66579,41.07379],[-81.66409,41.07018],[-81.66912,41.07019],[-81.66902,41.08049],[-81.67001,41.0805],[-81.67591,41.08055],[-81.6759,41.08123],[-81.68748,41.08124],[-81.68741,41.09352],[-81.68637,41.09564],[-81.68501,41.09564],[-81.68495,41.09851],[-81.68127,41.0985],[-81.68186,41.10303],[-81.67764,41.10294],[-81.67766,41.10566],[-81.68505,41.10595],[-81.68729,41.11055],[-81.68721,41.1177],[-81.68875,41.1177],[-81.68971,41.12097],[-81.69275,41.12104],[-81.69276,41.12252],[-81.69775,41.12322],[-81.6977,41.12656],[-81.6964,41.12659],[-81.69541,41.12895],[-81.69537,41.13232],[-81.69016,41.13255],[-81.68879,41.13596],[-81.68697,41.13702],[-81.68516,41.1369]]]}},{"type":"Feature","properties":{"zcta":"44278","d":650},"geometry":{"type":"Polygon","coordinates":[[[-81.46512,41.11885],[-81.45314,41.11868],[-81.45297,41.12442],[-81.44007,41.12432],[-81.43973,41.13475],[-81.43623,41.13396],[-81.43623,41.13579],[-81.42698,41.13569],[-81.42748,41.12414],[-81.42348,41.12407],[-81.4211,41.126],[-81.41504,41.12899],[-81.41424,41.13577],[-81.3925,41.13555],[-81.39211,41.13572],[-81.39253,41.12096],[-81.39234,41.11791],[-81.39263,41.09271],[-81.38509,41.09244],[-81.38697,41.08931],[-81.39273,41.08597],[-81.39281,41.0842],[-81.38747,41.08581],[-81.38872,41.0832],[-81.38658,41.08319],[-81.38736,41.08143],[-81.38621,41.07886],[-81.38272,41.07881],[-81.38277,41.07029],[-81.39149,41.07041],[-81.3916,41.06682],[-81.39293,41.0662],[-81.40395,41.06635],[-81.40395,41.06141],[-81.41333,41.06138],[-81.41353,41.06023],[-81.41667,41.06055],[-81.42407,41.06153],[-81.42289,41.06169],[-81.41783,41.06074],[-81.42093,41.06218],[-81.42085,41.06661],[-81.4295,41.06668],[-81.42881,41.08453],[-81.45623,41.08506],[-81.45699,41.08743],[-81.45366,41.0896],[-81.45084,41.08957],[-81.45083,41.09295],[-81.46596,41.09334],[-81.46585,41.09603],[-81.46512,41.11885]]]}},{"type":"Feature","properties":{"zcta":"44221","d":2447},"geometry":{"type":"Polygon","coordinates":[[[-81.48956,41.16049],[-81.48958,41.16574],[-81.48414,41.16556],[-81.48374,41.16926],[-81.48123,41.17166],[-81.4796,41.17173],[-81.47874,41.16862],[-81.47657,41.16674],[-81.47725,41.16358],[-81.47242,41.1628],[-81.46927,41.16398],[-81.46833,41.15893],[-81.47045,41.15214],[-81.46899,41.15225],[-81.46898,41.14845],[-81.46476,41.14804],[-81.4599,41.14444],[-81.45876,41.14655],[-81.45638,41.14532],[-81.45626,41.14867],[-81.45469,41.14962],[-81.44993,41.14806],[-81.45004,41.13583],[-81.45264,41.13584],[-81.45297,41.12442],[-81.45314,41.11868],[-81.46512,41.11885],[-81.4659,41.11702],[-81.4887,41.11747],[-81.48899,41.11929],[-81.49164,41.11679],[-81.49461,41.11517],[-81.49343,41.11845],[-81.4974,41.12321],[-81.49603,41.12603],[-81.49754,41.12713],[-81.4965,41.12943],[-81.49724,41.13487],[-81.49699,41.15119],[-81.49577,41.15469],[-81.49617,41.15634],[-81.4925,41.15863],[-81.48956,41.16049]]]}},{"type":"Feature","properties":{"zcta":"44302","d":2343},"geometry":{"type":"MultiPolygon","coordinates":[[[[-81.54675,41.10012],[-81.54766,41.09951],[-81.54883,41.10325],[-81.54675,41.10012]]],[[[-81.54664,41.09802],[-81.54666,41.09601],[-81.54535,41.09566],[-81.54401,41.09334],[-81.54099,41.09549],[-81.53207,41.09174],[-81.53228,41.08938],[-81.52959,41.08851],[-81.52931,41.08578],[-81.52438,41.08675],[-81.52422,41.08537],[-81.51958,41.08597],[-81.52133,41.08285],[-81.52476,41.08144],[-81.52681,41.0784],[-81.53363,41.08315],[-81.53483,41.08223],[-81.53743,41.08455],[-81.53901,41.08433],[-81.54226,41.08457],[-81.54269,41.08817],[-81.5416,41.089],[-81.54699,41.09264],[-81.55715,41.09244],[-81.5569,41.09712],[-81.55133,41.09609],[-81.55621,41.09965],[-81.54823,41.09889],[-81.54664,41.09802]]]]}},{"type":"Feature","properties":{"zcta":"44231","d":85},"geometry":{"type":"Polygon","coordinates":[[[-81.10828,41.37671],[-81.10829,41.37117],[-81.10255,41.37129],[-81.10253,41.36932],[-81.09923,41.36939],[-81.09928,41.3742],[-81.08779,41.37126],[-81.08288,41.37053],[-81.08221,41.36909],[-81.07582,41.36656],[-81.06668,41.3691],[-81.0597,41.36548],[-81.05809,41.36536],[-81.05342,41.36696],[-81.05158,41.36686],[-81.05098,41.36931],[-81.0484,41.36686],[-81.0442,41.35971],[-81.04057,41.3552],[-81.03675,41.35207],[-81.02222,41.34225],[-81.02218,41.34782],[-81.02089,41.34782],[-81.0203,41.34475],[-81.01696,41.34476],[-81.01704,41.34221],[-81.00914,41.34249],[-81.00654,41.34147],[-81.00544,41.33803],[-81.00325,41.33801],[-81.00332,41.30991],[-81.00289,41.27044],[-81.00472,41.27096],[-81.00727,41.26927],[-81.00954,41.27144],[-81.01251,41.26868],[-81.0121,41.26345],[-81.01138,41.26258],[-81.01187,41.25904],[-81.01298,41.25696],[-81.03712,41.25919],[-81.04549,41.26035],[-81.04682,41.2609],[-81.04683,41.25869],[-81.04968,41.25912],[-81.04978,41.25773],[-81.0578,41.25783],[-81.05776,41.25444],[-81.06481,41.25448],[-81.06664,41.25355],[-81.0665,41.24249],[-81.0854,41.24406],[-81.09319,41.24422],[-81.11646,41.24314],[-81.11654,41.2584],[-81.12076,41.25895],[-81.12085,41.26469],[-81.13429,41.26492],[-81.13626,41.26605],[-81.13635,41.26972],[-81.1433,41.27032],[-81.14334,41.27309],[-81.14533,41.27311],[-81.14463,41.28178],[-81.14611,41.28331],[-81.14872,41.28319],[-81.1525,41.28161],[-81.15245,41.28817],[-81.14802,41.28809],[-81.14708,41.29248],[-81.14547,41.29341],[-81.14555,41.29551],[-81.13993,41.29548],[-81.14375,41.29901],[-81.14397,41.30294],[-81.1345,41.30264],[-81.13434,41.30941],[-81.12977,41.30951],[-81.12787,41.30671],[-81.12909,41.30417],[-81.12827,41.30165],[-81.1258,41.30165],[-81.12476,41.29828],[-81.11349,41.2984],[-81.11355,41.30981],[-81.10848,41.30984],[-81.1088,41.31532],[-81.11537,41.31696],[-81.11547,41.34457],[-81.11372,41.34735],[-81.13167,41.34746],[-81.12772,41.34854],[-81.12771,41.38294],[-81.10828,41.37671]]]}},{"type":"Feature","properties":{"zcta":"44234","d":68},"geometry":{"type":"Polygon","coordinates":[[[-81.19142,41.34757],[-81.19117,41.35081],[-81.19087,41.3838],[-81.18076,41.38633],[-81.17691,41.38686],[-81.13985,41.38682],[-81.12862,41.38514],[-81.12771,41.38294],[-81.12772,41.34854],[-81.13167,41.34746],[-81.11372,41.34735],[-81.11547,41.34457],[-81.11537,41.31696],[-81.1088,41.31532],[-81.10848,41.30984],[-81.11355,41.30981],[-81.11349,41.2984],[-81.12476,41.29828],[-81.1258,41.30165],[-81.12827,41.30165],[-81.12909,41.30417],[-81.12787,41.30671],[-81.12977,41.30951],[-81.13434,41.30941],[-81.1345,41.30264],[-81.14397,41.30294],[-81.14375,41.29901],[-81.13993,41.29548],[-81.14555,41.29551],[-81.14547,41.29341],[-81.14708,41.29248],[-81.14802,41.28809],[-81.15245,41.28817],[-81.1525,41.28161],[-81.15564,41.27882],[-81.15934,41.27746],[-81.16067,41.27356],[-81.16191,41.27342],[-81.1618,41.28169],[-81.16101,41.28469],[-81.1721,41.28462],[-81.17227,41.28267],[-81.17642,41.28268],[-81.17838,41.28097],[-81.19198,41.28116],[-81.19198,41.28461],[-81.19332,41.28578],[-81.19604,41.28582],[-81.19612,41.28795],[-81.20019,41.28796],[-81.20013,41.29462],[-81.19625,41.29462],[-81.19616,41.29833],[-81.19416,41.29835],[-81.19299,41.30063],[-81.20311,41.30076],[-81.20139,41.30295],[-81.19808,41.3033],[-81.19773,41.30672],[-81.19523,41.30872],[-81.19501,41.31306],[-81.19173,41.31307],[-81.19143,41.34356],[-81.19748,41.34356],[-81.19639,41.34756],[-81.19142,41.34757]]]}},{"type":"Feature","properties":{"zcta":"44325","d":0},"geometry":{"type":"Polygon","coordinates":[[[-81.51515,41.07997],[-81.51283,41.08122],[-81.51114,41.08051],[-81.51116,41.07811],[-81.50927,41.07778],[-81.50923,41.07979],[-81.50727,41.08039],[-81.50755,41.07713],[-81.50465,41.0766],[-81.50622,41.07348],[-81.50971,41.07343],[-81.50975,41.07162],[-81.51094,41.07211],[-81.51182,41.07246],[-81.51457,41.07357],[-81.51709,41.07179],[-81.51986,41.07289],[-81.51875,41.07522],[-81.51515,41.07997]]]}},{"type":"Feature","properties":{"zcta":"44216","d":209},"geometry":{"type":"Polygon","coordinates":[[[-81.64131,40.97816],[-81.64125,40.98],[-81.63783,40.97986],[-81.63481,40.98165],[-81.63526,40.98474],[-81.63278,40.98465],[-81.63229,40.98329],[-81.62469,40.98305],[-81.62467,40.98476],[-81.62097,40.98496],[-81.62079,40.97929],[-81.60736,40.97881],[-81.60064,40.97549],[-81.60076,40.97225],[-81.59474,40.97226],[-81.58155,40.96911],[-81.5816,40.96633],[-81.57198,40.96516],[-81.56705,40.96501],[-81.56762,40.96086],[-81.57225,40.96104],[-81.57264,40.95476],[-81.57337,40.95326],[-81.56729,40.95238],[-81.56752,40.95087],[-81.57252,40.94558],[-81.57347,40.93989],[-81.57106,40.94009],[-81.56975,40.93688],[-81.56767,40.9354],[-81.56401,40.93698],[-81.56422,40.93348],[-81.56068,40.93331],[-81.56048,40.93127],[-81.55865,40.93118],[-81.55811,40.9332],[-81.55424,40.93306],[-81.54925,40.93366],[-81.5485,40.93037],[-81.54556,40.92969],[-81.54316,40.92701],[-81.5354,40.92662],[-81.53369,40.95278],[-81.53082,40.95722],[-81.52503,40.95542],[-81.52385,40.95445],[-81.5244,40.94855],[-81.51593,40.94458],[-81.51549,40.94393],[-81.51537,40.94113],[-81.51663,40.93771],[-81.51576,40.93561],[-81.51701,40.9334],[-81.51647,40.93151],[-81.51492,40.93473],[-81.50947,40.93455],[-81.50622,40.93444],[-81.50558,40.93048],[-81.50065,40.93027],[-81.49864,40.93077],[-81.49603,40.92906],[-81.49638,40.92296],[-81.49506,40.92115],[-81.49076,40.92088],[-81.49034,40.91876],[-81.48814,40.91866],[-81.48732,40.91546],[-81.48744,40.91036],[-81.48982,40.90976],[-81.49376,40.91004],[-81.49385,40.90879],[-81.49791,40.90893],[-81.49817,40.9069],[-81.50665,40.90716],[-81.507,40.90206],[-81.51039,40.90197],[-81.51026,40.90545],[-81.51236,40.90554],[-81.51213,40.90943],[-81.51694,40.90959],[-81.51733,40.90366],[-81.52005,40.90347],[-81.52012,40.90227],[-81.52274,40.90211],[-81.52137,40.89906],[-81.5237,40.8974],[-81.52449,40.89506],[-81.52763,40.89518],[-81.52752,40.8969],[-81.53729,40.89734],[-81.53644,40.91031],[-81.55892,40.91126],[-81.56147,40.91597],[-81.56684,40.91566],[-81.57114,40.91726],[-81.57414,40.91586],[-81.57884,40.91726],[-81.58174,40.91706],[-81.58424,40.91406],[-81.58984,40.91486],[-81.59215,40.91895],[-81.58935,40.92006],[-81.59045,40.92255],[-81.59395,40.92286],[-81.59473,40.91243],[-81.59714,40.91276],[-81.60234,40.91826],[-81.60359,40.92436],[-81.61314,40.92599],[-81.61383,40.91315],[-81.63914,40.91386],[-81.64101,40.91759],[-81.64365,40.91633],[-81.64325,40.91877],[-81.64787,40.91886],[-81.64776,40.93733],[-81.64965,40.94042],[-81.64983,40.94403],[-81.6513,40.94583],[-81.64955,40.94584],[-81.64895,40.95115],[-81.64909,40.95957],[-81.64765,40.95957],[-81.64766,40.97915],[-81.64131,40.97816]]]}},{"type":"Feature","properties":{"zcta":"44412","d":59},"geometry":{"type":"MultiPolygon","coordinates":[[[[-80.95933,41.12036],[-80.95939,41.12293],[-80.95616,41.12191],[-80.95615,41.1287],[-80.94932,41.1287],[-80.94927,41.12517],[-80.94676,41.12508],[-80.94692,41.11935],[-80.9409,41.11935],[-80.94093,41.12502],[-80.93487,41.12512],[-80.93487,41.12389],[-80.9281,41.12395],[-80.92982,41.12275],[-80.92769,41.12017],[-80.93,41.1188],[-80.93101,41.11456],[-80.92915,41.11303],[-80.92621,41.11241],[-80.92511,41.11111],[-80.92504,41.10471],[-80.93577,41.10411],[-80.93711,41.10094],[-80.9341,41.10097],[-80.92892,41.09777],[-80.9288,41.09273],[-80.92573,41.0891],[-80.92933,41.08547],[-80.9291,41.07545],[-80.92927,41.06961],[-80.93292,41.06846],[-80.9367,41.06945],[-80.93941,41.06886],[-80.94222,41.07005],[-80.94353,41.07167],[-80.94572,41.07182],[-80.94665,41.07346],[-80.94861,41.07343],[-80.9486,41.08176],[-80.95294,41.08182],[-80.95856,41.08467],[-80.96201,41.08589],[-80.96284,41.08807],[-80.96115,41.09001],[-80.9613,41.09236],[-80.96271,41.09457],[-80.96026,41.0952],[-80.95688,41.10086],[-80.95618,41.10429],[-80.96282,41.10333],[-80.96278,41.10706],[-80.95893,41.10706],[-80.95892,41.11142],[-80.96367,41.11143],[-80.96312,41.12032],[-80.95933,41.12036]]],[[[-81.08691,41.09547],[-81.08685,41.09902],[-81.08932,41.09904],[-81.08936,41.10618],[-81.07898,41.10615],[-81.07827,41.11038],[-81.07579,41.11317],[-81.07582,41.11661],[-81.07805,41.11774],[-81.08463,41.11752],[-81.08834,41.11816],[-81.08707,41.12012],[-81.08711,41.1279],[-81.07995,41.12801],[-81.07995,41.13287],[-81.07021,41.13284],[-81.06865,41.13519],[-81.05111,41.13571],[-81.04762,41.13512],[-81.03815,41.13532],[-81.03812,41.13803],[-81.03618,41.13807],[-81.03286,41.138],[-81.03276,41.13468],[-81.0318,41.13237],[-81.03561,41.13021],[-81.04148,41.13024],[-81.04149,41.11649],[-81.0319,41.11636],[-81.03198,41.1042],[-81.0192,41.10038],[-81.01422,41.09996],[-81.01727,41.10141],[-81.0145,41.10423],[-81.01826,41.10323],[-81.0196,41.10623],[-81.01449,41.108],[-81.01315,41.11044],[-81.00841,41.11339],[-81.00242,41.1134],[-81.0024,41.09705],[-81.00518,41.09706],[-81.00517,41.09151],[-81.00743,41.09151],[-81.0074,41.08436],[-81.00605,41.07989],[-81.00234,41.07532],[-81.00231,41.06399],[-81.00544,41.06409],[-81.00711,41.06664],[-81.01198,41.06676],[-81.01199,41.06511],[-81.01921,41.06485],[-81.01925,41.06773],[-81.02532,41.06778],[-81.02532,41.06688],[-81.02904,41.06682],[-81.02906,41.06332],[-81.03403,41.06354],[-81.03403,41.06509],[-81.04129,41.06509],[-81.04606,41.06431],[-81.04591,41.06262],[-81.04806,41.06218],[-81.06989,41.06234],[-81.06996,41.07071],[-81.07568,41.07094],[-81.07825,41.07023],[-81.0798,41.07202],[-81.07988,41.07841],[-81.08612,41.07855],[-81.08608,41.08215],[-81.08935,41.08225],[-81.08934,41.08655],[-81.09861,41.08655],[-81.09745,41.09183],[-81.09437,41.09183],[-81.09435,41.09571],[-81.08691,41.09547]]]]}},{"type":"Feature","properties":{"zcta":"44202","d":375},"geometry":{"type":"Polygon","coordinates":[[[-81.39958,41.34857],[-81.39169,41.34827],[-81.39176,41.36196],[-81.38892,41.36197],[-81.3734,41.35464],[-81.37408,41.35885],[-81.37344,41.36198],[-81.36794,41.36198],[-81.36744,41.35993],[-81.35893,41.35647],[-81.3574,41.35215],[-81.35483,41.35098],[-81.35294,41.34866],[-81.35414,41.34781],[-81.3091,41.34739],[-81.30905,41.35241],[-81.30063,41.35467],[-81.29851,41.35595],[-81.29857,41.34732],[-81.28074,41.34743],[-81.28081,41.33722],[-81.27766,41.33719],[-81.27849,41.33212],[-81.26875,41.3321],[-81.26883,41.32666],[-81.27247,41.32669],[-81.27253,41.32149],[-81.27541,41.32088],[-81.28104,41.32129],[-81.28123,41.30641],[-81.28755,41.29738],[-81.27011,41.293],[-81.2701,41.28754],[-81.27548,41.2875],[-81.27547,41.28941],[-81.27853,41.2894],[-81.2785,41.29318],[-81.28765,41.29397],[-81.29295,41.29358],[-81.29301,41.29059],[-81.29847,41.29067],[-81.29852,41.27529],[-81.31383,41.27548],[-81.36233,41.27601],[-81.36873,41.27646],[-81.39071,41.27661],[-81.39183,41.27665],[-81.39176,41.28405],[-81.39174,41.31174],[-81.40044,41.31172],[-81.40037,41.31686],[-81.40211,41.31685],[-81.40208,41.32005],[-81.40772,41.32001],[-81.40754,41.3269],[-81.40014,41.3267],[-81.3998,41.33274],[-81.40699,41.33266],[-81.40686,41.34162],[-81.41894,41.34164],[-81.41901,41.34875],[-81.39958,41.34857]]]}},{"type":"Feature","properties":{"zcta":"44224","d":1025},"geometry":{"type":"Polygon","coordinates":[[[-81.50472,41.18619],[-81.5047,41.18369],[-81.49927,41.18369],[-81.49923,41.18829],[-81.50392,41.18832],[-81.50397,41.1906],[-81.50019,41.19061],[-81.50013,41.1955],[-81.50269,41.19549],[-81.49761,41.20063],[-81.49596,41.20299],[-81.48326,41.20295],[-81.47572,41.20296],[-81.47742,41.20636],[-81.47952,41.2081],[-81.47948,41.21119],[-81.46226,41.21137],[-81.45773,41.20935],[-81.45864,41.20785],[-81.45583,41.20296],[-81.39193,41.20286],[-81.39223,41.19854],[-81.39214,41.18922],[-81.38363,41.18766],[-81.38355,41.18652],[-81.38615,41.18137],[-81.38423,41.17441],[-81.38688,41.17448],[-81.39224,41.17591],[-81.3924,41.15584],[-81.39571,41.15565],[-81.39623,41.15116],[-81.39523,41.14876],[-81.39681,41.14564],[-81.39245,41.14562],[-81.39211,41.13572],[-81.3925,41.13555],[-81.41424,41.13577],[-81.4185,41.1358],[-81.41854,41.14478],[-81.42145,41.14478],[-81.42146,41.15221],[-81.44993,41.15214],[-81.44993,41.14806],[-81.45469,41.14962],[-81.45626,41.14867],[-81.45638,41.14532],[-81.45876,41.14655],[-81.4599,41.14444],[-81.46476,41.14804],[-81.46898,41.14845],[-81.46899,41.15225],[-81.47045,41.15214],[-81.46833,41.15893],[-81.46927,41.16398],[-81.47242,41.1628],[-81.47725,41.16358],[-81.47657,41.16674],[-81.47874,41.16862],[-81.4796,41.17173],[-81.48123,41.17166],[-81.48374,41.16926],[-81.48414,41.16556],[-81.48958,41.16574],[-81.48956,41.16049],[-81.4925,41.15863],[-81.49393,41.16061],[-81.49391,41.16399],[-81.49864,41.164],[-81.49864,41.16486],[-81.49325,41.16681],[-81.49433,41.17399],[-81.49432,41.18104],[-81.50857,41.18097],[-81.50838,41.18566],[-81.50472,41.18619]]]}},{"type":"Feature","properties":{"zcta":"44236","d":370},"geometry":{"type":"Polygon","coordinates":[[[-81.5265,41.27052],[-81.52635,41.27768],[-81.50735,41.27773],[-81.50957,41.28214],[-81.50626,41.28304],[-81.50383,41.27736],[-81.48943,41.27718],[-81.46483,41.27697],[-81.46481,41.28086],[-81.46102,41.28086],[-81.44899,41.28289],[-81.43791,41.28286],[-81.43862,41.28469],[-81.42567,41.28463],[-81.42498,41.29788],[-81.41937,41.29774],[-81.41642,41.29533],[-81.41644,41.29309],[-81.4182,41.29448],[-81.41813,41.29135],[-81.41601,41.28975],[-81.41381,41.28999],[-81.41285,41.28688],[-81.4059,41.28516],[-81.39943,41.28816],[-81.39823,41.28696],[-81.39513,41.28776],[-81.39414,41.28517],[-81.39176,41.28405],[-81.39183,41.27665],[-81.39071,41.27661],[-81.39034,41.27169],[-81.38831,41.27149],[-81.38786,41.26658],[-81.39203,41.26902],[-81.39193,41.26525],[-81.38226,41.2636],[-81.38736,41.26409],[-81.38974,41.26341],[-81.38669,41.25481],[-81.39195,41.25439],[-81.39213,41.23974],[-81.39193,41.20286],[-81.45583,41.20296],[-81.45864,41.20785],[-81.45773,41.20935],[-81.46226,41.21137],[-81.47948,41.21119],[-81.47952,41.2081],[-81.47742,41.20636],[-81.47572,41.20296],[-81.48326,41.20295],[-81.48816,41.21396],[-81.48934,41.22003],[-81.49095,41.22004],[-81.49075,41.22305],[-81.49739,41.22646],[-81.51939,41.22663],[-81.51931,41.23302],[-81.51404,41.23171],[-81.50942,41.23117],[-81.50249,41.23107],[-81.49057,41.23239],[-81.49424,41.23746],[-81.50007,41.25456],[-81.50796,41.25487],[-81.50987,41.25807],[-81.5123,41.25815],[-81.53337,41.25701],[-81.5333,41.26226],[-81.53712,41.26423],[-81.54122,41.2688],[-81.5435,41.27027],[-81.5265,41.27052]]]}},{"type":"Feature","properties":{"zcta":"44272","d":124},"geometry":{"type":"MultiPolygon","coordinates":[[[[-81.25139,41.11034],[-81.24232,41.10934],[-81.23187,41.11011],[-81.22246,41.10735],[-81.2203,41.10709],[-81.22024,41.11059],[-81.2219,41.11064],[-81.22732,41.11682],[-81.2202,41.11687],[-81.22021,41.11579],[-81.21323,41.11543],[-81.21155,41.11451],[-81.21167,41.11192],[-81.20694,41.11188],[-81.20694,41.11025],[-81.19724,41.11017],[-81.19351,41.10985],[-81.19366,41.10632],[-81.18855,41.1064],[-81.17714,41.10573],[-81.15637,41.10596],[-81.14828,41.09967],[-81.14482,41.10009],[-81.14296,41.10264],[-81.14297,41.10587],[-81.12603,41.10593],[-81.10987,41.10495],[-81.09865,41.10582],[-81.09863,41.09837],[-81.09593,41.0984],[-81.09589,41.09634],[-81.09435,41.09571],[-81.09437,41.09183],[-81.09745,41.09183],[-81.09861,41.08655],[-81.08934,41.08655],[-81.08935,41.08225],[-81.08608,41.08215],[-81.08612,41.07855],[-81.07988,41.07841],[-81.0798,41.07202],[-81.07825,41.07023],[-81.07568,41.07094],[-81.06996,41.07071],[-81.06989,41.06234],[-81.07184,41.05464],[-81.07707,41.05401],[-81.07712,41.05603],[-81.08888,41.05633],[-81.08888,41.06043],[-81.09436,41.06048],[-81.0976,41.06247],[-81.10466,41.06252],[-81.10463,41.06419],[-81.10699,41.0644],[-81.11022,41.06659],[-81.11022,41.06854],[-81.11438,41.06853],[-81.11444,41.07199],[-81.11827,41.07208],[-81.11953,41.07355],[-81.1195,41.07773],[-81.12202,41.07836],[-81.12206,41.08018],[-81.12546,41.08273],[-81.13003,41.0824],[-81.13003,41.08346],[-81.13801,41.08373],[-81.13805,41.08718],[-81.13955,41.0872],[-81.13967,41.08525],[-81.14284,41.08439],[-81.14428,41.08156],[-81.14951,41.07947],[-81.14902,41.07596],[-81.16008,41.07609],[-81.16007,41.07109],[-81.17001,41.07119],[-81.17002,41.07497],[-81.17465,41.07492],[-81.1746,41.07118],[-81.18474,41.07132],[-81.1847,41.07714],[-81.19008,41.07723],[-81.1925,41.07449],[-81.192,41.07092],[-81.19426,41.06758],[-81.19435,41.06329],[-81.20145,41.06335],[-81.20138,41.067],[-81.2053,41.06795],[-81.20526,41.0731],[-81.21015,41.07685],[-81.2209,41.08257],[-81.22851,41.08268],[-81.22907,41.07553],[-81.23,41.07383],[-81.22993,41.06783],[-81.22804,41.06776],[-81.22801,41.06374],[-81.2313,41.06378],[-81.23266,41.06272],[-81.24024,41.06294],[-81.24736,41.06105],[-81.24751,41.05728],[-81.2501,41.05664],[-81.25798,41.05674],[-81.25801,41.05505],[-81.26018,41.05506],[-81.26014,41.0571],[-81.2638,41.05692],[-81.26636,41.05741],[-81.26615,41.05968],[-81.26351,41.06225],[-81.26621,41.0626],[-81.26614,41.06433],[-81.2683,41.06437],[-81.26872,41.06921],[-81.27465,41.06956],[-81.27466,41.07195],[-81.26817,41.0727],[-81.26881,41.07608],[-81.26895,41.08473],[-81.26832,41.08628],[-81.26565,41.08634],[-81.26571,41.09659],[-81.26296,41.09663],[-81.26213,41.10226],[-81.2666,41.10231],[-81.26657,41.10374],[-81.26871,41.10388],[-81.26862,41.10641],[-81.27097,41.10649],[-81.27082,41.11076],[-81.26995,41.11075],[-81.25139,41.11034]]],[[[-81.28192,41.10003],[-81.28194,41.09106],[-81.2847,41.09167],[-81.28481,41.10009],[-81.28192,41.10003]]]]}},{"type":"Feature","properties":{"zcta":"44285","d":0},"geometry":{"type":"Polygon","coordinates":[[[-81.0562,41.15654],[-81.0569,41.15894],[-81.06167,41.15965],[-81.06529,41.16082],[-81.06738,41.16039],[-81.06746,41.15874],[-81.07452,41.15637],[-81.07646,41.16042],[-81.08189,41.16354],[-81.0871,41.16281],[-81.08768,41.16437],[-81.07344,41.16632],[-81.05115,41.16622],[-81.05146,41.15704],[-81.0562,41.15654]]]}},{"type":"Feature","properties":{"zcta":"44250","d":0},"geometry":{"type":"Polygon","coordinates":[[[-81.44206,41.0261],[-81.43662,41.0274],[-81.43289,41.02772],[-81.43074,41.02591],[-81.4264,41.02591],[-81.42685,41.02682],[-81.42393,41.02761],[-81.41605,41.01973],[-81.41824,41.0191],[-81.43295,41.0192],[-81.43373,41.01466],[-81.44311,41.01482],[-81.44499,41.01603],[-81.44482,41.02403],[-81.44206,41.0261]]]}},{"type":"Feature","properties":{"zcta":"44240","d":425},"geometry":{"type":"Polygon","coordinates":[[[-81.35487,41.20254],[-81.3548,41.20546],[-81.34584,41.2062],[-81.33864,41.20615],[-81.33756,41.20266],[-81.3116,41.20239],[-81.31049,41.20024],[-81.31301,41.19544],[-81.31232,41.1938],[-81.31355,41.19241],[-81.3112,41.19149],[-81.31351,41.18828],[-81.31244,41.18697],[-81.31633,41.18437],[-81.32002,41.18681],[-81.32086,41.1855],[-81.32442,41.18472],[-81.32675,41.18725],[-81.33192,41.1881],[-81.33103,41.18326],[-81.33301,41.18147],[-81.32574,41.17792],[-81.31767,41.17512],[-81.31275,41.17246],[-81.30752,41.16717],[-81.31011,41.16789],[-81.31251,41.16551],[-81.31405,41.16271],[-81.31736,41.15963],[-81.31632,41.1571],[-81.31241,41.15762],[-81.31189,41.15664],[-81.30006,41.15784],[-81.30053,41.13797],[-81.30546,41.1371],[-81.30559,41.13432],[-81.30052,41.13425],[-81.30044,41.12533],[-81.30175,41.12285],[-81.31105,41.12292],[-81.31101,41.11401],[-81.3091,41.11341],[-81.31323,41.10874],[-81.32007,41.10862],[-81.32005,41.10409],[-81.31804,41.10407],[-81.3185,41.10094],[-81.31503,41.09971],[-81.31412,41.09585],[-81.31076,41.09602],[-81.31076,41.09339],[-81.30785,41.09342],[-81.30715,41.09085],[-81.30366,41.0908],[-81.30093,41.09456],[-81.3011,41.08572],[-81.29733,41.08428],[-81.29736,41.09544],[-81.29227,41.09479],[-81.28877,41.09507],[-81.28819,41.10015],[-81.28692,41.10013],[-81.2869,41.10409],[-81.28814,41.10414],[-81.28801,41.10963],[-81.29652,41.1085],[-81.30063,41.10853],[-81.3005,41.11164],[-81.29873,41.11229],[-81.29853,41.11492],[-81.29519,41.11585],[-81.28787,41.11572],[-81.288,41.10983],[-81.27859,41.11095],[-81.26995,41.11075],[-81.27082,41.11076],[-81.27097,41.10649],[-81.26862,41.10641],[-81.26871,41.10388],[-81.26657,41.10374],[-81.2666,41.10231],[-81.26213,41.10226],[-81.26296,41.09663],[-81.26571,41.09659],[-81.26565,41.08634],[-81.26832,41.08628],[-81.26895,41.08473],[-81.26881,41.07608],[-81.26817,41.0727],[-81.27466,41.07195],[-81.27465,41.06956],[-81.28236,41.06962],[-81.2824,41.06742],[-81.2853,41.06924],[-81.294,41.07011],[-81.29574,41.07149],[-81.30122,41.07224],[-81.30124,41.06487],[-81.32538,41.06526],[-81.32111,41.06604],[-81.31996,41.06815],[-81.32512,41.07214],[-81.32514,41.07885],[-81.3195,41.08262],[-81.33934,41.08278],[-81.34189,41.08324],[-81.34358,41.08764],[-81.34367,41.08387],[-81.3468,41.08233],[-81.35117,41.08138],[-81.35565,41.08137],[-81.36231,41.07754],[-81.36228,41.07627],[-81.36617,41.07537],[-81.36706,41.0765],[-81.36706,41.08035],[-81.37244,41.08039],[-81.37278,41.07929],[-81.38271,41.07958],[-81.38272,41.07881],[-81.38621,41.07886],[-81.38736,41.08143],[-81.38658,41.08319],[-81.38872,41.0832],[-81.38747,41.08581],[-81.39281,41.0842],[-81.39273,41.08597],[-81.38697,41.08931],[-81.38509,41.09244],[-81.39263,41.09271],[-81.39234,41.11791],[-81.39253,41.12096],[-81.39211,41.13572],[-81.39245,41.14562],[-81.39681,41.14564],[-81.39523,41.14876],[-81.39623,41.15116],[-81.39571,41.15565],[-81.3924,41.15584],[-81.39224,41.17591],[-81.38688,41.17448],[-81.38423,41.17441],[-81.38615,41.18137],[-81.38355,41.18652],[-81.38363,41.18766],[-81.39214,41.18922],[-81.39223,41.19854],[-81.39193,41.20286],[-81.35487,41.20254]],[[-81.33952,41.14278],[-81.3355,41.14109],[-81.33411,41.14325],[-81.33338,41.1411],[-81.3317,41.1402],[-81.33167,41.14294],[-81.33322,41.14285],[-81.33323,41.1454],[-81.33462,41.14485],[-81.33629,41.14898],[-81.33619,41.15204],[-81.33892,41.15377],[-81.34506,41.15368],[-81.34942,41.14886],[-81.33952,41.14278]],[[-81.2847,41.09167],[-81.28194,41.09106],[-81.28192,41.10003],[-81.28481,41.10009],[-81.2847,41.09167]]]}},{"type":"Feature","properties":{"zcta":"44319","d":607},"geometry":{"type":"MultiPolygon","coordinates":[[[[-81.50434,40.9406],[-81.49551,40.93861],[-81.49577,40.93701],[-81.49914,40.93596],[-81.50624,40.93856],[-81.50947,40.93455],[-81.51492,40.93473],[-81.51647,40.93151],[-81.51701,40.9334],[-81.51576,40.93561],[-81.51663,40.93771],[-81.51537,40.94113],[-81.50434,40.9406]]],[[[-81.54586,41.03047],[-81.5464,41.02912],[-81.54657,41.03062],[-81.54586,41.03047]]],[[[-81.56619,40.96741],[-81.56739,40.97042],[-81.56714,40.97399],[-81.56473,40.97448],[-81.56172,40.97364],[-81.56179,40.97205],[-81.55693,40.97192],[-81.55689,40.97349],[-81.55195,40.97343],[-81.55574,40.97505],[-81.56501,40.97519],[-81.56734,40.97986],[-81.56146,40.98064],[-81.56058,40.98331],[-81.56563,40.98512],[-81.56662,40.98864],[-81.56986,40.98863],[-81.5699,40.99231],[-81.56545,40.99216],[-81.56544,40.99737],[-81.55873,40.99643],[-81.55823,40.99875],[-81.55879,41.00468],[-81.5598,41.00777],[-81.55524,41.00854],[-81.5547,41.0105],[-81.55596,41.01197],[-81.55616,41.0179],[-81.55728,41.01674],[-81.56377,41.01948],[-81.56379,41.01733],[-81.56747,41.01819],[-81.56745,41.01936],[-81.57327,41.0194],[-81.57235,41.02381],[-81.57049,41.02362],[-81.56589,41.02134],[-81.55836,41.02116],[-81.55191,41.02382],[-81.54398,41.02367],[-81.54114,41.02473],[-81.53694,41.03286],[-81.53303,41.02873],[-81.52935,41.0295],[-81.52127,41.02983],[-81.52131,41.02879],[-81.51514,41.02953],[-81.51511,41.03095],[-81.51257,41.03098],[-81.51254,41.02886],[-81.50489,41.02913],[-81.50336,41.0267],[-81.49797,41.02239],[-81.49415,41.02211],[-81.49419,41.01919],[-81.49298,41.01786],[-81.49626,41.01788],[-81.49459,41.01098],[-81.49185,41.01275],[-81.49198,41.00722],[-81.48974,41.0083],[-81.48484,41.00909],[-81.48253,41.01008],[-81.47934,41.00907],[-81.47594,41.00666],[-81.47474,41.00386],[-81.47554,41.00246],[-81.47484,40.99996],[-81.4735,40.99967],[-81.4736,40.99643],[-81.47757,40.99705],[-81.4936,40.99742],[-81.49441,40.98629],[-81.4929,40.98552],[-81.49335,40.97475],[-81.49469,40.97481],[-81.51484,40.97544],[-81.5189,40.97652],[-81.52163,40.97616],[-81.5152,40.97036],[-81.51289,40.96976],[-81.51323,40.96264],[-81.51821,40.96245],[-81.51736,40.96006],[-81.51455,40.95996],[-81.51483,40.95349],[-81.51261,40.95092],[-81.51287,40.94668],[-81.51549,40.94393],[-81.51593,40.94458],[-81.5244,40.94855],[-81.52385,40.95445],[-81.52503,40.95542],[-81.53082,40.95722],[-81.53369,40.95278],[-81.5354,40.92662],[-81.54316,40.92701],[-81.54556,40.92969],[-81.5485,40.93037],[-81.54925,40.93366],[-81.55424,40.93306],[-81.55811,40.9332],[-81.55865,40.93118],[-81.56048,40.93127],[-81.56068,40.93331],[-81.56422,40.93348],[-81.56401,40.93698],[-81.56767,40.9354],[-81.56975,40.93688],[-81.57106,40.94009],[-81.57347,40.93989],[-81.57252,40.94558],[-81.56752,40.95087],[-81.56729,40.95238],[-81.57337,40.95326],[-81.57264,40.95476],[-81.57225,40.96104],[-81.56762,40.96086],[-81.56705,40.96501],[-81.56619,40.96741]]]]}},{"type":"Feature","properties":{"zcta":"44320","d":892},"geometry":{"type":"Polygon","coordinates":[[[-81.61133,41.11383],[-81.60487,41.10942],[-81.60481,41.11385],[-81.60403,41.11393],[-81.60405,41.10902],[-81.59663,41.10552],[-81.59293,41.10669],[-81.57897,41.11189],[-81.57846,41.10968],[-81.58034,41.10851],[-81.58151,41.10947],[-81.58154,41.10148],[-81.58459,41.10151],[-81.58506,41.09988],[-81.58748,41.09925],[-81.5846,41.09216],[-81.58095,41.09197],[-81.58036,41.0928],[-81.57528,41.0929],[-81.57101,41.09387],[-81.571,41.09628],[-81.56933,41.09666],[-81.56932,41.09941],[-81.56455,41.0993],[-81.56461,41.09528],[-81.56089,41.09576],[-81.55822,41.09243],[-81.55715,41.09244],[-81.54699,41.09264],[-81.5416,41.089],[-81.54269,41.08817],[-81.54226,41.08457],[-81.53901,41.08433],[-81.54178,41.08203],[-81.54217,41.07985],[-81.54465,41.07784],[-81.55009,41.07791],[-81.55796,41.07185],[-81.55938,41.07035],[-81.55914,41.06773],[-81.56971,41.06486],[-81.56974,41.06145],[-81.56594,41.06005],[-81.56311,41.05981],[-81.56309,41.05864],[-81.57363,41.05882],[-81.57294,41.05745],[-81.57294,41.05326],[-81.57444,41.04606],[-81.57691,41.04081],[-81.5794,41.04084],[-81.57707,41.04206],[-81.58148,41.04268],[-81.58179,41.03964],[-81.58224,41.04123],[-81.58925,41.04129],[-81.59111,41.04288],[-81.59102,41.04893],[-81.59773,41.04764],[-81.60026,41.04891],[-81.59577,41.0581],[-81.59438,41.06211],[-81.61249,41.06219],[-81.61323,41.0626],[-81.6131,41.07001],[-81.61953,41.07018],[-81.61955,41.07358],[-81.61514,41.0742],[-81.61253,41.07529],[-81.61246,41.07717],[-81.61054,41.07717],[-81.61014,41.08076],[-81.60629,41.08072],[-81.60625,41.08451],[-81.60413,41.08449],[-81.60537,41.08881],[-81.60719,41.09081],[-81.61157,41.09055],[-81.61236,41.09916],[-81.60999,41.09918],[-81.60996,41.10066],[-81.6132,41.10386],[-81.60994,41.10385],[-81.61,41.10485],[-81.61331,41.10488],[-81.61327,41.10645],[-81.6099,41.10646],[-81.60985,41.10854],[-81.61288,41.1103],[-81.61463,41.11232],[-81.61133,41.11383]]]}},{"type":"Feature","properties":{"zcta":"44333","d":348},"geometry":{"type":"Polygon","coordinates":[[[-81.68318,41.20212],[-81.67848,41.20212],[-81.67839,41.20407],[-81.67475,41.20583],[-81.66948,41.20575],[-81.66662,41.20428],[-81.66663,41.20212],[-81.63803,41.20229],[-81.63693,41.19815],[-81.63362,41.19812],[-81.63454,41.20023],[-81.63056,41.20091],[-81.63004,41.1982],[-81.62585,41.19856],[-81.62584,41.2024],[-81.61609,41.20249],[-81.61624,41.19653],[-81.61487,41.19649],[-81.61492,41.19411],[-81.61365,41.19286],[-81.60944,41.19226],[-81.60475,41.19445],[-81.60459,41.20029],[-81.60654,41.20257],[-81.59044,41.20266],[-81.58665,41.20266],[-81.58696,41.18228],[-81.58439,41.18154],[-81.58326,41.17861],[-81.58117,41.17665],[-81.57784,41.17004],[-81.57614,41.16204],[-81.58146,41.16197],[-81.58721,41.16088],[-81.58732,41.14847],[-81.5881,41.14847],[-81.58885,41.14407],[-81.58737,41.14354],[-81.58752,41.12795],[-81.58918,41.12768],[-81.59086,41.12397],[-81.59098,41.11908],[-81.60456,41.12558],[-81.60447,41.12127],[-81.6074,41.12135],[-81.60979,41.11394],[-81.61133,41.11383],[-81.61463,41.11232],[-81.6178,41.10901],[-81.6201,41.11018],[-81.62054,41.10723],[-81.62616,41.10766],[-81.6347,41.10557],[-81.6345,41.11019],[-81.64452,41.11019],[-81.64291,41.11312],[-81.64521,41.11752],[-81.64527,41.11926],[-81.63924,41.11923],[-81.63793,41.12133],[-81.63979,41.12149],[-81.64384,41.11984],[-81.64773,41.12033],[-81.64847,41.12307],[-81.64845,41.12853],[-81.63749,41.12856],[-81.64605,41.13146],[-81.64756,41.13275],[-81.64513,41.133],[-81.64624,41.13593],[-81.6704,41.13595],[-81.66984,41.13805],[-81.67545,41.13715],[-81.67681,41.13582],[-81.67666,41.1432],[-81.68197,41.14326],[-81.68352,41.14188],[-81.68355,41.13867],[-81.68516,41.1369],[-81.68697,41.13702],[-81.68657,41.15568],[-81.69078,41.15656],[-81.69067,41.15892],[-81.6999,41.15841],[-81.69988,41.16066],[-81.696,41.16055],[-81.6948,41.1645],[-81.68812,41.16443],[-81.68758,41.17005],[-81.68936,41.17021],[-81.68932,41.18172],[-81.68845,41.18358],[-81.68825,41.1873],[-81.68606,41.18732],[-81.68574,41.2009],[-81.68318,41.20212]]]}},{"type":"Feature","properties":{"zcta":"44312","d":834},"geometry":{"type":"Polygon","coordinates":[[[-81.49335,40.97475],[-81.4929,40.98552],[-81.49441,40.98629],[-81.4936,40.99742],[-81.47757,40.99705],[-81.4736,40.99643],[-81.4735,40.99967],[-81.47484,40.99996],[-81.47554,41.00246],[-81.47474,41.00386],[-81.47594,41.00666],[-81.47326,41.00733],[-81.47317,41.011],[-81.47724,41.01417],[-81.47282,41.01489],[-81.47186,41.01108],[-81.46588,41.01098],[-81.46595,41.01451],[-81.46352,41.01515],[-81.46344,41.01921],[-81.4618,41.0203],[-81.45574,41.02023],[-81.4543,41.02219],[-81.45414,41.0298],[-81.4622,41.02737],[-81.46312,41.03255],[-81.45696,41.04096],[-81.45428,41.04127],[-81.45383,41.04329],[-81.46299,41.0434],[-81.46184,41.04524],[-81.46284,41.05072],[-81.46278,41.05368],[-81.46423,41.05516],[-81.46304,41.05796],[-81.46343,41.05956],[-81.46265,41.06093],[-81.45691,41.06128],[-81.4483,41.06396],[-81.43947,41.06448],[-81.43468,41.0652],[-81.43473,41.06412],[-81.42861,41.06095],[-81.42289,41.06169],[-81.42407,41.06153],[-81.4219,41.05958],[-81.4225,41.0567],[-81.41691,41.05422],[-81.41706,41.04595],[-81.40705,41.04592],[-81.4076,41.04074],[-81.40558,41.04239],[-81.39921,41.0424],[-81.39921,41.04068],[-81.39322,41.04064],[-81.39327,41.01748],[-81.38804,41.01734],[-81.38806,41.01544],[-81.39036,41.01545],[-81.39064,41.00815],[-81.39129,41.00597],[-81.39331,41.00596],[-81.39335,40.99979],[-81.39566,40.99906],[-81.39647,40.99764],[-81.40942,40.99712],[-81.41023,40.99906],[-81.41715,40.99943],[-81.42369,41.00128],[-81.43235,41.00182],[-81.43453,41.00028],[-81.43642,40.9968],[-81.43863,40.99625],[-81.43993,40.99403],[-81.44238,40.99301],[-81.43754,40.9884],[-81.4436,40.98838],[-81.44257,40.98575],[-81.44004,40.98568],[-81.4401,40.98445],[-81.43487,40.98324],[-81.43142,40.98342],[-81.42821,40.98011],[-81.42651,40.97616],[-81.43379,40.97614],[-81.43507,40.97237],[-81.43752,40.97291],[-81.44429,40.97311],[-81.44485,40.97511],[-81.46101,40.97366],[-81.46466,40.97376],[-81.4651,40.96353],[-81.47537,40.97212],[-81.47576,40.96684],[-81.48415,40.96702],[-81.48407,40.96922],[-81.48647,40.96919],[-81.48664,40.9673],[-81.48953,40.96798],[-81.48987,40.97148],[-81.4935,40.97166],[-81.49338,40.97423],[-81.49469,40.97481],[-81.49335,40.97475]],[[-81.44499,41.01603],[-81.44311,41.01482],[-81.43373,41.01466],[-81.43295,41.0192],[-81.41824,41.0191],[-81.41605,41.01973],[-81.42393,41.02761],[-81.42685,41.02682],[-81.4264,41.02591],[-81.43074,41.02591],[-81.43289,41.02772],[-81.43662,41.0274],[-81.44206,41.0261],[-81.44482,41.02403],[-81.44499,41.01603]]]}},{"type":"Feature","properties":{"zcta":"44288","d":101},"geometry":{"type":"Polygon","coordinates":[[[-81.14843,41.24295],[-81.14745,41.24817],[-81.14791,41.25841],[-81.14352,41.25841],[-81.14113,41.2595],[-81.14054,41.26605],[-81.13626,41.26605],[-81.13429,41.26492],[-81.12085,41.26469],[-81.12076,41.25895],[-81.11654,41.2584],[-81.11646,41.24314],[-81.09319,41.24422],[-81.0854,41.24406],[-81.0665,41.24249],[-81.06664,41.25355],[-81.06481,41.25448],[-81.05776,41.25444],[-81.0578,41.25783],[-81.04978,41.25773],[-81.04968,41.25912],[-81.04683,41.25869],[-81.04682,41.2609],[-81.04549,41.26035],[-81.03712,41.25919],[-81.01298,41.25696],[-81.01187,41.25904],[-81.01138,41.26258],[-81.0121,41.26345],[-81.01251,41.26868],[-81.00954,41.27144],[-81.00727,41.26927],[-81.00472,41.27096],[-81.00289,41.27044],[-81.00285,41.26481],[-80.99497,41.26484],[-80.99484,41.25514],[-80.99577,41.25285],[-80.99787,41.25194],[-81.00277,41.25193],[-81.00276,41.22953],[-81.04143,41.23082],[-81.04887,41.23063],[-81.0902,41.22693],[-81.09873,41.22533],[-81.10623,41.22324],[-81.10981,41.22102],[-81.11367,41.21707],[-81.11714,41.21492],[-81.12112,41.21336],[-81.14545,41.20573],[-81.15733,41.20215],[-81.15534,41.20319],[-81.15486,41.21249],[-81.1548,41.22188],[-81.15175,41.22186],[-81.15154,41.23039],[-81.14951,41.23095],[-81.14839,41.23354],[-81.1484,41.23637],[-81.15139,41.23837],[-81.15139,41.24315],[-81.14843,41.24295]]]}},{"type":"Feature","properties":{"zcta":"44303","d":1681},"geometry":{"type":"Polygon","coordinates":[[[-81.52902,41.11482],[-81.52984,41.10914],[-81.53112,41.10435],[-81.52935,41.10415],[-81.52974,41.10074],[-81.52772,41.09755],[-81.52009,41.0911],[-81.52189,41.09003],[-81.51865,41.08857],[-81.51958,41.08597],[-81.52422,41.08537],[-81.52438,41.08675],[-81.52931,41.08578],[-81.52959,41.08851],[-81.53228,41.08938],[-81.53207,41.09174],[-81.54099,41.09549],[-81.54401,41.09334],[-81.54535,41.09566],[-81.54664,41.09802],[-81.54823,41.09889],[-81.54766,41.09951],[-81.54675,41.10012],[-81.54883,41.10325],[-81.54723,41.10382],[-81.54805,41.10746],[-81.54926,41.10739],[-81.5497,41.11023],[-81.55335,41.11111],[-81.55333,41.11309],[-81.55153,41.11366],[-81.5507,41.11555],[-81.54852,41.11637],[-81.54805,41.11989],[-81.54855,41.12289],[-81.54561,41.12281],[-81.54219,41.12151],[-81.53913,41.11764],[-81.53598,41.11774],[-81.53461,41.11676],[-81.52986,41.1171],[-81.52902,41.11482]]]}},{"type":"Feature","properties":{"zcta":"44304","d":723},"geometry":{"type":"MultiPolygon","coordinates":[[[[-81.51114,41.07062],[-81.51094,41.07211],[-81.50975,41.07162],[-81.51114,41.07062]]],[[[-81.51242,41.06971],[-81.5157,41.06842],[-81.51611,41.07067],[-81.51457,41.07357],[-81.51182,41.07246],[-81.51242,41.06971]]],[[[-81.52746,41.10376],[-81.52754,41.10086],[-81.52584,41.09806],[-81.52143,41.09876],[-81.51928,41.09705],[-81.51566,41.09732],[-81.51583,41.09516],[-81.51283,41.09485],[-81.5102,41.09565],[-81.50633,41.09276],[-81.50502,41.09329],[-81.50409,41.0904],[-81.50234,41.08867],[-81.49801,41.08925],[-81.49122,41.08766],[-81.49397,41.08557],[-81.49589,41.08517],[-81.49843,41.08749],[-81.50114,41.08836],[-81.50186,41.08698],[-81.49609,41.08391],[-81.49821,41.08316],[-81.49876,41.07779],[-81.49443,41.07542],[-81.49986,41.07534],[-81.4999,41.07115],[-81.50415,41.07115],[-81.50862,41.07001],[-81.50975,41.07162],[-81.50971,41.07343],[-81.50622,41.07348],[-81.50465,41.0766],[-81.50755,41.07713],[-81.50727,41.08039],[-81.50923,41.07979],[-81.5079,41.08163],[-81.50878,41.0833],[-81.51328,41.08452],[-81.51195,41.08634],[-81.51468,41.08702],[-81.51389,41.08883],[-81.51784,41.09028],[-81.51865,41.08857],[-81.52189,41.09003],[-81.52009,41.0911],[-81.52772,41.09755],[-81.52974,41.10074],[-81.52935,41.10415],[-81.52746,41.10376]]]]}},{"type":"Feature","properties":{"zcta":"44306","d":1052},"geometry":{"type":"Polygon","coordinates":[[[-81.50417,41.06595],[-81.50415,41.07115],[-81.4999,41.07115],[-81.49986,41.07534],[-81.49443,41.07542],[-81.49063,41.07238],[-81.48857,41.0695],[-81.49068,41.06748],[-81.4884,41.06746],[-81.48243,41.0627],[-81.47937,41.06234],[-81.47706,41.06054],[-81.47182,41.05915],[-81.46343,41.05956],[-81.46304,41.05796],[-81.46423,41.05516],[-81.46278,41.05368],[-81.46284,41.05072],[-81.46184,41.04524],[-81.46299,41.0434],[-81.45383,41.04329],[-81.45428,41.04127],[-81.45696,41.04096],[-81.46312,41.03255],[-81.4622,41.02737],[-81.45414,41.0298],[-81.4543,41.02219],[-81.45574,41.02023],[-81.4618,41.0203],[-81.46344,41.01921],[-81.46352,41.01515],[-81.46595,41.01451],[-81.46588,41.01098],[-81.47186,41.01108],[-81.47282,41.01489],[-81.47724,41.01417],[-81.47317,41.011],[-81.47326,41.00733],[-81.47594,41.00666],[-81.47934,41.00907],[-81.48253,41.01008],[-81.48484,41.00909],[-81.48974,41.0083],[-81.49198,41.00722],[-81.49185,41.01275],[-81.49459,41.01098],[-81.49626,41.01788],[-81.49298,41.01786],[-81.49419,41.01919],[-81.49415,41.02211],[-81.49797,41.02239],[-81.50336,41.0267],[-81.50489,41.02913],[-81.50518,41.03028],[-81.50504,41.04027],[-81.50562,41.04402],[-81.50546,41.05447],[-81.50417,41.06595]]]}},{"type":"Feature","properties":{"zcta":"44286","d":140},"geometry":{"type":"Polygon","coordinates":[[[-81.59057,41.2267],[-81.60054,41.22606],[-81.59874,41.22436],[-81.59534,41.22326],[-81.59554,41.22136],[-81.59154,41.21766],[-81.59054,41.21596],[-81.59044,41.20266],[-81.60654,41.20257],[-81.60459,41.20029],[-81.60475,41.19445],[-81.60944,41.19226],[-81.61365,41.19286],[-81.61492,41.19411],[-81.61487,41.19649],[-81.61624,41.19653],[-81.61609,41.20249],[-81.62584,41.2024],[-81.62585,41.19856],[-81.63004,41.1982],[-81.63056,41.20091],[-81.63454,41.20023],[-81.63362,41.19812],[-81.63693,41.19815],[-81.63803,41.20229],[-81.66663,41.20212],[-81.66662,41.20428],[-81.66948,41.20575],[-81.67475,41.20583],[-81.67839,41.20407],[-81.67848,41.20212],[-81.68318,41.20212],[-81.68574,41.2009],[-81.68495,41.27715],[-81.68176,41.27715],[-81.6817,41.27505],[-81.68007,41.2751],[-81.67997,41.27334],[-81.67327,41.27338],[-81.67321,41.2755],[-81.66328,41.27562],[-81.66325,41.27729],[-81.61852,41.27756],[-81.61853,41.27638],[-81.62228,41.27637],[-81.62218,41.27411],[-81.62662,41.27411],[-81.62697,41.27277],[-81.62273,41.27075],[-81.60978,41.26202],[-81.60285,41.25801],[-81.59588,41.255],[-81.59073,41.25347],[-81.59071,41.25137],[-81.59057,41.2267]]]}},{"type":"Feature","properties":{"zcta":"44223","d":664},"geometry":{"type":"Polygon","coordinates":[[[-81.56028,41.20834],[-81.55586,41.2121],[-81.55607,41.21539],[-81.55259,41.21801],[-81.55079,41.21562],[-81.54864,41.21466],[-81.54462,41.21095],[-81.54072,41.20516],[-81.53841,41.20292],[-81.53064,41.2029],[-81.52914,41.19946],[-81.52654,41.19886],[-81.52634,41.19686],[-81.52394,41.1956],[-81.52286,41.19672],[-81.52027,41.1967],[-81.52091,41.19461],[-81.51791,41.19456],[-81.51806,41.19137],[-81.51676,41.19119],[-81.51809,41.18838],[-81.51333,41.18827],[-81.5132,41.18653],[-81.50863,41.18668],[-81.50838,41.18566],[-81.50857,41.18097],[-81.49432,41.18104],[-81.49433,41.17399],[-81.49325,41.16681],[-81.49864,41.16486],[-81.49864,41.164],[-81.49391,41.16399],[-81.49393,41.16061],[-81.4925,41.15863],[-81.49617,41.15634],[-81.49577,41.15469],[-81.49699,41.15119],[-81.49724,41.13487],[-81.4965,41.12943],[-81.49754,41.12713],[-81.49603,41.12603],[-81.4974,41.12321],[-81.4994,41.12388],[-81.50226,41.12305],[-81.50616,41.12303],[-81.50706,41.12443],[-81.51958,41.12443],[-81.51977,41.13583],[-81.52143,41.13847],[-81.52273,41.13717],[-81.52761,41.13719],[-81.52866,41.13956],[-81.52867,41.14308],[-81.53208,41.14307],[-81.53203,41.13934],[-81.53645,41.13902],[-81.53604,41.14321],[-81.53432,41.14445],[-81.53162,41.14447],[-81.53182,41.14995],[-81.53425,41.15134],[-81.53449,41.14849],[-81.5357,41.14719],[-81.53561,41.15132],[-81.53736,41.15122],[-81.53746,41.14785],[-81.54226,41.14797],[-81.54233,41.14409],[-81.54139,41.14308],[-81.54324,41.14176],[-81.54604,41.14336],[-81.54474,41.14616],[-81.551,41.14701],[-81.54845,41.15131],[-81.54411,41.15435],[-81.54584,41.15469],[-81.54519,41.15666],[-81.54295,41.15602],[-81.5428,41.15874],[-81.53857,41.15941],[-81.53891,41.16162],[-81.54718,41.16166],[-81.54721,41.15876],[-81.55694,41.15966],[-81.56154,41.15816],[-81.56424,41.15836],[-81.57175,41.17316],[-81.56669,41.17343],[-81.56691,41.1887],[-81.57303,41.18878],[-81.57164,41.19044],[-81.56693,41.1938],[-81.5664,41.19543],[-81.5672,41.19898],[-81.56634,41.201],[-81.56028,41.20834]]]}},{"type":"Feature","properties":{"zcta":"44260","d":206},"geometry":{"type":"Polygon","coordinates":[[[-81.41667,41.06055],[-81.41353,41.06023],[-81.41333,41.06138],[-81.40395,41.06141],[-81.40395,41.06635],[-81.39293,41.0662],[-81.3916,41.06682],[-81.39149,41.07041],[-81.38277,41.07029],[-81.38272,41.07881],[-81.38271,41.07958],[-81.37278,41.07929],[-81.37244,41.08039],[-81.36706,41.08035],[-81.36706,41.0765],[-81.36617,41.07537],[-81.36228,41.07627],[-81.36231,41.07754],[-81.35565,41.08137],[-81.35117,41.08138],[-81.3468,41.08233],[-81.34367,41.08387],[-81.34358,41.08764],[-81.34189,41.08324],[-81.33934,41.08278],[-81.3195,41.08262],[-81.32514,41.07885],[-81.32512,41.07214],[-81.31996,41.06815],[-81.32111,41.06604],[-81.32538,41.06526],[-81.30124,41.06487],[-81.30122,41.07224],[-81.29574,41.07149],[-81.294,41.07011],[-81.2853,41.06924],[-81.2824,41.06742],[-81.28236,41.06962],[-81.27465,41.06956],[-81.26872,41.06921],[-81.2683,41.06437],[-81.26614,41.06433],[-81.26621,41.0626],[-81.26351,41.06225],[-81.26615,41.05968],[-81.26636,41.05741],[-81.2638,41.05692],[-81.26869,41.05203],[-81.26245,41.05117],[-81.25951,41.04758],[-81.25653,41.04276],[-81.25722,41.03309],[-81.25928,41.02985],[-81.26927,41.03043],[-81.27518,41.03189],[-81.27558,41.03007],[-81.2781,41.03066],[-81.27823,41.02803],[-81.28355,41.02838],[-81.29402,41.02763],[-81.29467,41.02685],[-81.30214,41.02719],[-81.30254,41.00373],[-81.30852,41.00384],[-81.30864,41.00222],[-81.30595,40.99597],[-81.30623,40.98856],[-81.32959,40.98864],[-81.32955,40.9955],[-81.34184,40.99534],[-81.34341,40.99612],[-81.34532,40.99894],[-81.3476,40.99894],[-81.34763,40.9968],[-81.35672,40.99694],[-81.3616,40.99621],[-81.36161,40.99442],[-81.35753,40.98872],[-81.36842,40.98866],[-81.36795,40.98218],[-81.36973,40.98373],[-81.37175,40.98294],[-81.37327,40.98385],[-81.37742,40.9839],[-81.37749,40.98183],[-81.38025,40.98244],[-81.38013,40.98548],[-81.38233,40.98397],[-81.38433,40.98394],[-81.38451,40.98089],[-81.38673,40.98136],[-81.38759,40.98487],[-81.38982,40.98808],[-81.39366,40.98691],[-81.3943,40.99177],[-81.3962,40.9939],[-81.39822,40.99389],[-81.3956,40.99765],[-81.39566,40.99906],[-81.39335,40.99979],[-81.39331,41.00596],[-81.39129,41.00597],[-81.39064,41.00815],[-81.39036,41.01545],[-81.38806,41.01544],[-81.38804,41.01734],[-81.39327,41.01748],[-81.39322,41.04064],[-81.39921,41.04068],[-81.39921,41.0424],[-81.40558,41.04239],[-81.4076,41.04074],[-81.40705,41.04592],[-81.41706,41.04595],[-81.41691,41.05422],[-81.41667,41.06055]]]}},{"type":"Feature","properties":{"zcta":"44255","d":90},"geometry":{"type":"Polygon","coordinates":[[[-81.29852,41.27529],[-81.29847,41.29067],[-81.29301,41.29059],[-81.29295,41.29358],[-81.28765,41.29397],[-81.2785,41.29318],[-81.27853,41.2894],[-81.27547,41.28941],[-81.27548,41.2875],[-81.2701,41.28754],[-81.27011,41.293],[-81.28755,41.29738],[-81.28123,41.30641],[-81.28104,41.32129],[-81.27541,41.32088],[-81.27253,41.32149],[-81.27247,41.32669],[-81.26883,41.32666],[-81.26875,41.3321],[-81.27849,41.33212],[-81.27766,41.33719],[-81.28081,41.33722],[-81.28074,41.34743],[-81.19639,41.34756],[-81.19748,41.34356],[-81.19143,41.34356],[-81.19173,41.31307],[-81.19501,41.31306],[-81.19523,41.30872],[-81.19773,41.30672],[-81.19808,41.3033],[-81.20139,41.30295],[-81.20311,41.30076],[-81.19299,41.30063],[-81.19416,41.29835],[-81.19616,41.29833],[-81.19625,41.29462],[-81.20013,41.29462],[-81.20019,41.28796],[-81.19612,41.28795],[-81.19604,41.28582],[-81.19332,41.28578],[-81.19198,41.28461],[-81.19198,41.28116],[-81.17838,41.28097],[-81.17642,41.28268],[-81.17227,41.28267],[-81.1721,41.28462],[-81.16101,41.28469],[-81.1618,41.28169],[-81.16191,41.27342],[-81.16067,41.27356],[-81.15934,41.27746],[-81.15564,41.27882],[-81.1525,41.28161],[-81.14872,41.28319],[-81.14611,41.28331],[-81.14463,41.28178],[-81.14533,41.27311],[-81.14334,41.27309],[-81.1433,41.27032],[-81.13635,41.26972],[-81.13626,41.26605],[-81.14054,41.26605],[-81.14113,41.2595],[-81.14352,41.25841],[-81.14791,41.25841],[-81.14745,41.24817],[-81.14843,41.24295],[-81.15139,41.24315],[-81.16176,41.24335],[-81.16173,41.2379],[-81.17561,41.23819],[-81.17612,41.24133],[-81.17915,41.24139],[-81.17979,41.23829],[-81.19239,41.23854],[-81.19241,41.24354],[-81.20566,41.24363],[-81.20556,41.24115],[-81.20828,41.23977],[-81.21511,41.24007],[-81.21509,41.24135],[-81.2214,41.24156],[-81.22142,41.24085],[-81.22663,41.24092],[-81.23367,41.23829],[-81.2336,41.23584],[-81.23847,41.23586],[-81.23852,41.23326],[-81.244,41.23905],[-81.24964,41.24067],[-81.25684,41.24491],[-81.25531,41.24599],[-81.26518,41.24679],[-81.26553,41.24469],[-81.27174,41.24399],[-81.27925,41.24439],[-81.27927,41.24354],[-81.28394,41.24362],[-81.28586,41.24503],[-81.28924,41.2437],[-81.29605,41.24358],[-81.2989,41.24212],[-81.2986,41.2531],[-81.31383,41.27548],[-81.29852,41.27529]],[[-81.29862,41.26785],[-81.29141,41.26777],[-81.2922,41.26846],[-81.29217,41.27517],[-81.29852,41.27529],[-81.29862,41.26785]]]}},{"type":"Feature","properties":{"zcta":"44411","d":61},"geometry":{"type":"Polygon","coordinates":[[[-81.0976,41.06247],[-81.09436,41.06048],[-81.08888,41.06043],[-81.08888,41.05633],[-81.07712,41.05603],[-81.07707,41.05401],[-81.07184,41.05464],[-81.06989,41.06234],[-81.04806,41.06218],[-81.04591,41.06262],[-81.04606,41.06431],[-81.04129,41.06509],[-81.03403,41.06509],[-81.03403,41.06354],[-81.02906,41.06332],[-81.02904,41.06682],[-81.02532,41.06688],[-81.02532,41.06778],[-81.01925,41.06773],[-81.01921,41.06485],[-81.01199,41.06511],[-81.01198,41.06676],[-81.00711,41.06664],[-81.00544,41.06409],[-81.00231,41.06399],[-81.00259,41.05381],[-81.00242,41.04205],[-81.00186,41.03438],[-81.00192,41.0217],[-81.00174,41.00314],[-81.00562,41.00616],[-81.00596,41.00761],[-81.01148,41.00582],[-81.01174,41.00419],[-81.01463,41.00168],[-81.01277,40.99852],[-81.01181,40.99533],[-81.01595,40.99084],[-81.01554,40.99376],[-81.01424,40.99552],[-81.01734,40.99941],[-81.01744,41.00182],[-81.0206,41.00333],[-81.02185,40.99992],[-81.02415,40.9978],[-81.02694,40.99694],[-81.02497,40.99559],[-81.03709,40.99558],[-81.03579,40.99668],[-81.0358,40.99912],[-81.04065,40.99927],[-81.04069,41.00283],[-81.04862,41.00286],[-81.04918,41.00433],[-81.05347,41.00382],[-81.05155,41.00224],[-81.05254,41.00106],[-81.05961,40.99963],[-81.05969,40.99553],[-81.065,40.99338],[-81.06445,40.99556],[-81.06664,40.99555],[-81.06733,40.99694],[-81.07077,40.99789],[-81.07615,40.99694],[-81.07416,40.99553],[-81.07938,40.99548],[-81.07924,41.00047],[-81.08893,41.0007],[-81.0891,41.01534],[-81.08419,41.01528],[-81.08415,41.01728],[-81.09289,41.01733],[-81.09273,41.02308],[-81.09868,41.02298],[-81.09861,41.0322],[-81.10217,41.03418],[-81.1069,41.03437],[-81.10596,41.03663],[-81.10931,41.03865],[-81.10868,41.04243],[-81.11097,41.04517],[-81.11107,41.06259],[-81.10466,41.06252],[-81.0976,41.06247]]]}},{"type":"Feature","properties":{"zcta":"44264","d":76},"geometry":{"type":"Polygon","coordinates":[[[-81.58736,41.25139],[-81.58587,41.25305],[-81.58281,41.25413],[-81.57495,41.2549],[-81.56838,41.25608],[-81.5628,41.25819],[-81.55859,41.26044],[-81.56198,41.26427],[-81.56889,41.27786],[-81.56514,41.27776],[-81.56575,41.27874],[-81.56218,41.27932],[-81.56439,41.28194],[-81.56478,41.28421],[-81.56676,41.28438],[-81.56806,41.28602],[-81.56628,41.28776],[-81.56444,41.28542],[-81.55464,41.28596],[-81.55474,41.28516],[-81.54934,41.28316],[-81.54914,41.27875],[-81.54304,41.27705],[-81.54317,41.27638],[-81.54785,41.27751],[-81.54774,41.27026],[-81.5435,41.27027],[-81.54122,41.2688],[-81.53712,41.26423],[-81.5333,41.26226],[-81.53337,41.25701],[-81.5123,41.25815],[-81.50987,41.25807],[-81.50796,41.25487],[-81.50007,41.25456],[-81.49424,41.23746],[-81.49057,41.23239],[-81.50249,41.23107],[-81.50942,41.23117],[-81.51404,41.23171],[-81.51931,41.23302],[-81.51939,41.22663],[-81.49739,41.22646],[-81.49075,41.22305],[-81.49095,41.22004],[-81.48934,41.22003],[-81.48816,41.21396],[-81.48326,41.20295],[-81.49596,41.20299],[-81.49761,41.20063],[-81.50269,41.19549],[-81.50013,41.1955],[-81.50019,41.19061],[-81.50397,41.1906],[-81.50392,41.18832],[-81.49923,41.18829],[-81.49927,41.18369],[-81.5047,41.18369],[-81.50472,41.18619],[-81.50838,41.18566],[-81.50863,41.18668],[-81.5132,41.18653],[-81.51333,41.18827],[-81.51809,41.18838],[-81.51676,41.19119],[-81.51806,41.19137],[-81.51791,41.19456],[-81.52091,41.19461],[-81.52027,41.1967],[-81.52286,41.19672],[-81.52394,41.1956],[-81.52634,41.19686],[-81.52654,41.19886],[-81.52914,41.19946],[-81.53064,41.2029],[-81.53841,41.20292],[-81.54072,41.20516],[-81.54462,41.21095],[-81.54864,41.21466],[-81.55079,41.21562],[-81.55259,41.21801],[-81.55607,41.21539],[-81.55586,41.2121],[-81.56028,41.20834],[-81.56634,41.201],[-81.56833,41.20082],[-81.56754,41.1994],[-81.56724,41.19396],[-81.56894,41.19276],[-81.57104,41.19326],[-81.57274,41.19056],[-81.57684,41.18966],[-81.57525,41.18881],[-81.57544,41.18656],[-81.57744,41.18585],[-81.57904,41.18286],[-81.58344,41.18216],[-81.58104,41.18036],[-81.57944,41.17665],[-81.58117,41.17665],[-81.58326,41.17861],[-81.58439,41.18154],[-81.58696,41.18228],[-81.58665,41.20266],[-81.59044,41.20266],[-81.59054,41.21596],[-81.59154,41.21766],[-81.59554,41.22136],[-81.59534,41.22326],[-81.59874,41.22436],[-81.60054,41.22606],[-81.59057,41.2267],[-81.59071,41.25137],[-81.58736,41.25139]]]}},{"type":"Feature","properties":{"zcta":"44314","d":1804},"geometry":{"type":"Polygon","coordinates":[[[-81.55777,41.05998],[-81.5465,41.06191],[-81.54169,41.06207],[-81.54198,41.06156],[-81.54596,41.05623],[-81.54594,41.05428],[-81.543,41.04612],[-81.54235,41.04275],[-81.53904,41.03605],[-81.53694,41.03286],[-81.54114,41.02473],[-81.54398,41.02367],[-81.55191,41.02382],[-81.55836,41.02116],[-81.56589,41.02134],[-81.57049,41.02362],[-81.57425,41.02704],[-81.57681,41.02799],[-81.57657,41.03634],[-81.57835,41.0367],[-81.5775,41.03959],[-81.58179,41.03964],[-81.58148,41.04268],[-81.57707,41.04206],[-81.5794,41.04084],[-81.57691,41.04081],[-81.57444,41.04606],[-81.57294,41.05326],[-81.57294,41.05745],[-81.57363,41.05882],[-81.56309,41.05864],[-81.56311,41.05981],[-81.55777,41.05998]],[[-81.5464,41.02912],[-81.54586,41.03047],[-81.54657,41.03062],[-81.5464,41.02912]]]}},{"type":"Feature","properties":{"zcta":"44307","d":1463},"geometry":{"type":"Polygon","coordinates":[[[-81.53743,41.08455],[-81.53483,41.08223],[-81.53363,41.08315],[-81.52681,41.0784],[-81.52615,41.07681],[-81.52964,41.07342],[-81.53139,41.07032],[-81.52793,41.06968],[-81.52795,41.06856],[-81.5332,41.06838],[-81.54034,41.06374],[-81.54169,41.06207],[-81.5465,41.06191],[-81.55777,41.05998],[-81.56311,41.05981],[-81.56594,41.06005],[-81.56974,41.06145],[-81.56971,41.06486],[-81.55914,41.06773],[-81.55938,41.07035],[-81.55796,41.07185],[-81.55009,41.07791],[-81.54465,41.07784],[-81.54217,41.07985],[-81.54178,41.08203],[-81.53901,41.08433],[-81.53743,41.08455]]]}},{"type":"Feature","properties":{"zcta":"44310","d":1754},"geometry":{"type":"Polygon","coordinates":[[[-81.50706,41.12443],[-81.50616,41.12303],[-81.50226,41.12305],[-81.4994,41.12388],[-81.4974,41.12321],[-81.49343,41.11845],[-81.49461,41.11517],[-81.49164,41.11679],[-81.48899,41.11929],[-81.4887,41.11747],[-81.4659,41.11702],[-81.46512,41.11885],[-81.46585,41.09603],[-81.46744,41.09546],[-81.47053,41.09689],[-81.47355,41.09695],[-81.47715,41.09606],[-81.47703,41.09696],[-81.48406,41.09669],[-81.48386,41.09344],[-81.4862,41.09045],[-81.48757,41.08625],[-81.49122,41.08766],[-81.49801,41.08925],[-81.50234,41.08867],[-81.50409,41.0904],[-81.50502,41.09329],[-81.50633,41.09276],[-81.5102,41.09565],[-81.51283,41.09485],[-81.51583,41.09516],[-81.51566,41.09732],[-81.51928,41.09705],[-81.52143,41.09876],[-81.52584,41.09806],[-81.52754,41.10086],[-81.52746,41.10376],[-81.52935,41.10415],[-81.53112,41.10435],[-81.52984,41.10914],[-81.52902,41.11482],[-81.52986,41.1171],[-81.53553,41.12135],[-81.53724,41.12526],[-81.54002,41.12981],[-81.54452,41.13254],[-81.54848,41.133],[-81.54274,41.13555],[-81.53904,41.13306],[-81.53714,41.12726],[-81.53234,41.12595],[-81.53114,41.12456],[-81.53394,41.12236],[-81.53294,41.12056],[-81.52664,41.11906],[-81.52574,41.11706],[-81.52024,41.12006],[-81.51958,41.12443],[-81.50706,41.12443]]]}},{"type":"Feature","properties":{"zcta":"44241","d":448},"geometry":{"type":"MultiPolygon","coordinates":[[[[-81.29217,41.27517],[-81.2922,41.26846],[-81.29141,41.26777],[-81.29862,41.26785],[-81.29852,41.27529],[-81.29217,41.27517]]],[[[-81.36873,41.27646],[-81.36233,41.27601],[-81.31383,41.27548],[-81.2986,41.2531],[-81.2989,41.24212],[-81.2989,41.24058],[-81.30124,41.24008],[-81.30391,41.23805],[-81.30632,41.2334],[-81.30697,41.22923],[-81.30978,41.22769],[-81.30802,41.22467],[-81.30135,41.22059],[-81.30228,41.2192],[-81.30012,41.2157],[-81.30612,41.21315],[-81.30408,41.21079],[-81.30421,41.20662],[-81.30564,41.20244],[-81.3116,41.20239],[-81.33756,41.20266],[-81.33864,41.20615],[-81.34584,41.2062],[-81.3548,41.20546],[-81.35487,41.20254],[-81.39193,41.20286],[-81.39213,41.23974],[-81.39195,41.25439],[-81.38669,41.25481],[-81.38974,41.26341],[-81.38736,41.26409],[-81.38226,41.2636],[-81.39193,41.26525],[-81.39203,41.26902],[-81.38786,41.26658],[-81.38831,41.27149],[-81.39034,41.27169],[-81.39071,41.27661],[-81.36873,41.27646]]]]}},{"type":"Feature","properties":{"zcta":"44203","d":553},"geometry":{"type":"Polygon","coordinates":[[[-81.66902,41.08049],[-81.66912,41.07019],[-81.66409,41.07018],[-81.66579,41.07379],[-81.66076,41.07378],[-81.65949,41.07017],[-81.65589,41.07089],[-81.6559,41.07292],[-81.65275,41.07282],[-81.65007,41.07368],[-81.64875,41.07574],[-81.64775,41.07465],[-81.63184,41.06815],[-81.63014,41.06656],[-81.62704,41.06535],[-81.62341,41.06222],[-81.62065,41.06216],[-81.6188,41.05984],[-81.61539,41.05726],[-81.60896,41.05508],[-81.60204,41.05667],[-81.60254,41.05777],[-81.60765,41.05936],[-81.61249,41.06219],[-81.59438,41.06211],[-81.59577,41.0581],[-81.60026,41.04891],[-81.59773,41.04764],[-81.59102,41.04893],[-81.59111,41.04288],[-81.58925,41.04129],[-81.58224,41.04123],[-81.58179,41.03964],[-81.5775,41.03959],[-81.57835,41.0367],[-81.57657,41.03634],[-81.57681,41.02799],[-81.57425,41.02704],[-81.57049,41.02362],[-81.57235,41.02381],[-81.57327,41.0194],[-81.56745,41.01936],[-81.56747,41.01819],[-81.56379,41.01733],[-81.56377,41.01948],[-81.55728,41.01674],[-81.55616,41.0179],[-81.55596,41.01197],[-81.5547,41.0105],[-81.55524,41.00854],[-81.5598,41.00777],[-81.55879,41.00468],[-81.55823,40.99875],[-81.55873,40.99643],[-81.56544,40.99737],[-81.56545,40.99216],[-81.5699,40.99231],[-81.56986,40.98863],[-81.56662,40.98864],[-81.56563,40.98512],[-81.56058,40.98331],[-81.56146,40.98064],[-81.56734,40.97986],[-81.56501,40.97519],[-81.55574,40.97505],[-81.55195,40.97343],[-81.55689,40.97349],[-81.55693,40.97192],[-81.56179,40.97205],[-81.56172,40.97364],[-81.56473,40.97448],[-81.56714,40.97399],[-81.56739,40.97042],[-81.56619,40.96741],[-81.56705,40.96501],[-81.57198,40.96516],[-81.5816,40.96633],[-81.58155,40.96911],[-81.59474,40.97226],[-81.60076,40.97225],[-81.60064,40.97549],[-81.60736,40.97881],[-81.62079,40.97929],[-81.62097,40.98496],[-81.62467,40.98476],[-81.62469,40.98305],[-81.63229,40.98329],[-81.63278,40.98465],[-81.63526,40.98474],[-81.63481,40.98165],[-81.63783,40.97986],[-81.64125,40.98],[-81.64131,40.97816],[-81.64766,40.97915],[-81.64999,40.97961],[-81.65003,40.98138],[-81.65713,40.98168],[-81.65721,40.98585],[-81.66142,40.98597],[-81.66338,40.98857],[-81.6818,40.98857],[-81.68276,40.99392],[-81.68572,40.99342],[-81.68631,40.99594],[-81.68825,40.99911],[-81.68813,41.00577],[-81.69776,41.00618],[-81.70394,41.00779],[-81.70392,41.01063],[-81.69547,41.01542],[-81.69126,41.01602],[-81.68794,41.01546],[-81.69141,41.01849],[-81.69138,41.02333],[-81.68966,41.02329],[-81.6878,41.02566],[-81.68777,41.03448],[-81.67695,41.03441],[-81.67703,41.03547],[-81.68165,41.03886],[-81.68149,41.04016],[-81.68773,41.04169],[-81.68762,41.06215],[-81.67784,41.06214],[-81.67773,41.06613],[-81.68575,41.06628],[-81.68571,41.07251],[-81.67991,41.07236],[-81.67984,41.07382],[-81.67747,41.07385],[-81.67745,41.07747],[-81.67547,41.07747],[-81.67385,41.07925],[-81.66975,41.07925],[-81.67001,41.0805],[-81.66902,41.08049]]]}},{"type":"Feature","properties":{"zcta":"44685","d":571},"geometry":{"type":"Polygon","coordinates":[[[-81.49338,40.97423],[-81.4935,40.97166],[-81.48987,40.97148],[-81.48953,40.96798],[-81.48664,40.9673],[-81.48647,40.96919],[-81.48407,40.96922],[-81.48415,40.96702],[-81.47576,40.96684],[-81.47537,40.97212],[-81.4651,40.96353],[-81.46466,40.97376],[-81.46101,40.97366],[-81.44485,40.97511],[-81.44429,40.97311],[-81.43752,40.97291],[-81.43507,40.97237],[-81.43379,40.97614],[-81.42651,40.97616],[-81.42821,40.98011],[-81.43142,40.98342],[-81.43487,40.98324],[-81.4401,40.98445],[-81.44004,40.98568],[-81.44257,40.98575],[-81.4436,40.98838],[-81.43754,40.9884],[-81.44238,40.99301],[-81.43993,40.99403],[-81.43863,40.99625],[-81.43642,40.9968],[-81.43453,41.00028],[-81.43235,41.00182],[-81.42369,41.00128],[-81.41715,40.99943],[-81.41023,40.99906],[-81.40942,40.99712],[-81.39647,40.99764],[-81.39566,40.99906],[-81.3956,40.99765],[-81.39822,40.99389],[-81.3962,40.9939],[-81.3943,40.99177],[-81.39366,40.98691],[-81.38982,40.98808],[-81.38759,40.98487],[-81.38673,40.98136],[-81.38451,40.98089],[-81.38433,40.98394],[-81.38233,40.98397],[-81.38013,40.98548],[-81.38025,40.98244],[-81.37749,40.98183],[-81.37742,40.9839],[-81.37327,40.98385],[-81.37175,40.98294],[-81.36973,40.98373],[-81.36795,40.98218],[-81.36846,40.97268],[-81.35596,40.96993],[-81.35622,40.968],[-81.36372,40.96792],[-81.36451,40.96705],[-81.36301,40.96502],[-81.35937,40.96573],[-81.3594,40.9629],[-81.36251,40.96219],[-81.35659,40.96193],[-81.356,40.96132],[-81.35912,40.95859],[-81.35902,40.95756],[-81.35032,40.95513],[-81.35045,40.95299],[-81.34827,40.95215],[-81.34571,40.94759],[-81.34586,40.9439],[-81.35671,40.94376],[-81.35679,40.94158],[-81.36039,40.9417],[-81.36119,40.92479],[-81.36828,40.92465],[-81.36817,40.92093],[-81.36892,40.91819],[-81.3807,40.9207],[-81.3904,40.92303],[-81.39714,40.9265],[-81.40272,40.92749],[-81.40225,40.93781],[-81.41389,40.93812],[-81.41804,40.94032],[-81.4247,40.94087],[-81.42727,40.94332],[-81.43517,40.94355],[-81.43739,40.94487],[-81.43729,40.94652],[-81.43959,40.94659],[-81.43971,40.94429],[-81.44478,40.94387],[-81.45444,40.94419],[-81.45672,40.9447],[-81.45665,40.94606],[-81.46428,40.94634],[-81.46765,40.94739],[-81.46773,40.94532],[-81.46927,40.94529],[-81.46957,40.94096],[-81.46863,40.93908],[-81.47425,40.9401],[-81.48293,40.94039],[-81.48344,40.93875],[-81.48856,40.93922],[-81.49037,40.93801],[-81.49017,40.94013],[-81.49537,40.94027],[-81.49551,40.93861],[-81.50434,40.9406],[-81.51537,40.94113],[-81.51549,40.94393],[-81.51287,40.94668],[-81.51261,40.95092],[-81.51483,40.95349],[-81.51455,40.95996],[-81.51736,40.96006],[-81.51821,40.96245],[-81.51323,40.96264],[-81.51289,40.96976],[-81.5152,40.97036],[-81.52163,40.97616],[-81.5189,40.97652],[-81.51484,40.97544],[-81.49469,40.97481],[-81.49338,40.97423]]]}},{"type":"Feature","properties":{"zcta":"44201","d":58},"geometry":{"type":"Polygon","coordinates":[[[-81.26014,41.0571],[-81.26018,41.05506],[-81.25801,41.05505],[-81.25798,41.05674],[-81.2501,41.05664],[-81.24751,41.05728],[-81.24736,41.06105],[-81.24024,41.06294],[-81.23266,41.06272],[-81.2313,41.06378],[-81.22801,41.06374],[-81.22804,41.06776],[-81.22993,41.06783],[-81.23,41.07383],[-81.22907,41.07553],[-81.22851,41.08268],[-81.2209,41.08257],[-81.21015,41.07685],[-81.20526,41.0731],[-81.2053,41.06795],[-81.20138,41.067],[-81.20145,41.06335],[-81.19435,41.06329],[-81.19426,41.06758],[-81.192,41.07092],[-81.1925,41.07449],[-81.19008,41.07723],[-81.1847,41.07714],[-81.18474,41.07132],[-81.1746,41.07118],[-81.17465,41.07492],[-81.17002,41.07497],[-81.17001,41.07119],[-81.16007,41.07109],[-81.16008,41.07609],[-81.14902,41.07596],[-81.14951,41.07947],[-81.14428,41.08156],[-81.14284,41.08439],[-81.13967,41.08525],[-81.13955,41.0872],[-81.13805,41.08718],[-81.13801,41.08373],[-81.13003,41.08346],[-81.13003,41.0824],[-81.12546,41.08273],[-81.12206,41.08018],[-81.12202,41.07836],[-81.1195,41.07773],[-81.11953,41.07355],[-81.11827,41.07208],[-81.11444,41.07199],[-81.11438,41.06853],[-81.11022,41.06854],[-81.11022,41.06659],[-81.10699,41.0644],[-81.10463,41.06419],[-81.10466,41.06252],[-81.11107,41.06259],[-81.11097,41.04517],[-81.10868,41.04243],[-81.10931,41.03865],[-81.10596,41.03663],[-81.1069,41.03437],[-81.10217,41.03418],[-81.09861,41.0322],[-81.09868,41.02298],[-81.09273,41.02308],[-81.09289,41.01733],[-81.08415,41.01728],[-81.08419,41.01528],[-81.0891,41.01534],[-81.08893,41.0007],[-81.07924,41.00047],[-81.07938,40.99548],[-81.08091,40.99424],[-81.08728,40.99276],[-81.08626,40.98803],[-81.08635,40.98561],[-81.08925,40.98554],[-81.09212,40.98781],[-81.09583,40.98639],[-81.09826,40.98339],[-81.09825,40.98132],[-81.10137,40.98081],[-81.10161,40.97651],[-81.10336,40.97382],[-81.11045,40.97387],[-81.11041,40.9881],[-81.1443,40.98821],[-81.19568,40.98821],[-81.19577,40.98021],[-81.21233,40.98424],[-81.21214,40.98805],[-81.23852,40.98829],[-81.23839,40.99316],[-81.23942,40.99516],[-81.24485,40.99529],[-81.24481,40.99724],[-81.24699,40.99732],[-81.24798,40.99923],[-81.25084,40.9983],[-81.25087,40.99702],[-81.25551,40.99712],[-81.25454,40.99213],[-81.26624,40.99227],[-81.26745,40.98843],[-81.29446,40.9885],[-81.28972,40.99629],[-81.29162,40.99654],[-81.29127,41.0035],[-81.30254,41.00373],[-81.30214,41.02719],[-81.29467,41.02685],[-81.29402,41.02763],[-81.28355,41.02838],[-81.27823,41.02803],[-81.2781,41.03066],[-81.27558,41.03007],[-81.27518,41.03189],[-81.26927,41.03043],[-81.25928,41.02985],[-81.25722,41.03309],[-81.25653,41.04276],[-81.25951,41.04758],[-81.26245,41.05117],[-81.26869,41.05203],[-81.2638,41.05692],[-81.26014,41.0571]],[[-81.26501,41.01431],[-81.26519,41.01047],[-81.26641,41.00517],[-81.26753,41.00309],[-81.26029,41.00285],[-81.25034,41.00194],[-81.24911,41.00009],[-81.24844,41.02296],[-81.25193,41.0241],[-81.25813,41.02445],[-81.26148,41.02616],[-81.26156,41.02324],[-81.26393,41.02066],[-81.27203,41.02034],[-81.27421,41.01497],[-81.27327,41.01458],[-81.26501,41.01431]]]}}]}