{"type":"FeatureCollection","features":[{"type":"Feature","properties":{"id":"06037","name":"Los Angeles Co."},"geometry":{"type":"MultiPolygon","coordinates":[[[[-118.5859,33.4738],[-118.5803,33.4751],[-118.5704,33.4753],[-118.5445,33.4741],[-118.5386,33.477],[-118.5343,33.4735],[-118.5307,33.4681],[-118.5248,33.4664],[-118.5226,33.462],[-118.5105,33.4553],[-118.5028,33.4533],[-118.5002,33.4496],[-118.5003,33.4434],[-118.4974,33.442],[-118.4936,33.4426],[-118.4894,33.4453],[-118.4822,33.4483],[-118.4776,33.4484],[-118.4735,33.4429],[-118.4703,33.443],[-118.4546,33.434],[-118.4495,33.4327],[-118.4458,33.4289],[-118.4369,33.4286],[-118.4348,33.4268],[-118.4302,33.4283],[-118.4236,33.4273],[-118.4091,33.4212],[-118.4064,33.4216],[-118.3952,33.4162],[-118.391,33.418],[-118.382,33.4099],[-118.3772,33.4108],[-118.3703,33.4093],[-118.3683,33.4071],[-118.3673,33.4011],[-118.3702,33.396],[-118.3681,33.3895],[-118.3651,33.3884],[-118.3513,33.3739],[-118.3325,33.3582],[-118.3292,33.3515],[-118.3245,33.3488],[-118.3227,33.3447],[-118.3185,33.3427],[-118.3102,33.3348],[-118.3078,33.3235],[-118.3054,33.3209],[-118.3051,33.3103],[-118.3068,33.3084],[-118.312,33.3066],[-118.3168,33.3011],[-118.3252,33.2991],[-118.3432,33.3052],[-118.354,33.3131],[-118.3678,33.3173],[-118.3748,33.3201],[-118.3846,33.321],[-118.3931,33.3197],[-118.4085,33.3215],[-118.4243,33.3178],[-118.4364,33.3201],[-118.4411,33.3186],[-118.4563,33.3218],[-118.4654,33.3261],[-118.4741,33.3342],[-118.4829,33.3443],[-118.4875,33.3509],[-118.4896,33.3604],[-118.4872,33.3658],[-118.4826,33.3699],[-118.4858,33.3729],[-118.4811,33.3759],[-118.4825,33.3803],[-118.4753,33.3832],[-118.4765,33.3858],[-118.481,33.389],[-118.4822,33.3961],[-118.4856,33.4012],[-118.4875,33.4092],[-118.4849,33.4121],[-118.4877,33.4144],[-118.4887,33.4198],[-118.4951,33.4221],[-118.4982,33.4214],[-118.504,33.4242],[-118.5117,33.4297],[-118.5141,33.4235],[-118.5232,33.4307],[-118.5337,33.4292],[-118.5364,33.4307],[-118.5374,33.4346],[-118.5454,33.4342],[-118.5481,33.4356],[-118.5526,33.4356],[-118.5552,33.4334],[-118.5634,33.4344],[-118.5659,33.4375],[-118.5754,33.4402],[-118.5733,33.4436],[-118.5759,33.4483],[-118.5794,33.4493],[-118.5861,33.4562],[-118.5899,33.4615],[-118.5951,33.4652],[-118.594,33.4672],[-118.6012,33.4699],[-118.6072,33.4784],[-118.5988,33.4779],[-118.5859,33.4738]]],[[[-118.5989,33.0363],[-118.5958,33.0343],[-118.5939,33.0306],[-118.5867,33.0317],[-118.5799,33.0345],[-118.5739,33.0306],[-118.5684,33.025],[-118.5684,33.0202],[-118.5656,33.0148],[-118.5627,33.0068],[-118.5584,33.0068],[-118.5527,33.0028],[-118.5508,32.9967],[-118.5499,32.9895],[-118.543,32.9807],[-118.5362,32.9774],[-118.5342,32.9719],[-118.5245,32.9644],[-118.5192,32.9586],[-118.5183,32.9542],[-118.4995,32.9337],[-118.4883,32.9237],[-118.4709,32.9159],[-118.4636,32.9097],[-118.457,32.9009],[-118.4234,32.8758],[-118.3973,32.8574],[-118.3866,32.8482],[-118.3735,32.839],[-118.3542,32.8209],[-118.3609,32.8171],[-118.3676,32.8209],[-118.3778,32.8225],[-118.383,32.8249],[-118.3918,32.8263],[-118.4009,32.8239],[-118.4061,32.8211],[-118.4087,32.8131],[-118.4227,32.8093],[-118.4272,32.8067],[-118.4318,32.8015],[-118.4362,32.8114],[-118.4394,32.8157],[-118.444,32.8167],[-118.4509,32.8221],[-118.4547,32.821],[-118.462,32.8281],[-118.468,32.8322],[-118.4754,32.8351],[-118.4777,32.8404],[-118.4899,32.8437],[-118.4954,32.8461],[-118.4959,32.8498],[-118.4999,32.8518],[-118.5062,32.853],[-118.5051,32.8571],[-118.5075,32.8635],[-118.5131,32.869],[-118.5138,32.8733],[-118.5123,32.8792],[-118.525,32.8865],[-118.5305,32.895],[-118.5358,32.9063],[-118.5421,32.9068],[-118.5471,32.9119],[-118.5456,32.9151],[-118.5468,32.9184],[-118.552,32.9193],[-118.5496,32.9242],[-118.5515,32.9306],[-118.5555,32.9343],[-118.5564,32.947],[-118.5613,32.9518],[-118.5644,32.9585],[-118.5741,32.9649],[-118.5804,32.9743],[-118.5823,32.9826],[-118.5819,32.9877],[-118.5847,32.9899],[-118.5902,33.0056],[-118.5934,33.0124],[-118.5975,33.0132],[-118.6015,33.017],[-118.607,33.0151],[-118.6103,33.0158],[-118.6105,33.0329],[-118.5989,33.0363]]],[[[-117.7919,33.9466],[-117.852,33.9469],[-117.872,33.9457],[-117.9119,33.9461],[-117.9196,33.9476],[-117.9197,33.9461],[-117.9765,33.9461],[-117.9766,33.9028],[-117.9854,33.9026],[-117.9853,33.8956],[-117.9941,33.8955],[-117.9941,33.8882],[-118.0029,33.8882],[-118.0028,33.8809],[-118.0115,33.8808],[-118.0114,33.8734],[-118.0288,33.8733],[-118.0287,33.8662],[-118.0376,33.866],[-118.0375,33.8624],[-118.0419,33.8623],[-118.0419,33.8587],[-118.0462,33.8587],[-118.0461,33.8536],[-118.0502,33.8536],[-118.0504,33.85],[-118.0547,33.8498],[-118.0547,33.8462],[-118.059,33.8462],[-118.059,33.8352],[-118.0633,33.8315],[-118.0632,33.8197],[-118.0728,33.8149],[-118.0847,33.8029],[-118.0862,33.7969],[-118.0933,33.7857],[-118.0967,33.7791],[-118.0971,33.7737],[-118.0923,33.7645],[-118.092,33.7585],[-118.1058,33.7507],[-118.113,33.7471],[-118.1154,33.7433],[-118.1327,33.7532],[-118.1507,33.76],[-118.1686,33.7635],[-118.1808,33.7651],[-118.1827,33.7627],[-118.1802,33.7595],[-118.1905,33.7558],[-118.1885,33.7514],[-118.1902,33.7495],[-118.1853,33.736],[-118.1857,33.733],[-118.1958,33.7329],[-118.2148,33.7454],[-118.2309,33.7406],[-118.2428,33.7434],[-118.2436,33.7422],[-118.2378,33.7289],[-118.2387,33.7274],[-118.2511,33.7242],[-118.2516,33.7227],[-118.246,33.7166],[-118.2471,33.7152],[-118.2573,33.7166],[-118.2616,33.7222],[-118.2678,33.7221],[-118.2742,33.7192],[-118.2728,33.7158],[-118.2753,33.7149],[-118.2792,33.7185],[-118.2837,33.716],[-118.2825,33.7116],[-118.2777,33.7088],[-118.2782,33.7077],[-118.2839,33.7089],[-118.2882,33.706],[-118.2941,33.7051],[-118.2958,33.7086],[-118.3144,33.7149],[-118.317,33.7143],[-118.3204,33.7172],[-118.3426,33.726],[-118.3514,33.7273],[-118.3547,33.7323],[-118.3605,33.7368],[-118.3679,33.7381],[-118.3687,33.7363],[-118.3724,33.7386],[-118.3737,33.7373],[-118.3765,33.7404],[-118.3817,33.7424],[-118.3853,33.7421],[-118.3894,33.7397],[-118.3923,33.7396],[-118.397,33.7365],[-118.3993,33.7366],[-118.4029,33.7407],[-118.4105,33.741],[-118.4133,33.7473],[-118.4125,33.7492],[-118.4179,33.7626],[-118.4219,33.7634],[-118.4217,33.7659],[-118.4245,33.7672],[-118.4217,33.7689],[-118.4238,33.7725],[-118.4282,33.7743],[-118.4244,33.7778],[-118.4234,33.782],[-118.4175,33.787],[-118.407,33.7915],[-118.4074,33.7973],[-118.4054,33.7997],[-118.394,33.8042],[-118.3917,33.811],[-118.3901,33.8204],[-118.3902,33.8362],[-118.392,33.8387],[-118.3997,33.8435],[-118.4018,33.848],[-118.3995,33.8505],[-118.3992,33.8551],[-118.4116,33.8835],[-118.4412,33.9403],[-118.4514,33.9591],[-118.4822,33.9956],[-118.5033,34.0172],[-118.5244,34.0307],[-118.5438,34.039],[-118.5504,34.0395],[-118.5557,34.0381],[-118.566,34.0416],[-118.5715,34.0417],[-118.5758,34.0399],[-118.5837,34.0381],[-118.5928,34.0399],[-118.6036,34.039],[-118.6097,34.0364],[-118.6241,34.0379],[-118.6357,34.0363],[-118.6471,34.0384],[-118.649,34.0376],[-118.663,34.0391],[-118.671,34.0388],[-118.6782,34.0359],[-118.6803,34.0321],[-118.6831,34.0308],[-118.6949,34.0328],[-118.7067,34.0297],[-118.7145,34.0315],[-118.7191,34.0314],[-118.735,34.0333],[-118.7424,34.0329],[-118.7523,34.0301],[-118.7564,34.0257],[-118.7677,34.0252],[-118.7812,34.0226],[-118.7854,34.0211],[-118.79,34.0171],[-118.7954,34.007],[-118.803,34.0056],[-118.8066,34.0004],[-118.8127,34.0069],[-118.8215,34.015],[-118.8397,34.0279],[-118.8549,34.0349],[-118.8619,34.0349],[-118.8759,34.0382],[-118.8955,34.0394],[-118.9034,34.0419],[-118.9151,34.0417],[-118.9244,34.046],[-118.9326,34.0456],[-118.9363,34.0436],[-118.9446,34.0458],[-118.941,34.0748],[-118.8565,34.1268],[-118.7889,34.1682],[-118.7234,34.1679],[-118.712,34.1686],[-118.6682,34.1682],[-118.6681,34.195],[-118.6678,34.2058],[-118.6677,34.2403],[-118.6325,34.2404],[-118.6325,34.2634],[-118.6368,34.2918],[-118.6914,34.403],[-118.742,34.5058],[-118.7967,34.6166],[-118.8209,34.6659],[-118.8946,34.818],[-118.8804,34.8178],[-118.8842,34.8134],[-118.8819,34.8077],[-118.8767,34.8032],[-118.8541,34.8033],[-118.854,34.8177],[-118.8366,34.8175],[-118.6909,34.8181],[-118.5876,34.8183],[-118.547,34.8184],[-118.3263,34.8197],[-118.2905,34.8201],[-118.22,34.8201],[-118.1702,34.8205],[-118.0234,34.8222],[-117.9167,34.8226],[-117.7744,34.8233],[-117.6675,34.8225],[-117.6671,34.6902],[-117.6671,34.5579],[-117.6604,34.5579],[-117.6597,34.4516],[-117.6464,34.2892],[-117.6785,34.162],[-117.6817,34.1558],[-117.6868,34.1381],[-117.7044,34.0953],[-117.7167,34.0669],[-117.7274,34.0374],[-117.7301,34.0214],[-117.7358,34.0186],[-117.7677,34.0235],[-117.767,34.0112],[-117.7675,34.0047],[-117.7852,34.0046],[-117.8025,33.9756],[-117.8024,33.9683],[-117.7937,33.9681],[-117.7936,33.9538],[-117.7833,33.9463],[-117.7919,33.9466]]]]}},{"type":"Feature","properties":{"id":"06059","name":"Orange Co."},"geometry":{"type":"Polygon","coordinates":[[[-117.7481,33.9214],[-117.7325,33.9114],[-117.7325,33.9103],[-117.6793,33.8776],[-117.6716,33.8694],[-117.6751,33.8687],[-117.6743,33.858],[-117.6621,33.8575],[-117.6366,33.83],[-117.6073,33.7974],[-117.5808,33.7695],[-117.5801,33.768],[-117.5692,33.7646],[-117.5364,33.7577],[-117.5358,33.75],[-117.535,33.7275],[-117.534,33.7104],[-117.4976,33.7056],[-117.4746,33.7038],[-117.4598,33.6917],[-117.424,33.667],[-117.4133,33.6593],[-117.4139,33.6577],[-117.4579,33.6022],[-117.4613,33.5974],[-117.4967,33.5526],[-117.5012,33.5458],[-117.5102,33.534],[-117.5099,33.5205],[-117.5032,33.5204],[-117.5038,33.5089],[-117.5097,33.5091],[-117.5095,33.484],[-117.5096,33.4716],[-117.5086,33.4696],[-117.515,33.4677],[-117.5384,33.4556],[-117.558,33.4516],[-117.5785,33.4539],[-117.596,33.3878],[-117.6003,33.3972],[-117.6125,33.4115],[-117.6222,33.422],[-117.6273,33.4259],[-117.6315,33.4306],[-117.6426,33.4392],[-117.6456,33.4407],[-117.6581,33.4496],[-117.6636,33.452],[-117.6734,33.4581],[-117.681,33.4618],[-117.6894,33.4617],[-117.6914,33.454],[-117.6947,33.4556],[-117.7047,33.4579],[-117.7071,33.4603],[-117.7146,33.4599],[-117.7151,33.4645],[-117.7265,33.4834],[-117.7337,33.4852],[-117.7353,33.4891],[-117.7378,33.4895],[-117.7396,33.4956],[-117.7469,33.5031],[-117.7551,33.5128],[-117.7601,33.5148],[-117.7664,33.5235],[-117.7765,33.5318],[-117.7843,33.5418],[-117.7926,33.5437],[-117.7956,33.5455],[-117.8042,33.5468],[-117.8075,33.551],[-117.8114,33.5523],[-117.8135,33.5512],[-117.8198,33.5547],[-117.8192,33.5579],[-117.8264,33.5636],[-117.8328,33.566],[-117.8401,33.5739],[-117.8536,33.5801],[-117.8643,33.5859],[-117.8734,33.5929],[-117.8871,33.5961],[-117.9025,33.6016],[-117.928,33.6072],[-117.9406,33.62],[-118.0006,33.6543],[-118.029,33.677],[-118.0363,33.6837],[-118.0533,33.7013],[-118.0644,33.7113],[-118.0889,33.7312],[-118.1154,33.7433],[-118.113,33.7471],[-118.1058,33.7507],[-118.092,33.7585],[-118.0923,33.7645],[-118.0971,33.7737],[-118.0967,33.7791],[-118.0933,33.7857],[-118.0862,33.7969],[-118.0847,33.8029],[-118.0728,33.8149],[-118.0632,33.8197],[-118.0633,33.8315],[-118.059,33.8352],[-118.059,33.8462],[-118.0547,33.8462],[-118.0547,33.8498],[-118.0504,33.85],[-118.0502,33.8536],[-118.0461,33.8536],[-118.0462,33.8587],[-118.0419,33.8587],[-118.0419,33.8623],[-118.0375,33.8624],[-118.0376,33.866],[-118.0287,33.8662],[-118.0288,33.8733],[-118.0114,33.8734],[-118.0115,33.8808],[-118.0028,33.8809],[-118.0029,33.8882],[-117.9941,33.8882],[-117.9941,33.8955],[-117.9853,33.8956],[-117.9854,33.9026],[-117.9766,33.9028],[-117.9765,33.9461],[-117.9197,33.9461],[-117.9196,33.9476],[-117.9119,33.9461],[-117.872,33.9457],[-117.852,33.9469],[-117.7919,33.9466],[-117.7833,33.9463],[-117.7481,33.9214]]]}}]}