{"type":"FeatureCollection","features":[{"type":"Feature","properties":{"id":"45015","name":"Berkeley Co."},"geometry":{"type":"Polygon","coordinates":[[[-79.4503,33.2073],[-79.4548,33.2101],[-79.4624,33.2075],[-79.4666,33.2092],[-79.4686,33.207],[-79.471,33.2104],[-79.4773,33.2089],[-79.478,33.203],[-79.4837,33.2038],[-79.4826,33.1984],[-79.4861,33.195],[-79.4864,33.1924],[-79.4928,33.1918],[-79.4929,33.1879],[-79.4966,33.1851],[-79.4962,33.1798],[-79.4991,33.1778],[-79.5045,33.1771],[-79.5035,33.1742],[-79.5084,33.1679],[-79.513,33.1662],[-79.5135,33.1605],[-79.512,33.1581],[-79.5182,33.1491],[-79.525,33.1459],[-79.5308,33.1457],[-79.534,33.144],[-79.5441,33.15],[-79.5453,33.1526],[-79.55,33.1556],[-79.5605,33.1564],[-79.5714,33.1499],[-79.5863,33.1469],[-79.5896,33.1448],[-79.5955,33.1434],[-79.5971,33.1418],[-79.5999,33.134],[-79.6091,33.1331],[-79.6125,33.1383],[-79.6209,33.136],[-79.6227,33.1328],[-79.628,33.1289],[-79.6343,33.129],[-79.6423,33.1244],[-79.6469,33.1179],[-79.6477,33.1116],[-79.6555,33.1008],[-79.6605,33.0908],[-79.6747,33.0805],[-79.6798,33.0739],[-79.6865,33.0669],[-79.6918,33.0601],[-79.6987,33.055],[-79.7008,33.0486],[-79.703,33.0459],[-79.7123,33.0422],[-79.7164,33.0386],[-79.7216,33.031],[-79.729,33.0141],[-79.7303,33.0126],[-79.743,33.0054],[-79.7489,33.0],[-79.7534,32.9975],[-79.7621,32.9891],[-79.7685,32.9755],[-79.7693,32.9685],[-79.7659,32.9641],[-79.7634,32.9563],[-79.7656,32.9562],[-79.7689,32.9518],[-79.7716,32.9418],[-79.7747,32.9416],[-79.7789,32.9437],[-79.7847,32.9424],[-79.7978,32.9343],[-79.8039,32.9287],[-79.8124,32.928],[-79.8149,32.927],[-79.8185,32.9225],[-79.8258,32.9183],[-79.8371,32.9182],[-79.8406,32.9127],[-79.8412,32.9094],[-79.8396,32.9046],[-79.8419,32.8968],[-79.8462,32.8877],[-79.853,32.8761],[-79.8591,32.871],[-79.8738,32.8675],[-79.8854,32.8658],[-79.8962,32.86],[-79.8985,32.8552],[-79.8952,32.8431],[-79.8963,32.8312],[-79.9019,32.8252],[-79.9083,32.8225],[-79.9113,32.8193],[-79.9192,32.819],[-79.9283,32.824],[-79.9304,32.8264],[-79.9316,32.8339],[-79.9298,32.8459],[-79.9314,32.8498],[-79.9342,32.8522],[-79.9434,32.8558],[-79.954,32.8579],[-79.9595,32.8636],[-79.964,32.8744],[-79.9648,32.8828],[-79.9627,32.891],[-79.9594,32.897],[-79.9474,32.9077],[-79.9511,32.9102],[-79.9908,32.9033],[-80.0118,32.8999],[-80.0367,32.9459],[-80.0415,32.955],[-80.0426,32.9603],[-80.0401,32.9827],[-80.0458,32.985],[-80.0489,32.99],[-80.0506,32.9905],[-80.056,32.9994],[-80.0604,32.9978],[-80.084,32.9933],[-80.0982,32.9881],[-80.1051,32.9925],[-80.1024,32.9955],[-80.1049,32.996],[-80.1027,33.0013],[-80.108,32.9998],[-80.1081,33.0016],[-80.1134,32.9981],[-80.1492,33.0216],[-80.1643,33.0323],[-80.3359,33.1455],[-80.3211,33.1534],[-80.3176,33.157],[-80.313,33.1592],[-80.311,33.1584],[-80.3074,33.1653],[-80.3031,33.1697],[-80.3018,33.1742],[-80.297,33.178],[-80.2976,33.1818],[-80.3027,33.1854],[-80.3085,33.1878],[-80.3088,33.1904],[-80.316,33.1932],[-80.3247,33.1985],[-80.3308,33.1984],[-80.3365,33.2154],[-80.3349,33.223],[-80.3375,33.2283],[-80.3433,33.2316],[-80.3469,33.2361],[-80.3487,33.2419],[-80.3472,33.2452],[-80.3484,33.2489],[-80.3519,33.2496],[-80.3583,33.2555],[-80.3619,33.2574],[-80.3613,33.2631],[-80.3591,33.272],[-80.3544,33.2768],[-80.3446,33.2778],[-80.3377,33.2759],[-80.3301,33.2722],[-80.3223,33.2661],[-80.3172,33.2641],[-80.3116,33.2646],[-80.3019,33.2675],[-80.2945,33.2713],[-80.2893,33.2791],[-80.2785,33.2826],[-80.2726,33.2857],[-80.2702,33.2904],[-80.2635,33.2923],[-80.2556,33.3],[-80.2538,33.2993],[-80.252,33.3103],[-80.2521,33.3213],[-80.2473,33.3287],[-80.2479,33.3382],[-80.2396,33.3522],[-80.2391,33.3628],[-80.2405,33.3665],[-80.2403,33.3726],[-80.2418,33.3761],[-80.2416,33.3831],[-80.2385,33.3912],[-80.2324,33.3841],[-80.2302,33.3841],[-80.2299,33.3916],[-80.2226,33.3913],[-80.2219,33.4045],[-80.2252,33.4093],[-80.2238,33.415],[-80.2247,33.4255],[-80.2215,33.4346],[-80.2224,33.4478],[-80.219,33.4477],[-80.2141,33.4443],[-80.204,33.4419],[-80.2037,33.444],[-80.2069,33.4469],[-80.2087,33.4513],[-80.2073,33.4526],[-80.2005,33.4529],[-80.1972,33.4505],[-80.2001,33.4458],[-80.1998,33.4439],[-80.1953,33.4447],[-80.19,33.4491],[-80.1858,33.4504],[-80.1835,33.4479],[-80.1812,33.4499],[-80.1831,33.4525],[-80.181,33.4546],[-80.1772,33.4531],[-80.1757,33.4486],[-80.1706,33.4497],[-80.1651,33.4556],[-80.1648,33.459],[-80.1627,33.4607],[-80.1593,33.4583],[-80.1587,33.4551],[-80.1615,33.4489],[-80.154,33.4479],[-80.1483,33.4499],[-80.1486,33.4552],[-80.1519,33.4569],[-80.1507,33.4603],[-80.1442,33.4583],[-80.142,33.4547],[-80.1379,33.4555],[-80.1397,33.4604],[-80.1434,33.461],[-80.1442,33.4641],[-80.1387,33.4651],[-80.1351,33.4611],[-80.1318,33.4634],[-80.135,33.4667],[-80.1423,33.4701],[-80.1444,33.4727],[-80.1482,33.474],[-80.152,33.4786],[-80.1508,33.483],[-80.1521,33.4854],[-80.1492,33.4868],[-80.1453,33.4846],[-80.1365,33.4882],[-80.1348,33.4922],[-80.1273,33.4933],[-80.126,33.4951],[-80.1276,33.5002],[-80.1255,33.5024],[-80.1131,33.4988],[-80.1057,33.4993],[-80.1044,33.4971],[-80.1,33.4974],[-80.0959,33.4996],[-80.0967,33.4958],[-80.0938,33.4965],[-80.0938,33.503],[-80.0915,33.5032],[-80.0871,33.5002],[-80.0847,33.5],[-80.0822,33.5057],[-80.0799,33.5069],[-80.0735,33.5072],[-80.0646,33.5057],[-80.0534,33.5057],[-80.0487,33.5064],[-80.0425,33.5009],[-80.04,33.5017],[-80.0366,33.5068],[-80.0333,33.5057],[-80.0329,33.5017],[-80.0294,33.5015],[-80.0275,33.5047],[-80.0239,33.5063],[-80.0206,33.5022],[-80.0213,33.4992],[-80.0186,33.4983],[-80.0154,33.504],[-80.0121,33.5052],[-80.0054,33.5025],[-80.0036,33.5002],[-80.0044,33.4957],[-80.0001,33.4948],[-79.9971,33.5005],[-80.0003,33.5043],[-79.9962,33.5068],[-79.9919,33.5046],[-79.9898,33.4983],[-79.9863,33.4979],[-79.9822,33.4997],[-79.9755,33.4976],[-79.972,33.5009],[-79.9646,33.4986],[-79.9609,33.4944],[-79.9529,33.4914],[-79.9516,33.4869],[-79.9438,33.483],[-79.9412,33.4808],[-79.9411,33.4767],[-79.9384,33.4759],[-79.9348,33.4777],[-79.9303,33.4722],[-79.9204,33.4656],[-79.9154,33.4642],[-79.9102,33.4557],[-79.9021,33.4553],[-79.9031,33.4504],[-79.9014,33.4501],[-79.8996,33.4545],[-79.8941,33.4537],[-79.89,33.4486],[-79.8846,33.4464],[-79.8802,33.4428],[-79.8785,33.4379],[-79.8763,33.4353],[-79.8682,33.4345],[-79.867,33.4323],[-79.8685,33.4293],[-79.8716,33.4279],[-79.8776,33.4285],[-79.8775,33.4244],[-79.8716,33.4239],[-79.8678,33.4199],[-79.8635,33.4192],[-79.8602,33.4151],[-79.8608,33.4085],[-79.855,33.4063],[-79.8548,33.4029],[-79.8513,33.4013],[-79.8454,33.4006],[-79.8402,33.398],[-79.8381,33.3923],[-79.8247,33.3866],[-79.8191,33.3851],[-79.8139,33.3823],[-79.8096,33.3751],[-79.807,33.3726],[-79.8025,33.3722],[-79.798,33.3744],[-79.7964,33.3776],[-79.794,33.3777],[-79.7904,33.3732],[-79.7861,33.376],[-79.7838,33.3752],[-79.7864,33.372],[-79.7816,33.3682],[-79.7817,33.364],[-79.7776,33.3609],[-79.7785,33.3591],[-79.7718,33.3562],[-79.7679,33.3497],[-79.7679,33.3446],[-79.7614,33.3422],[-79.7615,33.3356],[-79.7544,33.3345],[-79.7564,33.3302],[-79.7498,33.3304],[-79.7442,33.3274],[-79.7412,33.3223],[-79.7321,33.32],[-79.7268,33.3221],[-79.7192,33.3186],[-79.7096,33.3212],[-79.7063,33.3183],[-79.6993,33.3176],[-79.6954,33.314],[-79.6815,33.3065],[-79.6688,33.3015],[-79.6643,33.2983],[-79.6596,33.2972],[-79.6476,33.2962],[-79.631,33.2929],[-79.6196,33.2889],[-79.6126,33.2851],[-79.6066,33.2793],[-79.5955,33.2793],[-79.5778,33.2748],[-79.5623,33.2725],[-79.5577,33.2686],[-79.5578,33.2662],[-79.561,33.2623],[-79.5598,33.2605],[-79.5556,33.2614],[-79.5498,33.265],[-79.5466,33.256],[-79.5443,33.2543],[-79.537,33.2529],[-79.5354,33.2496],[-79.5233,33.2459],[-79.5165,33.2456],[-79.5101,33.2435],[-79.494,33.236],[-79.489,33.2368],[-79.4852,33.2405],[-79.4826,33.2459],[-79.4793,33.2461],[-79.4781,33.2433],[-79.4834,33.2369],[-79.4807,33.2346],[-79.4725,33.2391],[-79.469,33.2365],[-79.4744,33.2321],[-79.4739,33.2298],[-79.4658,33.2315],[-79.4587,33.2352],[-79.4576,33.2327],[-79.462,33.2294],[-79.4557,33.2292],[-79.4517,33.2254],[-79.4521,33.2227],[-79.4554,33.2196],[-79.4529,33.2161],[-79.4467,33.2135],[-79.4503,33.2073]]]}},{"type":"Feature","properties":{"id":"45019","name":"Charleston Co."},"geometry":{"type":"MultiPolygon","coordinates":[[[[-79.5031,33.0176],[-79.5081,33.0196],[-79.5024,33.0206],[-79.5031,33.0176]]],[[[-79.5487,32.993],[-79.5452,32.9907],[-79.5522,32.9888],[-79.5536,32.9904],[-79.5487,32.993]]],[[[-80.178,32.5497],[-80.1787,32.5472],[-80.182,32.5472],[-80.1859,32.5509],[-80.1845,32.5536],[-80.178,32.5497]]],[[[-80.3119,32.8515],[-80.3028,32.852],[-80.2996,32.8514],[-80.2764,32.8436],[-80.1577,32.8182],[-80.1493,32.8182],[-80.1533,32.8253],[-80.1569,32.8267],[-80.1586,32.8301],[-80.1576,32.8321],[-80.1617,32.841],[-80.1753,32.8458],[-80.1837,32.8471],[-80.1835,32.8492],[-80.1869,32.852],[-80.1857,32.8608],[-80.1767,32.8671],[-80.1713,32.863],[-80.1635,32.8545],[-80.1613,32.8559],[-80.1549,32.8651],[-80.1622,32.8746],[-80.1497,32.8789],[-80.1448,32.8876],[-80.1366,32.8877],[-80.1377,32.8837],[-80.1254,32.8896],[-80.1231,32.8974],[-80.1228,32.9018],[-80.1182,32.9011],[-80.1174,32.8977],[-80.1195,32.8936],[-80.1124,32.8917],[-80.1055,32.8934],[-80.0994,32.8912],[-80.0977,32.887],[-80.0798,32.9282],[-80.1356,32.9755],[-80.1409,32.9796],[-80.1392,32.9818],[-80.1306,32.979],[-80.1254,32.9823],[-80.1105,32.9855],[-80.1355,32.9989],[-80.1437,32.9857],[-80.146,32.9844],[-80.1676,33.0027],[-80.1626,33.0105],[-80.1664,33.0127],[-80.1695,33.0089],[-80.1675,33.0076],[-80.17,33.0043],[-80.1762,33.01],[-80.1698,33.0154],[-80.1645,33.0128],[-80.1602,33.0176],[-80.1635,33.0194],[-80.1607,33.0208],[-80.154,33.0181],[-80.1492,33.0216],[-80.1134,32.9981],[-80.1081,33.0016],[-80.108,32.9998],[-80.1027,33.0013],[-80.1049,32.996],[-80.1024,32.9955],[-80.1051,32.9925],[-80.0982,32.9881],[-80.084,32.9933],[-80.0604,32.9978],[-80.056,32.9994],[-80.0506,32.9905],[-80.0489,32.99],[-80.0458,32.985],[-80.0401,32.9827],[-80.0426,32.9603],[-80.0415,32.955],[-80.0367,32.9459],[-80.0118,32.8999],[-79.9908,32.9033],[-79.9511,32.9102],[-79.9474,32.9077],[-79.9594,32.897],[-79.9627,32.891],[-79.9648,32.8828],[-79.964,32.8744],[-79.9595,32.8636],[-79.954,32.8579],[-79.9434,32.8558],[-79.9342,32.8522],[-79.9314,32.8498],[-79.9298,32.8459],[-79.9316,32.8339],[-79.9304,32.8264],[-79.9283,32.824],[-79.9192,32.819],[-79.9113,32.8193],[-79.9083,32.8225],[-79.9019,32.8252],[-79.8963,32.8312],[-79.8952,32.8431],[-79.8985,32.8552],[-79.8962,32.86],[-79.8854,32.8658],[-79.8738,32.8675],[-79.8591,32.871],[-79.853,32.8761],[-79.8462,32.8877],[-79.8419,32.8968],[-79.8396,32.9046],[-79.8412,32.9094],[-79.8406,32.9127],[-79.8371,32.9182],[-79.8258,32.9183],[-79.8185,32.9225],[-79.8149,32.927],[-79.8124,32.928],[-79.8039,32.9287],[-79.7978,32.9343],[-79.7847,32.9424],[-79.7789,32.9437],[-79.7747,32.9416],[-79.7716,32.9418],[-79.7689,32.9518],[-79.7656,32.9562],[-79.7634,32.9563],[-79.7659,32.9641],[-79.7693,32.9685],[-79.7685,32.9755],[-79.7621,32.9891],[-79.7534,32.9975],[-79.7489,33.0],[-79.743,33.0054],[-79.7303,33.0126],[-79.729,33.0141],[-79.7216,33.031],[-79.7164,33.0386],[-79.7123,33.0422],[-79.703,33.0459],[-79.7008,33.0486],[-79.6987,33.055],[-79.6918,33.0601],[-79.6865,33.0669],[-79.6798,33.0739],[-79.6747,33.0805],[-79.6605,33.0908],[-79.6555,33.1008],[-79.6477,33.1116],[-79.6469,33.1179],[-79.6423,33.1244],[-79.6343,33.129],[-79.628,33.1289],[-79.6227,33.1328],[-79.6209,33.136],[-79.6125,33.1383],[-79.6091,33.1331],[-79.5999,33.134],[-79.5971,33.1418],[-79.5955,33.1434],[-79.5896,33.1448],[-79.5863,33.1469],[-79.5714,33.1499],[-79.5605,33.1564],[-79.55,33.1556],[-79.5453,33.1526],[-79.5441,33.15],[-79.534,33.144],[-79.5308,33.1457],[-79.525,33.1459],[-79.5182,33.1491],[-79.512,33.1581],[-79.5135,33.1605],[-79.513,33.1662],[-79.5084,33.1679],[-79.5035,33.1742],[-79.5045,33.1771],[-79.4991,33.1778],[-79.4962,33.1798],[-79.4966,33.1851],[-79.4929,33.1879],[-79.4928,33.1918],[-79.4864,33.1924],[-79.4861,33.195],[-79.4826,33.1984],[-79.4837,33.2038],[-79.478,33.203],[-79.4773,33.2089],[-79.471,33.2104],[-79.4686,33.207],[-79.4666,33.2092],[-79.4624,33.2075],[-79.4548,33.2101],[-79.4503,33.2073],[-79.4467,33.2135],[-79.4377,33.2152],[-79.432,33.2111],[-79.4275,33.2098],[-79.4261,33.2057],[-79.423,33.2028],[-79.4143,33.199],[-79.4117,33.1959],[-79.4083,33.1883],[-79.404,33.1838],[-79.3944,33.178],[-79.3834,33.1752],[-79.3737,33.1665],[-79.3669,33.1623],[-79.3604,33.1605],[-79.3541,33.1553],[-79.3496,33.1533],[-79.3416,33.154],[-79.3321,33.1527],[-79.3255,33.1504],[-79.318,33.1467],[-79.3106,33.1454],[-79.2978,33.1456],[-79.2912,33.1466],[-79.2799,33.1433],[-79.2724,33.1397],[-79.2688,33.136],[-79.2684,33.1303],[-79.2756,33.1168],[-79.3059,33.1032],[-79.3161,33.0992],[-79.3234,33.0926],[-79.3282,33.0904],[-79.3302,33.0866],[-79.3415,33.0538],[-79.3512,33.0352],[-79.3598,33.0197],[-79.3623,33.0091],[-79.3736,33.0087],[-79.38,33.0094],[-79.4165,33.0068],[-79.4231,33.0102],[-79.4215,33.0112],[-79.4116,33.0103],[-79.4011,33.0112],[-79.4006,33.0175],[-79.4044,33.0196],[-79.4073,33.0144],[-79.4164,33.0161],[-79.4528,33.0127],[-79.4706,33.0101],[-79.4747,33.0114],[-79.4833,33.0098],[-79.4893,33.014],[-79.4887,33.0158],[-79.5041,33.0274],[-79.5069,33.0328],[-79.5224,33.0354],[-79.5252,33.0373],[-79.5321,33.0352],[-79.5321,33.0315],[-79.535,33.0285],[-79.5413,33.026],[-79.5453,33.0265],[-79.5576,33.0213],[-79.5662,33.0153],[-79.5711,33.0138],[-79.576,33.0092],[-79.5807,33.0064],[-79.5833,33.0004],[-79.5837,32.9962],[-79.5866,32.9913],[-79.5928,32.9852],[-79.601,32.9793],[-79.6066,32.9722],[-79.6062,32.9656],[-79.6176,32.9527],[-79.6177,32.9449],[-79.6129,32.9348],[-79.6075,32.9262],[-79.5898,32.9245],[-79.5859,32.9265],[-79.5857,32.9296],[-79.5801,32.9309],[-79.5758,32.9338],[-79.5741,32.9325],[-79.5734,32.9279],[-79.5746,32.9211],[-79.5781,32.9104],[-79.5811,32.9064],[-79.6311,32.8886],[-79.6418,32.8812],[-79.6467,32.8761],[-79.6559,32.8759],[-79.6812,32.8617],[-79.6934,32.8528],[-79.6981,32.8513],[-79.6993,32.8439],[-79.7038,32.836],[-79.7101,32.8334],[-79.7199,32.8258],[-79.7181,32.817],[-79.7207,32.8112],[-79.7264,32.806],[-79.7366,32.8016],[-79.7565,32.7966],[-79.7876,32.7845],[-79.805,32.7751],[-79.814,32.7748],[-79.8145,32.7704],[-79.8182,32.7664],[-79.824,32.7627],[-79.8488,32.7536],[-79.8547,32.7549],[-79.8627,32.7615],[-79.8664,32.766],[-79.8634,32.771],[-79.8654,32.7749],[-79.8706,32.7783],[-79.878,32.7857],[-79.886,32.7879],[-79.9,32.7853],[-79.9061,32.7848],[-79.9232,32.7818],[-79.9244,32.775],[-79.9274,32.7725],[-79.9288,32.7691],[-79.9285,32.7542],[-79.9232,32.753],[-79.918,32.7544],[-79.9089,32.7516],[-79.9011,32.751],[-79.8991,32.7533],[-79.8963,32.7495],[-79.8909,32.751],[-79.8791,32.7508],[-79.8709,32.7424],[-79.8694,32.7336],[-79.8701,32.73],[-79.8801,32.716],[-79.8871,32.7019],[-79.888,32.6952],[-79.888,32.6876],[-79.8856,32.6849],[-79.8871,32.683],[-79.9157,32.6649],[-79.958,32.6462],[-79.97,32.6405],[-79.9743,32.641],[-79.98,32.6324],[-79.9869,32.6264],[-79.9922,32.611],[-80.0008,32.6059],[-80.006,32.606],[-80.0105,32.6089],[-80.017,32.6104],[-80.0373,32.6102],[-80.077,32.6033],[-80.0981,32.5983],[-80.1214,32.5905],[-80.1399,32.5803],[-80.1454,32.5781],[-80.1557,32.572],[-80.1637,32.5618],[-80.1666,32.5602],[-80.176,32.5592],[-80.1793,32.5602],[-80.195,32.56],[-80.218,32.5511],[-80.2368,32.5423],[-80.2541,32.5323],[-80.2562,32.5317],[-80.2564,32.5368],[-80.2605,32.5369],[-80.2602,32.5332],[-80.2648,32.533],[-80.2651,32.5284],[-80.2773,32.5238],[-80.2797,32.5246],[-80.2851,32.53],[-80.2918,32.5267],[-80.3115,32.5138],[-80.3191,32.5111],[-80.3206,32.5133],[-80.3183,32.52],[-80.3202,32.5197],[-80.321,32.5231],[-80.3272,32.5244],[-80.3311,32.5228],[-80.3345,32.5264],[-80.3359,32.524],[-80.3442,32.5233],[-80.3458,32.5256],[-80.3485,32.5253],[-80.3491,32.5182],[-80.3441,32.5177],[-80.3399,32.5147],[-80.333,32.5125],[-80.3303,32.5066],[-80.3262,32.505],[-80.324,32.5002],[-80.3271,32.4933],[-80.3354,32.4928],[-80.3439,32.4969],[-80.3506,32.4987],[-80.3538,32.5028],[-80.3611,32.5097],[-80.3714,32.5234],[-80.38,32.5318],[-80.3878,32.5357],[-80.4064,32.5408],[-80.4149,32.5465],[-80.4153,32.552],[-80.4123,32.5569],[-80.4063,32.5599],[-80.3985,32.5606],[-80.3928,32.5642],[-80.3897,32.5719],[-80.3911,32.5795],[-80.3971,32.5904],[-80.3955,32.5982],[-80.3881,32.6094],[-80.3871,32.6128],[-80.39,32.6187],[-80.3944,32.6196],[-80.4032,32.6168],[-80.4108,32.6112],[-80.4184,32.6043],[-80.4227,32.6054],[-80.426,32.6115],[-80.428,32.6225],[-80.4271,32.6256],[-80.4201,32.6274],[-80.4113,32.6266],[-80.4055,32.6289],[-80.4024,32.6395],[-80.3958,32.646],[-80.3915,32.6472],[-80.389,32.6523],[-80.3933,32.6552],[-80.401,32.652],[-80.4049,32.6524],[-80.4151,32.6627],[-80.4209,32.6701],[-80.421,32.674],[-80.4183,32.6776],[-80.4179,32.6807],[-80.4225,32.6864],[-80.4227,32.6885],[-80.4179,32.6914],[-80.4159,32.6947],[-80.4176,32.6998],[-80.4217,32.7058],[-80.4234,32.7102],[-80.4228,32.7146],[-80.4261,32.7159],[-80.4308,32.7122],[-80.4354,32.7131],[-80.4351,32.7161],[-80.4303,32.7184],[-80.4313,32.7226],[-80.4471,32.7284],[-80.4488,32.7335],[-80.4532,32.7391],[-80.4521,32.7429],[-80.4479,32.7484],[-80.4496,32.7572],[-80.4475,32.7627],[-80.4452,32.7653],[-80.4407,32.765],[-80.4366,32.7702],[-80.4385,32.7727],[-80.4329,32.7785],[-80.4322,32.7833],[-80.436,32.7877],[-80.4327,32.79],[-80.4262,32.7979],[-80.4211,32.7984],[-80.4168,32.8051],[-80.4158,32.8024],[-80.4141,32.8088],[-80.4099,32.8065],[-80.4112,32.809],[-80.4077,32.8108],[-80.404,32.8186],[-80.4044,32.8226],[-80.4003,32.8283],[-80.3993,32.8355],[-80.3957,32.8403],[-80.3972,32.842],[-80.3941,32.8445],[-80.3994,32.8457],[-80.4007,32.8509],[-80.4013,32.8585],[-80.3119,32.8515]]]]}},{"type":"Feature","properties":{"id":"45035","name":"Dorchester Co."},"geometry":{"type":"Polygon","coordinates":[[[-80.3583,33.2555],[-80.3519,33.2496],[-80.3484,33.2489],[-80.3472,33.2452],[-80.3487,33.2419],[-80.3469,33.2361],[-80.3433,33.2316],[-80.3375,33.2283],[-80.3349,33.223],[-80.3365,33.2154],[-80.3308,33.1984],[-80.3247,33.1985],[-80.316,33.1932],[-80.3088,33.1904],[-80.3085,33.1878],[-80.3027,33.1854],[-80.2976,33.1818],[-80.297,33.178],[-80.3018,33.1742],[-80.3031,33.1697],[-80.3074,33.1653],[-80.311,33.1584],[-80.313,33.1592],[-80.3176,33.157],[-80.3211,33.1534],[-80.3359,33.1455],[-80.1643,33.0323],[-80.1492,33.0216],[-80.154,33.0181],[-80.1607,33.0208],[-80.1635,33.0194],[-80.1602,33.0176],[-80.1645,33.0128],[-80.1698,33.0154],[-80.1762,33.01],[-80.17,33.0043],[-80.1675,33.0076],[-80.1695,33.0089],[-80.1664,33.0127],[-80.1626,33.0105],[-80.1676,33.0027],[-80.146,32.9844],[-80.1437,32.9857],[-80.1355,32.9989],[-80.1105,32.9855],[-80.1254,32.9823],[-80.1306,32.979],[-80.1392,32.9818],[-80.1409,32.9796],[-80.1356,32.9755],[-80.0798,32.9282],[-80.0977,32.887],[-80.0994,32.8912],[-80.1055,32.8934],[-80.1124,32.8917],[-80.1195,32.8936],[-80.1174,32.8977],[-80.1182,32.9011],[-80.1228,32.9018],[-80.1231,32.8974],[-80.1254,32.8896],[-80.1377,32.8837],[-80.1366,32.8877],[-80.1448,32.8876],[-80.1497,32.8789],[-80.1622,32.8746],[-80.1549,32.8651],[-80.1613,32.8559],[-80.1635,32.8545],[-80.1713,32.863],[-80.1767,32.8671],[-80.1857,32.8608],[-80.1869,32.852],[-80.1835,32.8492],[-80.1837,32.8471],[-80.1753,32.8458],[-80.1617,32.841],[-80.1576,32.8321],[-80.1586,32.8301],[-80.1569,32.8267],[-80.1533,32.8253],[-80.1493,32.8182],[-80.1577,32.8182],[-80.2764,32.8436],[-80.2996,32.8514],[-80.3028,32.852],[-80.3119,32.8515],[-80.4013,32.8585],[-80.3993,32.8644],[-80.4026,32.8659],[-80.4033,32.8696],[-80.3992,32.8732],[-80.3989,32.8778],[-80.3943,32.8806],[-80.3933,32.8853],[-80.3873,32.8846],[-80.3853,32.8861],[-80.3895,32.8904],[-80.3931,32.8923],[-80.3915,32.8946],[-80.3975,32.8939],[-80.3953,32.8971],[-80.3973,32.9008],[-80.4012,32.9003],[-80.4,32.9032],[-80.4029,32.9087],[-80.4064,32.9102],[-80.4056,32.9145],[-80.4017,32.9174],[-80.3984,32.9269],[-80.4006,32.9333],[-80.3994,32.9345],[-80.4005,32.9403],[-80.4028,32.9414],[-80.4026,32.947],[-80.4052,32.9453],[-80.4073,32.9477],[-80.4047,32.9504],[-80.4052,32.9551],[-80.4076,32.9527],[-80.4153,32.9615],[-80.4188,32.9673],[-80.4137,32.9715],[-80.4152,32.9732],[-80.4179,32.9713],[-80.4184,32.976],[-80.4137,32.9791],[-80.4143,32.9842],[-80.4087,32.9846],[-80.4108,32.9935],[-80.4079,32.9962],[-80.4078,33.0046],[-80.4036,33.0096],[-80.4069,33.0104],[-80.4065,33.019],[-80.3993,33.0224],[-80.3936,33.0261],[-80.3913,33.03],[-80.3878,33.0328],[-80.3897,33.043],[-80.4007,33.0528],[-80.4031,33.0531],[-80.4043,33.0494],[-80.412,33.0466],[-80.4148,33.0499],[-80.4184,33.0513],[-80.4219,33.0549],[-80.4248,33.0515],[-80.4317,33.0514],[-80.4374,33.0532],[-80.44,33.049],[-80.4423,33.0517],[-80.4408,33.0533],[-80.4446,33.0558],[-80.4489,33.0545],[-80.4479,33.0581],[-80.4517,33.0602],[-80.4555,33.059],[-80.4596,33.0637],[-80.4615,33.0623],[-80.468,33.0627],[-80.4748,33.0644],[-80.4744,33.0608],[-80.4805,33.0599],[-80.4806,33.0616],[-80.4898,33.0636],[-80.4968,33.0632],[-80.4938,33.0606],[-80.504,33.0577],[-80.5064,33.0588],[-80.5097,33.0573],[-80.5148,33.0585],[-80.5162,33.0608],[-80.5204,33.062],[-80.5261,33.0612],[-80.5283,33.0634],[-80.5273,33.0663],[-80.532,33.0697],[-80.5398,33.0681],[-80.5375,33.0669],[-80.5402,33.0643],[-80.5423,33.0662],[-80.5444,33.0638],[-80.5474,33.0658],[-80.5475,33.0628],[-80.5445,33.0622],[-80.5503,33.0583],[-80.553,33.0593],[-80.5532,33.0619],[-80.5648,33.0594],[-80.5755,33.0585],[-80.5789,33.06],[-80.5785,33.0573],[-80.5821,33.0585],[-80.5915,33.0578],[-80.595,33.0599],[-80.604,33.0618],[-80.6151,33.0652],[-80.6238,33.0669],[-80.6237,33.0692],[-80.6277,33.0695],[-80.6294,33.0728],[-80.6267,33.0751],[-80.6309,33.0757],[-80.6322,33.0777],[-80.6408,33.083],[-80.6438,33.0858],[-80.6469,33.0855],[-80.6493,33.0898],[-80.6532,33.0932],[-80.658,33.0923],[-80.6614,33.0946],[-80.6596,33.0976],[-80.6651,33.0995],[-80.6704,33.1036],[-80.6711,33.1077],[-80.674,33.1098],[-80.6721,33.1132],[-80.6783,33.1157],[-80.6786,33.1216],[-80.6812,33.1244],[-80.683,33.1233],[-80.6917,33.1281],[-80.6899,33.1315],[-80.6935,33.1324],[-80.6916,33.1375],[-80.6945,33.1408],[-80.703,33.1444],[-80.7062,33.1499],[-80.7031,33.1525],[-80.7067,33.1548],[-80.7113,33.1557],[-80.7126,33.1538],[-80.7155,33.1605],[-80.7174,33.1596],[-80.7309,33.1669],[-80.7325,33.1691],[-80.7374,33.1704],[-80.7404,33.1682],[-80.7437,33.1682],[-80.7475,33.1722],[-80.7461,33.1745],[-80.7504,33.1727],[-80.7535,33.1742],[-80.7587,33.1747],[-80.7573,33.1716],[-80.7634,33.1706],[-80.765,33.1746],[-80.767,33.1724],[-80.772,33.1716],[-80.7765,33.1731],[-80.7791,33.1768],[-80.7825,33.1746],[-80.7868,33.1751],[-80.7882,33.1769],[-80.792,33.1762],[-80.7903,33.1808],[-80.7129,33.2223],[-80.6662,33.2474],[-80.6607,33.2501],[-80.6129,33.2759],[-80.5028,33.3345],[-80.4985,33.3306],[-80.4957,33.3262],[-80.4941,33.3212],[-80.4939,33.3158],[-80.4953,33.305],[-80.494,33.2975],[-80.4892,33.2896],[-80.4846,33.28],[-80.4793,33.2777],[-80.4733,33.2737],[-80.4623,33.2707],[-80.4535,33.271],[-80.4495,33.2695],[-80.4412,33.2624],[-80.4362,33.26],[-80.4271,33.2578],[-80.42,33.2583],[-80.4014,33.2624],[-80.3942,33.2647],[-80.3898,33.2643],[-80.3844,33.2617],[-80.3748,33.2607],[-80.3643,33.2586],[-80.3619,33.2574],[-80.3583,33.2555]]]}}]}