{"type":"FeatureCollection","features":[{"type":"Feature","properties":{"id":"42003","name":"Allegheny Co."},"geometry":{"type":"Polygon","coordinates":[[[-80.1278,40.6736],[-80.0957,40.6742],[-80.0714,40.6749],[-80.0714,40.6742],[-80.0362,40.6741],[-79.9878,40.6736],[-79.9599,40.6723],[-79.9146,40.6733],[-79.8771,40.6724],[-79.8422,40.672],[-79.8294,40.6711],[-79.8187,40.6717],[-79.7807,40.6712],[-79.7641,40.6704],[-79.7291,40.6693],[-79.7075,40.6699],[-79.6929,40.6696],[-79.6955,40.6658],[-79.6958,40.6615],[-79.6911,40.6525],[-79.689,40.6454],[-79.6903,40.6409],[-79.6944,40.6351],[-79.7033,40.6257],[-79.7146,40.617],[-79.72,40.6095],[-79.7232,40.607],[-79.7361,40.602],[-79.7494,40.5989],[-79.762,40.5943],[-79.7681,40.5895],[-79.7734,40.5821],[-79.7748,40.5728],[-79.7741,40.5684],[-79.7685,40.555],[-79.7651,40.5492],[-79.7601,40.5511],[-79.7543,40.5504],[-79.7517,40.5518],[-79.7427,40.5485],[-79.7357,40.549],[-79.7319,40.5451],[-79.7246,40.5422],[-79.7224,40.5422],[-79.7144,40.5329],[-79.7102,40.5323],[-79.7051,40.5271],[-79.7016,40.5254],[-79.7021,40.5218],[-79.7021,40.4895],[-79.7032,40.4561],[-79.7048,40.4263],[-79.7069,40.4223],[-79.716,40.4174],[-79.7172,40.4138],[-79.7223,40.4149],[-79.7268,40.4145],[-79.7276,40.4129],[-79.7224,40.4086],[-79.7304,40.4085],[-79.732,40.4066],[-79.7323,40.4002],[-79.7387,40.3977],[-79.7386,40.3955],[-79.7446,40.3962],[-79.7478,40.3909],[-79.7505,40.3911],[-79.7513,40.3884],[-79.7538,40.3885],[-79.7586,40.3921],[-79.7621,40.3928],[-79.7648,40.39],[-79.7639,40.3865],[-79.7711,40.3754],[-79.7782,40.3412],[-79.7842,40.3139],[-79.7886,40.2977],[-79.7846,40.2961],[-79.776,40.2892],[-79.7758,40.285],[-79.7796,40.2823],[-79.7947,40.2817],[-79.7965,40.2794],[-79.7951,40.2722],[-79.7888,40.2653],[-79.7877,40.2618],[-79.7967,40.2528],[-79.7991,40.247],[-79.8074,40.2369],[-79.8044,40.2319],[-79.7826,40.2276],[-79.8006,40.2217],[-79.8144,40.2167],[-79.8393,40.2088],[-79.8501,40.2047],[-79.8714,40.1974],[-79.8811,40.1966],[-79.8887,40.1947],[-79.9003,40.1948],[-79.9108,40.197],[-79.9187,40.2003],[-79.9246,40.205],[-79.9293,40.2071],[-79.9443,40.2107],[-79.9504,40.2116],[-79.9579,40.2143],[-79.9668,40.2221],[-79.9709,40.2269],[-79.97,40.2333],[-79.9668,40.2365],[-79.9626,40.2388],[-79.9568,40.2402],[-79.9376,40.2415],[-79.9253,40.2451],[-79.9175,40.2494],[-79.9145,40.2524],[-79.9691,40.2686],[-80.0266,40.2854],[-80.077,40.3008],[-80.1097,40.3103],[-80.1163,40.3127],[-80.1435,40.3207],[-80.1846,40.3331],[-80.2002,40.3472],[-80.223,40.3659],[-80.2962,40.4255],[-80.3608,40.4776],[-80.3608,40.4777],[-80.278,40.5367],[-80.2514,40.556],[-80.2286,40.5731],[-80.2241,40.5753],[-80.224,40.5773],[-80.219,40.582],[-80.2144,40.581],[-80.208,40.5881],[-80.2042,40.5886],[-80.1933,40.5969],[-80.1845,40.5968],[-80.1885,40.6],[-80.184,40.6011],[-80.1848,40.6036],[-80.1779,40.6095],[-80.176,40.6081],[-80.17,40.6077],[-80.1658,40.606],[-80.1608,40.6095],[-80.155,40.608],[-80.1509,40.6116],[-80.1451,40.6134],[-80.1485,40.6738],[-80.1278,40.6736]]]}},{"type":"Feature","properties":{"id":"42129","name":"Westmoreland Co."},"geometry":{"type":"Polygon","coordinates":[[[-79.8501,40.2047],[-79.8393,40.2088],[-79.8144,40.2167],[-79.8006,40.2217],[-79.7826,40.2276],[-79.8044,40.2319],[-79.8074,40.2369],[-79.7991,40.247],[-79.7967,40.2528],[-79.7877,40.2618],[-79.7888,40.2653],[-79.7951,40.2722],[-79.7965,40.2794],[-79.7947,40.2817],[-79.7796,40.2823],[-79.7758,40.285],[-79.776,40.2892],[-79.7846,40.2961],[-79.7886,40.2977],[-79.7842,40.3139],[-79.7782,40.3412],[-79.7711,40.3754],[-79.7639,40.3865],[-79.7648,40.39],[-79.7621,40.3928],[-79.7586,40.3921],[-79.7538,40.3885],[-79.7513,40.3884],[-79.7505,40.3911],[-79.7478,40.3909],[-79.7446,40.3962],[-79.7386,40.3955],[-79.7387,40.3977],[-79.7323,40.4002],[-79.732,40.4066],[-79.7304,40.4085],[-79.7224,40.4086],[-79.7276,40.4129],[-79.7268,40.4145],[-79.7223,40.4149],[-79.7172,40.4138],[-79.716,40.4174],[-79.7069,40.4223],[-79.7048,40.4263],[-79.7032,40.4561],[-79.7021,40.4895],[-79.7021,40.5218],[-79.7016,40.5254],[-79.7051,40.5271],[-79.7102,40.5323],[-79.7144,40.5329],[-79.7224,40.5422],[-79.7246,40.5422],[-79.7319,40.5451],[-79.7357,40.549],[-79.7427,40.5485],[-79.7517,40.5518],[-79.7543,40.5504],[-79.7601,40.5511],[-79.7651,40.5492],[-79.7685,40.555],[-79.7741,40.5684],[-79.7748,40.5728],[-79.7734,40.5821],[-79.7681,40.5895],[-79.762,40.5943],[-79.7494,40.5989],[-79.7361,40.602],[-79.7232,40.607],[-79.72,40.6095],[-79.7146,40.617],[-79.7033,40.6257],[-79.6944,40.6351],[-79.6903,40.6409],[-79.689,40.6454],[-79.6911,40.6525],[-79.6958,40.6615],[-79.6955,40.6658],[-79.6929,40.6696],[-79.6929,40.6697],[-79.6801,40.6719],[-79.6778,40.6729],[-79.6717,40.6784],[-79.6684,40.68],[-79.6641,40.679],[-79.6578,40.6756],[-79.653,40.6719],[-79.644,40.6688],[-79.6381,40.6656],[-79.6361,40.6545],[-79.6286,40.6487],[-79.6222,40.6457],[-79.6131,40.6436],[-79.6092,40.639],[-79.6101,40.631],[-79.6087,40.6258],[-79.6021,40.6245],[-79.5964,40.6283],[-79.5915,40.6343],[-79.5869,40.6367],[-79.5837,40.6366],[-79.5829,40.633],[-79.5887,40.6255],[-79.5896,40.6169],[-79.5838,40.6104],[-79.5844,40.607],[-79.5821,40.6033],[-79.5761,40.6017],[-79.5703,40.6067],[-79.5651,40.6078],[-79.5595,40.6052],[-79.5518,40.6047],[-79.5505,40.6031],[-79.5663,40.593],[-79.5707,40.5841],[-79.5665,40.5745],[-79.563,40.569],[-79.5607,40.5635],[-79.5573,40.561],[-79.5362,40.5503],[-79.5305,40.5465],[-79.5262,40.5424],[-79.521,40.5413],[-79.5119,40.5427],[-79.5054,40.5359],[-79.4989,40.5322],[-79.4979,40.5265],[-79.4946,40.5249],[-79.4887,40.5261],[-79.4849,40.5306],[-79.4833,40.5362],[-79.4793,40.537],[-79.4769,40.5358],[-79.4779,40.5315],[-79.4757,40.5295],[-79.4697,40.5326],[-79.4643,40.5341],[-79.455,40.5341],[-79.4502,40.5301],[-79.4491,40.5282],[-79.4565,40.5232],[-79.4593,40.5198],[-79.4597,40.5167],[-79.4575,40.5112],[-79.4539,40.5055],[-79.4553,40.4973],[-79.4525,40.4894],[-79.4538,40.4843],[-79.4517,40.4823],[-79.4467,40.4809],[-79.4385,40.4867],[-79.4306,40.489],[-79.4236,40.4733],[-79.4213,40.4706],[-79.4157,40.4706],[-79.4123,40.473],[-79.4066,40.4743],[-79.4043,40.4725],[-79.401,40.4655],[-79.3979,40.4628],[-79.3945,40.456],[-79.3908,40.4543],[-79.3818,40.4527],[-79.3742,40.4537],[-79.3696,40.4566],[-79.3663,40.466],[-79.3671,40.4751],[-79.3659,40.4775],[-79.3621,40.4787],[-79.3586,40.4779],[-79.3573,40.4752],[-79.358,40.4709],[-79.3623,40.4601],[-79.3605,40.4541],[-79.3539,40.4517],[-79.3472,40.4527],[-79.3459,40.4548],[-79.3454,40.4672],[-79.3421,40.4701],[-79.339,40.4703],[-79.3317,40.4619],[-79.3303,40.4539],[-79.3254,40.4527],[-79.3228,40.456],[-79.3161,40.4593],[-79.3031,40.4616],[-79.2994,40.46],[-79.2976,40.4558],[-79.3018,40.4508],[-79.2999,40.4449],[-79.3018,40.4393],[-79.3013,40.4352],[-79.2973,40.4347],[-79.2894,40.4367],[-79.2855,40.4418],[-79.2828,40.4428],[-79.2726,40.4391],[-79.2707,40.4354],[-79.2694,40.4285],[-79.2735,40.4229],[-79.2729,40.4184],[-79.266,40.4164],[-79.2633,40.4168],[-79.2541,40.4223],[-79.2507,40.4285],[-79.2476,40.4321],[-79.2402,40.43],[-79.2332,40.4307],[-79.2247,40.4274],[-79.2148,40.4245],[-79.2109,40.4213],[-79.2065,40.415],[-79.2002,40.4108],[-79.1912,40.4152],[-79.1854,40.4143],[-79.1737,40.4106],[-79.1644,40.4102],[-79.1558,40.4118],[-79.1521,40.4088],[-79.154,40.4017],[-79.1527,40.3992],[-79.1488,40.3977],[-79.1368,40.3986],[-79.1247,40.3954],[-79.117,40.3942],[-79.1149,40.3899],[-79.1208,40.3899],[-79.1272,40.3869],[-79.1288,40.3813],[-79.1271,40.3751],[-79.1216,40.3706],[-79.1093,40.3733],[-79.1022,40.3689],[-79.0968,40.3707],[-79.0961,40.374],[-79.0905,40.3802],[-79.0883,40.3866],[-79.083,40.3896],[-79.0795,40.3888],[-79.0745,40.3858],[-79.0699,40.3804],[-79.0646,40.379],[-79.0585,40.3809],[-79.0571,40.3843],[-79.0519,40.3893],[-79.0424,40.3914],[-79.0398,40.3963],[-79.0363,40.396],[-79.033,40.399],[-79.0322,40.402],[-79.0278,40.4066],[-79.033,40.4086],[-79.0342,40.4121],[-79.0326,40.4175],[-79.0293,40.4193],[-79.0166,40.4203],[-78.9966,40.4133],[-78.9871,40.411],[-78.9823,40.4058],[-78.9772,40.3984],[-78.9738,40.3954],[-78.9752,40.3919],[-78.9982,40.3562],[-79.0061,40.3512],[-79.0099,40.343],[-79.0099,40.3405],[-79.0154,40.3392],[-79.02,40.3356],[-79.0254,40.326],[-79.0297,40.323],[-79.0317,40.3176],[-79.0373,40.3134],[-79.0376,40.307],[-79.0417,40.302],[-79.045,40.2996],[-79.0463,40.2967],[-79.0522,40.2898],[-79.0548,40.2894],[-79.0566,40.2829],[-79.0566,40.2786],[-79.0594,40.2758],[-79.068,40.2725],[-79.0735,40.2667],[-79.0766,40.2603],[-79.0796,40.2579],[-79.0781,40.2548],[-79.0792,40.2512],[-79.0825,40.2501],[-79.0867,40.2453],[-79.0863,40.2424],[-79.0914,40.2405],[-79.0949,40.2365],[-79.095,40.2336],[-79.0974,40.2322],[-79.1022,40.2323],[-79.0983,40.228],[-79.1003,40.2249],[-79.1045,40.2243],[-79.1003,40.2223],[-79.107,40.2158],[-79.1079,40.213],[-79.1143,40.2103],[-79.1141,40.2067],[-79.1162,40.2038],[-79.1219,40.2031],[-79.1262,40.2004],[-79.1238,40.1939],[-79.1275,40.1868],[-79.126,40.185],[-79.1297,40.1809],[-79.1344,40.1787],[-79.1404,40.1801],[-79.1434,40.1786],[-79.1411,40.1731],[-79.14,40.1657],[-79.1407,40.1633],[-79.1498,40.1604],[-79.1609,40.1611],[-79.1605,40.1569],[-79.1628,40.1541],[-79.1632,40.1463],[-79.1621,40.1433],[-79.1657,40.1391],[-79.168,40.1282],[-79.1723,40.1261],[-79.1742,40.1206],[-79.181,40.1157],[-79.1812,40.1139],[-79.1852,40.1098],[-79.1916,40.11],[-79.1954,40.1133],[-79.1966,40.1185],[-79.201,40.1181],[-79.2029,40.1149],[-79.2108,40.1189],[-79.2138,40.118],[-79.2209,40.1127],[-79.2226,40.1042],[-79.2267,40.0983],[-79.2401,40.0947],[-79.2401,40.0925],[-79.2464,40.0937],[-79.256,40.0885],[-79.2587,40.0803],[-79.2644,40.0787],[-79.2677,40.0743],[-79.2674,40.0657],[-79.2714,40.0642],[-79.2788,40.0555],[-79.2784,40.0502],[-79.2843,40.0482],[-79.2886,40.0418],[-79.2939,40.0404],[-79.3098,40.0436],[-79.3161,40.0438],[-79.3237,40.0408],[-79.33,40.0408],[-79.3392,40.0422],[-79.3427,40.0442],[-79.3444,40.0509],[-79.3512,40.0679],[-79.3555,40.0743],[-79.3611,40.0764],[-79.3675,40.0802],[-79.3725,40.0814],[-79.3935,40.0908],[-79.3974,40.0951],[-79.4016,40.1026],[-79.4049,40.1023],[-79.4154,40.1046],[-79.4231,40.111],[-79.4377,40.1159],[-79.4419,40.1192],[-79.4477,40.1268],[-79.4475,40.1332],[-79.4612,40.1413],[-79.4615,40.1441],[-79.4831,40.144],[-79.4885,40.1412],[-79.4967,40.1418],[-79.5052,40.1406],[-79.5112,40.136],[-79.5178,40.1333],[-79.5179,40.1314],[-79.527,40.1232],[-79.5309,40.1282],[-79.534,40.1286],[-79.5411,40.1208],[-79.5403,40.114],[-79.5423,40.1119],[-79.5466,40.112],[-79.5485,40.1103],[-79.5561,40.1129],[-79.5591,40.1112],[-79.5606,40.1052],[-79.5662,40.1061],[-79.5717,40.1053],[-79.5756,40.1034],[-79.5797,40.1051],[-79.5854,40.1021],[-79.5846,40.0978],[-79.592,40.0935],[-79.5934,40.0906],[-79.5919,40.0858],[-79.5925,40.0824],[-79.6018,40.0827],[-79.6037,40.0908],[-79.6131,40.0934],[-79.6147,40.0913],[-79.6207,40.0927],[-79.622,40.0945],[-79.6259,40.0919],[-79.6264,40.0891],[-79.6305,40.0868],[-79.6357,40.0859],[-79.6385,40.0829],[-79.6441,40.0847],[-79.6411,40.0883],[-79.6448,40.0894],[-79.6481,40.0876],[-79.6541,40.0893],[-79.6543,40.0936],[-79.6573,40.0966],[-79.6606,40.0968],[-79.6617,40.0945],[-79.6639,40.0967],[-79.6685,40.0973],[-79.6662,40.1027],[-79.6718,40.1062],[-79.6757,40.1057],[-79.6838,40.1086],[-79.6851,40.1136],[-79.6917,40.1131],[-79.6986,40.1096],[-79.7021,40.1104],[-79.7064,40.1076],[-79.7113,40.1087],[-79.7189,40.1135],[-79.7224,40.1128],[-79.7188,40.1176],[-79.7244,40.1231],[-79.7276,40.1206],[-79.7349,40.121],[-79.7398,40.1253],[-79.7461,40.1285],[-79.7803,40.1283],[-79.8038,40.1288],[-79.8058,40.1275],[-79.8067,40.1312],[-79.81,40.1325],[-79.8166,40.1328],[-79.8161,40.1284],[-79.8521,40.1281],[-79.8672,40.1278],[-79.8753,40.1295],[-79.8779,40.127],[-79.8846,40.1291],[-79.8877,40.1311],[-79.8932,40.1408],[-79.9021,40.1486],[-79.9049,40.1542],[-79.9048,40.1573],[-79.9003,40.1625],[-79.8933,40.165],[-79.8873,40.165],[-79.868,40.1619],[-79.8595,40.1631],[-79.8529,40.1694],[-79.8511,40.1729],[-79.8504,40.1778],[-79.8533,40.1892],[-79.8554,40.192],[-79.8658,40.197],[-79.8714,40.1974],[-79.8501,40.2047]]]}},{"type":"Feature","properties":{"id":"42125","name":"Washington Co."},"geometry":{"type":"Polygon","coordinates":[[[-80.4371,40.4778],[-80.3935,40.4773],[-80.3608,40.4776],[-80.2962,40.4255],[-80.223,40.3659],[-80.2002,40.3472],[-80.1846,40.3331],[-80.1435,40.3207],[-80.1163,40.3127],[-80.1097,40.3103],[-80.077,40.3008],[-80.0266,40.2854],[-79.9691,40.2686],[-79.9145,40.2524],[-79.9175,40.2494],[-79.9253,40.2451],[-79.9376,40.2415],[-79.9568,40.2402],[-79.9626,40.2388],[-79.9668,40.2365],[-79.97,40.2333],[-79.9709,40.2269],[-79.9668,40.2221],[-79.9579,40.2143],[-79.9504,40.2116],[-79.9443,40.2107],[-79.9293,40.2071],[-79.9246,40.205],[-79.9187,40.2003],[-79.9108,40.197],[-79.9003,40.1948],[-79.8887,40.1947],[-79.8811,40.1966],[-79.8714,40.1974],[-79.8658,40.197],[-79.8554,40.192],[-79.8533,40.1892],[-79.8504,40.1778],[-79.8511,40.1729],[-79.8529,40.1694],[-79.8595,40.1631],[-79.868,40.1619],[-79.8873,40.165],[-79.8933,40.165],[-79.9003,40.1625],[-79.9048,40.1573],[-79.9049,40.1542],[-79.9021,40.1486],[-79.8932,40.1408],[-79.8877,40.1311],[-79.8846,40.1291],[-79.8779,40.127],[-79.874,40.1257],[-79.8601,40.1188],[-79.8525,40.1161],[-79.8491,40.1126],[-79.8449,40.103],[-79.8393,40.0925],[-79.8399,40.0879],[-79.8424,40.084],[-79.8478,40.0802],[-79.8637,40.0754],[-79.8716,40.0754],[-79.8789,40.0784],[-79.8846,40.0797],[-79.893,40.0803],[-79.8982,40.0792],[-79.9014,40.0767],[-79.9015,40.0736],[-79.8985,40.0713],[-79.8851,40.0686],[-79.8812,40.0665],[-79.8789,40.063],[-79.8811,40.0578],[-79.8909,40.0507],[-79.8905,40.0454],[-79.8849,40.0412],[-79.877,40.0368],[-79.8762,40.0338],[-79.88,40.0283],[-79.89,40.0225],[-79.9043,40.0225],[-79.9143,40.021],[-79.9248,40.0161],[-79.9298,40.0117],[-79.9345,39.9996],[-79.9383,39.9972],[-79.9467,39.9943],[-79.9546,39.9953],[-79.959,40.0],[-79.9632,40.008],[-79.9665,40.0113],[-79.9714,40.0138],[-79.9852,40.0131],[-79.9926,40.0094],[-79.9957,40.0051],[-79.9943,39.9972],[-79.9914,39.9907],[-79.9909,39.9866],[-79.9934,39.984],[-79.998,39.9833],[-79.9993,39.9845],[-80.0069,39.9847],[-80.0121,39.9826],[-80.018,39.9775],[-80.0303,39.9839],[-80.0338,39.9826],[-80.0319,39.9777],[-80.0398,39.9741],[-80.0438,39.977],[-80.0483,39.9785],[-80.0481,39.9815],[-80.0449,39.9842],[-80.0479,39.9848],[-80.0507,39.9896],[-80.0439,39.9945],[-80.0389,39.9965],[-80.0444,39.9988],[-80.0472,40.0051],[-80.0496,40.0066],[-80.0584,40.0036],[-80.0576,40.0074],[-80.0603,40.0095],[-80.0663,40.0058],[-80.068,40.0029],[-80.077,39.9972],[-80.0864,39.9904],[-80.0921,39.992],[-80.0981,39.9919],[-80.1029,39.9904],[-80.1057,39.991],[-80.1113,39.9882],[-80.1183,39.9913],[-80.1295,39.9884],[-80.1364,39.9926],[-80.1465,39.9944],[-80.151,39.9944],[-80.1553,39.9965],[-80.1605,40.0033],[-80.1698,40.0062],[-80.1721,40.0055],[-80.1753,40.008],[-80.1813,40.0066],[-80.1824,40.0032],[-80.1878,40.0033],[-80.1912,40.0019],[-80.1939,40.0049],[-80.1994,40.0032],[-80.2048,40.0035],[-80.2082,40.0051],[-80.2148,40.0028],[-80.2228,40.0047],[-80.2256,40.0075],[-80.2285,40.0074],[-80.2401,40.0095],[-80.2443,40.007],[-80.2518,40.0078],[-80.2529,40.0052],[-80.2566,40.0031],[-80.2588,40.0041],[-80.2666,40.0017],[-80.2731,40.0024],[-80.2761,40.0055],[-80.272,40.0077],[-80.2733,40.0133],[-80.2846,40.0124],[-80.2874,40.0192],[-80.2921,40.0206],[-80.2944,40.0185],[-80.3014,40.0206],[-80.3062,40.0181],[-80.3102,40.0177],[-80.3107,40.0131],[-80.309,40.0122],[-80.3091,40.0059],[-80.3126,40.0033],[-80.3175,40.0033],[-80.3211,40.0056],[-80.3284,40.0047],[-80.3518,40.0001],[-80.3543,39.9973],[-80.364,39.9965],[-80.3691,39.9972],[-80.3795,39.9941],[-80.3874,39.9892],[-80.3912,39.988],[-80.3958,39.9835],[-80.3958,39.9792],[-80.398,39.9777],[-80.4017,39.9787],[-80.4067,39.9768],[-80.4129,39.977],[-80.42,39.9754],[-80.4229,39.9722],[-80.4259,39.972],[-80.4298,39.9758],[-80.4348,39.9775],[-80.4406,39.9755],[-80.4451,39.9758],[-80.4441,39.9726],[-80.447,39.9712],[-80.4483,39.9667],[-80.4512,39.9685],[-80.4536,39.9734],[-80.4564,39.9694],[-80.4613,39.9674],[-80.4587,39.9641],[-80.4636,39.9609],[-80.4697,39.9618],[-80.4703,39.9605],[-80.4661,39.9568],[-80.4669,39.9546],[-80.4719,39.9546],[-80.4753,39.9521],[-80.4868,39.9548],[-80.4901,39.9545],[-80.4901,39.9575],[-80.4868,39.9608],[-80.4898,39.9615],[-80.493,39.9588],[-80.4998,39.9576],[-80.5009,39.9538],[-80.5083,39.9574],[-80.5099,39.9593],[-80.5142,39.9601],[-80.518,39.9635],[-80.5192,39.9622],[-80.519,40.077],[-80.5191,40.1727],[-80.519,40.3421],[-80.518,40.368],[-80.518,40.3989],[-80.5177,40.4625],[-80.519,40.4774],[-80.4371,40.4778]]]}},{"type":"Feature","properties":{"id":"42005","name":"Armstrong Co."},"geometry":{"type":"Polygon","coordinates":[[[-79.6815,41.1629],[-79.6796,41.1595],[-79.6802,41.1557],[-79.6862,41.1485],[-79.6867,41.1447],[-79.6796,41.137],[-79.6787,41.1326],[-79.6798,41.1255],[-79.6793,41.1162],[-79.6813,41.1063],[-79.6801,41.0937],[-79.6762,41.0846],[-79.6742,41.0828],[-79.666,41.0789],[-79.6591,41.0735],[-79.6555,41.0683],[-79.6565,41.0649],[-79.6654,41.0585],[-79.6671,41.0559],[-79.6659,41.0493],[-79.6625,41.0473],[-79.6513,41.0451],[-79.639,41.0395],[-79.6368,41.0379],[-79.6196,41.0334],[-79.6109,41.034],[-79.6068,41.0364],[-79.6014,41.037],[-79.5994,41.0353],[-79.5993,41.0303],[-79.6026,41.0208],[-79.6082,41.014],[-79.6098,41.0087],[-79.6064,41.0052],[-79.5954,41.0051],[-79.588,41.0032],[-79.5818,40.998],[-79.583,40.9925],[-79.5869,40.9913],[-79.597,40.9944],[-79.6059,40.9944],[-79.6104,40.9932],[-79.6191,40.989],[-79.6235,40.9846],[-79.6243,40.9787],[-79.6228,40.9764],[-79.6184,40.9741],[-79.6131,40.9731],[-79.6012,40.9693],[-79.5931,40.969],[-79.589,40.9709],[-79.5871,40.974],[-79.5811,40.9804],[-79.5728,40.9853],[-79.5614,40.9852],[-79.5538,40.9817],[-79.5526,40.9798],[-79.5429,40.9841],[-79.5394,40.9843],[-79.5358,40.9801],[-79.5286,40.9784],[-79.5224,40.975],[-79.5163,40.9771],[-79.5147,40.979],[-79.5178,40.983],[-79.5162,40.9867],[-79.514,40.9868],[-79.5067,40.9831],[-79.5059,40.9777],[-79.5036,40.9764],[-79.4937,40.9779],[-79.4928,40.9809],[-79.4948,40.9862],[-79.4885,40.9954],[-79.4817,40.9941],[-79.4756,40.9949],[-79.4695,40.9935],[-79.4647,40.9903],[-79.4575,40.9911],[-79.4559,40.9882],[-79.4607,40.9861],[-79.4622,40.9831],[-79.4517,40.9817],[-79.449,40.9825],[-79.4447,40.9864],[-79.4396,40.9874],[-79.4306,40.9854],[-79.4271,40.9862],[-79.4246,40.989],[-79.4209,40.999],[-79.4203,41.004],[-79.4159,41.0055],[-79.4123,41.0085],[-79.4101,41.0053],[-79.415,41.0007],[-79.4135,40.9982],[-79.4066,40.9986],[-79.4043,40.9957],[-79.406,40.991],[-79.4048,40.9886],[-79.4008,40.9881],[-79.3975,40.9901],[-79.3947,40.9948],[-79.3904,40.9934],[-79.3857,40.9949],[-79.3781,40.9943],[-79.378,40.9908],[-79.3855,40.9898],[-79.3849,40.9854],[-79.3775,40.9856],[-79.3748,40.9837],[-79.381,40.9799],[-79.382,40.9773],[-79.3816,40.9697],[-79.3785,40.9683],[-79.3725,40.9699],[-79.3693,40.9758],[-79.3716,40.9826],[-79.371,40.9902],[-79.3685,40.9938],[-79.366,41.0008],[-79.361,41.0038],[-79.3563,40.9998],[-79.3522,40.9997],[-79.3459,40.9977],[-79.3407,41.002],[-79.3376,41.0025],[-79.3343,40.9991],[-79.3304,41.0002],[-79.3192,41.0018],[-79.3026,41.0135],[-79.2995,41.0118],[-79.2852,41.0093],[-79.2815,41.0104],[-79.274,41.0176],[-79.2676,41.0202],[-79.2611,41.029],[-79.242,41.0353],[-79.2369,41.0414],[-79.2304,41.0459],[-79.2191,41.0486],[-79.2102,41.0491],[-79.2124,40.973],[-79.2125,40.9609],[-79.2157,40.9401],[-79.2155,40.9391],[-79.215,40.8392],[-79.215,40.7847],[-79.2152,40.776],[-79.2383,40.7514],[-79.2413,40.7486],[-79.2897,40.6974],[-79.3585,40.6245],[-79.4129,40.5683],[-79.4502,40.5301],[-79.455,40.5341],[-79.4643,40.5341],[-79.4697,40.5326],[-79.4757,40.5295],[-79.4779,40.5315],[-79.4769,40.5358],[-79.4793,40.537],[-79.4833,40.5362],[-79.4849,40.5306],[-79.4887,40.5261],[-79.4946,40.5249],[-79.4979,40.5265],[-79.4989,40.5322],[-79.5054,40.5359],[-79.5119,40.5427],[-79.521,40.5413],[-79.5262,40.5424],[-79.5305,40.5465],[-79.5362,40.5503],[-79.5573,40.561],[-79.5607,40.5635],[-79.563,40.569],[-79.5665,40.5745],[-79.5707,40.5841],[-79.5663,40.593],[-79.5505,40.6031],[-79.5518,40.6047],[-79.5595,40.6052],[-79.5651,40.6078],[-79.5703,40.6067],[-79.5761,40.6017],[-79.5821,40.6033],[-79.5844,40.607],[-79.5838,40.6104],[-79.5896,40.6169],[-79.5887,40.6255],[-79.5829,40.633],[-79.5837,40.6366],[-79.5869,40.6367],[-79.5915,40.6343],[-79.5964,40.6283],[-79.6021,40.6245],[-79.6087,40.6258],[-79.6101,40.631],[-79.6092,40.639],[-79.6131,40.6436],[-79.6222,40.6457],[-79.6286,40.6487],[-79.6361,40.6545],[-79.6381,40.6656],[-79.644,40.6688],[-79.653,40.6719],[-79.6578,40.6756],[-79.6641,40.679],[-79.6684,40.68],[-79.6717,40.6784],[-79.6778,40.6729],[-79.6801,40.6719],[-79.6929,40.6697],[-79.6924,40.7049],[-79.6933,40.7414],[-79.6928,40.7892],[-79.6921,40.8134],[-79.6915,40.8849],[-79.6899,40.9571],[-79.6899,41.0028],[-79.6901,41.0059],[-79.6903,41.1033],[-79.6888,41.1334],[-79.6893,41.1695],[-79.6815,41.1629]]]}},{"type":"Feature","properties":{"id":"42051","name":"Fayette Co."},"geometry":{"type":"Polygon","coordinates":[[[-79.9934,39.984],[-79.9909,39.9866],[-79.9914,39.9907],[-79.9943,39.9972],[-79.9957,40.0051],[-79.9926,40.0094],[-79.9852,40.0131],[-79.9714,40.0138],[-79.9665,40.0113],[-79.9632,40.008],[-79.959,40.0],[-79.9546,39.9953],[-79.9467,39.9943],[-79.9383,39.9972],[-79.9345,39.9996],[-79.9298,40.0117],[-79.9248,40.0161],[-79.9143,40.021],[-79.9043,40.0225],[-79.89,40.0225],[-79.88,40.0283],[-79.8762,40.0338],[-79.877,40.0368],[-79.8849,40.0412],[-79.8905,40.0454],[-79.8909,40.0507],[-79.8811,40.0578],[-79.8789,40.063],[-79.8812,40.0665],[-79.8851,40.0686],[-79.8985,40.0713],[-79.9015,40.0736],[-79.9014,40.0767],[-79.8982,40.0792],[-79.893,40.0803],[-79.8846,40.0797],[-79.8789,40.0784],[-79.8716,40.0754],[-79.8637,40.0754],[-79.8478,40.0802],[-79.8424,40.084],[-79.8399,40.0879],[-79.8393,40.0925],[-79.8449,40.103],[-79.8491,40.1126],[-79.8525,40.1161],[-79.8601,40.1188],[-79.874,40.1257],[-79.8779,40.127],[-79.8753,40.1295],[-79.8672,40.1278],[-79.8521,40.1281],[-79.8161,40.1284],[-79.8166,40.1328],[-79.81,40.1325],[-79.8067,40.1312],[-79.8058,40.1275],[-79.8038,40.1288],[-79.7803,40.1283],[-79.7461,40.1285],[-79.7398,40.1253],[-79.7349,40.121],[-79.7276,40.1206],[-79.7244,40.1231],[-79.7188,40.1176],[-79.7224,40.1128],[-79.7189,40.1135],[-79.7113,40.1087],[-79.7064,40.1076],[-79.7021,40.1104],[-79.6986,40.1096],[-79.6917,40.1131],[-79.6851,40.1136],[-79.6838,40.1086],[-79.6757,40.1057],[-79.6718,40.1062],[-79.6662,40.1027],[-79.6685,40.0973],[-79.6639,40.0967],[-79.6617,40.0945],[-79.6606,40.0968],[-79.6573,40.0966],[-79.6543,40.0936],[-79.6541,40.0893],[-79.6481,40.0876],[-79.6448,40.0894],[-79.6411,40.0883],[-79.6441,40.0847],[-79.6385,40.0829],[-79.6357,40.0859],[-79.6305,40.0868],[-79.6264,40.0891],[-79.6259,40.0919],[-79.622,40.0945],[-79.6207,40.0927],[-79.6147,40.0913],[-79.6131,40.0934],[-79.6037,40.0908],[-79.6018,40.0827],[-79.5925,40.0824],[-79.5919,40.0858],[-79.5934,40.0906],[-79.592,40.0935],[-79.5846,40.0978],[-79.5854,40.1021],[-79.5797,40.1051],[-79.5756,40.1034],[-79.5717,40.1053],[-79.5662,40.1061],[-79.5606,40.1052],[-79.5591,40.1112],[-79.5561,40.1129],[-79.5485,40.1103],[-79.5466,40.112],[-79.5423,40.1119],[-79.5403,40.114],[-79.5411,40.1208],[-79.534,40.1286],[-79.5309,40.1282],[-79.527,40.1232],[-79.5179,40.1314],[-79.5178,40.1333],[-79.5112,40.136],[-79.5052,40.1406],[-79.4967,40.1418],[-79.4885,40.1412],[-79.4831,40.144],[-79.4615,40.1441],[-79.4612,40.1413],[-79.4475,40.1332],[-79.4477,40.1268],[-79.4419,40.1192],[-79.4377,40.1159],[-79.4231,40.111],[-79.4154,40.1046],[-79.4049,40.1023],[-79.4016,40.1026],[-79.3974,40.0951],[-79.3935,40.0908],[-79.3725,40.0814],[-79.3675,40.0802],[-79.3611,40.0764],[-79.3555,40.0743],[-79.3512,40.0679],[-79.3444,40.0509],[-79.3427,40.0442],[-79.3392,40.0422],[-79.33,40.0408],[-79.3237,40.0408],[-79.3161,40.0438],[-79.3098,40.0436],[-79.2939,40.0404],[-79.2999,40.032],[-79.3228,40.0035],[-79.3385,39.982],[-79.3426,39.9821],[-79.3425,39.9763],[-79.356,39.9582],[-79.3729,39.9365],[-79.3783,39.9367],[-79.3783,39.9331],[-79.3833,39.9276],[-79.384,39.9245],[-79.3916,39.9195],[-79.3876,39.9157],[-79.3988,39.9005],[-79.4176,39.8538],[-79.4098,39.8493],[-79.4035,39.8475],[-79.3937,39.8435],[-79.3896,39.8396],[-79.3815,39.8363],[-79.383,39.8282],[-79.3812,39.8269],[-79.3752,39.828],[-79.3716,39.8271],[-79.3657,39.8205],[-79.3655,39.8138],[-79.364,39.8068],[-79.3688,39.8015],[-79.3683,39.7959],[-79.3653,39.7901],[-79.3626,39.7885],[-79.3544,39.7885],[-79.3516,39.7877],[-79.3524,39.7845],[-79.3568,39.7815],[-79.3617,39.7837],[-79.3702,39.7858],[-79.3762,39.7892],[-79.3801,39.7901],[-79.3821,39.7835],[-79.3846,39.7823],[-79.393,39.7843],[-79.3954,39.7825],[-79.3917,39.778],[-79.3803,39.7732],[-79.3787,39.7689],[-79.3805,39.7662],[-79.3863,39.7619],[-79.3986,39.7583],[-79.3997,39.7549],[-79.3942,39.7473],[-79.3941,39.7433],[-79.4044,39.743],[-79.4089,39.7411],[-79.41,39.735],[-79.4062,39.7336],[-79.3969,39.7341],[-79.3927,39.7327],[-79.3895,39.7271],[-79.3925,39.7214],[-79.5485,39.7208],[-79.6106,39.7212],[-79.7638,39.7208],[-79.8531,39.7207],[-79.9162,39.7209],[-79.911,39.7267],[-79.9039,39.7378],[-79.9034,39.7431],[-79.9072,39.7475],[-79.9144,39.7522],[-79.9225,39.7535],[-79.9301,39.7571],[-79.9347,39.7648],[-79.933,39.7715],[-79.9344,39.7813],[-79.9325,39.7849],[-79.9293,39.7863],[-79.9166,39.7872],[-79.9116,39.7893],[-79.9087,39.7938],[-79.9102,39.7996],[-79.9136,39.8049],[-79.9206,39.8134],[-79.9216,39.821],[-79.9217,39.8306],[-79.9244,39.8382],[-79.9262,39.8393],[-79.9365,39.8417],[-79.9385,39.844],[-79.938,39.8467],[-79.9246,39.8551],[-79.9248,39.8588],[-79.9303,39.8662],[-79.9303,39.8693],[-79.9277,39.872],[-79.9168,39.8766],[-79.9153,39.8803],[-79.9167,39.8842],[-79.921,39.8894],[-79.9279,39.9013],[-79.9296,39.9077],[-79.928,39.9114],[-79.9233,39.9177],[-79.9231,39.921],[-79.9249,39.9239],[-79.9333,39.9317],[-79.9438,39.944],[-79.9536,39.9515],[-79.9592,39.9539],[-79.9703,39.9555],[-79.9793,39.9539],[-79.9907,39.9498],[-79.9951,39.9495],[-80.0053,39.9549],[-80.0093,39.9588],[-80.0106,39.9657],[-80.0105,39.974],[-80.0059,39.9802],[-79.998,39.9833],[-79.9934,39.984]]]}},{"type":"Feature","properties":{"id":"42007","name":"Beaver Co."},"geometry":{"type":"Polygon","coordinates":[[[-80.4225,40.8523],[-80.3655,40.8527],[-80.3226,40.8532],[-80.2823,40.8538],[-80.2118,40.8544],[-80.1585,40.8551],[-80.156,40.8004],[-80.1526,40.744],[-80.1511,40.7131],[-80.1487,40.6738],[-80.1485,40.6738],[-80.1451,40.6134],[-80.1509,40.6116],[-80.155,40.608],[-80.1608,40.6095],[-80.1658,40.606],[-80.17,40.6077],[-80.176,40.6081],[-80.1779,40.6095],[-80.1848,40.6036],[-80.184,40.6011],[-80.1885,40.6],[-80.1845,40.5968],[-80.1933,40.5969],[-80.2042,40.5886],[-80.208,40.5881],[-80.2144,40.581],[-80.219,40.582],[-80.224,40.5773],[-80.2241,40.5753],[-80.2286,40.5731],[-80.2514,40.556],[-80.278,40.5367],[-80.3608,40.4777],[-80.3608,40.4776],[-80.3935,40.4773],[-80.4371,40.4778],[-80.519,40.4774],[-80.5191,40.6164],[-80.519,40.6388],[-80.5191,40.7923],[-80.519,40.8513],[-80.4225,40.8523]]]}},{"type":"Feature","properties":{"id":"42073","name":"Lawrence Co."},"geometry":{"type":"Polygon","coordinates":[[[-80.1665,41.0009],[-80.1585,40.8551],[-80.2118,40.8544],[-80.2823,40.8538],[-80.3226,40.8532],[-80.3655,40.8527],[-80.4225,40.8523],[-80.519,40.8513],[-80.519,40.8775],[-80.5199,40.9067],[-80.5191,40.9211],[-80.5189,41.0154],[-80.5189,41.071],[-80.5192,41.1054],[-80.519,41.1251],[-80.4874,41.1253],[-80.3278,41.1272],[-80.2579,41.1281],[-80.2579,41.1172],[-80.1473,41.1139],[-80.0983,41.0711],[-80.1665,41.0009]]]}},{"type":"Feature","properties":{"id":"42019","name":"Butler Co."},"geometry":{"type":"Polygon","coordinates":[[[-80.0969,41.0698],[-80.0471,41.1206],[-79.9998,41.1719],[-79.9597,41.1717],[-79.93,41.1719],[-79.8245,41.1731],[-79.7867,41.173],[-79.6969,41.1729],[-79.6922,41.1719],[-79.6893,41.1695],[-79.6888,41.1334],[-79.6903,41.1033],[-79.6901,41.0059],[-79.6899,41.0028],[-79.6899,40.9571],[-79.6915,40.8849],[-79.6921,40.8134],[-79.6928,40.7892],[-79.6933,40.7414],[-79.6924,40.7049],[-79.6929,40.6697],[-79.6929,40.6696],[-79.7075,40.6699],[-79.7291,40.6693],[-79.7641,40.6704],[-79.7807,40.6712],[-79.8187,40.6717],[-79.8294,40.6711],[-79.8422,40.672],[-79.8771,40.6724],[-79.9146,40.6733],[-79.9599,40.6723],[-79.9878,40.6736],[-80.0362,40.6741],[-80.0714,40.6742],[-80.0714,40.6749],[-80.0957,40.6742],[-80.1278,40.6736],[-80.1485,40.6738],[-80.1487,40.6738],[-80.1511,40.7131],[-80.1526,40.744],[-80.156,40.8004],[-80.1585,40.8551],[-80.1665,41.0009],[-80.0983,41.0711],[-80.0969,41.0698]]]}}]}