{"type":"FeatureCollection","features":[{"type":"Feature","properties":{"id":"29113","name":"Lincoln Co., MO"},"geometry":{"type":"Polygon","coordinates":[[[-90.7171,39.2139],[-90.7167,39.2067],[-90.7174,39.1974],[-90.7144,39.1853],[-90.7105,39.1764],[-90.71,39.1729],[-90.7091,39.1551],[-90.7052,39.1432],[-90.7005,39.1354],[-90.6949,39.1297],[-90.6861,39.1178],[-90.6811,39.1006],[-90.6827,39.0883],[-90.7004,39.0718],[-90.7021,39.0656],[-90.7125,39.0571],[-90.7136,39.054],[-90.7116,39.0468],[-90.7079,39.0423],[-90.7006,39.0291],[-90.6924,39.0167],[-90.6888,39.0073],[-90.6821,38.9988],[-90.6782,38.9919],[-90.6764,38.9841],[-90.6764,38.9658],[-90.6759,38.9621],[-90.6692,38.9482],[-90.6672,38.9404],[-90.6634,38.9342],[-90.6859,38.9339],[-90.6916,38.9342],[-90.6966,38.9328],[-90.6975,38.9282],[-90.6896,38.9236],[-90.6846,38.9156],[-90.6885,38.9166],[-90.6939,38.9155],[-90.6972,38.9161],[-90.7009,38.9198],[-90.7073,38.9215],[-90.7143,38.9182],[-90.7174,38.9137],[-90.7138,38.9121],[-90.7099,38.9136],[-90.7033,38.9122],[-90.6993,38.9079],[-90.706,38.9034],[-90.7093,38.9031],[-90.7106,38.9081],[-90.7176,38.9103],[-90.7212,38.9087],[-90.7245,38.9098],[-90.7229,38.9121],[-90.7246,38.9152],[-90.7337,38.9143],[-90.7357,38.9162],[-90.7346,38.9197],[-90.7261,38.9226],[-90.7237,38.9259],[-90.7247,38.9282],[-90.7288,38.9311],[-90.741,38.9308],[-90.7452,38.9295],[-90.7492,38.9242],[-90.7541,38.9207],[-90.7604,38.9198],[-90.7678,38.9223],[-90.7782,38.9225],[-90.782,38.9186],[-90.7913,38.9179],[-90.8044,38.9111],[-90.7982,38.9063],[-90.7979,38.9031],[-90.8002,38.9011],[-90.8059,38.9017],[-90.8083,38.8996],[-90.8069,38.8952],[-90.81,38.8889],[-90.8102,38.8856],[-90.8062,38.879],[-90.8076,38.8777],[-90.8132,38.879],[-90.8178,38.876],[-90.8227,38.8764],[-90.827,38.879],[-90.8311,38.8782],[-90.8351,38.8835],[-90.838,38.8823],[-90.8347,38.8813],[-90.8393,38.8796],[-90.8392,38.8814],[-90.843,38.8835],[-90.8513,38.8836],[-90.8496,38.8807],[-90.8526,38.8811],[-90.8558,38.8847],[-90.8593,38.8819],[-90.8645,38.8879],[-90.8712,38.8887],[-90.8807,38.8885],[-90.8832,38.8867],[-90.9005,38.886],[-90.9012,38.8893],[-90.9078,38.8909],[-90.9124,38.8906],[-90.9139,38.8889],[-90.9221,38.8874],[-90.9252,38.8886],[-90.9328,38.8859],[-90.9373,38.8881],[-90.9402,38.8865],[-90.9445,38.8911],[-90.9497,38.8949],[-90.9542,38.8931],[-90.9576,38.8933],[-90.9585,38.8709],[-91.0092,38.872],[-91.0737,38.8727],[-91.0903,38.8724],[-91.1113,38.8727],[-91.111,38.8978],[-91.1102,38.9319],[-91.1893,38.9322],[-91.189,38.9623],[-91.1884,38.9921],[-91.2165,38.9923],[-91.2492,38.9928],[-91.2643,38.9928],[-91.2631,39.037],[-91.2625,39.0528],[-91.2629,39.0529],[-91.2626,39.07],[-91.2619,39.085],[-91.2602,39.1398],[-91.2539,39.1401],[-91.2365,39.1396],[-91.1855,39.1391],[-91.1847,39.1682],[-91.1834,39.1972],[-91.1829,39.2272],[-91.1565,39.2273],[-91.0798,39.2252],[-91.0214,39.2249],[-91.0001,39.2245],[-90.951,39.2249],[-90.8954,39.2251],[-90.7876,39.224],[-90.7873,39.2242],[-90.7218,39.2241],[-90.7171,39.2139]]]}},{"type":"Feature","properties":{"id":"29189","name":"St. Louis Co., MO"},"geometry":{"type":"Polygon","coordinates":[[[-90.7111,38.6447],[-90.7058,38.6473],[-90.704,38.6502],[-90.7045,38.6555],[-90.698,38.6604],[-90.6851,38.6628],[-90.6793,38.6656],[-90.6773,38.6698],[-90.6745,38.6822],[-90.6605,38.6886],[-90.6473,38.6905],[-90.6326,38.6911],[-90.6238,38.6903],[-90.6191,38.6886],[-90.6114,38.6842],[-90.6039,38.682],[-90.5951,38.6818],[-90.5886,38.6805],[-90.5795,38.6815],[-90.5721,38.6838],[-90.5683,38.6839],[-90.5568,38.6815],[-90.5507,38.6824],[-90.5401,38.6874],[-90.5393,38.6868],[-90.5338,38.6919],[-90.5304,38.6986],[-90.5304,38.7082],[-90.533,38.721],[-90.5336,38.7269],[-90.5296,38.7328],[-90.5151,38.7397],[-90.4958,38.7483],[-90.4852,38.7592],[-90.4827,38.7635],[-90.4732,38.791],[-90.4496,38.8199],[-90.4481,38.8221],[-90.4406,38.8277],[-90.431,38.8298],[-90.4155,38.8289],[-90.395,38.8232],[-90.3823,38.8219],[-90.3738,38.8227],[-90.37,38.8238],[-90.3622,38.8279],[-90.3491,38.8417],[-90.345,38.8494],[-90.3425,38.8585],[-90.3426,38.8665],[-90.3408,38.8735],[-90.3364,38.8826],[-90.332,38.8865],[-90.3245,38.8903],[-90.3202,38.8911],[-90.3088,38.8903],[-90.2987,38.8878],[-90.2937,38.8855],[-90.2879,38.8816],[-90.2759,38.8723],[-90.2682,38.861],[-90.2561,38.8521],[-90.2451,38.8474],[-90.2355,38.8426],[-90.1957,38.8213],[-90.1889,38.8185],[-90.1831,38.8181],[-90.1735,38.8204],[-90.1674,38.8246],[-90.1585,38.8288],[-90.1509,38.8299],[-90.1416,38.8294],[-90.1328,38.8251],[-90.1268,38.8213],[-90.1231,38.816],[-90.1177,38.8057],[-90.1231,38.798],[-90.1467,38.783],[-90.1667,38.7723],[-90.1842,38.7743],[-90.1851,38.7648],[-90.1884,38.7588],[-90.1974,38.7492],[-90.2129,38.7362],[-90.2181,38.7335],[-90.2218,38.7301],[-90.228,38.7281],[-90.2518,38.7189],[-90.3018,38.6556],[-90.3036,38.6449],[-90.3064,38.6336],[-90.3087,38.63],[-90.3109,38.6182],[-90.3205,38.5942],[-90.3136,38.5788],[-90.297,38.5624],[-90.2898,38.5571],[-90.2779,38.5505],[-90.2723,38.5482],[-90.2707,38.542],[-90.271,38.5387],[-90.2669,38.5343],[-90.2578,38.532],[-90.2603,38.5284],[-90.2638,38.5205],[-90.2688,38.5062],[-90.2713,38.4961],[-90.2749,38.4863],[-90.2759,38.4796],[-90.2792,38.4725],[-90.284,38.4519],[-90.2878,38.4392],[-90.2928,38.4287],[-90.3123,38.4146],[-90.3262,38.4007],[-90.3345,38.3946],[-90.3413,38.3882],[-90.3442,38.3915],[-90.3443,38.3966],[-90.3479,38.4054],[-90.348,38.4101],[-90.3463,38.4171],[-90.3482,38.4283],[-90.3469,38.4362],[-90.3409,38.4409],[-90.3357,38.4482],[-90.3361,38.4535],[-90.3389,38.4553],[-90.3476,38.4576],[-90.3536,38.4582],[-90.3765,38.4529],[-90.391,38.4506],[-90.3926,38.4517],[-90.3907,38.4554],[-90.3947,38.4585],[-90.4003,38.4542],[-90.4087,38.4525],[-90.4144,38.457],[-90.415,38.4629],[-90.422,38.4782],[-90.4222,38.4834],[-90.4201,38.4837],[-90.4145,38.4808],[-90.4079,38.4833],[-90.4053,38.488],[-90.4074,38.4917],[-90.4076,38.4964],[-90.4053,38.5006],[-90.4612,38.5012],[-90.4928,38.5011],[-90.5125,38.5013],[-90.5881,38.5017],[-90.5911,38.5017],[-90.5929,38.497],[-90.5959,38.4938],[-90.6027,38.4796],[-90.6106,38.473],[-90.6137,38.4713],[-90.618,38.472],[-90.6286,38.4777],[-90.6337,38.4858],[-90.6435,38.4879],[-90.6514,38.488],[-90.6556,38.4867],[-90.6588,38.4833],[-90.6607,38.4792],[-90.6565,38.4625],[-90.6538,38.4586],[-90.6547,38.4561],[-90.661,38.4507],[-90.6646,38.4488],[-90.6788,38.4459],[-90.6817,38.4476],[-90.684,38.4465],[-90.686,38.4488],[-90.6806,38.4506],[-90.6769,38.4553],[-90.6805,38.4584],[-90.6833,38.4571],[-90.6854,38.4529],[-90.6887,38.4531],[-90.6878,38.4604],[-90.6935,38.4646],[-90.6956,38.4706],[-90.7003,38.4724],[-90.706,38.4721],[-90.7095,38.4698],[-90.7155,38.4687],[-90.7188,38.4699],[-90.7143,38.4751],[-90.7171,38.4783],[-90.7235,38.4821],[-90.7305,38.4827],[-90.7321,38.4795],[-90.7362,38.4669],[-90.7353,38.5043],[-90.7342,38.5419],[-90.7326,38.5766],[-90.7322,38.6214],[-90.7323,38.6393],[-90.7111,38.6447]]]}},{"type":"Feature","properties":{"id":"29099","name":"Jefferson Co., MO"},"geometry":{"type":"Polygon","coordinates":[[[-90.7321,38.4795],[-90.7305,38.4827],[-90.7235,38.4821],[-90.7171,38.4783],[-90.7143,38.4751],[-90.7188,38.4699],[-90.7155,38.4687],[-90.7095,38.4698],[-90.706,38.4721],[-90.7003,38.4724],[-90.6956,38.4706],[-90.6935,38.4646],[-90.6878,38.4604],[-90.6887,38.4531],[-90.6854,38.4529],[-90.6833,38.4571],[-90.6805,38.4584],[-90.6769,38.4553],[-90.6806,38.4506],[-90.686,38.4488],[-90.684,38.4465],[-90.6817,38.4476],[-90.6788,38.4459],[-90.6646,38.4488],[-90.661,38.4507],[-90.6547,38.4561],[-90.6538,38.4586],[-90.6565,38.4625],[-90.6607,38.4792],[-90.6588,38.4833],[-90.6556,38.4867],[-90.6514,38.488],[-90.6435,38.4879],[-90.6337,38.4858],[-90.6286,38.4777],[-90.618,38.472],[-90.6137,38.4713],[-90.6106,38.473],[-90.6027,38.4796],[-90.5959,38.4938],[-90.5929,38.497],[-90.5911,38.5017],[-90.5881,38.5017],[-90.5125,38.5013],[-90.4928,38.5011],[-90.4612,38.5012],[-90.4053,38.5006],[-90.4076,38.4964],[-90.4074,38.4917],[-90.4053,38.488],[-90.4079,38.4833],[-90.4145,38.4808],[-90.4201,38.4837],[-90.4222,38.4834],[-90.422,38.4782],[-90.415,38.4629],[-90.4144,38.457],[-90.4087,38.4525],[-90.4003,38.4542],[-90.3947,38.4585],[-90.3907,38.4554],[-90.3926,38.4517],[-90.391,38.4506],[-90.3765,38.4529],[-90.3536,38.4582],[-90.3476,38.4576],[-90.3389,38.4553],[-90.3361,38.4535],[-90.3357,38.4482],[-90.3409,38.4409],[-90.3469,38.4362],[-90.3482,38.4283],[-90.3463,38.4171],[-90.348,38.4101],[-90.3479,38.4054],[-90.3443,38.3966],[-90.3442,38.3915],[-90.3413,38.3882],[-90.3491,38.3775],[-90.3563,38.3604],[-90.3682,38.3403],[-90.3708,38.3336],[-90.3725,38.3234],[-90.3717,38.3044],[-90.3727,38.2862],[-90.3681,38.2602],[-90.3664,38.2459],[-90.3596,38.2245],[-90.3539,38.2139],[-90.3343,38.1899],[-90.3224,38.1816],[-90.3168,38.1795],[-90.3106,38.1786],[-90.3005,38.1752],[-90.2908,38.1705],[-90.2749,38.1576],[-90.2527,38.1278],[-90.256,38.1262],[-90.2524,38.1184],[-90.2501,38.1161],[-90.2513,38.1143],[-90.256,38.1169],[-90.2593,38.1144],[-90.2621,38.1079],[-90.2647,38.1067],[-90.2699,38.1077],[-90.274,38.105],[-90.2794,38.1048],[-90.2817,38.1034],[-90.2803,38.0988],[-90.2872,38.0941],[-90.2879,38.0918],[-90.2913,38.0917],[-90.296,38.088],[-90.3175,38.0928],[-90.3213,38.0949],[-90.3246,38.0934],[-90.3294,38.0944],[-90.3415,38.0872],[-90.416,38.0423],[-90.417,38.0427],[-90.4721,38.0299],[-90.5833,38.0035],[-90.6281,38.0077],[-90.6278,38.0109],[-90.6249,38.0128],[-90.6165,38.0135],[-90.6128,38.017],[-90.6168,38.0233],[-90.6164,38.0284],[-90.6215,38.0404],[-90.6205,38.043],[-90.6211,38.0521],[-90.6189,38.0572],[-90.6138,38.0615],[-90.6124,38.0646],[-90.6122,38.0701],[-90.6157,38.0732],[-90.6199,38.0728],[-90.6252,38.076],[-90.6325,38.0741],[-90.6365,38.0762],[-90.6447,38.0779],[-90.6507,38.0809],[-90.6592,38.0818],[-90.662,38.0862],[-90.6578,38.0869],[-90.6537,38.089],[-90.6514,38.0921],[-90.6543,38.0954],[-90.6591,38.0975],[-90.6612,38.0947],[-90.6614,38.0906],[-90.6636,38.0877],[-90.6697,38.0885],[-90.6777,38.0869],[-90.6808,38.0877],[-90.6848,38.0863],[-90.6854,38.0911],[-90.6779,38.0923],[-90.6762,38.0951],[-90.6807,38.1003],[-90.6814,38.1027],[-90.6934,38.1143],[-90.7028,38.1251],[-90.7453,38.1685],[-90.7676,38.1907],[-90.7802,38.2041],[-90.7726,38.2459],[-90.7723,38.2501],[-90.7556,38.3301],[-90.7407,38.3994],[-90.7376,38.4159],[-90.7362,38.4669],[-90.7321,38.4795]]]}},{"type":"Feature","properties":{"id":"17027","name":"Clinton Co., IL"},"geometry":{"type":"Polygon","coordinates":[[[-89.5951,38.6559],[-89.5973,38.7432],[-89.5492,38.7419],[-89.482,38.7405],[-89.3721,38.7412],[-89.2722,38.742],[-89.2542,38.742],[-89.2448,38.7418],[-89.1651,38.7376],[-89.1384,38.7363],[-89.1387,38.7019],[-89.1396,38.6488],[-89.1409,38.6052],[-89.1439,38.5031],[-89.1787,38.5049],[-89.2181,38.5065],[-89.2549,38.5086],[-89.2588,38.5091],[-89.2603,38.5073],[-89.264,38.5105],[-89.2658,38.5074],[-89.2699,38.5069],[-89.2731,38.5045],[-89.2779,38.5052],[-89.2783,38.5078],[-89.2841,38.5062],[-89.2847,38.5095],[-89.2919,38.508],[-89.2985,38.5056],[-89.3033,38.5094],[-89.3108,38.5124],[-89.3151,38.5119],[-89.316,38.5089],[-89.3219,38.5113],[-89.323,38.513],[-89.3284,38.5106],[-89.3308,38.5122],[-89.3384,38.5117],[-89.3395,38.5134],[-89.3439,38.5107],[-89.3449,38.5143],[-89.3508,38.5168],[-89.3513,38.5188],[-89.3589,38.5176],[-89.3612,38.5145],[-89.3592,38.5088],[-89.3637,38.5105],[-89.3611,38.506],[-89.3679,38.5055],[-89.3649,38.501],[-89.3755,38.4992],[-89.3799,38.4944],[-89.3794,38.4972],[-89.3823,38.4974],[-89.3856,38.4943],[-89.387,38.4969],[-89.3896,38.4948],[-89.3978,38.4949],[-89.3985,38.492],[-89.396,38.4911],[-89.4011,38.4891],[-89.4012,38.4937],[-89.4059,38.4956],[-89.4081,38.489],[-89.4122,38.4883],[-89.4172,38.4941],[-89.4262,38.4964],[-89.4278,38.4992],[-89.4346,38.494],[-89.434,38.4909],[-89.4381,38.4895],[-89.4452,38.4901],[-89.4498,38.4882],[-89.4558,38.4825],[-89.4551,38.4798],[-89.4606,38.4773],[-89.4676,38.4763],[-89.4697,38.4731],[-89.4781,38.4714],[-89.4819,38.4686],[-89.4837,38.4731],[-89.489,38.4743],[-89.4915,38.4774],[-89.4933,38.4751],[-89.4901,38.4717],[-89.5012,38.4744],[-89.5053,38.4735],[-89.5085,38.4746],[-89.5139,38.4725],[-89.5198,38.4745],[-89.523,38.4783],[-89.5261,38.4791],[-89.5286,38.4776],[-89.5278,38.4808],[-89.531,38.4787],[-89.5337,38.4807],[-89.5386,38.481],[-89.5415,38.4795],[-89.54,38.4742],[-89.5467,38.4744],[-89.5508,38.4775],[-89.5582,38.4775],[-89.5686,38.4759],[-89.5647,38.4813],[-89.5683,38.481],[-89.5724,38.4828],[-89.5754,38.4782],[-89.5777,38.4835],[-89.5793,38.4802],[-89.5894,38.4756],[-89.5916,38.4766],[-89.5949,38.4748],[-89.5999,38.4761],[-89.6029,38.4742],[-89.6071,38.475],[-89.6155,38.4718],[-89.6167,38.4669],[-89.621,38.4663],[-89.6201,38.4638],[-89.6257,38.4604],[-89.6257,38.4642],[-89.6292,38.4627],[-89.6269,38.4576],[-89.6277,38.4507],[-89.6304,38.4498],[-89.6322,38.4522],[-89.6348,38.4516],[-89.6328,38.4479],[-89.6365,38.4481],[-89.6404,38.4453],[-89.6445,38.4481],[-89.647,38.4461],[-89.6437,38.4446],[-89.6444,38.4418],[-89.655,38.4428],[-89.664,38.4454],[-89.6678,38.4428],[-89.6682,38.4349],[-89.665,38.4344],[-89.6673,38.4322],[-89.6739,38.4348],[-89.6717,38.4299],[-89.6757,38.432],[-89.6776,38.4248],[-89.6853,38.4252],[-89.6836,38.4291],[-89.6866,38.4301],[-89.6877,38.4274],[-89.6964,38.4253],[-89.6947,38.421],[-89.6921,38.4198],[-89.6948,38.4167],[-89.7042,38.4158],[-89.7046,38.4803],[-89.7055,38.5582],[-89.7066,38.626],[-89.7069,38.655],[-89.5951,38.6559]]]}},{"type":"Feature","properties":{"id":"29183","name":"St. Charles Co., MO"},"geometry":{"type":"Polygon","coordinates":[[[-90.9576,38.8933],[-90.9542,38.8931],[-90.9497,38.8949],[-90.9445,38.8911],[-90.9402,38.8865],[-90.9373,38.8881],[-90.9328,38.8859],[-90.9252,38.8886],[-90.9221,38.8874],[-90.9139,38.8889],[-90.9124,38.8906],[-90.9078,38.8909],[-90.9012,38.8893],[-90.9005,38.886],[-90.8832,38.8867],[-90.8807,38.8885],[-90.8712,38.8887],[-90.8645,38.8879],[-90.8593,38.8819],[-90.8558,38.8847],[-90.8526,38.8811],[-90.8496,38.8807],[-90.8513,38.8836],[-90.843,38.8835],[-90.8392,38.8814],[-90.8393,38.8796],[-90.8347,38.8813],[-90.838,38.8823],[-90.8351,38.8835],[-90.8311,38.8782],[-90.827,38.879],[-90.8227,38.8764],[-90.8178,38.876],[-90.8132,38.879],[-90.8076,38.8777],[-90.8062,38.879],[-90.8102,38.8856],[-90.81,38.8889],[-90.8069,38.8952],[-90.8083,38.8996],[-90.8059,38.9017],[-90.8002,38.9011],[-90.7979,38.9031],[-90.7982,38.9063],[-90.8044,38.9111],[-90.7913,38.9179],[-90.782,38.9186],[-90.7782,38.9225],[-90.7678,38.9223],[-90.7604,38.9198],[-90.7541,38.9207],[-90.7492,38.9242],[-90.7452,38.9295],[-90.741,38.9308],[-90.7288,38.9311],[-90.7247,38.9282],[-90.7237,38.9259],[-90.7261,38.9226],[-90.7346,38.9197],[-90.7357,38.9162],[-90.7337,38.9143],[-90.7246,38.9152],[-90.7229,38.9121],[-90.7245,38.9098],[-90.7212,38.9087],[-90.7176,38.9103],[-90.7106,38.9081],[-90.7093,38.9031],[-90.706,38.9034],[-90.6993,38.9079],[-90.7033,38.9122],[-90.7099,38.9136],[-90.7138,38.9121],[-90.7174,38.9137],[-90.7143,38.9182],[-90.7073,38.9215],[-90.7009,38.9198],[-90.6972,38.9161],[-90.6939,38.9155],[-90.6885,38.9166],[-90.6846,38.9156],[-90.6896,38.9236],[-90.6975,38.9282],[-90.6966,38.9328],[-90.6916,38.9342],[-90.6859,38.9339],[-90.6634,38.9342],[-90.6635,38.9274],[-90.6473,38.9121],[-90.6359,38.9039],[-90.6285,38.8916],[-90.6251,38.8887],[-90.5954,38.8751],[-90.5834,38.869],[-90.5767,38.8683],[-90.5666,38.8688],[-90.5557,38.8708],[-90.544,38.8751],[-90.5311,38.8871],[-90.517,38.8988],[-90.5075,38.9028],[-90.5001,38.9104],[-90.487,38.926],[-90.4827,38.9347],[-90.4835,38.9404],[-90.4824,38.9445],[-90.4721,38.9588],[-90.4624,38.9643],[-90.4508,38.9678],[-90.4401,38.9674],[-90.4247,38.9638],[-90.4064,38.9626],[-90.3958,38.96],[-90.3831,38.9555],[-90.3464,38.9408],[-90.3335,38.9335],[-90.3176,38.9279],[-90.3095,38.9241],[-90.2987,38.9234],[-90.2837,38.924],[-90.2757,38.9234],[-90.2699,38.9226],[-90.2628,38.9203],[-90.257,38.9208],[-90.2502,38.9193],[-90.2417,38.9148],[-90.2303,38.9109],[-90.223,38.9074],[-90.2135,38.9005],[-90.1976,38.8876],[-90.1869,38.885],[-90.1664,38.8763],[-90.1515,38.8671],[-90.1133,38.8493],[-90.1094,38.8435],[-90.1091,38.8374],[-90.1147,38.815],[-90.1177,38.8057],[-90.1231,38.816],[-90.1268,38.8213],[-90.1328,38.8251],[-90.1416,38.8294],[-90.1509,38.8299],[-90.1585,38.8288],[-90.1674,38.8246],[-90.1735,38.8204],[-90.1831,38.8181],[-90.1889,38.8185],[-90.1957,38.8213],[-90.2355,38.8426],[-90.2451,38.8474],[-90.2561,38.8521],[-90.2682,38.861],[-90.2759,38.8723],[-90.2879,38.8816],[-90.2937,38.8855],[-90.2987,38.8878],[-90.3088,38.8903],[-90.3202,38.8911],[-90.3245,38.8903],[-90.332,38.8865],[-90.3364,38.8826],[-90.3408,38.8735],[-90.3426,38.8665],[-90.3425,38.8585],[-90.345,38.8494],[-90.3491,38.8417],[-90.3622,38.8279],[-90.37,38.8238],[-90.3738,38.8227],[-90.3823,38.8219],[-90.395,38.8232],[-90.4155,38.8289],[-90.431,38.8298],[-90.4406,38.8277],[-90.4481,38.8221],[-90.4496,38.8199],[-90.4732,38.791],[-90.4827,38.7635],[-90.4852,38.7592],[-90.4958,38.7483],[-90.5151,38.7397],[-90.5296,38.7328],[-90.5336,38.7269],[-90.533,38.721],[-90.5304,38.7082],[-90.5304,38.6986],[-90.5338,38.6919],[-90.5393,38.6868],[-90.5401,38.6874],[-90.5507,38.6824],[-90.5568,38.6815],[-90.5683,38.6839],[-90.5721,38.6838],[-90.5795,38.6815],[-90.5886,38.6805],[-90.5951,38.6818],[-90.6039,38.682],[-90.6114,38.6842],[-90.6191,38.6886],[-90.6238,38.6903],[-90.6326,38.6911],[-90.6473,38.6905],[-90.6605,38.6886],[-90.6745,38.6822],[-90.6773,38.6698],[-90.6793,38.6656],[-90.6851,38.6628],[-90.698,38.6604],[-90.7045,38.6555],[-90.704,38.6502],[-90.7058,38.6473],[-90.7111,38.6447],[-90.7323,38.6393],[-90.7363,38.6367],[-90.7424,38.6346],[-90.744,38.6309],[-90.7507,38.6251],[-90.7548,38.6161],[-90.7564,38.6107],[-90.7633,38.6019],[-90.7736,38.5946],[-90.7812,38.592],[-90.7957,38.5902],[-90.813,38.5856],[-90.8292,38.5753],[-90.8358,38.5698],[-90.8419,38.566],[-90.8498,38.5623],[-90.8733,38.5539],[-90.8839,38.5478],[-90.8927,38.5422],[-90.9048,38.5375],[-90.9166,38.5347],[-90.9233,38.5341],[-90.9329,38.535],[-90.9477,38.5389],[-90.954,38.5416],[-90.9645,38.5475],[-90.9638,38.5781],[-90.9639,38.5837],[-90.9631,38.6933],[-90.9624,38.7603],[-90.9618,38.7915],[-90.961,38.8162],[-90.9585,38.8709],[-90.9576,38.8933]]]}},{"type":"Feature","properties":{"id":"29510","name":"St. Louis city, MO"},"geometry":{"type":"Polygon","coordinates":[[[-90.1713,38.7665],[-90.1751,38.7602],[-90.1763,38.7544],[-90.1834,38.7468],[-90.1913,38.7429],[-90.2052,38.7322],[-90.2099,38.7261],[-90.2119,38.718],[-90.212,38.7118],[-90.2092,38.7028],[-90.2022,38.6935],[-90.1952,38.6876],[-90.1864,38.6748],[-90.1826,38.6653],[-90.1812,38.6601],[-90.1777,38.6428],[-90.1788,38.6292],[-90.1845,38.6116],[-90.1918,38.599],[-90.2025,38.5887],[-90.2101,38.584],[-90.2167,38.5788],[-90.2242,38.5751],[-90.2489,38.5448],[-90.2578,38.532],[-90.2669,38.5343],[-90.271,38.5387],[-90.2707,38.542],[-90.2723,38.5482],[-90.2779,38.5505],[-90.2898,38.5571],[-90.297,38.5624],[-90.3136,38.5788],[-90.3205,38.5942],[-90.3109,38.6182],[-90.3087,38.63],[-90.3064,38.6336],[-90.3036,38.6449],[-90.3018,38.6556],[-90.2518,38.7189],[-90.228,38.7281],[-90.2218,38.7301],[-90.2181,38.7335],[-90.2129,38.7362],[-90.1974,38.7492],[-90.1884,38.7588],[-90.1851,38.7648],[-90.1842,38.7743],[-90.1667,38.7723],[-90.1713,38.7665]]]}},{"type":"Feature","properties":{"id":"17163","name":"St. Clair Co., IL"},"geometry":{"type":"Polygon","coordinates":[[[-90.2489,38.5448],[-90.2242,38.5751],[-90.2167,38.5788],[-90.2101,38.584],[-90.2025,38.5887],[-90.1918,38.599],[-90.1845,38.6116],[-90.1788,38.6292],[-90.1777,38.6428],[-90.1812,38.6601],[-90.1473,38.6602],[-90.0929,38.6595],[-90.0576,38.6586],[-89.9565,38.658],[-89.9135,38.6575],[-89.8789,38.6567],[-89.876,38.6568],[-89.8189,38.6558],[-89.7609,38.6553],[-89.7069,38.655],[-89.7066,38.626],[-89.7055,38.5582],[-89.7046,38.4803],[-89.7042,38.4158],[-89.7042,38.3808],[-89.7033,38.2194],[-89.8157,38.2199],[-89.899,38.2208],[-89.9035,38.2253],[-89.9037,38.2284],[-89.8979,38.2286],[-89.8975,38.2321],[-89.901,38.2351],[-89.9087,38.2376],[-89.9075,38.2431],[-89.9112,38.2482],[-89.9173,38.2518],[-89.9134,38.2549],[-89.9145,38.2588],[-89.9203,38.2642],[-89.9237,38.269],[-89.9209,38.2711],[-89.9252,38.2733],[-89.9225,38.2754],[-89.9195,38.2818],[-89.9189,38.2859],[-89.9135,38.286],[-89.9113,38.2847],[-89.9121,38.2822],[-89.9177,38.2805],[-89.9172,38.2778],[-89.9108,38.2761],[-89.9062,38.2772],[-89.9036,38.2794],[-89.9013,38.2868],[-89.9068,38.2936],[-89.9041,38.2978],[-89.9098,38.3027],[-89.9131,38.3081],[-89.9258,38.3082],[-89.9989,38.3085],[-90.0361,38.3089],[-90.0361,38.3235],[-90.0996,38.3746],[-90.1267,38.3969],[-90.1288,38.3973],[-90.1456,38.4121],[-90.1454,38.4267],[-90.1773,38.4524],[-90.2353,38.4976],[-90.2406,38.5024],[-90.2638,38.5205],[-90.2603,38.5284],[-90.2578,38.532],[-90.2489,38.5448]]]}},{"type":"Feature","properties":{"id":"17083","name":"Jersey Co., IL"},"geometry":{"type":"Polygon","coordinates":[[[-90.5977,39.1257],[-90.597,39.1287],[-90.5991,39.1345],[-90.5966,39.1379],[-90.591,39.1387],[-90.5894,39.1412],[-90.5847,39.1422],[-90.5828,39.1443],[-90.5832,39.1492],[-90.5872,39.1549],[-90.5854,39.1616],[-90.581,39.165],[-90.5769,39.1645],[-90.5753,39.1672],[-90.5768,39.1739],[-90.5809,39.1756],[-90.5818,39.1782],[-90.5789,39.1794],[-90.5806,39.1849],[-90.5733,39.1841],[-90.5746,39.1786],[-90.5704,39.1778],[-90.5664,39.18],[-90.5701,39.1834],[-90.5661,39.1833],[-90.5601,39.1874],[-90.5555,39.189],[-90.5455,39.1901],[-90.5461,39.1839],[-90.5424,39.1839],[-90.5409,39.1895],[-90.5365,39.1929],[-90.5327,39.1875],[-90.5285,39.1884],[-90.5292,39.1916],[-90.5268,39.1924],[-90.523,39.1871],[-90.5204,39.188],[-90.5075,39.1852],[-90.5028,39.18],[-90.5057,39.1754],[-90.5025,39.1637],[-90.4981,39.164],[-90.4978,39.1606],[-90.4912,39.1614],[-90.4879,39.1641],[-90.4865,39.1712],[-90.4876,39.175],[-90.3708,39.1743],[-90.3133,39.1743],[-90.3139,39.2251],[-90.2764,39.2247],[-90.2581,39.2253],[-90.2203,39.2256],[-90.2018,39.2255],[-90.2027,39.2582],[-90.1937,39.2582],[-90.1939,39.262],[-90.1481,39.2619],[-90.1463,39.1741],[-90.1459,39.0867],[-90.146,38.9993],[-90.1689,38.999],[-90.2162,38.999],[-90.2583,38.9991],[-90.274,38.999],[-90.2748,38.9589],[-90.2757,38.9234],[-90.2837,38.924],[-90.2987,38.9234],[-90.3095,38.9241],[-90.3176,38.9279],[-90.3335,38.9335],[-90.3464,38.9408],[-90.3831,38.9555],[-90.3958,38.96],[-90.4064,38.9626],[-90.4247,38.9638],[-90.4401,38.9674],[-90.4508,38.9678],[-90.4566,38.9688],[-90.4678,38.9692],[-90.4812,38.9686],[-90.4918,38.9666],[-90.5001,38.9631],[-90.5101,38.9568],[-90.5196,38.9539],[-90.5299,38.9563],[-90.5347,38.9585],[-90.5432,38.9647],[-90.5533,38.9759],[-90.5646,38.9865],[-90.5702,38.9933],[-90.5744,39.0031],[-90.5761,39.0094],[-90.5759,39.0176],[-90.5737,39.0234],[-90.5743,39.0298],[-90.5768,39.0359],[-90.5809,39.0407],[-90.5881,39.0457],[-90.59,39.0507],[-90.5892,39.0543],[-90.5841,39.0587],[-90.5813,39.0631],[-90.5814,39.0657],[-90.5893,39.076],[-90.5922,39.0868],[-90.5966,39.0973],[-90.6033,39.1107],[-90.6036,39.1176],[-90.5977,39.1257]]]}},{"type":"Feature","properties":{"id":"17133","name":"Monroe Co., IL"},"geometry":{"type":"Polygon","coordinates":[[[-90.3345,38.3946],[-90.3262,38.4007],[-90.3123,38.4146],[-90.2928,38.4287],[-90.2878,38.4392],[-90.284,38.4519],[-90.2792,38.4725],[-90.2759,38.4796],[-90.2749,38.4863],[-90.2713,38.4961],[-90.2688,38.5062],[-90.2638,38.5205],[-90.2406,38.5024],[-90.2353,38.4976],[-90.1773,38.4524],[-90.1454,38.4267],[-90.1456,38.4121],[-90.1288,38.3973],[-90.1267,38.3969],[-90.0996,38.3746],[-90.0361,38.3235],[-90.0361,38.3089],[-89.9989,38.3085],[-89.9258,38.3082],[-89.9131,38.3081],[-89.9098,38.3027],[-89.9041,38.2978],[-89.9068,38.2936],[-89.9013,38.2868],[-89.9036,38.2794],[-89.9062,38.2772],[-89.9108,38.2761],[-89.9172,38.2778],[-89.9177,38.2805],[-89.9121,38.2822],[-89.9113,38.2847],[-89.9135,38.286],[-89.9189,38.2859],[-89.9195,38.2818],[-89.9225,38.2754],[-89.9252,38.2733],[-89.9209,38.2711],[-89.9237,38.269],[-89.9203,38.2642],[-89.9145,38.2588],[-89.9134,38.2549],[-89.9173,38.2518],[-89.9112,38.2482],[-89.9075,38.2431],[-89.9087,38.2376],[-89.901,38.2351],[-89.8975,38.2321],[-89.8979,38.2286],[-89.9037,38.2284],[-89.9035,38.2253],[-89.899,38.2208],[-89.9663,38.2216],[-90.0363,38.2232],[-90.036,38.1357],[-90.0545,38.1307],[-90.0808,38.123],[-90.1096,38.1151],[-90.1225,38.1106],[-90.146,38.1047],[-90.2018,38.0881],[-90.2053,38.0867],[-90.2187,38.0944],[-90.2431,38.1127],[-90.2501,38.1251],[-90.2527,38.1278],[-90.2749,38.1576],[-90.2908,38.1705],[-90.3005,38.1752],[-90.3106,38.1786],[-90.3168,38.1795],[-90.3224,38.1816],[-90.3343,38.1899],[-90.3539,38.2139],[-90.3596,38.2245],[-90.3664,38.2459],[-90.3681,38.2602],[-90.3727,38.2862],[-90.3717,38.3044],[-90.3725,38.3234],[-90.3708,38.3336],[-90.3682,38.3403],[-90.3563,38.3604],[-90.3491,38.3775],[-90.3413,38.3882],[-90.3345,38.3946]]]}},{"type":"Feature","properties":{"id":"17005","name":"Bond Co., IL"},"geometry":{"type":"Polygon","coordinates":[[[-89.5861,38.9995],[-89.5863,39.0283],[-89.5212,39.0282],[-89.4781,39.0278],[-89.3988,39.0279],[-89.3618,39.0277],[-89.299,39.0282],[-89.2503,39.0282],[-89.2503,38.9992],[-89.2574,38.9992],[-89.2571,38.9463],[-89.2566,38.9067],[-89.2553,38.8297],[-89.2547,38.7861],[-89.2542,38.742],[-89.2722,38.742],[-89.3721,38.7412],[-89.482,38.7405],[-89.5492,38.7419],[-89.5973,38.7432],[-89.5991,38.8305],[-89.5996,38.8745],[-89.6369,38.8743],[-89.6379,38.9184],[-89.637,38.9184],[-89.638,38.9332],[-89.6385,38.9505],[-89.6388,38.9851],[-89.6393,38.9991],[-89.5861,38.9995]]]}},{"type":"Feature","properties":{"id":"29071","name":"Franklin Co., MO"},"geometry":{"type":"Polygon","coordinates":[[[-91.353,38.6956],[-91.3491,38.6954],[-91.3417,38.6974],[-91.328,38.7073],[-91.319,38.7084],[-91.3131,38.7067],[-91.3097,38.7045],[-91.2911,38.6892],[-91.2747,38.679],[-91.2666,38.6718],[-91.2598,38.6666],[-91.2467,38.6601],[-91.2374,38.655],[-91.233,38.6513],[-91.2276,38.643],[-91.2265,38.6366],[-91.2285,38.6302],[-91.2265,38.6216],[-91.2164,38.6177],[-91.2029,38.6147],[-91.183,38.6079],[-91.1525,38.6037],[-91.1325,38.5983],[-91.1251,38.5977],[-91.1129,38.5996],[-91.0961,38.6051],[-91.0773,38.6093],[-91.0689,38.6099],[-91.0559,38.6083],[-91.0466,38.6049],[-91.0372,38.5986],[-91.0323,38.5935],[-91.0293,38.5887],[-91.0245,38.5784],[-91.0214,38.5735],[-91.0141,38.566],[-91.0054,38.5611],[-90.9924,38.5551],[-90.9848,38.5529],[-90.9695,38.5497],[-90.9645,38.5475],[-90.954,38.5416],[-90.9477,38.5389],[-90.9329,38.535],[-90.9233,38.5341],[-90.9166,38.5347],[-90.9048,38.5375],[-90.8927,38.5422],[-90.8839,38.5478],[-90.8733,38.5539],[-90.8498,38.5623],[-90.8419,38.566],[-90.8358,38.5698],[-90.8292,38.5753],[-90.813,38.5856],[-90.7957,38.5902],[-90.7812,38.592],[-90.7736,38.5946],[-90.7633,38.6019],[-90.7564,38.6107],[-90.7548,38.6161],[-90.7507,38.6251],[-90.744,38.6309],[-90.7424,38.6346],[-90.7363,38.6367],[-90.7323,38.6393],[-90.7322,38.6214],[-90.7326,38.5766],[-90.7342,38.5419],[-90.7353,38.5043],[-90.7362,38.4669],[-90.7376,38.4159],[-90.7407,38.3994],[-90.7556,38.3301],[-90.7723,38.2501],[-90.7726,38.2459],[-90.7802,38.2041],[-90.7906,38.204],[-90.8192,38.2043],[-90.8583,38.2051],[-90.8849,38.2048],[-90.9702,38.2055],[-90.9702,38.2067],[-90.9896,38.2043],[-91.0088,38.2041],[-91.0856,38.2041],[-91.1251,38.2042],[-91.1694,38.2041],[-91.2555,38.2041],[-91.2912,38.204],[-91.3676,38.204],[-91.3666,38.2429],[-91.3663,38.2831],[-91.366,38.2852],[-91.3654,38.3315],[-91.367,38.3315],[-91.3668,38.4199],[-91.3678,38.4203],[-91.3676,38.4803],[-91.3678,38.5094],[-91.3685,38.5094],[-91.3683,38.5537],[-91.3678,38.5692],[-91.3689,38.625],[-91.3684,38.6656],[-91.3684,38.6882],[-91.3692,38.6993],[-91.353,38.6956]]]}},{"type":"Feature","properties":{"id":"17119","name":"Madison Co., IL"},"geometry":{"type":"Polygon","coordinates":[[[-90.0738,38.9985],[-90.0208,38.9989],[-89.9603,38.9987],[-89.927,38.9988],[-89.813,38.9983],[-89.7738,38.9985],[-89.7551,38.9988],[-89.6986,38.999],[-89.6393,38.9991],[-89.6388,38.9851],[-89.6385,38.9505],[-89.638,38.9332],[-89.637,38.9184],[-89.6379,38.9184],[-89.6369,38.8743],[-89.5996,38.8745],[-89.5991,38.8305],[-89.5973,38.7432],[-89.5951,38.6559],[-89.7069,38.655],[-89.7609,38.6553],[-89.8189,38.6558],[-89.876,38.6568],[-89.8789,38.6567],[-89.9135,38.6575],[-89.9565,38.658],[-90.0576,38.6586],[-90.0929,38.6595],[-90.1473,38.6602],[-90.1812,38.6601],[-90.1826,38.6653],[-90.1864,38.6748],[-90.1952,38.6876],[-90.2022,38.6935],[-90.2092,38.7028],[-90.212,38.7118],[-90.2119,38.718],[-90.2099,38.7261],[-90.2052,38.7322],[-90.1913,38.7429],[-90.1834,38.7468],[-90.1763,38.7544],[-90.1751,38.7602],[-90.1713,38.7665],[-90.1667,38.7723],[-90.1467,38.783],[-90.1231,38.798],[-90.1177,38.8057],[-90.1147,38.815],[-90.1091,38.8374],[-90.1094,38.8435],[-90.1133,38.8493],[-90.1515,38.8671],[-90.1664,38.8763],[-90.1869,38.885],[-90.1976,38.8876],[-90.2135,38.9005],[-90.223,38.9074],[-90.2303,38.9109],[-90.2417,38.9148],[-90.2502,38.9193],[-90.257,38.9208],[-90.2628,38.9203],[-90.2699,38.9226],[-90.2757,38.9234],[-90.2748,38.9589],[-90.274,38.999],[-90.2583,38.9991],[-90.2162,38.999],[-90.1689,38.999],[-90.146,38.9993],[-90.0738,38.9985]]]}},{"type":"Feature","properties":{"id":"29219","name":"Warren Co., MO"},"geometry":{"type":"Polygon","coordinates":[[[-91.2492,38.9928],[-91.2165,38.9923],[-91.1884,38.9921],[-91.189,38.9623],[-91.1893,38.9322],[-91.1102,38.9319],[-91.111,38.8978],[-91.1113,38.8727],[-91.0903,38.8724],[-91.0737,38.8727],[-91.0092,38.872],[-90.9585,38.8709],[-90.961,38.8162],[-90.9618,38.7915],[-90.9624,38.7603],[-90.9631,38.6933],[-90.9639,38.5837],[-90.9638,38.5781],[-90.9645,38.5475],[-90.9695,38.5497],[-90.9848,38.5529],[-90.9924,38.5551],[-91.0054,38.5611],[-91.0141,38.566],[-91.0214,38.5735],[-91.0245,38.5784],[-91.0293,38.5887],[-91.0323,38.5935],[-91.0372,38.5986],[-91.0466,38.6049],[-91.0559,38.6083],[-91.0689,38.6099],[-91.0773,38.6093],[-91.0961,38.6051],[-91.1129,38.5996],[-91.1251,38.5977],[-91.1325,38.5983],[-91.1525,38.6037],[-91.183,38.6079],[-91.2029,38.6147],[-91.2164,38.6177],[-91.2265,38.6216],[-91.2285,38.6302],[-91.2265,38.6366],[-91.2276,38.643],[-91.233,38.6513],[-91.2374,38.655],[-91.2467,38.6601],[-91.2598,38.6666],[-91.2666,38.6718],[-91.2747,38.679],[-91.2911,38.6892],[-91.3097,38.7045],[-91.3131,38.7067],[-91.319,38.7084],[-91.328,38.7073],[-91.3417,38.6974],[-91.3491,38.6954],[-91.353,38.6956],[-91.3692,38.6993],[-91.3823,38.704],[-91.3951,38.708],[-91.4054,38.7092],[-91.4186,38.7098],[-91.4176,38.7398],[-91.4163,38.8206],[-91.4166,38.8309],[-91.4158,38.8453],[-91.3649,38.8445],[-91.3138,38.8453],[-91.3019,38.8459],[-91.3019,38.8443],[-91.2834,38.8435],[-91.2649,38.8438],[-91.2653,38.8747],[-91.2647,38.9189],[-91.2636,38.9565],[-91.2638,38.9636],[-91.265,38.9636],[-91.2643,38.9928],[-91.2492,38.9928]]]}},{"type":"Feature","properties":{"id":"17013","name":"Calhoun Co., IL"},"geometry":{"type":"Polygon","coordinates":[[[-90.6033,39.1107],[-90.5966,39.0973],[-90.5922,39.0868],[-90.5893,39.076],[-90.5814,39.0657],[-90.5813,39.0631],[-90.5841,39.0587],[-90.5892,39.0543],[-90.59,39.0507],[-90.5881,39.0457],[-90.5809,39.0407],[-90.5768,39.0359],[-90.5743,39.0298],[-90.5737,39.0234],[-90.5759,39.0176],[-90.5761,39.0094],[-90.5744,39.0031],[-90.5702,38.9933],[-90.5646,38.9865],[-90.5533,38.9759],[-90.5432,38.9647],[-90.5347,38.9585],[-90.5299,38.9563],[-90.5196,38.9539],[-90.5101,38.9568],[-90.5001,38.9631],[-90.4918,38.9666],[-90.4812,38.9686],[-90.4678,38.9692],[-90.4566,38.9688],[-90.4508,38.9678],[-90.4624,38.9643],[-90.4721,38.9588],[-90.4824,38.9445],[-90.4835,38.9404],[-90.4827,38.9347],[-90.487,38.926],[-90.5001,38.9104],[-90.5075,38.9028],[-90.517,38.8988],[-90.5311,38.8871],[-90.544,38.8751],[-90.5557,38.8708],[-90.5666,38.8688],[-90.5767,38.8683],[-90.5834,38.869],[-90.5954,38.8751],[-90.6251,38.8887],[-90.6285,38.8916],[-90.6359,38.9039],[-90.6473,38.9121],[-90.6635,38.9274],[-90.6634,38.9342],[-90.6672,38.9404],[-90.6692,38.9482],[-90.6759,38.9621],[-90.6764,38.9658],[-90.6764,38.9841],[-90.6782,38.9919],[-90.6821,38.9988],[-90.6888,39.0073],[-90.6924,39.0167],[-90.7006,39.0291],[-90.7079,39.0423],[-90.7116,39.0468],[-90.7136,39.054],[-90.7125,39.0571],[-90.7021,39.0656],[-90.7004,39.0718],[-90.6827,39.0883],[-90.6811,39.1006],[-90.6861,39.1178],[-90.6949,39.1297],[-90.7005,39.1354],[-90.7052,39.1432],[-90.7091,39.1551],[-90.71,39.1729],[-90.7105,39.1764],[-90.7144,39.1853],[-90.7174,39.1974],[-90.7167,39.2067],[-90.7171,39.2139],[-90.7218,39.2241],[-90.7216,39.2327],[-90.727,39.2512],[-90.73,39.2559],[-90.7391,39.2619],[-90.7489,39.2641],[-90.7516,39.2654],[-90.7676,39.28],[-90.7757,39.2928],[-90.7838,39.2972],[-90.7907,39.3029],[-90.7935,39.3095],[-90.7993,39.3131],[-90.8169,39.3205],[-90.8213,39.3237],[-90.8401,39.3404],[-90.8475,39.3453],[-90.8591,39.3514],[-90.8938,39.3673],[-90.9001,39.3724],[-90.9029,39.3775],[-90.908,39.3808],[-90.921,39.3837],[-90.9287,39.3875],[-90.934,39.3921],[-90.9368,39.3995],[-90.9112,39.3996],[-90.9083,39.4003],[-90.8408,39.3999],[-90.7628,39.3991],[-90.7508,39.3985],[-90.6874,39.3964],[-90.6138,39.3954],[-90.6173,39.3857],[-90.6208,39.3812],[-90.6202,39.3757],[-90.6223,39.3651],[-90.6196,39.3491],[-90.6168,39.3376],[-90.6141,39.3303],[-90.6113,39.3115],[-90.6083,39.3036],[-90.6024,39.2927],[-90.6024,39.2875],[-90.6063,39.2798],[-90.6074,39.2697],[-90.6098,39.2598],[-90.6075,39.254],[-90.6048,39.25],[-90.598,39.2433],[-90.5972,39.2351],[-90.5923,39.2182],[-90.593,39.21],[-90.5912,39.1986],[-90.5935,39.1932],[-90.5975,39.1875],[-90.6001,39.1798],[-90.6084,39.1732],[-90.612,39.1673],[-90.6146,39.1538],[-90.6145,39.1423],[-90.6112,39.1332],[-90.6052,39.1229],[-90.6036,39.1176],[-90.6033,39.1107]]]}},{"type":"Feature","properties":{"id":"17117","name":"Macoupin Co., IL"},"geometry":{"type":"Polygon","coordinates":[[[-89.7551,38.9988],[-89.7738,38.9985],[-89.813,38.9983],[-89.927,38.9988],[-89.9603,38.9987],[-90.0208,38.9989],[-90.0738,38.9985],[-90.146,38.9993],[-90.1459,39.0867],[-90.1463,39.1741],[-90.1481,39.2619],[-90.1495,39.3463],[-90.1506,39.3463],[-90.1523,39.4338],[-90.1538,39.5203],[-90.1089,39.5207],[-90.0389,39.5214],[-89.9262,39.5221],[-89.8978,39.5223],[-89.7953,39.5229],[-89.7595,39.523],[-89.7017,39.5233],[-89.7011,39.4888],[-89.6993,39.348],[-89.7037,39.348],[-89.703,39.3103],[-89.7024,39.2654],[-89.7019,39.2505],[-89.7003,39.1754],[-89.6999,39.1478],[-89.6996,39.0984],[-89.6993,39.096],[-89.6993,39.0699],[-89.699,39.0578],[-89.6986,38.999],[-89.7551,38.9988]]]}}]}