{"type":"FeatureCollection","features":[{"type":"Feature","properties":{"id":"06111","name":"Ventura Co."},"geometry":{"type":"MultiPolygon","coordinates":[[[[-119.3726,34.0156],[-119.3626,34.0171],[-119.3577,34.016],[-119.3723,34.0121],[-119.3745,34.0142],[-119.3726,34.0156]]],[[[-119.4366,34.0139],[-119.4339,34.016],[-119.4214,34.015],[-119.413,34.0089],[-119.4085,34.0076],[-119.3963,34.0059],[-119.3893,34.0071],[-119.3832,34.0112],[-119.3793,34.0096],[-119.3908,34.0029],[-119.3994,34.0035],[-119.4148,34.0063],[-119.4222,34.0055],[-119.4247,34.0076],[-119.4311,34.0086],[-119.434,34.0108],[-119.4375,34.0101],[-119.4412,34.0141],[-119.4366,34.0139]]],[[[-119.4738,34.3791],[-119.4725,34.3838],[-119.4686,34.3864],[-119.4687,34.3884],[-119.4648,34.389],[-119.452,34.3969],[-119.4491,34.4017],[-119.446,34.4041],[-119.4454,34.4089],[-119.4494,34.412],[-119.4506,34.4152],[-119.4543,34.4182],[-119.453,34.423],[-119.4534,34.4286],[-119.4515,34.4298],[-119.4447,34.4295],[-119.4437,34.4367],[-119.4404,34.4418],[-119.4415,34.4479],[-119.4433,34.4497],[-119.4416,34.4519],[-119.4422,34.4559],[-119.4424,34.491],[-119.4424,34.5604],[-119.4431,34.7333],[-119.4438,34.7865],[-119.4437,34.9012],[-119.3837,34.9008],[-119.383,34.8797],[-119.3819,34.874],[-119.3555,34.8737],[-119.3555,34.8725],[-119.2764,34.8725],[-119.2772,34.8573],[-119.2426,34.8576],[-119.2425,34.8143],[-119.0993,34.8129],[-119.0238,34.8124],[-118.9779,34.8117],[-118.978,34.7898],[-118.9428,34.7897],[-118.8804,34.7887],[-118.8209,34.6659],[-118.7967,34.6166],[-118.742,34.5058],[-118.6914,34.403],[-118.6368,34.2918],[-118.6325,34.2634],[-118.6325,34.2404],[-118.6677,34.2403],[-118.6678,34.2058],[-118.6681,34.195],[-118.6682,34.1682],[-118.712,34.1686],[-118.7234,34.1679],[-118.7889,34.1682],[-118.8565,34.1268],[-118.941,34.0748],[-118.9446,34.0458],[-118.9546,34.0484],[-118.9608,34.052],[-118.9641,34.0526],[-118.97,34.0567],[-118.9778,34.0598],[-118.9833,34.0603],[-118.9876,34.063],[-118.997,34.0659],[-119.009,34.0668],[-119.0375,34.0831],[-119.0465,34.0849],[-119.0521,34.0842],[-119.0563,34.0856],[-119.0612,34.0854],[-119.086,34.0993],[-119.0981,34.0999],[-119.1088,34.0959],[-119.1159,34.0969],[-119.1293,34.1008],[-119.1427,34.1084],[-119.1886,34.139],[-119.2031,34.1445],[-119.2112,34.1449],[-119.2164,34.1461],[-119.2277,34.1617],[-119.2371,34.1758],[-119.257,34.2133],[-119.2643,34.2275],[-119.2665,34.2402],[-119.2701,34.2529],[-119.2786,34.2669],[-119.2909,34.2749],[-119.2953,34.2753],[-119.3021,34.2728],[-119.3123,34.2764],[-119.3202,34.2829],[-119.3375,34.2906],[-119.3492,34.3044],[-119.3704,34.3195],[-119.3758,34.3211],[-119.3882,34.3174],[-119.3904,34.3182],[-119.4055,34.3342],[-119.4107,34.3374],[-119.4278,34.353],[-119.4311,34.3553],[-119.4434,34.356],[-119.4513,34.3655],[-119.461,34.3741],[-119.4678,34.3757],[-119.4727,34.3756],[-119.4765,34.3741],[-119.4778,34.3794],[-119.4738,34.3791]]],[[[-119.5679,33.2747],[-119.5621,33.2712],[-119.5581,33.2725],[-119.5523,33.2773],[-119.5513,33.2806],[-119.5466,33.2794],[-119.5357,33.2832],[-119.5346,33.2854],[-119.5314,33.2838],[-119.5288,33.2854],[-119.5237,33.283],[-119.5206,33.2801],[-119.5106,33.2753],[-119.5097,33.2737],[-119.5051,33.2727],[-119.4986,33.2666],[-119.4949,33.2655],[-119.4892,33.2658],[-119.487,33.2675],[-119.4857,33.2648],[-119.4707,33.2598],[-119.4654,33.2593],[-119.4606,33.2567],[-119.4529,33.2493],[-119.4435,33.2421],[-119.4433,33.2401],[-119.4385,33.2365],[-119.4348,33.2314],[-119.4344,33.227],[-119.4389,33.2201],[-119.4475,33.2198],[-119.4574,33.2161],[-119.4628,33.2163],[-119.4703,33.2147],[-119.4787,33.2164],[-119.4816,33.2184],[-119.4911,33.2198],[-119.4981,33.2188],[-119.5023,33.2216],[-119.5053,33.2212],[-119.5094,33.2233],[-119.5129,33.223],[-119.5202,33.2287],[-119.524,33.229],[-119.5309,33.2315],[-119.5462,33.2326],[-119.5461,33.2341],[-119.5515,33.2371],[-119.5603,33.2438],[-119.5602,33.2453],[-119.566,33.2471],[-119.5648,33.2503],[-119.5672,33.2547],[-119.5751,33.2581],[-119.5739,33.2645],[-119.5788,33.2782],[-119.5773,33.2786],[-119.5679,33.2747]]]]}}]}