{"type":"FeatureCollection","features":[{"type":"Feature","properties":{"zcta":"93001","d":78},"geometry":{"type":"MultiPolygon","coordinates":[[[[-119.44324,34.35728],[-119.44052,34.35593],[-119.44342,34.35599],[-119.45226,34.36669],[-119.44324,34.35728]]],[[[-119.38991,34.41284],[-119.38454,34.41207],[-119.3801,34.41219],[-119.3724,34.40998],[-119.37023,34.41723],[-119.35796,34.42299],[-119.35708,34.42813],[-119.35035,34.43229],[-119.34453,34.43876],[-119.33408,34.44117],[-119.33297,34.43994],[-119.32692,34.42886],[-119.33056,34.42818],[-119.33085,34.42654],[-119.33603,34.42359],[-119.33929,34.41917],[-119.3368,34.41832],[-119.33302,34.41941],[-119.32852,34.42283],[-119.32713,34.42036],[-119.32462,34.41966],[-119.32348,34.42135],[-119.32025,34.42211],[-119.31956,34.42329],[-119.31492,34.42369],[-119.31116,34.42148],[-119.31531,34.42584],[-119.31392,34.42605],[-119.30858,34.42052],[-119.30821,34.41887],[-119.30597,34.41654],[-119.30665,34.41313],[-119.30995,34.41008],[-119.31228,34.41071],[-119.31447,34.40813],[-119.31097,34.40735],[-119.31297,34.40489],[-119.31587,34.39913],[-119.30854,34.3996],[-119.30975,34.39734],[-119.31055,34.39273],[-119.31014,34.38594],[-119.31126,34.38376],[-119.30756,34.37956],[-119.30455,34.38034],[-119.30163,34.38509],[-119.2998,34.38474],[-119.29984,34.38793],[-119.29569,34.39184],[-119.29072,34.39274],[-119.28855,34.39646],[-119.28514,34.39698],[-119.28352,34.39467],[-119.27831,34.39537],[-119.27528,34.39829],[-119.27534,34.39993],[-119.27224,34.40119],[-119.26984,34.40034],[-119.26815,34.40116],[-119.26966,34.39762],[-119.26812,34.39668],[-119.26561,34.39801],[-119.26347,34.39735],[-119.26097,34.40092],[-119.2549,34.40352],[-119.25306,34.40144],[-119.25074,34.40304],[-119.24784,34.40138],[-119.2431,34.4025],[-119.24323,34.3957],[-119.20113,34.40523],[-119.18398,34.40342],[-119.18471,34.39846],[-119.18194,34.39765],[-119.17864,34.39553],[-119.1771,34.39323],[-119.17463,34.39201],[-119.17429,34.39018],[-119.17882,34.39116],[-119.18048,34.38905],[-119.18398,34.389],[-119.18655,34.3872],[-119.19239,34.38878],[-119.19194,34.39063],[-119.19509,34.39255],[-119.19867,34.39277],[-119.19885,34.39369],[-119.20197,34.39333],[-119.20377,34.39166],[-119.20866,34.38878],[-119.20799,34.38495],[-119.20698,34.38405],[-119.20105,34.38221],[-119.19809,34.3822],[-119.19519,34.37901],[-119.19401,34.37322],[-119.1925,34.37245],[-119.21569,34.34021],[-119.2224,34.3393],[-119.23018,34.33566],[-119.23479,34.33441],[-119.23522,34.3294],[-119.23458,34.32715],[-119.23485,34.32091],[-119.23646,34.31933],[-119.24358,34.31538],[-119.24702,34.31101],[-119.25121,34.30828],[-119.25338,34.30775],[-119.25522,34.30352],[-119.25732,34.30095],[-119.25828,34.29839],[-119.25785,34.29346],[-119.25651,34.29164],[-119.25731,34.2879],[-119.25634,34.28516],[-119.25751,34.28481],[-119.25917,34.28075],[-119.26204,34.27999],[-119.2659,34.27624],[-119.26731,34.27377],[-119.267,34.27152],[-119.26836,34.2678],[-119.25045,34.25933],[-119.25263,34.25861],[-119.26356,34.26178],[-119.26024,34.25637],[-119.25883,34.25303],[-119.25434,34.2556],[-119.25251,34.25796],[-119.25002,34.25895],[-119.22839,34.24882],[-119.22812,34.24475],[-119.2208,34.24545],[-119.21515,34.2438],[-119.21647,34.24062],[-119.21644,34.23511],[-119.23062,34.23476],[-119.23995,34.2357],[-119.24567,34.23449],[-119.2513,34.23538],[-119.25652,34.23537],[-119.26593,34.23469],[-119.26645,34.2402],[-119.27014,34.2529],[-119.27864,34.2669],[-119.29094,34.2749],[-119.29526,34.27527],[-119.30213,34.27276],[-119.31232,34.27636],[-119.32016,34.28288],[-119.33747,34.29058],[-119.34919,34.30438],[-119.37036,34.31949],[-119.37578,34.32112],[-119.38825,34.3174],[-119.39045,34.3182],[-119.40552,34.33422],[-119.41069,34.33736],[-119.42576,34.35118],[-119.4275,34.35329],[-119.432,34.3557],[-119.43548,34.35633],[-119.44045,34.35638],[-119.44299,34.35735],[-119.45048,34.36596],[-119.44926,34.36671],[-119.45171,34.37088],[-119.45041,34.37239],[-119.44601,34.37268],[-119.4449,34.37461],[-119.44624,34.37677],[-119.44932,34.37626],[-119.45021,34.37951],[-119.45373,34.38124],[-119.4545,34.37834],[-119.45588,34.37804],[-119.45984,34.38018],[-119.46317,34.37784],[-119.47121,34.37919],[-119.47649,34.37734],[-119.47711,34.37893],[-119.4733,34.3793],[-119.47248,34.38383],[-119.46857,34.38642],[-119.46875,34.38788],[-119.46388,34.38672],[-119.46172,34.3877],[-119.46401,34.38886],[-119.46321,34.39055],[-119.4594,34.39196],[-119.45848,34.39337],[-119.45197,34.39691],[-119.45136,34.39815],[-119.44658,34.3974],[-119.4465,34.39886],[-119.44358,34.39856],[-119.44315,34.40107],[-119.44132,34.40182],[-119.44013,34.40411],[-119.43489,34.40542],[-119.42753,34.40789],[-119.42462,34.40752],[-119.42099,34.41155],[-119.41929,34.41027],[-119.41425,34.41145],[-119.41476,34.41352],[-119.40977,34.41523],[-119.40583,34.41465],[-119.40393,34.41608],[-119.40096,34.41656],[-119.39233,34.41387],[-119.38991,34.41284]]]]}},{"type":"Feature","properties":{"zcta":"93004","d":2101},"geometry":{"type":"Polygon","coordinates":[[[-119.18614,34.29103],[-119.16591,34.30033],[-119.16129,34.29501],[-119.15446,34.29903],[-119.14968,34.29367],[-119.1364,34.30156],[-119.13429,34.299],[-119.13437,34.2957],[-119.13285,34.29468],[-119.13107,34.29043],[-119.12954,34.28895],[-119.12925,34.28811],[-119.1317,34.28174],[-119.13322,34.28025],[-119.13831,34.27819],[-119.14229,34.27543],[-119.14828,34.2723],[-119.15578,34.26952],[-119.15807,34.26781],[-119.16134,34.264],[-119.18179,34.25044],[-119.18972,34.24232],[-119.19272,34.2434],[-119.19162,34.24552],[-119.19452,34.25163],[-119.17717,34.26211],[-119.17868,34.26704],[-119.18415,34.26627],[-119.18477,34.26915],[-119.18856,34.26882],[-119.18931,34.27207],[-119.19142,34.276],[-119.19253,34.28117],[-119.19432,34.28346],[-119.19524,34.28795],[-119.18614,34.29103]]]}},{"type":"Feature","properties":{"zcta":"93015","d":113},"geometry":{"type":"Polygon","coordinates":[[[-118.95546,34.42247],[-118.95532,34.43292],[-118.958,34.43392],[-118.95952,34.43564],[-118.95579,34.44012],[-118.95144,34.44419],[-118.93759,34.44423],[-118.93749,34.45958],[-118.94277,34.46181],[-118.94435,34.46578],[-118.94281,34.47161],[-118.94015,34.47527],[-118.93933,34.47967],[-118.94024,34.48296],[-118.93893,34.48626],[-118.94145,34.48915],[-118.94185,34.49196],[-118.94041,34.49345],[-118.94012,34.49585],[-118.93829,34.49568],[-118.93536,34.49916],[-118.93134,34.49786],[-118.92904,34.4989],[-118.92928,34.49669],[-118.93209,34.49367],[-118.92999,34.48937],[-118.93265,34.49069],[-118.93312,34.48978],[-118.92877,34.48633],[-118.92494,34.48693],[-118.92367,34.48819],[-118.9233,34.48473],[-118.91751,34.48224],[-118.92061,34.47531],[-118.91711,34.47643],[-118.90799,34.4705],[-118.90843,34.46863],[-118.8994,34.46794],[-118.87741,34.46822],[-118.87317,34.46797],[-118.83084,34.46795],[-118.77101,34.4677],[-118.7678,34.47701],[-118.76661,34.47536],[-118.76532,34.47613],[-118.76045,34.47365],[-118.75779,34.47304],[-118.7599,34.47104],[-118.75934,34.46785],[-118.76137,34.46684],[-118.7578,34.46573],[-118.75571,34.46156],[-118.75688,34.45965],[-118.76028,34.45947],[-118.76151,34.45747],[-118.76075,34.45354],[-118.75651,34.44991],[-118.76246,34.43781],[-118.76272,34.43504],[-118.76166,34.43309],[-118.76264,34.43058],[-118.76797,34.42534],[-118.77854,34.42423],[-118.7839,34.42297],[-118.78698,34.42153],[-118.78901,34.41962],[-118.79279,34.42231],[-118.80597,34.41795],[-118.80846,34.41845],[-118.81058,34.4153],[-118.81182,34.41734],[-118.81125,34.41369],[-118.81002,34.4114],[-118.81004,34.40625],[-118.80482,34.4068],[-118.80172,34.40805],[-118.79457,34.41253],[-118.79456,34.40079],[-118.7924,34.4008],[-118.79232,34.40633],[-118.78402,34.41077],[-118.78132,34.41087],[-118.77557,34.40836],[-118.76949,34.4074],[-118.76396,34.40726],[-118.74658,34.40567],[-118.74036,34.40611],[-118.73793,34.40188],[-118.73674,34.40198],[-118.73624,34.39811],[-118.74021,34.39748],[-118.74143,34.39644],[-118.7425,34.39973],[-118.74438,34.40196],[-118.74582,34.4018],[-118.74949,34.39917],[-118.75183,34.39873],[-118.75117,34.39617],[-118.77006,34.39393],[-118.77779,34.39216],[-118.78466,34.389],[-118.79268,34.37668],[-118.78849,34.37501],[-118.78675,34.37281],[-118.78183,34.3719],[-118.78235,34.36859],[-118.78048,34.36815],[-118.78606,34.36639],[-118.79435,34.3639],[-118.79658,34.3624],[-118.79904,34.3623],[-118.79833,34.36475],[-118.80161,34.36475],[-118.80516,34.36703],[-118.80877,34.36697],[-118.80892,34.36498],[-118.81195,34.36431],[-118.81142,34.36326],[-118.81373,34.36043],[-118.82251,34.35784],[-118.83186,34.35933],[-118.83757,34.35942],[-118.84306,34.35751],[-118.84846,34.35757],[-118.85533,34.3587],[-118.85859,34.35842],[-118.86633,34.35538],[-118.87004,34.35446],[-118.87285,34.35294],[-118.87721,34.35535],[-118.88317,34.35622],[-118.88631,34.35446],[-118.88758,34.34979],[-118.90732,34.34964],[-118.9071,34.34245],[-118.90476,34.34339],[-118.90352,34.341],[-118.90098,34.3395],[-118.90615,34.33736],[-118.90939,34.33671],[-118.91918,34.33718],[-118.92875,34.33615],[-118.93192,34.33966],[-118.94011,34.34562],[-118.9427,34.34613],[-118.94683,34.34546],[-118.94949,34.3438],[-118.95238,34.3396],[-118.95288,34.3361],[-118.95491,34.33549],[-118.95814,34.33906],[-118.96043,34.33991],[-118.96385,34.33949],[-118.96822,34.33751],[-118.97066,34.3338],[-118.97463,34.331],[-118.9784,34.32972],[-118.97728,34.33266],[-118.9782,34.33401],[-118.97769,34.33724],[-118.97641,34.33843],[-118.97895,34.34331],[-118.97878,34.34542],[-118.98082,34.34753],[-118.98096,34.35433],[-118.97882,34.35436],[-118.97436,34.35585],[-118.96832,34.35522],[-118.9642,34.3567],[-118.96415,34.36442],[-118.9718,34.36441],[-118.97638,34.36556],[-118.98116,34.36477],[-118.98149,34.3716],[-118.98628,34.36906],[-119.00093,34.36476],[-119.00458,34.36507],[-119.00816,34.36358],[-119.00875,34.3698],[-119.0077,34.37325],[-118.99969,34.37588],[-118.99489,34.37596],[-118.98772,34.3779],[-118.98989,34.3788],[-118.97989,34.38848],[-118.98205,34.3934],[-118.98203,34.40794],[-118.99033,34.40792],[-118.99045,34.4225],[-118.95546,34.42247]]]}},{"type":"Feature","properties":{"zcta":"93035","d":3361},"geometry":{"type":"Polygon","coordinates":[[[-119.25652,34.23537],[-119.25606,34.22391],[-119.25369,34.21849],[-119.2484,34.20869],[-119.24284,34.2087],[-119.24285,34.20535],[-119.23884,34.20406],[-119.23841,34.20028],[-119.23587,34.19773],[-119.20766,34.19748],[-119.19938,34.19655],[-119.19936,34.19514],[-119.19476,34.19512],[-119.19485,34.19008],[-119.19494,34.18527],[-119.19663,34.18389],[-119.19531,34.18073],[-119.20433,34.18079],[-119.20445,34.18118],[-119.22134,34.1813],[-119.22144,34.16133],[-119.21599,34.15685],[-119.22071,34.15682],[-119.213,34.14894],[-119.2158,34.14727],[-119.21606,34.14602],[-119.21644,34.14611],[-119.22774,34.16173],[-119.23714,34.1758],[-119.25704,34.2133],[-119.26425,34.22749],[-119.26593,34.23469],[-119.25652,34.23537]]]}},{"type":"Feature","properties":{"zcta":"93040","d":0},"geometry":{"type":"Polygon","coordinates":[[[-118.78048,34.36815],[-118.78235,34.36859],[-118.78183,34.3719],[-118.78675,34.37281],[-118.78849,34.37501],[-118.79268,34.37668],[-118.78466,34.389],[-118.77779,34.39216],[-118.77006,34.39393],[-118.75117,34.39617],[-118.75183,34.39873],[-118.74949,34.39917],[-118.74582,34.4018],[-118.74438,34.40196],[-118.7425,34.39973],[-118.74143,34.39644],[-118.74021,34.39748],[-118.73624,34.39811],[-118.73674,34.40198],[-118.73793,34.40188],[-118.74036,34.40611],[-118.74658,34.40567],[-118.76396,34.40726],[-118.76949,34.4074],[-118.77557,34.40836],[-118.78132,34.41087],[-118.78402,34.41077],[-118.79232,34.40633],[-118.7924,34.4008],[-118.79456,34.40079],[-118.79457,34.41253],[-118.80172,34.40805],[-118.80482,34.4068],[-118.81004,34.40625],[-118.81002,34.4114],[-118.81125,34.41369],[-118.81182,34.41734],[-118.81058,34.4153],[-118.80846,34.41845],[-118.80597,34.41795],[-118.79279,34.42231],[-118.78901,34.41962],[-118.78698,34.42153],[-118.7839,34.42297],[-118.77854,34.42423],[-118.76797,34.42534],[-118.76264,34.43058],[-118.76166,34.43309],[-118.76272,34.43504],[-118.76246,34.43781],[-118.75651,34.44991],[-118.76075,34.45354],[-118.76151,34.45747],[-118.76028,34.45947],[-118.75688,34.45965],[-118.75571,34.46156],[-118.7578,34.46573],[-118.76137,34.46684],[-118.75934,34.46785],[-118.7599,34.47104],[-118.75779,34.47304],[-118.76045,34.47365],[-118.76532,34.47613],[-118.76661,34.47536],[-118.7678,34.47701],[-118.77101,34.4677],[-118.83084,34.46795],[-118.87317,34.46797],[-118.87741,34.46822],[-118.8994,34.46794],[-118.90843,34.46863],[-118.90799,34.4705],[-118.91711,34.47643],[-118.92061,34.47531],[-118.91751,34.48224],[-118.9233,34.48473],[-118.92367,34.48819],[-118.92494,34.48693],[-118.92877,34.48633],[-118.93312,34.48978],[-118.93265,34.49069],[-118.92999,34.48937],[-118.93209,34.49367],[-118.92928,34.49669],[-118.92904,34.4989],[-118.93134,34.49786],[-118.93536,34.49916],[-118.93829,34.49568],[-118.94012,34.49585],[-118.94041,34.49345],[-118.94185,34.49196],[-118.94145,34.48915],[-118.93893,34.48626],[-118.94024,34.48296],[-118.93933,34.47967],[-118.94015,34.47527],[-118.94281,34.47161],[-118.94435,34.46578],[-118.94277,34.46181],[-118.93749,34.45958],[-118.93759,34.44423],[-118.95144,34.44419],[-118.95579,34.44012],[-118.95952,34.43564],[-118.958,34.43392],[-118.95532,34.43292],[-118.95546,34.42247],[-118.99045,34.4225],[-119.00107,34.42253],[-119.01252,34.42227],[-119.01612,34.42266],[-119.02271,34.42226],[-119.02258,34.42526],[-119.0251,34.42519],[-119.02533,34.46807],[-119.0252,34.56238],[-119.07752,34.56217],[-119.09545,34.56168],[-119.12829,34.5615],[-119.13467,34.56169],[-119.15714,34.56135],[-119.1545,34.70812],[-119.15472,34.72713],[-119.15093,34.72416],[-119.14007,34.72133],[-119.13807,34.72156],[-119.13378,34.72023],[-119.13307,34.71732],[-119.13062,34.71549],[-119.12698,34.71556],[-119.12529,34.71692],[-119.12194,34.71777],[-119.11532,34.71746],[-119.11643,34.71406],[-119.11644,34.711],[-119.12034,34.70968],[-119.12107,34.70831],[-118.97903,34.70749],[-118.97784,34.77513],[-118.97598,34.77361],[-118.97096,34.77378],[-118.96959,34.77544],[-118.97451,34.77859],[-118.96862,34.77828],[-118.96614,34.77977],[-118.9637,34.77807],[-118.95993,34.7803],[-118.96068,34.784],[-118.96366,34.78797],[-118.96381,34.78981],[-118.94278,34.78974],[-118.8804,34.78866],[-118.82091,34.66585],[-118.79666,34.61657],[-118.73862,34.49897],[-118.69961,34.41973],[-118.69973,34.41872],[-118.7028,34.41725],[-118.70713,34.41826],[-118.70869,34.41965],[-118.71083,34.41963],[-118.71209,34.42131],[-118.71818,34.4198],[-118.71955,34.41868],[-118.72468,34.41949],[-118.72752,34.41563],[-118.72736,34.41043],[-118.72515,34.40949],[-118.72063,34.40617],[-118.71675,34.40441],[-118.70998,34.40264],[-118.7063,34.40266],[-118.70576,34.40001],[-118.71224,34.40017],[-118.71637,34.39842],[-118.71788,34.39661],[-118.72176,34.39402],[-118.72256,34.39216],[-118.72048,34.38808],[-118.7231,34.38636],[-118.72367,34.38353],[-118.7299,34.38449],[-118.72663,34.38584],[-118.7299,34.38765],[-118.73311,34.38506],[-118.73243,34.38236],[-118.73393,34.38074],[-118.73301,34.37962],[-118.73449,34.37614],[-118.73719,34.37468],[-118.73515,34.3708],[-118.73477,34.36815],[-118.73145,34.36672],[-118.73472,34.36621],[-118.74022,34.36878],[-118.74303,34.36872],[-118.74686,34.36735],[-118.74857,34.36963],[-118.7526,34.37104],[-118.75631,34.37347],[-118.75756,34.37228],[-118.76118,34.37126],[-118.76273,34.37266],[-118.76769,34.36933],[-118.76987,34.37043],[-118.77413,34.36828],[-118.77938,34.3673],[-118.78177,34.36547],[-118.78606,34.36639],[-118.78048,34.36815]]]}},{"type":"Feature","properties":{"zcta":"93043","d":0},"geometry":{"type":"Polygon","coordinates":[[[-119.19526,34.17536],[-119.19525,34.17171],[-119.1981,34.17175],[-119.19814,34.16845],[-119.19952,34.16847],[-119.19985,34.16358],[-119.20842,34.16371],[-119.20671,34.17561],[-119.19526,34.17536]]]}},{"type":"Feature","properties":{"zcta":"93060","d":131},"geometry":{"type":"Polygon","coordinates":[[[-119.1925,34.37245],[-119.19401,34.37322],[-119.19519,34.37901],[-119.19809,34.3822],[-119.20105,34.38221],[-119.20698,34.38405],[-119.20799,34.38495],[-119.20866,34.38878],[-119.20377,34.39166],[-119.20197,34.39333],[-119.19885,34.39369],[-119.19867,34.39277],[-119.19509,34.39255],[-119.19194,34.39063],[-119.19239,34.38878],[-119.18655,34.3872],[-119.18398,34.389],[-119.18048,34.38905],[-119.17882,34.39116],[-119.17429,34.39018],[-119.17463,34.39201],[-119.17262,34.39146],[-119.16989,34.39646],[-119.1645,34.4004],[-119.16446,34.40427],[-119.161,34.40423],[-119.15778,34.40702],[-119.15532,34.40551],[-119.14898,34.40532],[-119.14556,34.40133],[-119.14258,34.40183],[-119.14151,34.40054],[-119.13687,34.40229],[-119.13766,34.40349],[-119.13673,34.40589],[-119.13577,34.40446],[-119.12762,34.40402],[-119.12426,34.40481],[-119.12298,34.40672],[-119.12247,34.40437],[-119.11965,34.40364],[-119.11777,34.39982],[-119.11721,34.39608],[-119.10857,34.39265],[-119.10511,34.39275],[-119.10308,34.391],[-119.10334,34.3928],[-119.10082,34.39562],[-119.10553,34.39935],[-119.10754,34.40508],[-119.10378,34.40934],[-119.10359,34.41112],[-119.0978,34.41302],[-119.09635,34.41447],[-119.09817,34.41662],[-119.09825,34.42071],[-119.09153,34.42356],[-119.09724,34.42407],[-119.1002,34.42264],[-119.10284,34.42284],[-119.10635,34.42142],[-119.10897,34.42136],[-119.10987,34.41998],[-119.1119,34.42128],[-119.1197,34.42172],[-119.12269,34.4225],[-119.1242,34.42171],[-119.12817,34.42277],[-119.13329,34.42136],[-119.13685,34.41851],[-119.13888,34.41881],[-119.1447,34.41734],[-119.14575,34.41545],[-119.1521,34.4157],[-119.15465,34.41692],[-119.15686,34.41616],[-119.15862,34.41696],[-119.16535,34.41461],[-119.16316,34.416],[-119.16294,34.41771],[-119.16076,34.41827],[-119.15927,34.42152],[-119.15388,34.42056],[-119.15097,34.42372],[-119.14902,34.42346],[-119.14551,34.42605],[-119.13818,34.42724],[-119.13798,34.43367],[-119.1366,34.43623],[-119.13686,34.43966],[-119.13567,34.44074],[-119.13374,34.44774],[-119.1271,34.44772],[-119.12712,34.45203],[-119.11246,34.45177],[-119.11243,34.43706],[-119.10779,34.43703],[-119.10891,34.43948],[-119.10751,34.44323],[-119.10891,34.44688],[-119.10545,34.44681],[-119.10206,34.44781],[-119.1001,34.44676],[-119.09919,34.44468],[-119.09954,34.44195],[-119.09767,34.43938],[-119.0943,34.43986],[-119.09133,34.43889],[-119.08961,34.43685],[-119.07713,34.43673],[-119.07723,34.42964],[-119.05973,34.42952],[-119.05977,34.42642],[-119.05717,34.4262],[-119.05681,34.42868],[-119.05486,34.42972],[-119.05223,34.42604],[-119.05241,34.42397],[-119.04304,34.42464],[-119.03838,34.42466],[-119.03653,34.42259],[-119.03194,34.42485],[-119.03103,34.42221],[-119.02991,34.42354],[-119.0277,34.42215],[-119.02507,34.42371],[-119.02271,34.42226],[-119.01612,34.42266],[-119.01252,34.42227],[-119.00107,34.42253],[-118.99045,34.4225],[-118.99033,34.40792],[-118.98203,34.40794],[-118.98205,34.3934],[-118.97989,34.38848],[-118.98989,34.3788],[-118.98772,34.3779],[-118.99489,34.37596],[-118.99969,34.37588],[-119.0077,34.37325],[-119.00875,34.3698],[-119.00816,34.36358],[-119.00458,34.36507],[-119.00093,34.36476],[-118.98628,34.36906],[-118.98149,34.3716],[-118.98116,34.36477],[-118.97638,34.36556],[-118.9718,34.36441],[-118.96415,34.36442],[-118.9642,34.3567],[-118.96832,34.35522],[-118.97436,34.35585],[-118.97882,34.35436],[-118.98096,34.35433],[-118.98082,34.34753],[-118.97878,34.34542],[-118.97895,34.34331],[-118.97641,34.33843],[-118.97769,34.33724],[-118.9782,34.33401],[-118.97728,34.33266],[-118.9784,34.32972],[-118.98103,34.32833],[-118.98298,34.32584],[-118.98623,34.32656],[-118.99223,34.32678],[-118.99845,34.33113],[-119.00016,34.33033],[-119.00232,34.33146],[-119.00466,34.33049],[-119.00886,34.33209],[-119.01019,34.33086],[-119.01352,34.3308],[-119.01246,34.33392],[-119.02254,34.33217],[-119.0274,34.32951],[-119.02931,34.32779],[-119.0374,34.32629],[-119.05194,34.32009],[-119.05793,34.31712],[-119.06229,34.31741],[-119.06649,34.31841],[-119.07181,34.31749],[-119.07415,34.31418],[-119.07443,34.31193],[-119.07991,34.3117],[-119.0799,34.3209],[-119.07341,34.32666],[-119.07608,34.32973],[-119.07855,34.32767],[-119.08311,34.32528],[-119.08663,34.32234],[-119.09409,34.31402],[-119.09626,34.31276],[-119.09738,34.30847],[-119.09877,34.30573],[-119.10063,34.30488],[-119.10388,34.30504],[-119.10838,34.30243],[-119.11127,34.30218],[-119.11401,34.29778],[-119.11691,34.29578],[-119.12147,34.29506],[-119.12727,34.29171],[-119.12954,34.28895],[-119.13107,34.29043],[-119.13285,34.29468],[-119.13437,34.2957],[-119.13429,34.299],[-119.1364,34.30156],[-119.14968,34.29367],[-119.15446,34.29903],[-119.16129,34.29501],[-119.16591,34.30033],[-119.18614,34.29103],[-119.19524,34.28795],[-119.19726,34.28984],[-119.19883,34.29567],[-119.19835,34.2994],[-119.19992,34.30161],[-119.20041,34.30518],[-119.19836,34.30882],[-119.19986,34.3107],[-119.19833,34.31456],[-119.19823,34.31831],[-119.19946,34.31972],[-119.1979,34.32339],[-119.20037,34.32659],[-119.19876,34.32778],[-119.20085,34.33152],[-119.20334,34.33256],[-119.21042,34.33267],[-119.21542,34.33378],[-119.21491,34.33689],[-119.21663,34.33738],[-119.21569,34.34021],[-119.1925,34.37245]]]}},{"type":"Feature","properties":{"zcta":"93022","d":638},"geometry":{"type":"Polygon","coordinates":[[[-119.2985,34.41937],[-119.29883,34.41388],[-119.29466,34.41328],[-119.29315,34.41801],[-119.29074,34.41748],[-119.28001,34.42227],[-119.27769,34.4226],[-119.28411,34.40855],[-119.28486,34.40458],[-119.28349,34.40306],[-119.2847,34.40028],[-119.2866,34.40029],[-119.28582,34.39868],[-119.29092,34.39613],[-119.29173,34.39444],[-119.29072,34.39274],[-119.29569,34.39184],[-119.29984,34.38793],[-119.2998,34.38474],[-119.30163,34.38509],[-119.30455,34.38034],[-119.30756,34.37956],[-119.31126,34.38376],[-119.31014,34.38594],[-119.31055,34.39273],[-119.30975,34.39734],[-119.30854,34.3996],[-119.31587,34.39913],[-119.31297,34.40489],[-119.31097,34.40735],[-119.31447,34.40813],[-119.31228,34.41071],[-119.30995,34.41008],[-119.30665,34.41313],[-119.30597,34.41654],[-119.30821,34.41887],[-119.2985,34.41937]]]}},{"type":"Feature","properties":{"zcta":"93023","d":34},"geometry":{"type":"Polygon","coordinates":[[[-119.13467,34.56169],[-119.12829,34.5615],[-119.09545,34.56168],[-119.07752,34.56217],[-119.0252,34.56238],[-119.02533,34.46807],[-119.0251,34.42519],[-119.02258,34.42526],[-119.02271,34.42226],[-119.02507,34.42371],[-119.0277,34.42215],[-119.02991,34.42354],[-119.03103,34.42221],[-119.03194,34.42485],[-119.03653,34.42259],[-119.03838,34.42466],[-119.04304,34.42464],[-119.05241,34.42397],[-119.05223,34.42604],[-119.05486,34.42972],[-119.05681,34.42868],[-119.05717,34.4262],[-119.05977,34.42642],[-119.05973,34.42952],[-119.07723,34.42964],[-119.07713,34.43673],[-119.08961,34.43685],[-119.09133,34.43889],[-119.0943,34.43986],[-119.09767,34.43938],[-119.09954,34.44195],[-119.09919,34.44468],[-119.1001,34.44676],[-119.10206,34.44781],[-119.10545,34.44681],[-119.10891,34.44688],[-119.10751,34.44323],[-119.10891,34.43948],[-119.10779,34.43703],[-119.11243,34.43706],[-119.11246,34.45177],[-119.12712,34.45203],[-119.1271,34.44772],[-119.13374,34.44774],[-119.13567,34.44074],[-119.13686,34.43966],[-119.1366,34.43623],[-119.13798,34.43367],[-119.13818,34.42724],[-119.14551,34.42605],[-119.14902,34.42346],[-119.15097,34.42372],[-119.15388,34.42056],[-119.15927,34.42152],[-119.16076,34.41827],[-119.16294,34.41771],[-119.16316,34.416],[-119.16535,34.41461],[-119.15862,34.41696],[-119.15686,34.41616],[-119.15465,34.41692],[-119.1521,34.4157],[-119.14575,34.41545],[-119.1447,34.41734],[-119.13888,34.41881],[-119.13685,34.41851],[-119.13329,34.42136],[-119.12817,34.42277],[-119.1242,34.42171],[-119.12269,34.4225],[-119.1197,34.42172],[-119.1119,34.42128],[-119.10987,34.41998],[-119.10897,34.42136],[-119.10635,34.42142],[-119.10284,34.42284],[-119.1002,34.42264],[-119.09724,34.42407],[-119.09153,34.42356],[-119.09825,34.42071],[-119.09817,34.41662],[-119.09635,34.41447],[-119.0978,34.41302],[-119.10359,34.41112],[-119.10378,34.40934],[-119.10754,34.40508],[-119.10553,34.39935],[-119.10082,34.39562],[-119.10334,34.3928],[-119.10308,34.391],[-119.10511,34.39275],[-119.10857,34.39265],[-119.11721,34.39608],[-119.11777,34.39982],[-119.11965,34.40364],[-119.12247,34.40437],[-119.12298,34.40672],[-119.12426,34.40481],[-119.12762,34.40402],[-119.13577,34.40446],[-119.13673,34.40589],[-119.13766,34.40349],[-119.13687,34.40229],[-119.14151,34.40054],[-119.14258,34.40183],[-119.14556,34.40133],[-119.14898,34.40532],[-119.15532,34.40551],[-119.15778,34.40702],[-119.161,34.40423],[-119.16446,34.40427],[-119.1645,34.4004],[-119.16989,34.39646],[-119.17262,34.39146],[-119.17463,34.39201],[-119.1771,34.39323],[-119.17864,34.39553],[-119.18194,34.39765],[-119.18471,34.39846],[-119.18398,34.40342],[-119.20113,34.40523],[-119.24323,34.3957],[-119.2431,34.4025],[-119.24784,34.40138],[-119.25074,34.40304],[-119.25306,34.40144],[-119.2549,34.40352],[-119.26097,34.40092],[-119.26347,34.39735],[-119.26561,34.39801],[-119.26812,34.39668],[-119.26966,34.39762],[-119.26815,34.40116],[-119.26984,34.40034],[-119.27224,34.40119],[-119.27534,34.39993],[-119.27528,34.39829],[-119.27831,34.39537],[-119.28352,34.39467],[-119.28514,34.39698],[-119.28855,34.39646],[-119.29072,34.39274],[-119.29173,34.39444],[-119.29092,34.39613],[-119.28582,34.39868],[-119.2866,34.40029],[-119.2847,34.40028],[-119.28349,34.40306],[-119.28486,34.40458],[-119.28411,34.40855],[-119.27769,34.4226],[-119.28001,34.42227],[-119.29074,34.41748],[-119.29315,34.41801],[-119.29466,34.41328],[-119.29883,34.41388],[-119.2985,34.41937],[-119.30821,34.41887],[-119.30858,34.42052],[-119.31392,34.42605],[-119.31531,34.42584],[-119.31116,34.42148],[-119.31492,34.42369],[-119.31956,34.42329],[-119.32025,34.42211],[-119.32348,34.42135],[-119.32462,34.41966],[-119.32713,34.42036],[-119.32852,34.42283],[-119.33302,34.41941],[-119.3368,34.41832],[-119.33929,34.41917],[-119.33603,34.42359],[-119.33085,34.42654],[-119.33056,34.42818],[-119.32692,34.42886],[-119.33297,34.43994],[-119.33408,34.44117],[-119.34453,34.43876],[-119.35035,34.43229],[-119.35708,34.42813],[-119.35796,34.42299],[-119.37023,34.41723],[-119.3724,34.40998],[-119.3801,34.41219],[-119.38454,34.41207],[-119.38991,34.41284],[-119.39233,34.41387],[-119.38936,34.41542],[-119.38786,34.4178],[-119.38595,34.41808],[-119.38179,34.42138],[-119.38543,34.42319],[-119.39182,34.42406],[-119.39563,34.42565],[-119.39735,34.42864],[-119.4013,34.43249],[-119.40039,34.43643],[-119.40277,34.44096],[-119.40399,34.44457],[-119.40579,34.44589],[-119.40536,34.45036],[-119.408,34.45297],[-119.41273,34.4527],[-119.41447,34.45506],[-119.41505,34.45921],[-119.41289,34.46132],[-119.41508,34.46389],[-119.42614,34.4639],[-119.42616,34.46426],[-119.44227,34.46494],[-119.44235,34.49112],[-119.43768,34.49097],[-119.43365,34.4917],[-119.43335,34.49274],[-119.43523,34.49636],[-119.43156,34.4967],[-119.42891,34.49953],[-119.43105,34.49989],[-119.43471,34.5028],[-119.43737,34.50242],[-119.43957,34.50645],[-119.43893,34.50813],[-119.4423,34.51039],[-119.44226,34.52167],[-119.43705,34.52117],[-119.43711,34.52475],[-119.43952,34.52818],[-119.44227,34.52955],[-119.44244,34.62998],[-119.43911,34.63333],[-119.43912,34.63608],[-119.43653,34.63668],[-119.434,34.63454],[-119.43035,34.63712],[-119.42932,34.63639],[-119.42682,34.63773],[-119.4239,34.63738],[-119.42059,34.64056],[-119.41923,34.6397],[-119.41741,34.6418],[-119.41391,34.6405],[-119.41057,34.63753],[-119.40802,34.63747],[-119.40552,34.63876],[-119.40308,34.63861],[-119.39919,34.64026],[-119.39216,34.64145],[-119.38805,34.64146],[-119.38601,34.64501],[-119.38572,34.64904],[-119.38381,34.64832],[-119.37541,34.64905],[-119.37328,34.64739],[-119.37651,34.6464],[-119.37712,34.64468],[-119.37344,34.63958],[-119.37236,34.63254],[-119.3713,34.63026],[-119.37207,34.62758],[-119.37151,34.62316],[-119.37246,34.6205],[-119.37221,34.616],[-119.3648,34.60807],[-119.36037,34.60613],[-119.35564,34.60666],[-119.35241,34.60532],[-119.34884,34.6012],[-119.34538,34.60043],[-119.34151,34.6028],[-119.33858,34.60216],[-119.33569,34.59915],[-119.32763,34.59585],[-119.32258,34.5964],[-119.31651,34.59507],[-119.31455,34.59403],[-119.31126,34.59433],[-119.30929,34.59546],[-119.30482,34.59426],[-119.30184,34.59515],[-119.29983,34.59236],[-119.29541,34.59217],[-119.29161,34.5903],[-119.28801,34.59136],[-119.28342,34.58982],[-119.28195,34.58773],[-119.27756,34.58653],[-119.27509,34.58654],[-119.27351,34.58395],[-119.27061,34.5833],[-119.2689,34.58489],[-119.26602,34.58416],[-119.26293,34.58466],[-119.2606,34.5822],[-119.25727,34.57697],[-119.25896,34.57509],[-119.25876,34.5725],[-119.2603,34.56873],[-119.26272,34.56613],[-119.26421,34.56086],[-119.15714,34.56135],[-119.13467,34.56169]]]}},{"type":"Feature","properties":{"zcta":"93066","d":38},"geometry":{"type":"Polygon","coordinates":[[[-119.07415,34.31418],[-119.07181,34.31749],[-119.06649,34.31841],[-119.06229,34.31741],[-119.05793,34.31712],[-119.05194,34.32009],[-119.0374,34.32629],[-119.02931,34.32779],[-119.0274,34.32951],[-119.02254,34.33217],[-119.01246,34.33392],[-119.01352,34.3308],[-119.01019,34.33086],[-119.00886,34.33209],[-119.00466,34.33049],[-119.00232,34.33146],[-119.00016,34.33033],[-118.99845,34.33113],[-118.99223,34.32678],[-118.98623,34.32656],[-118.98298,34.32584],[-118.98103,34.32833],[-118.9784,34.32972],[-118.97463,34.331],[-118.97066,34.3338],[-118.96822,34.33751],[-118.96385,34.33949],[-118.96043,34.33991],[-118.95814,34.33906],[-118.95491,34.33549],[-118.95522,34.3354],[-118.95511,34.32143],[-118.9553,34.31736],[-118.95307,34.31559],[-118.95647,34.31186],[-118.95578,34.30897],[-118.95816,34.30491],[-118.95769,34.30124],[-118.95947,34.29797],[-118.95644,34.29848],[-118.95484,34.29479],[-118.95255,34.29521],[-118.95038,34.28439],[-118.94779,34.28477],[-118.94874,34.2828],[-118.9509,34.2822],[-118.9525,34.2782],[-118.95767,34.27752],[-118.95579,34.26881],[-118.94303,34.27103],[-118.93475,34.27204],[-118.93276,34.27288],[-118.93063,34.2702],[-118.93345,34.26873],[-118.94413,34.2677],[-118.9489,34.26825],[-118.95699,34.26475],[-118.95901,34.26273],[-118.96341,34.26086],[-118.96847,34.2609],[-118.97285,34.26314],[-118.97958,34.26314],[-118.98053,34.2638],[-119.00558,34.24776],[-119.00794,34.24587],[-119.01052,34.25294],[-119.01486,34.25259],[-119.0164,34.25527],[-119.0203,34.25577],[-119.02231,34.25159],[-119.02373,34.25233],[-119.03422,34.25435],[-119.0389,34.25289],[-119.04059,34.25442],[-119.0468,34.2516],[-119.04883,34.25231],[-119.05447,34.25188],[-119.05745,34.25095],[-119.05742,34.25554],[-119.05492,34.2588],[-119.06081,34.25571],[-119.06071,34.25943],[-119.0647,34.25601],[-119.07154,34.2544],[-119.07494,34.2552],[-119.08064,34.2543],[-119.0825,34.25256],[-119.08658,34.25247],[-119.09187,34.24871],[-119.09442,34.24771],[-119.10898,34.25592],[-119.12659,34.268],[-119.13372,34.27288],[-119.13019,34.27587],[-119.12818,34.27872],[-119.12529,34.28039],[-119.11803,34.28669],[-119.11492,34.28819],[-119.11382,34.28985],[-119.10832,34.29106],[-119.10393,34.29042],[-119.10106,34.29074],[-119.0994,34.29227],[-119.09782,34.29603],[-119.09279,34.29499],[-119.08454,34.2958],[-119.08177,34.29808],[-119.08223,34.30168],[-119.08134,34.30342],[-119.07658,34.30675],[-119.07482,34.30861],[-119.07443,34.31193],[-119.07415,34.31418]]]}},{"type":"Feature","properties":{"zcta":"91320","d":1161},"geometry":{"type":"Polygon","coordinates":[[[-118.92751,34.21295],[-118.92653,34.209],[-118.92263,34.2094],[-118.91693,34.2058],[-118.91613,34.203],[-118.91299,34.20155],[-118.90995,34.20123],[-118.90833,34.20212],[-118.90662,34.20099],[-118.90665,34.19895],[-118.9085,34.19839],[-118.90891,34.19649],[-118.9071,34.19509],[-118.90931,34.19258],[-118.90916,34.18971],[-118.90226,34.18875],[-118.90146,34.1862],[-118.90034,34.1867],[-118.89782,34.18516],[-118.8926,34.18616],[-118.89164,34.18346],[-118.88556,34.18044],[-118.88858,34.18127],[-118.88887,34.16218],[-118.9199,34.16216],[-118.92813,34.16001],[-118.93447,34.15925],[-118.93848,34.15596],[-118.93696,34.1419],[-118.95019,34.14523],[-118.95344,34.14559],[-118.95835,34.14471],[-118.95849,34.14542],[-118.96386,34.14622],[-118.96664,34.14527],[-118.96573,34.14303],[-118.96899,34.14002],[-118.97122,34.13929],[-118.97528,34.13853],[-118.98031,34.1361],[-118.98258,34.13405],[-118.98438,34.13409],[-118.98721,34.13612],[-118.98936,34.13932],[-118.9921,34.13806],[-118.99564,34.13923],[-119.00147,34.13933],[-119.00079,34.13998],[-119.00625,34.14439],[-119.01168,34.13979],[-119.01693,34.14727],[-119.01901,34.14536],[-119.01949,34.14708],[-119.0162,34.14785],[-119.00381,34.1485],[-119.00009,34.1517],[-118.99003,34.15345],[-118.98812,34.15476],[-118.99143,34.15817],[-118.98961,34.16029],[-118.99526,34.16364],[-118.99799,34.16327],[-118.99979,34.16466],[-118.99895,34.16626],[-119.00166,34.1691],[-119.00084,34.17073],[-118.99928,34.17009],[-118.99488,34.17496],[-118.99141,34.17431],[-118.99222,34.17721],[-118.98934,34.17791],[-118.99026,34.18179],[-118.98635,34.1834],[-118.98496,34.18828],[-118.98128,34.18368],[-118.97767,34.18264],[-118.97486,34.1831],[-118.96686,34.18758],[-118.96664,34.1907],[-118.96432,34.19102],[-118.96431,34.19886],[-118.95819,34.19994],[-118.95779,34.20057],[-118.94144,34.21568],[-118.93844,34.21583],[-118.92985,34.21431],[-118.92751,34.21295]]]}},{"type":"Feature","properties":{"zcta":"93030","d":1845},"geometry":{"type":"Polygon","coordinates":[[[-119.24844,34.21952],[-119.20988,34.21938],[-119.20984,34.22148],[-119.20709,34.22207],[-119.20706,34.21937],[-119.19455,34.21927],[-119.19214,34.21814],[-119.1913,34.21603],[-119.19024,34.21916],[-119.18179,34.21849],[-119.18181,34.21911],[-119.17225,34.21902],[-119.17511,34.2174],[-119.17528,34.21539],[-119.16843,34.21533],[-119.16821,34.219],[-119.16107,34.21895],[-119.1613,34.21724],[-119.15942,34.21723],[-119.1583,34.21888],[-119.15391,34.21886],[-119.15409,34.21678],[-119.14932,34.21674],[-119.14928,34.21882],[-119.1449,34.21879],[-119.14644,34.21676],[-119.14643,34.21466],[-119.14383,34.21464],[-119.14442,34.21096],[-119.14212,34.21094],[-119.142,34.21981],[-119.14232,34.22251],[-119.13331,34.22207],[-119.11994,34.22192],[-119.12014,34.2175],[-119.11467,34.20971],[-119.11118,34.20951],[-119.11,34.20172],[-119.09977,34.20164],[-119.10425,34.19687],[-119.10973,34.19667],[-119.14229,34.19683],[-119.14257,34.17318],[-119.1484,34.1732],[-119.14829,34.1824],[-119.16003,34.18256],[-119.15993,34.18985],[-119.16504,34.18886],[-119.16486,34.18988],[-119.16847,34.18943],[-119.16856,34.17354],[-119.16874,34.1825],[-119.17131,34.18179],[-119.17092,34.18386],[-119.17568,34.18837],[-119.1812,34.18953],[-119.18842,34.18944],[-119.18842,34.19],[-119.19485,34.19008],[-119.19476,34.19512],[-119.19936,34.19514],[-119.19938,34.19655],[-119.20766,34.19748],[-119.23587,34.19773],[-119.23841,34.20028],[-119.23884,34.20406],[-119.24285,34.20535],[-119.24284,34.2087],[-119.2484,34.20869],[-119.25369,34.21849],[-119.24844,34.21952]]]}},{"type":"Feature","properties":{"zcta":"91360","d":1409},"geometry":{"type":"Polygon","coordinates":[[[-118.86425,34.2456],[-118.86318,34.24345],[-118.8409,34.24365],[-118.83992,34.24579],[-118.84011,34.24994],[-118.82654,34.25012],[-118.82442,34.25078],[-118.82444,34.24987],[-118.82879,34.24621],[-118.81538,34.23957],[-118.81763,34.23396],[-118.81608,34.2271],[-118.82348,34.22618],[-118.83021,34.22816],[-118.8305,34.22913],[-118.83515,34.23259],[-118.83311,34.24265],[-118.83043,34.24487],[-118.83366,34.24622],[-118.83567,34.24393],[-118.84007,34.24161],[-118.84253,34.23527],[-118.84604,34.23002],[-118.84981,34.22152],[-118.84928,34.2116],[-118.84947,34.20843],[-118.85122,34.20564],[-118.85532,34.2025],[-118.86074,34.19425],[-118.86232,34.19037],[-118.86234,34.18766],[-118.86086,34.18323],[-118.86076,34.17682],[-118.86159,34.17617],[-118.87914,34.17761],[-118.88556,34.18044],[-118.89164,34.18346],[-118.8926,34.18616],[-118.89782,34.18516],[-118.90034,34.1867],[-118.90146,34.1862],[-118.90226,34.18875],[-118.90916,34.18971],[-118.90931,34.19258],[-118.9071,34.19509],[-118.90891,34.19649],[-118.9085,34.19839],[-118.90665,34.19895],[-118.90662,34.20099],[-118.90833,34.20212],[-118.90995,34.20123],[-118.91299,34.20155],[-118.91613,34.203],[-118.91693,34.2058],[-118.92263,34.2094],[-118.92653,34.209],[-118.92751,34.21295],[-118.92985,34.21431],[-118.92808,34.21624],[-118.92923,34.22509],[-118.92973,34.22581],[-118.92066,34.22582],[-118.92067,34.22762],[-118.91711,34.22764],[-118.91776,34.22591],[-118.91295,34.22723],[-118.91023,34.22705],[-118.90945,34.23109],[-118.90103,34.23438],[-118.89728,34.23462],[-118.89528,34.23625],[-118.8926,34.23544],[-118.89145,34.2371],[-118.88914,34.23694],[-118.88864,34.23828],[-118.87803,34.23539],[-118.87393,34.2373],[-118.86598,34.23733],[-118.86591,34.24611],[-118.86425,34.2456]]]}},{"type":"Feature","properties":{"zcta":"93021","d":375},"geometry":{"type":"Polygon","coordinates":[[[-118.95288,34.3361],[-118.95238,34.3396],[-118.94949,34.3438],[-118.94683,34.34546],[-118.9427,34.34613],[-118.94011,34.34562],[-118.93192,34.33966],[-118.92875,34.33615],[-118.91918,34.33718],[-118.90939,34.33671],[-118.90615,34.33736],[-118.90098,34.3395],[-118.90352,34.341],[-118.90476,34.34339],[-118.9071,34.34245],[-118.90732,34.34964],[-118.88758,34.34979],[-118.88631,34.35446],[-118.88317,34.35622],[-118.87721,34.35535],[-118.87285,34.35294],[-118.87004,34.35446],[-118.86633,34.35538],[-118.85859,34.35842],[-118.85533,34.3587],[-118.84846,34.35757],[-118.84306,34.35751],[-118.83757,34.35942],[-118.83186,34.35933],[-118.82251,34.35784],[-118.81373,34.36043],[-118.8141,34.35718],[-118.8157,34.35636],[-118.82198,34.35546],[-118.82543,34.35261],[-118.82963,34.35192],[-118.83297,34.34831],[-118.83423,34.34532],[-118.82853,34.34306],[-118.82343,34.344],[-118.82096,34.34387],[-118.82001,34.33986],[-118.81823,34.33845],[-118.81262,34.34013],[-118.80863,34.3401],[-118.80374,34.33885],[-118.80373,34.3353],[-118.80944,34.33235],[-118.81195,34.33226],[-118.8177,34.33008],[-118.81962,34.32538],[-118.81998,34.32112],[-118.82107,34.31688],[-118.81962,34.31171],[-118.82436,34.30633],[-118.82694,34.30548],[-118.82942,34.30076],[-118.82261,34.30074],[-118.82259,34.30256],[-118.82048,34.30256],[-118.82104,34.29954],[-118.8198,34.29708],[-118.82244,34.29505],[-118.82135,34.2914],[-118.81186,34.29085],[-118.81234,34.28759],[-118.81833,34.28666],[-118.82693,34.28803],[-118.83111,34.28754],[-118.8312,34.2644],[-118.82448,34.26446],[-118.82442,34.25078],[-118.82654,34.25012],[-118.84011,34.24994],[-118.83992,34.24579],[-118.8409,34.24365],[-118.86318,34.24345],[-118.86425,34.2456],[-118.86591,34.24611],[-118.86846,34.24622],[-118.86824,34.24809],[-118.86599,34.24996],[-118.86522,34.25629],[-118.86602,34.26087],[-118.91281,34.26075],[-118.91309,34.25978],[-118.92461,34.25707],[-118.92536,34.25427],[-118.92718,34.25416],[-118.92787,34.25225],[-118.93023,34.2522],[-118.9332,34.25513],[-118.93294,34.25771],[-118.9315,34.25983],[-118.93301,34.25992],[-118.93023,34.2696],[-118.93063,34.2702],[-118.93276,34.27288],[-118.93475,34.27204],[-118.94303,34.27103],[-118.95579,34.26881],[-118.95767,34.27752],[-118.9525,34.2782],[-118.9509,34.2822],[-118.94874,34.2828],[-118.94779,34.28477],[-118.95038,34.28439],[-118.95255,34.29521],[-118.95484,34.29479],[-118.95644,34.29848],[-118.95947,34.29797],[-118.95769,34.30124],[-118.95816,34.30491],[-118.95578,34.30897],[-118.95647,34.31186],[-118.95307,34.31559],[-118.9553,34.31736],[-118.95511,34.32143],[-118.95522,34.3354],[-118.95491,34.33549],[-118.95288,34.3361]]]}},{"type":"Feature","properties":{"zcta":"93003","d":1182},"geometry":{"type":"Polygon","coordinates":[[[-119.21663,34.33738],[-119.21491,34.33689],[-119.21542,34.33378],[-119.21042,34.33267],[-119.20334,34.33256],[-119.20085,34.33152],[-119.19876,34.32778],[-119.20037,34.32659],[-119.1979,34.32339],[-119.19946,34.31972],[-119.19823,34.31831],[-119.19833,34.31456],[-119.19986,34.3107],[-119.19836,34.30882],[-119.20041,34.30518],[-119.19992,34.30161],[-119.19835,34.2994],[-119.19883,34.29567],[-119.19726,34.28984],[-119.19524,34.28795],[-119.19432,34.28346],[-119.19253,34.28117],[-119.19142,34.276],[-119.18931,34.27207],[-119.18856,34.26882],[-119.18477,34.26915],[-119.18415,34.26627],[-119.17868,34.26704],[-119.17717,34.26211],[-119.19452,34.25163],[-119.19162,34.24552],[-119.19272,34.2434],[-119.18972,34.24232],[-119.19732,34.23732],[-119.2022,34.23474],[-119.21644,34.23511],[-119.21647,34.24062],[-119.21515,34.2438],[-119.2208,34.24545],[-119.22812,34.24475],[-119.22839,34.24882],[-119.25002,34.25895],[-119.25251,34.25796],[-119.25434,34.2556],[-119.25883,34.25303],[-119.26024,34.25637],[-119.26356,34.26178],[-119.25263,34.25861],[-119.25045,34.25933],[-119.26836,34.2678],[-119.267,34.27152],[-119.26731,34.27377],[-119.2659,34.27624],[-119.26204,34.27999],[-119.25917,34.28075],[-119.25751,34.28481],[-119.25634,34.28516],[-119.25731,34.2879],[-119.25651,34.29164],[-119.25785,34.29346],[-119.25828,34.29839],[-119.25732,34.30095],[-119.25522,34.30352],[-119.25338,34.30775],[-119.25121,34.30828],[-119.24702,34.31101],[-119.24358,34.31538],[-119.23646,34.31933],[-119.23485,34.32091],[-119.23458,34.32715],[-119.23522,34.3294],[-119.23479,34.33441],[-119.23018,34.33566],[-119.2224,34.3393],[-119.21569,34.34021],[-119.21663,34.33738]]]}},{"type":"Feature","properties":{"zcta":"93012","d":339},"geometry":{"type":"Polygon","coordinates":[[[-119.05112,34.19638],[-119.04664,34.19712],[-119.04388,34.19978],[-119.03997,34.2079],[-119.03624,34.21319],[-119.03132,34.21931],[-119.0156,34.23474],[-119.00794,34.24587],[-119.00558,34.24776],[-118.98053,34.2638],[-118.97958,34.26314],[-118.97285,34.26314],[-118.96847,34.2609],[-118.96341,34.26086],[-118.95901,34.26273],[-118.95699,34.26475],[-118.9489,34.26825],[-118.94413,34.2677],[-118.93345,34.26873],[-118.93063,34.2702],[-118.93023,34.2696],[-118.93301,34.25992],[-118.9315,34.25983],[-118.93294,34.25771],[-118.9332,34.25513],[-118.93023,34.2522],[-118.92787,34.25225],[-118.92718,34.25416],[-118.92536,34.25427],[-118.92461,34.25707],[-118.91309,34.25978],[-118.91281,34.26075],[-118.86602,34.26087],[-118.86522,34.25629],[-118.86599,34.24996],[-118.86824,34.24809],[-118.86846,34.24622],[-118.86591,34.24611],[-118.86598,34.23733],[-118.87393,34.2373],[-118.87803,34.23539],[-118.88864,34.23828],[-118.88914,34.23694],[-118.89145,34.2371],[-118.8926,34.23544],[-118.89528,34.23625],[-118.89728,34.23462],[-118.90103,34.23438],[-118.90945,34.23109],[-118.91023,34.22705],[-118.91295,34.22723],[-118.91776,34.22591],[-118.91711,34.22764],[-118.92067,34.22762],[-118.92066,34.22582],[-118.92973,34.22581],[-118.92923,34.22509],[-118.92808,34.21624],[-118.92985,34.21431],[-118.93844,34.21583],[-118.94144,34.21568],[-118.95779,34.20057],[-118.95819,34.19994],[-118.96431,34.19886],[-118.96432,34.19102],[-118.96664,34.1907],[-118.96686,34.18758],[-118.97486,34.1831],[-118.97767,34.18264],[-118.98128,34.18368],[-118.98496,34.18828],[-118.98635,34.1834],[-118.99026,34.18179],[-118.98934,34.17791],[-118.99222,34.17721],[-118.99141,34.17431],[-118.99488,34.17496],[-118.99928,34.17009],[-119.00084,34.17073],[-119.00166,34.1691],[-118.99895,34.16626],[-118.99979,34.16466],[-118.99799,34.16327],[-118.99526,34.16364],[-118.98961,34.16029],[-118.99143,34.15817],[-118.98812,34.15476],[-118.99003,34.15345],[-119.00009,34.1517],[-119.00381,34.1485],[-119.0162,34.14785],[-119.01949,34.14708],[-119.01901,34.14536],[-119.02833,34.13489],[-119.03699,34.13047],[-119.04395,34.12793],[-119.04818,34.12765],[-119.04728,34.12959],[-119.05014,34.12972],[-119.04916,34.13149],[-119.05063,34.13231],[-119.04871,34.13427],[-119.05145,34.14172],[-119.05531,34.14143],[-119.05892,34.14308],[-119.0857,34.14353],[-119.09665,34.14675],[-119.09635,34.17627],[-119.0713,34.17603],[-119.07022,34.17919],[-119.06978,34.19655],[-119.05112,34.19638]]]}},{"type":"Feature","properties":{"zcta":"93063","d":822},"geometry":{"type":"Polygon","coordinates":[[[-118.67247,34.24215],[-118.67013,34.24497],[-118.67205,34.24749],[-118.67399,34.25177],[-118.67743,34.25185],[-118.67943,34.25473],[-118.67974,34.25973],[-118.68548,34.25976],[-118.6855,34.26452],[-118.711,34.2645],[-118.71349,34.26228],[-118.71549,34.26211],[-118.71654,34.26757],[-118.72102,34.26692],[-118.72601,34.26484],[-118.73472,34.26307],[-118.73617,34.264],[-118.73516,34.26756],[-118.73231,34.26756],[-118.73231,34.27167],[-118.73988,34.27195],[-118.73472,34.27753],[-118.73269,34.27898],[-118.73563,34.27898],[-118.73562,34.28631],[-118.73916,34.28633],[-118.7387,34.28988],[-118.73736,34.29098],[-118.73733,34.29399],[-118.72653,34.29851],[-118.7265,34.2952],[-118.72485,34.29688],[-118.72118,34.29694],[-118.71988,34.30007],[-118.72127,34.30358],[-118.72069,34.31132],[-118.72112,34.313],[-118.71777,34.31691],[-118.71966,34.31921],[-118.71892,34.32111],[-118.72083,34.32532],[-118.72118,34.32792],[-118.72411,34.32831],[-118.7244,34.3257],[-118.72761,34.3257],[-118.73146,34.32469],[-118.73282,34.32615],[-118.73654,34.32549],[-118.73776,34.32703],[-118.73951,34.32512],[-118.74399,34.32309],[-118.74542,34.32399],[-118.74604,34.3265],[-118.74902,34.32879],[-118.75505,34.33059],[-118.75573,34.33211],[-118.7591,34.33325],[-118.76318,34.33095],[-118.77068,34.33298],[-118.77078,34.33584],[-118.76896,34.3394],[-118.76118,34.34002],[-118.75191,34.3381],[-118.74193,34.33437],[-118.73944,34.33462],[-118.73899,34.33787],[-118.73669,34.33854],[-118.73726,34.34117],[-118.74226,34.34403],[-118.74553,34.34435],[-118.74894,34.346],[-118.75554,34.3475],[-118.76165,34.35165],[-118.75936,34.35155],[-118.71084,34.35147],[-118.71294,34.35734],[-118.70893,34.36089],[-118.7089,34.36224],[-118.71228,34.36332],[-118.70892,34.36339],[-118.70892,34.37595],[-118.67834,34.37647],[-118.64772,34.31409],[-118.65111,34.31082],[-118.64905,34.30671],[-118.65047,34.30443],[-118.64897,34.30322],[-118.64667,34.30351],[-118.64511,34.30162],[-118.64601,34.29968],[-118.64412,34.29435],[-118.64062,34.29065],[-118.63684,34.28921],[-118.6381,34.2816],[-118.63641,34.27953],[-118.6387,34.27604],[-118.63711,34.27472],[-118.63727,34.2695],[-118.63816,34.26864],[-118.63496,34.26731],[-118.63671,34.26496],[-118.63255,34.26335],[-118.63257,34.25825],[-118.63843,34.25447],[-118.64198,34.25458],[-118.64541,34.25386],[-118.64946,34.25692],[-118.65803,34.24864],[-118.66154,34.24691],[-118.66717,34.24201],[-118.67037,34.24235],[-118.67148,34.24148],[-118.67247,34.24215]]]}},{"type":"Feature","properties":{"zcta":"93064","d":0},"geometry":{"type":"Polygon","coordinates":[[[-118.71349,34.26228],[-118.711,34.2645],[-118.6855,34.26452],[-118.68548,34.25976],[-118.67974,34.25973],[-118.67943,34.25473],[-118.67743,34.25185],[-118.67399,34.25177],[-118.67205,34.24749],[-118.67013,34.24497],[-118.67247,34.24215],[-118.67148,34.24148],[-118.6756,34.23519],[-118.68104,34.23319],[-118.68373,34.23085],[-118.68821,34.22581],[-118.69054,34.2251],[-118.70081,34.2258],[-118.70642,34.22813],[-118.70566,34.22978],[-118.708,34.23007],[-118.71062,34.22875],[-118.71409,34.22874],[-118.71411,34.22983],[-118.7179,34.22892],[-118.72356,34.23053],[-118.72707,34.23342],[-118.72549,34.241],[-118.72108,34.25674],[-118.72114,34.26448],[-118.71697,34.26139],[-118.71549,34.26211],[-118.71349,34.26228]]]}},{"type":"Feature","properties":{"zcta":"93041","d":893},"geometry":{"type":"MultiPolygon","coordinates":[[[[-119.10962,34.13336],[-119.10358,34.13944],[-119.10048,34.13554],[-119.10044,34.13229],[-119.0982,34.13271],[-119.08228,34.11283],[-119.08455,34.11216],[-119.09051,34.11301],[-119.09306,34.11034],[-119.10249,34.11243],[-119.10162,34.1168],[-119.10351,34.11924],[-119.11182,34.12406],[-119.11265,34.12781],[-119.11402,34.12947],[-119.10962,34.13336]]],[[[-119.19512,34.17063],[-119.18921,34.17022],[-119.18923,34.16805],[-119.18641,34.16804],[-119.18603,34.16105],[-119.18656,34.14939],[-119.18621,34.14504],[-119.17783,34.14534],[-119.17816,34.13203],[-119.18864,34.139],[-119.20314,34.14451],[-119.21124,34.14491],[-119.21606,34.14602],[-119.2158,34.14727],[-119.213,34.14894],[-119.22071,34.15682],[-119.21599,34.15685],[-119.22144,34.16133],[-119.22134,34.1813],[-119.20445,34.18118],[-119.20433,34.18079],[-119.19531,34.18073],[-119.19512,34.17063]],[[-119.20842,34.16371],[-119.19985,34.16358],[-119.19952,34.16847],[-119.19814,34.16845],[-119.1981,34.17175],[-119.19525,34.17171],[-119.19526,34.17536],[-119.20671,34.17561],[-119.20842,34.16371]]]]}},{"type":"Feature","properties":{"zcta":"93042","d":0},"geometry":{"type":"MultiPolygon","coordinates":[[[[-119.15493,34.1241],[-119.13896,34.11428],[-119.13119,34.1144],[-119.12665,34.11837],[-119.12678,34.12521],[-119.11899,34.12509],[-119.11402,34.12947],[-119.11265,34.12781],[-119.11182,34.12406],[-119.10351,34.11924],[-119.10162,34.1168],[-119.10249,34.11243],[-119.09306,34.11034],[-119.09051,34.11301],[-119.08455,34.11216],[-119.08228,34.11283],[-119.07969,34.10906],[-119.07929,34.10682],[-119.08094,34.10111],[-119.07677,34.09797],[-119.06796,34.0932],[-119.0624,34.08751],[-119.06163,34.08563],[-119.06996,34.09047],[-119.08599,34.09927],[-119.09812,34.09986],[-119.10881,34.09592],[-119.11594,34.0969],[-119.12925,34.10084],[-119.14266,34.10841],[-119.15962,34.1197],[-119.15493,34.1241]]],[[[-119.56788,33.27471],[-119.56443,33.27209],[-119.56215,33.27122],[-119.55814,33.2725],[-119.55229,33.27727],[-119.55128,33.28061],[-119.5466,33.27939],[-119.54104,33.28137],[-119.53971,33.28083],[-119.53567,33.28325],[-119.53464,33.28539],[-119.53141,33.28375],[-119.52878,33.28542],[-119.52369,33.28301],[-119.5206,33.28012],[-119.51061,33.27533],[-119.50972,33.2737],[-119.50646,33.27232],[-119.50514,33.27265],[-119.50002,33.26843],[-119.4986,33.26655],[-119.49488,33.26555],[-119.48923,33.26579],[-119.48698,33.26754],[-119.48573,33.26482],[-119.47065,33.25976],[-119.46543,33.25925],[-119.46059,33.25666],[-119.45294,33.2493],[-119.44346,33.24208],[-119.4433,33.24005],[-119.43852,33.23654],[-119.43479,33.23142],[-119.4344,33.22702],[-119.43674,33.22441],[-119.43888,33.2201],[-119.44426,33.21931],[-119.44755,33.21977],[-119.45164,33.21866],[-119.45744,33.21609],[-119.46284,33.21635],[-119.4703,33.21473],[-119.47872,33.21635],[-119.48164,33.21838],[-119.49108,33.21984],[-119.49409,33.21987],[-119.49814,33.21884],[-119.50229,33.22156],[-119.50526,33.22115],[-119.50936,33.22327],[-119.51293,33.223],[-119.52021,33.22871],[-119.52398,33.22896],[-119.53086,33.23146],[-119.53573,33.23143],[-119.5393,33.23264],[-119.54085,33.23191],[-119.54621,33.23256],[-119.54612,33.23413],[-119.54855,33.23606],[-119.55146,33.23714],[-119.5603,33.2438],[-119.56019,33.2453],[-119.56598,33.24706],[-119.56666,33.25007],[-119.56476,33.25027],[-119.56725,33.25472],[-119.57056,33.25692],[-119.57514,33.25806],[-119.57397,33.26164],[-119.57387,33.26449],[-119.57884,33.27819],[-119.57727,33.27858],[-119.56788,33.27471]]]]}},{"type":"Feature","properties":{"zcta":"91362","d":908},"geometry":{"type":"Polygon","coordinates":[[[-118.81351,34.22676],[-118.81151,34.22393],[-118.80885,34.22462],[-118.80265,34.22256],[-118.80046,34.22302],[-118.79583,34.22086],[-118.79501,34.21743],[-118.78932,34.21781],[-118.78662,34.21681],[-118.78337,34.21678],[-118.7803,34.21785],[-118.77669,34.21698],[-118.7786,34.21315],[-118.78175,34.20837],[-118.7824,34.20472],[-118.78889,34.16821],[-118.79281,34.14604],[-118.79631,34.14658],[-118.8184,34.15339],[-118.82033,34.15431],[-118.85061,34.17434],[-118.85436,34.17563],[-118.86159,34.17617],[-118.86076,34.17682],[-118.86086,34.18323],[-118.86234,34.18766],[-118.86232,34.19037],[-118.86074,34.19425],[-118.85532,34.2025],[-118.85122,34.20564],[-118.84947,34.20843],[-118.84928,34.2116],[-118.84981,34.22152],[-118.84604,34.23002],[-118.84253,34.23527],[-118.84007,34.24161],[-118.83567,34.24393],[-118.83366,34.24622],[-118.83043,34.24487],[-118.83311,34.24265],[-118.83515,34.23259],[-118.8305,34.22913],[-118.83021,34.22816],[-118.82348,34.22618],[-118.81608,34.2271],[-118.81351,34.22676]]]}},{"type":"Feature","properties":{"zcta":"91361","d":305},"geometry":{"type":"Polygon","coordinates":[[[-118.96899,34.14002],[-118.96573,34.14303],[-118.96664,34.14527],[-118.96386,34.14622],[-118.95849,34.14542],[-118.95835,34.14471],[-118.95344,34.14559],[-118.95019,34.14523],[-118.93696,34.1419],[-118.93848,34.15596],[-118.93447,34.15925],[-118.92813,34.16001],[-118.9199,34.16216],[-118.88887,34.16218],[-118.88858,34.18127],[-118.88556,34.18044],[-118.87914,34.17761],[-118.86159,34.17617],[-118.85436,34.17563],[-118.85061,34.17434],[-118.82033,34.15431],[-118.8184,34.15339],[-118.79631,34.14658],[-118.79281,34.14604],[-118.80883,34.13197],[-118.84765,34.11032],[-118.85395,34.11191],[-118.85293,34.111],[-118.85575,34.10937],[-118.8591,34.10973],[-118.86364,34.11189],[-118.86649,34.1116],[-118.87006,34.11291],[-118.87367,34.11619],[-118.8773,34.11397],[-118.88058,34.11457],[-118.92137,34.11442],[-118.93725,34.11454],[-118.93724,34.12721],[-118.9775,34.1102],[-118.97336,34.13051],[-118.97122,34.13929],[-118.96899,34.14002]]]}},{"type":"Feature","properties":{"zcta":"93036","d":1385},"geometry":{"type":"Polygon","coordinates":[[[-119.2513,34.23538],[-119.24567,34.23449],[-119.23995,34.2357],[-119.23062,34.23476],[-119.21644,34.23511],[-119.2022,34.23474],[-119.19732,34.23732],[-119.18972,34.24232],[-119.18179,34.25044],[-119.16134,34.264],[-119.15807,34.26781],[-119.15578,34.26952],[-119.14828,34.2723],[-119.14229,34.27543],[-119.13831,34.27819],[-119.13322,34.28025],[-119.1317,34.28174],[-119.12925,34.28811],[-119.12954,34.28895],[-119.12727,34.29171],[-119.12147,34.29506],[-119.11691,34.29578],[-119.11401,34.29778],[-119.11127,34.30218],[-119.10838,34.30243],[-119.10388,34.30504],[-119.10063,34.30488],[-119.09877,34.30573],[-119.09738,34.30847],[-119.09626,34.31276],[-119.09409,34.31402],[-119.08663,34.32234],[-119.08311,34.32528],[-119.07855,34.32767],[-119.07608,34.32973],[-119.07341,34.32666],[-119.0799,34.3209],[-119.07991,34.3117],[-119.07443,34.31193],[-119.07482,34.30861],[-119.07658,34.30675],[-119.08134,34.30342],[-119.08223,34.30168],[-119.08177,34.29808],[-119.08454,34.2958],[-119.09279,34.29499],[-119.09782,34.29603],[-119.0994,34.29227],[-119.10106,34.29074],[-119.10393,34.29042],[-119.10832,34.29106],[-119.11382,34.28985],[-119.11492,34.28819],[-119.11803,34.28669],[-119.12529,34.28039],[-119.12818,34.27872],[-119.13019,34.27587],[-119.13372,34.27288],[-119.12659,34.268],[-119.12813,34.26391],[-119.14256,34.25069],[-119.11245,34.23004],[-119.11994,34.22192],[-119.13331,34.22207],[-119.14232,34.22251],[-119.142,34.21981],[-119.14212,34.21094],[-119.14442,34.21096],[-119.14383,34.21464],[-119.14643,34.21466],[-119.14644,34.21676],[-119.1449,34.21879],[-119.14928,34.21882],[-119.14932,34.21674],[-119.15409,34.21678],[-119.15391,34.21886],[-119.1583,34.21888],[-119.15942,34.21723],[-119.1613,34.21724],[-119.16107,34.21895],[-119.16821,34.219],[-119.16843,34.21533],[-119.17528,34.21539],[-119.17511,34.2174],[-119.17225,34.21902],[-119.18181,34.21911],[-119.18179,34.21849],[-119.19024,34.21916],[-119.1913,34.21603],[-119.19214,34.21814],[-119.19455,34.21927],[-119.20706,34.21937],[-119.20709,34.22207],[-119.20984,34.22148],[-119.20988,34.21938],[-119.24844,34.21952],[-119.25369,34.21849],[-119.25606,34.22391],[-119.25652,34.23537],[-119.2513,34.23538]]]}},{"type":"Feature","properties":{"zcta":"93033","d":1209},"geometry":{"type":"Polygon","coordinates":[[[-119.18842,34.19],[-119.18842,34.18944],[-119.1812,34.18953],[-119.17568,34.18837],[-119.17092,34.18386],[-119.17131,34.18179],[-119.16874,34.1825],[-119.16856,34.17354],[-119.16847,34.18943],[-119.16486,34.18988],[-119.16504,34.18886],[-119.15993,34.18985],[-119.16003,34.18256],[-119.14829,34.1824],[-119.1484,34.1732],[-119.14257,34.17318],[-119.14229,34.19683],[-119.10973,34.19667],[-119.10425,34.19687],[-119.06978,34.19655],[-119.07022,34.17919],[-119.0713,34.17603],[-119.09635,34.17627],[-119.09665,34.14675],[-119.0857,34.14353],[-119.05892,34.14308],[-119.05531,34.14143],[-119.05145,34.14172],[-119.04871,34.13427],[-119.05063,34.13231],[-119.04916,34.13149],[-119.05014,34.12972],[-119.04728,34.12959],[-119.04818,34.12765],[-119.04395,34.12793],[-119.03699,34.13047],[-119.03958,34.12749],[-119.04291,34.12527],[-119.04158,34.12354],[-119.04257,34.12098],[-119.04496,34.11773],[-119.04723,34.11632],[-119.05165,34.11601],[-119.0568,34.1145],[-119.06214,34.11237],[-119.0671,34.10756],[-119.06614,34.1058],[-119.06293,34.10349],[-119.06381,34.10179],[-119.06136,34.10049],[-119.0622,34.0974],[-119.06512,34.09725],[-119.06817,34.09524],[-119.06796,34.0932],[-119.07677,34.09797],[-119.08094,34.10111],[-119.07929,34.10682],[-119.07969,34.10906],[-119.08228,34.11283],[-119.0982,34.13271],[-119.10044,34.13229],[-119.10048,34.13554],[-119.10358,34.13944],[-119.10962,34.13336],[-119.11402,34.12947],[-119.11899,34.12509],[-119.12678,34.12521],[-119.12665,34.11837],[-119.13119,34.1144],[-119.13896,34.11428],[-119.15493,34.1241],[-119.15962,34.1197],[-119.17816,34.13203],[-119.17783,34.14534],[-119.18621,34.14504],[-119.18656,34.14939],[-119.18603,34.16105],[-119.18641,34.16804],[-119.18923,34.16805],[-119.18921,34.17022],[-119.19512,34.17063],[-119.19531,34.18073],[-119.19663,34.18389],[-119.19494,34.18527],[-119.19485,34.19008],[-119.18842,34.19]]]}},{"type":"Feature","properties":{"zcta":"93065","d":1142},"geometry":{"type":"Polygon","coordinates":[[[-118.80534,34.29019],[-118.7993,34.28739],[-118.79558,34.29013],[-118.79154,34.28811],[-118.79028,34.29059],[-118.78512,34.2906],[-118.78511,34.28624],[-118.76742,34.28624],[-118.7664,34.28901],[-118.7664,34.29497],[-118.76144,34.30437],[-118.76145,34.31164],[-118.74832,34.31891],[-118.74008,34.32265],[-118.727,34.31956],[-118.72451,34.32065],[-118.71966,34.31921],[-118.71777,34.31691],[-118.72112,34.313],[-118.72069,34.31132],[-118.72127,34.30358],[-118.71988,34.30007],[-118.72118,34.29694],[-118.72485,34.29688],[-118.7265,34.2952],[-118.72653,34.29851],[-118.73733,34.29399],[-118.73736,34.29098],[-118.7387,34.28988],[-118.73916,34.28633],[-118.73562,34.28631],[-118.73563,34.27898],[-118.73269,34.27898],[-118.73472,34.27753],[-118.73988,34.27195],[-118.73231,34.27167],[-118.73231,34.26756],[-118.73516,34.26756],[-118.73617,34.264],[-118.73472,34.26307],[-118.72601,34.26484],[-118.72102,34.26692],[-118.71654,34.26757],[-118.71549,34.26211],[-118.71697,34.26139],[-118.72114,34.26448],[-118.72108,34.25674],[-118.72549,34.241],[-118.72707,34.23342],[-118.72356,34.23053],[-118.72503,34.22849],[-118.72675,34.23074],[-118.73,34.22968],[-118.7338,34.23322],[-118.73826,34.23491],[-118.74294,34.23365],[-118.74288,34.23104],[-118.74082,34.22808],[-118.74176,34.22305],[-118.74381,34.22224],[-118.74273,34.22098],[-118.75059,34.22131],[-118.75104,34.22061],[-118.74729,34.21673],[-118.75672,34.21276],[-118.76611,34.21268],[-118.76993,34.21225],[-118.77563,34.21349],[-118.7786,34.21315],[-118.77669,34.21698],[-118.7803,34.21785],[-118.78337,34.21678],[-118.78662,34.21681],[-118.78932,34.21781],[-118.79501,34.21743],[-118.79583,34.22086],[-118.80046,34.22302],[-118.80265,34.22256],[-118.80885,34.22462],[-118.81151,34.22393],[-118.81351,34.22676],[-118.81608,34.2271],[-118.81763,34.23396],[-118.81538,34.23957],[-118.82879,34.24621],[-118.82444,34.24987],[-118.82442,34.25078],[-118.82448,34.26446],[-118.8312,34.2644],[-118.83111,34.28754],[-118.82693,34.28803],[-118.81833,34.28666],[-118.81234,34.28759],[-118.81186,34.29085],[-118.80534,34.29019]]]}},{"type":"Feature","properties":{"zcta":"93010","d":983},"geometry":{"type":"Polygon","coordinates":[[[-119.10898,34.25592],[-119.09442,34.24771],[-119.09187,34.24871],[-119.08658,34.25247],[-119.0825,34.25256],[-119.08064,34.2543],[-119.07494,34.2552],[-119.07154,34.2544],[-119.0647,34.25601],[-119.06071,34.25943],[-119.06081,34.25571],[-119.05492,34.2588],[-119.05742,34.25554],[-119.05745,34.25095],[-119.05447,34.25188],[-119.04883,34.25231],[-119.0468,34.2516],[-119.04059,34.25442],[-119.0389,34.25289],[-119.03422,34.25435],[-119.02373,34.25233],[-119.02231,34.25159],[-119.0203,34.25577],[-119.0164,34.25527],[-119.01486,34.25259],[-119.01052,34.25294],[-119.00794,34.24587],[-119.0156,34.23474],[-119.03132,34.21931],[-119.03624,34.21319],[-119.03997,34.2079],[-119.04388,34.19978],[-119.04664,34.19712],[-119.05112,34.19638],[-119.06978,34.19655],[-119.10425,34.19687],[-119.09977,34.20164],[-119.11,34.20172],[-119.11118,34.20951],[-119.11467,34.20971],[-119.12014,34.2175],[-119.11994,34.22192],[-119.11245,34.23004],[-119.14256,34.25069],[-119.12813,34.26391],[-119.12659,34.268],[-119.10898,34.25592]]]}},{"type":"Feature","properties":{"zcta":"91377","d":1251},"geometry":{"type":"Polygon","coordinates":[[[-118.77373,34.20345],[-118.77078,34.20259],[-118.76737,34.20296],[-118.76113,34.20592],[-118.7586,34.20586],[-118.75558,34.20435],[-118.75383,34.20238],[-118.75102,34.19541],[-118.74772,34.19239],[-118.74758,34.18467],[-118.74646,34.17916],[-118.74623,34.17487],[-118.74309,34.17282],[-118.74016,34.16798],[-118.78889,34.16821],[-118.7824,34.20472],[-118.77373,34.20345]]]}}]}