{"type":"FeatureCollection","features":[{"type":"Feature","properties":{"id":"27053","name":"Hennepin Co., MN"},"geometry":{"type":"Polygon","coordinates":[[[-93.7674,44.978],[-93.7669,45.0282],[-93.7667,45.0602],[-93.765,45.0617],[-93.7655,45.0663],[-93.7622,45.0677],[-93.7645,45.0711],[-93.7585,45.0729],[-93.7586,45.0778],[-93.7619,45.0812],[-93.758,45.0828],[-93.7564,45.0804],[-93.7483,45.0791],[-93.7392,45.081],[-93.7339,45.0872],[-93.7289,45.09],[-93.7296,45.0974],[-93.7268,45.0985],[-93.7258,45.1036],[-93.7206,45.1144],[-93.7121,45.1232],[-93.7074,45.126],[-93.7024,45.1316],[-93.7012,45.1357],[-93.6945,45.1413],[-93.6894,45.1434],[-93.684,45.15],[-93.6787,45.1505],[-93.6661,45.1545],[-93.6611,45.1533],[-93.6477,45.1586],[-93.6452,45.1616],[-93.6386,45.1656],[-93.6387,45.1742],[-93.6449,45.1791],[-93.6513,45.1825],[-93.6533,45.186],[-93.6567,45.1885],[-93.6589,45.1936],[-93.6571,45.1975],[-93.6472,45.1996],[-93.6451,45.204],[-93.6433,45.2044],[-93.64,45.2093],[-93.6346,45.2092],[-93.6331,45.2048],[-93.6309,45.2029],[-93.6248,45.2028],[-93.6234,45.2055],[-93.6259,45.2092],[-93.6195,45.209],[-93.6127,45.2115],[-93.6109,45.2081],[-93.6078,45.2122],[-93.6041,45.2128],[-93.602,45.2081],[-93.5979,45.2073],[-93.5939,45.2091],[-93.5925,45.2126],[-93.5943,45.2149],[-93.5924,45.2184],[-93.5895,45.2148],[-93.5755,45.2186],[-93.57,45.2185],[-93.5627,45.223],[-93.5611,45.227],[-93.5571,45.225],[-93.5551,45.2268],[-93.5478,45.2267],[-93.5426,45.2326],[-93.5394,45.231],[-93.5341,45.2306],[-93.5334,45.2256],[-93.5287,45.2224],[-93.5256,45.225],[-93.5266,45.2287],[-93.5218,45.2325],[-93.5199,45.2383],[-93.5147,45.2399],[-93.5224,45.2444],[-93.5217,45.2466],[-93.5122,45.2457],[-93.5027,45.2422],[-93.5002,45.2406],[-93.4969,45.2343],[-93.4923,45.2301],[-93.4855,45.2257],[-93.4817,45.225],[-93.4703,45.2259],[-93.4644,45.2246],[-93.4574,45.2201],[-93.4507,45.2195],[-93.4422,45.2164],[-93.4332,45.218],[-93.4249,45.2141],[-93.4225,45.2114],[-93.4152,45.2007],[-93.412,45.1982],[-93.3956,45.1913],[-93.3754,45.1787],[-93.3588,45.175],[-93.354,45.1702],[-93.3462,45.1602],[-93.3306,45.153],[-93.3234,45.1475],[-93.3115,45.1438],[-93.3083,45.1379],[-93.3011,45.132],[-93.2971,45.127],[-93.2951,45.1153],[-93.2803,45.1058],[-93.2784,45.103],[-93.2799,45.09],[-93.2801,45.0839],[-93.279,45.0802],[-93.2808,45.0717],[-93.2841,45.0649],[-93.2852,45.0585],[-93.2822,45.0512],[-93.2808,45.0436],[-93.2834,45.0354],[-93.2269,45.0357],[-93.2081,45.0357],[-93.2076,44.9917],[-93.2078,44.9532],[-93.2036,44.951],[-93.2001,44.9415],[-93.2008,44.9343],[-93.1998,44.9269],[-93.2014,44.9198],[-93.2004,44.9096],[-93.1987,44.9078],[-93.1922,44.9044],[-93.1904,44.898],[-93.1874,44.8951],[-93.1772,44.8939],[-93.1785,44.8883],[-93.1826,44.8871],[-93.183,44.8853],[-93.1796,44.8827],[-93.1788,44.8802],[-93.1812,44.8781],[-93.1879,44.875],[-93.1899,44.8715],[-93.2,44.8655],[-93.1973,44.8601],[-93.2034,44.8524],[-93.2078,44.8436],[-93.2114,44.8397],[-93.2211,44.8385],[-93.2219,44.837],[-93.2191,44.8322],[-93.2275,44.8291],[-93.2349,44.8246],[-93.2394,44.8202],[-93.248,44.8153],[-93.2519,44.8115],[-93.2725,44.8069],[-93.2808,44.8064],[-93.2853,44.8021],[-93.2941,44.799],[-93.3045,44.7945],[-93.3141,44.7925],[-93.3257,44.7927],[-93.3296,44.7911],[-93.336,44.7865],[-93.3437,44.7885],[-93.3486,44.7914],[-93.3519,44.7902],[-93.3561,44.7854],[-93.363,44.7889],[-93.3666,44.7889],[-93.3782,44.7852],[-93.381,44.7858],[-93.3848,44.7973],[-93.3875,44.7986],[-93.3963,44.7971],[-93.4036,44.8035],[-93.4136,44.8076],[-93.4205,44.8069],[-93.4342,44.8111],[-93.4382,44.8131],[-93.4413,44.8112],[-93.4439,44.8056],[-93.4503,44.8035],[-93.4567,44.8032],[-93.4599,44.8058],[-93.4637,44.8067],[-93.4757,44.8043],[-93.4812,44.8047],[-93.4837,44.8078],[-93.4919,44.8046],[-93.4961,44.8095],[-93.4991,44.8103],[-93.5033,44.8047],[-93.5113,44.805],[-93.5202,44.8022],[-93.5202,44.805],[-93.5207,44.8168],[-93.5209,44.8413],[-93.5207,44.8915],[-93.5402,44.8912],[-93.5807,44.8913],[-93.6072,44.8915],[-93.6349,44.8911],[-93.6586,44.891],[-93.6633,44.8914],[-93.6837,44.8909],[-93.6993,44.8911],[-93.7061,44.8907],[-93.7495,44.8907],[-93.7684,44.8909],[-93.7678,44.9198],[-93.7675,44.9776],[-93.7674,44.978]]]}},{"type":"Feature","properties":{"id":"27163","name":"Washington Co., MN"},"geometry":{"type":"Polygon","coordinates":[[[-92.9842,44.8908],[-92.9845,44.9414],[-92.9848,44.9705],[-92.9847,44.9814],[-92.9848,45.0659],[-92.9845,45.0967],[-92.9846,45.1236],[-93.0205,45.1239],[-93.0202,45.1743],[-93.0194,45.2339],[-93.0194,45.2969],[-92.9868,45.2968],[-92.9273,45.2963],[-92.8929,45.2962],[-92.8152,45.2963],[-92.7457,45.296],[-92.7456,45.2958],[-92.7508,45.293],[-92.7587,45.291],[-92.761,45.289],[-92.7619,45.2849],[-92.7606,45.2788],[-92.758,45.2748],[-92.7527,45.2696],[-92.7517,45.2617],[-92.7552,45.2567],[-92.7589,45.2534],[-92.7602,45.2496],[-92.7575,45.2383],[-92.7575,45.2305],[-92.7517,45.2187],[-92.754,45.2128],[-92.758,45.2096],[-92.7639,45.2049],[-92.7669,45.1951],[-92.7671,45.1879],[-92.7649,45.1828],[-92.7524,45.1739],[-92.7524,45.1662],[-92.7498,45.1633],[-92.751,45.1576],[-92.7491,45.1485],[-92.7521,45.1421],[-92.7494,45.1381],[-92.7457,45.1231],[-92.7395,45.1165],[-92.7405,45.1134],[-92.7449,45.1083],[-92.7544,45.1031],[-92.7656,45.0957],[-92.774,45.0891],[-92.7915,45.0796],[-92.8009,45.0695],[-92.8029,45.0654],[-92.8021,45.0574],[-92.7971,45.0506],[-92.7879,45.0435],[-92.7788,45.0393],[-92.7704,45.0338],[-92.7646,45.0288],[-92.7621,45.0243],[-92.7625,45.0206],[-92.7681,45.0091],[-92.7712,45.0014],[-92.7708,44.9941],[-92.769,44.9882],[-92.7703,44.9833],[-92.7694,44.9722],[-92.7672,44.9681],[-92.7607,44.965],[-92.7546,44.9558],[-92.7508,44.9416],[-92.7506,44.9373],[-92.7576,44.9112],[-92.7596,44.9079],[-92.7731,44.9014],[-92.7746,44.8981],[-92.7749,44.8928],[-92.7696,44.883],[-92.7641,44.8759],[-92.7637,44.8721],[-92.7691,44.862],[-92.7686,44.8544],[-92.7653,44.8411],[-92.7661,44.835],[-92.7723,44.828],[-92.7727,44.8214],[-92.7804,44.8126],[-92.7815,44.8094],[-92.783,44.7981],[-92.7852,44.7923],[-92.7888,44.7878],[-92.796,44.7821],[-92.8003,44.7774],[-92.8053,44.7684],[-92.8074,44.7589],[-92.808,44.7515],[-92.8026,44.7458],[-92.8126,44.7473],[-92.8252,44.7502],[-92.8293,44.75],[-92.836,44.7474],[-92.8499,44.7465],[-92.8553,44.7477],[-92.8609,44.7558],[-92.8666,44.7608],[-92.8726,44.7674],[-92.8782,44.772],[-92.8826,44.7741],[-92.892,44.7744],[-92.9051,44.7736],[-92.9133,44.7747],[-92.9254,44.7808],[-92.932,44.7811],[-92.9397,44.7757],[-92.9541,44.7712],[-92.9638,44.7701],[-92.9748,44.7723],[-92.9861,44.7753],[-92.9948,44.7747],[-93.0007,44.7719],[-93.006,44.7717],[-93.016,44.7756],[-93.0197,44.7817],[-93.0215,44.7868],[-93.0204,44.7942],[-93.0155,44.8026],[-93.0047,44.8149],[-93.0119,44.8367],[-93.0095,44.8479],[-93.0084,44.8587],[-93.0126,44.8691],[-93.0165,44.8846],[-93.02,44.8907],[-92.9842,44.8908]]]}},{"type":"Feature","properties":{"id":"27139","name":"Scott Co., MN"},"geometry":{"type":"Polygon","coordinates":[[[-93.7635,44.6391],[-93.7601,44.6351],[-93.7555,44.6358],[-93.7535,44.6381],[-93.7602,44.6418],[-93.7574,44.6443],[-93.7539,44.6437],[-93.7472,44.6453],[-93.7382,44.646],[-93.7299,44.6531],[-93.7264,44.657],[-93.7224,44.6543],[-93.7184,44.6553],[-93.7154,44.659],[-93.7208,44.6614],[-93.7214,44.6636],[-93.7136,44.6674],[-93.7087,44.6686],[-93.7019,44.6685],[-93.6977,44.6698],[-93.688,44.6782],[-93.6827,44.6839],[-93.6784,44.687],[-93.6751,44.6926],[-93.6655,44.6959],[-93.6596,44.6957],[-93.6552,44.6901],[-93.6506,44.6921],[-93.6483,44.6952],[-93.6451,44.6931],[-93.6377,44.6936],[-93.6356,44.6977],[-93.6299,44.6981],[-93.6292,44.7026],[-93.6254,44.7032],[-93.6179,44.7073],[-93.6262,44.7156],[-93.6256,44.7236],[-93.6315,44.7232],[-93.6324,44.7269],[-93.6285,44.7318],[-93.6315,44.7373],[-93.6302,44.7401],[-93.6221,44.7472],[-93.6209,44.7536],[-93.619,44.7539],[-93.6145,44.7491],[-93.6085,44.7538],[-93.6109,44.7567],[-93.6209,44.7601],[-93.6219,44.7625],[-93.6157,44.7665],[-93.6058,44.7678],[-93.6002,44.77],[-93.5952,44.7742],[-93.5943,44.7764],[-93.5999,44.7814],[-93.5992,44.7828],[-93.5891,44.7837],[-93.5821,44.7823],[-93.5814,44.7909],[-93.58,44.7936],[-93.5745,44.7958],[-93.5661,44.7966],[-93.5543,44.7998],[-93.5483,44.7957],[-93.5412,44.7987],[-93.5405,44.8048],[-93.5202,44.805],[-93.5202,44.8022],[-93.5113,44.805],[-93.5033,44.8047],[-93.4991,44.8103],[-93.4961,44.8095],[-93.4919,44.8046],[-93.4837,44.8078],[-93.4812,44.8047],[-93.4757,44.8043],[-93.4637,44.8067],[-93.4599,44.8058],[-93.4567,44.8032],[-93.4503,44.8035],[-93.4439,44.8056],[-93.4413,44.8112],[-93.4382,44.8131],[-93.4342,44.8111],[-93.4205,44.8069],[-93.4136,44.8076],[-93.4036,44.8035],[-93.3963,44.7971],[-93.3875,44.7986],[-93.3848,44.7973],[-93.381,44.7858],[-93.3782,44.7852],[-93.3666,44.7889],[-93.363,44.7889],[-93.3561,44.7854],[-93.3519,44.7902],[-93.3486,44.7914],[-93.3437,44.7885],[-93.336,44.7865],[-93.3296,44.7911],[-93.3297,44.7784],[-93.3287,44.7758],[-93.3284,44.7176],[-93.3183,44.7175],[-93.3184,44.6813],[-93.3187,44.6306],[-93.2782,44.6308],[-93.2781,44.5946],[-93.2785,44.544],[-93.2815,44.544],[-93.3498,44.5441],[-93.4005,44.5438],[-93.4433,44.5438],[-93.5243,44.5436],[-93.5494,44.5435],[-93.647,44.5439],[-93.6967,44.5436],[-93.7284,44.5433],[-93.8497,44.5431],[-93.9104,44.5432],[-93.9114,44.5456],[-93.9067,44.5511],[-93.9004,44.552],[-93.8986,44.55],[-93.8995,44.5455],[-93.8967,44.5447],[-93.8916,44.5462],[-93.8917,44.5522],[-93.9003,44.5554],[-93.8979,44.5621],[-93.8914,44.5657],[-93.8929,44.5686],[-93.9004,44.5694],[-93.9009,44.5721],[-93.8951,44.5745],[-93.8956,44.5801],[-93.8927,44.585],[-93.8977,44.5873],[-93.9003,44.5856],[-93.9028,44.5871],[-93.8973,44.5893],[-93.8897,44.5967],[-93.8847,44.5951],[-93.8824,44.5962],[-93.8823,44.6003],[-93.8772,44.6003],[-93.8779,44.6057],[-93.8726,44.6062],[-93.8714,44.6029],[-93.8689,44.6024],[-93.8605,44.6062],[-93.86,44.6092],[-93.8573,44.6116],[-93.8541,44.6171],[-93.8577,44.6211],[-93.8485,44.6218],[-93.843,44.6176],[-93.8412,44.6186],[-93.8454,44.6224],[-93.846,44.625],[-93.8409,44.6245],[-93.8365,44.6185],[-93.832,44.6217],[-93.818,44.629],[-93.8155,44.633],[-93.8085,44.6333],[-93.799,44.6349],[-93.7946,44.6338],[-93.7909,44.6286],[-93.7827,44.6316],[-93.7742,44.6378],[-93.7721,44.6344],[-93.7735,44.6308],[-93.7687,44.6315],[-93.7637,44.6341],[-93.7668,44.6383],[-93.7725,44.6388],[-93.768,44.6404],[-93.7635,44.6391]]]}},{"type":"Feature","properties":{"id":"27171","name":"Wright Co., MN"},"geometry":{"type":"Polygon","coordinates":[[[-94.0427,45.4169],[-94.0324,45.4124],[-94.0268,45.4054],[-94.0188,45.4028],[-94.0084,45.4045],[-94.0057,45.4012],[-94.0121,45.3959],[-94.0108,45.3916],[-94.0053,45.3917],[-94.0046,45.397],[-94.0003,45.4002],[-93.9962,45.4017],[-93.9855,45.3993],[-93.9792,45.3915],[-93.9701,45.387],[-93.9611,45.3805],[-93.9549,45.3777],[-93.9499,45.3801],[-93.9471,45.3839],[-93.9437,45.3853],[-93.9404,45.3843],[-93.933,45.3845],[-93.9273,45.3857],[-93.9185,45.3844],[-93.9126,45.3815],[-93.9093,45.3726],[-93.9018,45.3686],[-93.8908,45.3644],[-93.8879,45.3622],[-93.8872,45.3569],[-93.885,45.3529],[-93.8791,45.3466],[-93.8649,45.3386],[-93.855,45.3378],[-93.8484,45.3363],[-93.8397,45.3365],[-93.8308,45.3348],[-93.8258,45.328],[-93.8161,45.3219],[-93.8131,45.3176],[-93.8022,45.3108],[-93.7896,45.3081],[-93.7695,45.2979],[-93.7588,45.2952],[-93.7499,45.2958],[-93.7419,45.2991],[-93.7369,45.2999],[-93.7202,45.3001],[-93.7044,45.2977],[-93.6941,45.2996],[-93.6858,45.3051],[-93.6823,45.3038],[-93.6799,45.3003],[-93.6734,45.2962],[-93.6697,45.2952],[-93.6594,45.2959],[-93.6494,45.2953],[-93.6427,45.2963],[-93.6232,45.2956],[-93.6131,45.2928],[-93.6055,45.2923],[-93.5893,45.2928],[-93.5814,45.2919],[-93.5746,45.294],[-93.5724,45.2962],[-93.5717,45.3002],[-93.5697,45.3018],[-93.5629,45.3002],[-93.5597,45.2906],[-93.5551,45.2841],[-93.5534,45.2676],[-93.5519,45.265],[-93.5413,45.2563],[-93.5321,45.2549],[-93.5269,45.2519],[-93.5217,45.2466],[-93.5224,45.2444],[-93.5147,45.2399],[-93.5199,45.2383],[-93.5218,45.2325],[-93.5266,45.2287],[-93.5256,45.225],[-93.5287,45.2224],[-93.5334,45.2256],[-93.5341,45.2306],[-93.5394,45.231],[-93.5426,45.2326],[-93.5478,45.2267],[-93.5551,45.2268],[-93.5571,45.225],[-93.5611,45.227],[-93.5627,45.223],[-93.57,45.2185],[-93.5755,45.2186],[-93.5895,45.2148],[-93.5924,45.2184],[-93.5943,45.2149],[-93.5925,45.2126],[-93.5939,45.2091],[-93.5979,45.2073],[-93.602,45.2081],[-93.6041,45.2128],[-93.6078,45.2122],[-93.6109,45.2081],[-93.6127,45.2115],[-93.6195,45.209],[-93.6259,45.2092],[-93.6234,45.2055],[-93.6248,45.2028],[-93.6309,45.2029],[-93.6331,45.2048],[-93.6346,45.2092],[-93.64,45.2093],[-93.6433,45.2044],[-93.6451,45.204],[-93.6472,45.1996],[-93.6571,45.1975],[-93.6589,45.1936],[-93.6567,45.1885],[-93.6533,45.186],[-93.6513,45.1825],[-93.6449,45.1791],[-93.6387,45.1742],[-93.6386,45.1656],[-93.6452,45.1616],[-93.6477,45.1586],[-93.6611,45.1533],[-93.6661,45.1545],[-93.6787,45.1505],[-93.684,45.15],[-93.6894,45.1434],[-93.6945,45.1413],[-93.7012,45.1357],[-93.7024,45.1316],[-93.7074,45.126],[-93.7121,45.1232],[-93.7206,45.1144],[-93.7258,45.1036],[-93.7268,45.0985],[-93.7296,45.0974],[-93.7289,45.09],[-93.7339,45.0872],[-93.7392,45.081],[-93.7483,45.0791],[-93.7564,45.0804],[-93.758,45.0828],[-93.7619,45.0812],[-93.7586,45.0778],[-93.7585,45.0729],[-93.7645,45.0711],[-93.7622,45.0677],[-93.7655,45.0663],[-93.765,45.0617],[-93.7667,45.0602],[-93.7669,45.0282],[-93.7674,44.978],[-93.7675,44.9776],[-93.7748,44.978],[-93.8487,44.9785],[-93.8601,44.9779],[-93.8899,44.9781],[-94.0073,44.9786],[-94.0122,44.9787],[-94.0534,44.9786],[-94.1343,44.9788],[-94.2561,44.9795],[-94.2561,45.0663],[-94.2557,45.1669],[-94.256,45.2113],[-94.2568,45.2393],[-94.2603,45.2393],[-94.2607,45.2499],[-94.2611,45.2839],[-94.2615,45.2977],[-94.2546,45.3007],[-94.257,45.3063],[-94.2526,45.3083],[-94.2427,45.3082],[-94.2383,45.3097],[-94.2213,45.3121],[-94.2182,45.3156],[-94.2111,45.3163],[-94.2066,45.3155],[-94.2034,45.3173],[-94.197,45.3174],[-94.1943,45.3189],[-94.1866,45.3182],[-94.1852,45.316],[-94.1799,45.3132],[-94.1762,45.3064],[-94.1767,45.3038],[-94.1734,45.3014],[-94.1682,45.3021],[-94.1639,45.3012],[-94.1608,45.3041],[-94.1567,45.304],[-94.1168,45.328],[-94.1094,45.3376],[-94.1065,45.3399],[-94.0989,45.3434],[-94.0938,45.3423],[-94.0895,45.3466],[-94.0929,45.3482],[-94.0959,45.3525],[-94.0934,45.3534],[-94.0912,45.3582],[-94.0889,45.3594],[-94.0873,45.3643],[-94.0818,45.3659],[-94.0861,45.3742],[-94.086,45.3798],[-94.0807,45.3816],[-94.0782,45.384],[-94.0721,45.3947],[-94.0686,45.3963],[-94.0673,45.3994],[-94.0689,45.404],[-94.0656,45.4054],[-94.0659,45.4088],[-94.0636,45.4092],[-94.061,45.4133],[-94.0563,45.416],[-94.0566,45.4211],[-94.053,45.4237],[-94.0477,45.4228],[-94.0427,45.4169]]]}},{"type":"Feature","properties":{"id":"27141","name":"Sherburne Co., MN"},"geometry":{"type":"Polygon","coordinates":[[[-93.6452,45.5597],[-93.5821,45.559],[-93.5107,45.5588],[-93.5107,45.5228],[-93.5104,45.4434],[-93.5101,45.4148],[-93.5098,45.3856],[-93.511,45.2993],[-93.5126,45.2467],[-93.5122,45.2457],[-93.5217,45.2466],[-93.5269,45.2519],[-93.5321,45.2549],[-93.5413,45.2563],[-93.5519,45.265],[-93.5534,45.2676],[-93.5551,45.2841],[-93.5597,45.2906],[-93.5629,45.3002],[-93.5697,45.3018],[-93.5717,45.3002],[-93.5724,45.2962],[-93.5746,45.294],[-93.5814,45.2919],[-93.5893,45.2928],[-93.6055,45.2923],[-93.6131,45.2928],[-93.6232,45.2956],[-93.6427,45.2963],[-93.6494,45.2953],[-93.6594,45.2959],[-93.6697,45.2952],[-93.6734,45.2962],[-93.6799,45.3003],[-93.6823,45.3038],[-93.6858,45.3051],[-93.6941,45.2996],[-93.7044,45.2977],[-93.7202,45.3001],[-93.7369,45.2999],[-93.7419,45.2991],[-93.7499,45.2958],[-93.7588,45.2952],[-93.7695,45.2979],[-93.7896,45.3081],[-93.8022,45.3108],[-93.8131,45.3176],[-93.8161,45.3219],[-93.8258,45.328],[-93.8308,45.3348],[-93.8397,45.3365],[-93.8484,45.3363],[-93.855,45.3378],[-93.8649,45.3386],[-93.8791,45.3466],[-93.885,45.3529],[-93.8872,45.3569],[-93.8879,45.3622],[-93.8908,45.3644],[-93.9018,45.3686],[-93.9093,45.3726],[-93.9126,45.3815],[-93.9185,45.3844],[-93.9273,45.3857],[-93.933,45.3845],[-93.9404,45.3843],[-93.9437,45.3853],[-93.9471,45.3839],[-93.9499,45.3801],[-93.9549,45.3777],[-93.9611,45.3805],[-93.9701,45.387],[-93.9792,45.3915],[-93.9855,45.3993],[-93.9962,45.4017],[-94.0003,45.4002],[-94.0046,45.397],[-94.0053,45.3917],[-94.0108,45.3916],[-94.0121,45.3959],[-94.0057,45.4012],[-94.0084,45.4045],[-94.0188,45.4028],[-94.0268,45.4054],[-94.0324,45.4124],[-94.0427,45.4169],[-94.0477,45.4228],[-94.0495,45.4261],[-94.0498,45.4313],[-94.0522,45.4353],[-94.0638,45.4321],[-94.0669,45.4343],[-94.0694,45.4385],[-94.0737,45.4392],[-94.0794,45.4381],[-94.081,45.4397],[-94.0788,45.443],[-94.0816,45.4468],[-94.0882,45.449],[-94.0925,45.4493],[-94.1027,45.453],[-94.1008,45.459],[-94.1004,45.4668],[-94.106,45.4704],[-94.1151,45.4791],[-94.1251,45.4818],[-94.1346,45.4876],[-94.1379,45.4916],[-94.142,45.4932],[-94.142,45.497],[-94.144,45.501],[-94.1428,45.5024],[-94.1431,45.5087],[-94.1401,45.513],[-94.1395,45.5164],[-94.1444,45.5201],[-94.1455,45.5229],[-94.1491,45.5256],[-94.1505,45.5291],[-94.1534,45.5308],[-94.1537,45.5337],[-94.1485,45.5337],[-94.1468,45.5371],[-94.1471,45.5489],[-94.1456,45.5535],[-94.1495,45.5591],[-94.1105,45.5593],[-94.0174,45.5592],[-93.9346,45.5597],[-93.915,45.56],[-93.8629,45.5602],[-93.7899,45.5596],[-93.7594,45.5596],[-93.6452,45.5597]]]}},{"type":"Feature","properties":{"id":"27019","name":"Carver Co., MN"},"geometry":{"type":"Polygon","coordinates":[[[-94.0073,44.9786],[-93.8899,44.9781],[-93.8601,44.9779],[-93.8487,44.9785],[-93.7748,44.978],[-93.7675,44.9776],[-93.7678,44.9198],[-93.7684,44.8909],[-93.7495,44.8907],[-93.7061,44.8907],[-93.6993,44.8911],[-93.6837,44.8909],[-93.6633,44.8914],[-93.6586,44.891],[-93.6349,44.8911],[-93.6072,44.8915],[-93.5807,44.8913],[-93.5402,44.8912],[-93.5207,44.8915],[-93.5209,44.8413],[-93.5207,44.8168],[-93.5202,44.805],[-93.5405,44.8048],[-93.5412,44.7987],[-93.5483,44.7957],[-93.5543,44.7998],[-93.5661,44.7966],[-93.5745,44.7958],[-93.58,44.7936],[-93.5814,44.7909],[-93.5821,44.7823],[-93.5891,44.7837],[-93.5992,44.7828],[-93.5999,44.7814],[-93.5943,44.7764],[-93.5952,44.7742],[-93.6002,44.77],[-93.6058,44.7678],[-93.6157,44.7665],[-93.6219,44.7625],[-93.6209,44.7601],[-93.6109,44.7567],[-93.6085,44.7538],[-93.6145,44.7491],[-93.619,44.7539],[-93.6209,44.7536],[-93.6221,44.7472],[-93.6302,44.7401],[-93.6315,44.7373],[-93.6285,44.7318],[-93.6324,44.7269],[-93.6315,44.7232],[-93.6256,44.7236],[-93.6262,44.7156],[-93.6179,44.7073],[-93.6254,44.7032],[-93.6292,44.7026],[-93.6299,44.6981],[-93.6356,44.6977],[-93.6377,44.6936],[-93.6451,44.6931],[-93.6483,44.6952],[-93.6506,44.6921],[-93.6552,44.6901],[-93.6596,44.6957],[-93.6655,44.6959],[-93.6751,44.6926],[-93.6784,44.687],[-93.6827,44.6839],[-93.688,44.6782],[-93.6977,44.6698],[-93.7019,44.6685],[-93.7087,44.6686],[-93.7136,44.6674],[-93.7214,44.6636],[-93.7208,44.6614],[-93.7154,44.659],[-93.7184,44.6553],[-93.7224,44.6543],[-93.7264,44.657],[-93.7299,44.6531],[-93.7382,44.646],[-93.7472,44.6453],[-93.7539,44.6437],[-93.7574,44.6443],[-93.7602,44.6418],[-93.7535,44.6381],[-93.7555,44.6358],[-93.7601,44.6351],[-93.7635,44.6391],[-93.768,44.6404],[-93.7682,44.6735],[-93.8496,44.6737],[-93.8888,44.6734],[-93.8886,44.717],[-94.0105,44.7175],[-94.01,44.799],[-94.01,44.8551],[-94.0097,44.878],[-94.0099,44.8919],[-94.0118,44.8919],[-94.0123,44.9061],[-94.0125,44.9353],[-94.0122,44.9787],[-94.0073,44.9786]]]}},{"type":"Feature","properties":{"id":"55093","name":"Pierce Co., WI"},"geometry":{"type":"Polygon","coordinates":[[[-92.6853,44.8626],[-92.6497,44.8627],[-92.5798,44.8625],[-92.497,44.8625],[-92.4002,44.8623],[-92.3749,44.8623],[-92.3541,44.8615],[-92.2584,44.8581],[-92.2365,44.8577],[-92.2162,44.858],[-92.181,44.8578],[-92.1725,44.8579],[-92.1363,44.8578],[-92.1362,44.8148],[-92.1363,44.7715],[-92.1356,44.7566],[-92.1352,44.6989],[-92.1352,44.6844],[-92.1348,44.5929],[-92.1354,44.5396],[-92.1553,44.5395],[-92.1958,44.5397],[-92.2428,44.5398],[-92.3162,44.541],[-92.3199,44.5449],[-92.329,44.5509],[-92.3361,44.554],[-92.3476,44.5571],[-92.3615,44.5589],[-92.3683,44.5592],[-92.389,44.5577],[-92.3993,44.5583],[-92.4151,44.5604],[-92.4264,44.5588],[-92.4373,44.5528],[-92.4407,44.5533],[-92.4589,44.5627],[-92.481,44.5683],[-92.4938,44.5661],[-92.5088,44.5703],[-92.5184,44.5752],[-92.5273,44.5736],[-92.5406,44.5673],[-92.5443,44.567],[-92.55,44.569],[-92.5515,44.5716],[-92.5493,44.5777],[-92.5498,44.5811],[-92.5608,44.595],[-92.5694,44.6035],[-92.5771,44.6051],[-92.5816,44.6009],[-92.5847,44.5999],[-92.5888,44.6017],[-92.5905,44.6059],[-92.6015,44.6121],[-92.6071,44.6124],[-92.6146,44.6117],[-92.6215,44.615],[-92.6232,44.6182],[-92.6226,44.6235],[-92.6198,44.6292],[-92.6198,44.6342],[-92.6217,44.639],[-92.6321,44.649],[-92.6558,44.658],[-92.6647,44.6634],[-92.6865,44.6821],[-92.6965,44.6894],[-92.7009,44.6938],[-92.7132,44.7011],[-92.732,44.7137],[-92.7373,44.7172],[-92.7502,44.7221],[-92.757,44.7238],[-92.7661,44.7296],[-92.7879,44.7374],[-92.8024,44.7452],[-92.8026,44.7458],[-92.808,44.7515],[-92.8074,44.7589],[-92.8053,44.7684],[-92.8003,44.7774],[-92.796,44.7821],[-92.7888,44.7878],[-92.7852,44.7923],[-92.783,44.7981],[-92.7815,44.8094],[-92.7804,44.8126],[-92.7727,44.8214],[-92.7723,44.828],[-92.7661,44.835],[-92.7653,44.8411],[-92.7686,44.8544],[-92.7691,44.862],[-92.6853,44.8626]]]}},{"type":"Feature","properties":{"id":"27059","name":"Isanti Co., MN"},"geometry":{"type":"Polygon","coordinates":[[[-93.4616,45.7329],[-93.389,45.7307],[-93.3173,45.7309],[-93.2278,45.7309],[-93.1833,45.7305],[-93.1418,45.7307],[-93.1416,45.7018],[-93.142,45.5883],[-93.1417,45.5784],[-93.142,45.5581],[-93.0836,45.5579],[-93.022,45.5574],[-93.0217,45.5425],[-93.0221,45.5349],[-93.0223,45.5058],[-93.0217,45.4849],[-93.0217,45.4704],[-93.0196,45.4118],[-93.0659,45.4127],[-93.0832,45.4127],[-93.0933,45.4138],[-93.1422,45.4136],[-93.1629,45.4142],[-93.2355,45.4138],[-93.3475,45.4136],[-93.3677,45.4137],[-93.4496,45.4137],[-93.5101,45.4148],[-93.5104,45.4434],[-93.5107,45.5228],[-93.5107,45.5588],[-93.5116,45.588],[-93.5128,45.6452],[-93.5127,45.6761],[-93.5123,45.6786],[-93.5121,45.7028],[-93.5124,45.7186],[-93.5137,45.7343],[-93.4616,45.7329]]]}},{"type":"Feature","properties":{"id":"27079","name":"Le Sueur Co., MN"},"geometry":{"type":"Polygon","coordinates":[[[-93.5246,44.4282],[-93.5247,44.3704],[-93.5252,44.3122],[-93.5252,44.1961],[-93.6163,44.1961],[-93.6288,44.1962],[-93.6559,44.1959],[-93.6732,44.1961],[-93.7128,44.1961],[-93.768,44.1958],[-93.768,44.2394],[-93.8621,44.2392],[-93.9291,44.2398],[-93.9387,44.2393],[-93.969,44.2395],[-94.0191,44.2395],[-94.0221,44.2408],[-94.0153,44.2484],[-94.0099,44.2462],[-94.0085,44.2477],[-94.01,44.2523],[-94.0161,44.2574],[-94.0245,44.2559],[-94.0251,44.2582],[-94.0216,44.2616],[-94.0143,44.265],[-94.0123,44.2697],[-94.0085,44.2716],[-94.0126,44.2728],[-94.011,44.2768],[-94.0047,44.279],[-93.9981,44.2788],[-93.9939,44.2891],[-93.9899,44.293],[-93.9911,44.2955],[-93.9855,44.297],[-93.981,44.2996],[-93.9735,44.3004],[-93.9693,44.3052],[-93.9661,44.307],[-93.9598,44.3073],[-93.9535,44.3181],[-93.9508,44.3204],[-93.9527,44.3246],[-93.9487,44.3305],[-93.9436,44.3313],[-93.9429,44.334],[-93.9452,44.339],[-93.9412,44.3412],[-93.9373,44.339],[-93.9327,44.3449],[-93.9362,44.3501],[-93.9435,44.355],[-93.954,44.357],[-93.9567,44.3602],[-93.9531,44.364],[-93.9542,44.3665],[-93.9575,44.3632],[-93.9606,44.3633],[-93.962,44.3659],[-93.962,44.3707],[-93.9557,44.3737],[-93.9572,44.3794],[-93.9631,44.3816],[-93.9625,44.3843],[-93.9594,44.3853],[-93.9533,44.3837],[-93.9522,44.3857],[-93.9543,44.3894],[-93.9596,44.3909],[-93.9648,44.3892],[-93.9632,44.3928],[-93.9565,44.3917],[-93.9509,44.3928],[-93.9489,44.397],[-93.9507,44.4068],[-93.9541,44.4096],[-93.9474,44.4131],[-93.9409,44.4123],[-93.9392,44.4139],[-93.9378,44.4206],[-93.9345,44.4257],[-93.9333,44.4332],[-93.9279,44.4445],[-93.9291,44.4475],[-93.9334,44.4514],[-93.9294,44.4527],[-93.932,44.4542],[-93.9365,44.4541],[-93.9349,44.4567],[-93.9315,44.4574],[-93.9243,44.4609],[-93.9191,44.4602],[-93.9168,44.4632],[-93.9211,44.4674],[-93.927,44.4699],[-93.9225,44.4738],[-93.9196,44.4743],[-93.9155,44.4721],[-93.91,44.4715],[-93.907,44.4737],[-93.9048,44.4797],[-93.904,44.4875],[-93.8928,44.4936],[-93.8899,44.4982],[-93.8908,44.5038],[-93.8873,44.5044],[-93.8879,44.5122],[-93.8854,44.5189],[-93.8882,44.5265],[-93.8952,44.5264],[-93.901,44.5295],[-93.9008,44.5359],[-93.9044,44.5386],[-93.9122,44.5381],[-93.9104,44.5432],[-93.8497,44.5431],[-93.7284,44.5433],[-93.6967,44.5436],[-93.647,44.5439],[-93.5494,44.5435],[-93.5243,44.5436],[-93.5246,44.4282]]]}},{"type":"Feature","properties":{"id":"27037","name":"Dakota Co., MN"},"geometry":{"type":"Polygon","coordinates":[[[-93.3257,44.7927],[-93.3141,44.7925],[-93.3045,44.7945],[-93.2941,44.799],[-93.2853,44.8021],[-93.2808,44.8064],[-93.2725,44.8069],[-93.2519,44.8115],[-93.248,44.8153],[-93.2394,44.8202],[-93.2349,44.8246],[-93.2275,44.8291],[-93.2191,44.8322],[-93.2219,44.837],[-93.2211,44.8385],[-93.2114,44.8397],[-93.2078,44.8436],[-93.2034,44.8524],[-93.1973,44.8601],[-93.2,44.8655],[-93.1899,44.8715],[-93.1879,44.875],[-93.1812,44.8781],[-93.1788,44.8802],[-93.1796,44.8827],[-93.183,44.8853],[-93.1826,44.8871],[-93.1785,44.8883],[-93.1757,44.8874],[-93.1689,44.8882],[-93.1643,44.8903],[-93.1539,44.8929],[-93.1491,44.8974],[-93.1365,44.9061],[-93.1337,44.9103],[-93.1319,44.916],[-93.1286,44.9196],[-93.096,44.9197],[-93.096,44.9233],[-93.0909,44.9232],[-93.0909,44.9197],[-93.0516,44.9195],[-93.0452,44.9123],[-93.0421,44.9051],[-93.0347,44.8978],[-93.0246,44.8941],[-93.02,44.8907],[-93.0165,44.8846],[-93.0126,44.8691],[-93.0084,44.8587],[-93.0095,44.8479],[-93.0119,44.8367],[-93.0047,44.8149],[-93.0155,44.8026],[-93.0204,44.7942],[-93.0215,44.7868],[-93.0197,44.7817],[-93.016,44.7756],[-93.006,44.7717],[-93.0007,44.7719],[-92.9948,44.7747],[-92.9861,44.7753],[-92.9748,44.7723],[-92.9638,44.7701],[-92.9541,44.7712],[-92.9397,44.7757],[-92.932,44.7811],[-92.9254,44.7808],[-92.9133,44.7747],[-92.9051,44.7736],[-92.892,44.7744],[-92.8826,44.7741],[-92.8782,44.772],[-92.8726,44.7674],[-92.8666,44.7608],[-92.8609,44.7558],[-92.8553,44.7477],[-92.8499,44.7465],[-92.836,44.7474],[-92.8293,44.75],[-92.8252,44.7502],[-92.8126,44.7473],[-92.8026,44.7458],[-92.8024,44.7452],[-92.7879,44.7374],[-92.7661,44.7296],[-92.757,44.7238],[-92.7502,44.7221],[-92.7373,44.7172],[-92.732,44.7137],[-92.7324,44.6799],[-92.7323,44.6363],[-92.732,44.6295],[-92.7926,44.6297],[-92.7925,44.5791],[-92.7926,44.543],[-92.8007,44.5432],[-92.919,44.5433],[-92.9191,44.5176],[-92.9229,44.5179],[-92.9248,44.5155],[-92.9381,44.5114],[-92.9465,44.5126],[-92.9514,44.5077],[-92.9548,44.507],[-92.9568,44.5146],[-92.9623,44.5158],[-92.9645,44.5146],[-92.9732,44.5147],[-92.9764,44.517],[-92.9849,44.5188],[-92.9986,44.5176],[-93.0033,44.5159],[-93.0131,44.516],[-93.0179,44.515],[-93.0232,44.5162],[-93.0251,44.518],[-93.0268,44.5162],[-93.033,44.5144],[-93.0393,44.5155],[-93.0397,44.5125],[-93.0399,44.4864],[-93.0395,44.4719],[-93.1002,44.4718],[-93.1298,44.4712],[-93.1809,44.4713],[-93.211,44.4715],[-93.2159,44.4712],[-93.2817,44.472],[-93.2815,44.544],[-93.2785,44.544],[-93.2781,44.5946],[-93.2782,44.6308],[-93.3187,44.6306],[-93.3184,44.6813],[-93.3183,44.7175],[-93.3284,44.7176],[-93.3287,44.7758],[-93.3297,44.7784],[-93.3296,44.7911],[-93.3257,44.7927]]]}},{"type":"Feature","properties":{"id":"27123","name":"Ramsey Co., MN"},"geometry":{"type":"Polygon","coordinates":[[[-92.9846,45.1236],[-92.9845,45.0967],[-92.9848,45.0659],[-92.9847,44.9814],[-92.9848,44.9705],[-92.9845,44.9414],[-92.9842,44.8908],[-93.02,44.8907],[-93.0246,44.8941],[-93.0347,44.8978],[-93.0421,44.9051],[-93.0452,44.9123],[-93.0516,44.9195],[-93.0909,44.9197],[-93.0909,44.9232],[-93.096,44.9233],[-93.096,44.9197],[-93.1286,44.9196],[-93.1319,44.916],[-93.1337,44.9103],[-93.1365,44.9061],[-93.1491,44.8974],[-93.1539,44.8929],[-93.1643,44.8903],[-93.1689,44.8882],[-93.1757,44.8874],[-93.1785,44.8883],[-93.1772,44.8939],[-93.1874,44.8951],[-93.1904,44.898],[-93.1922,44.9044],[-93.1987,44.9078],[-93.2004,44.9096],[-93.2014,44.9198],[-93.1998,44.9269],[-93.2008,44.9343],[-93.2001,44.9415],[-93.2036,44.951],[-93.2078,44.9532],[-93.2076,44.9917],[-93.2081,45.0357],[-93.2269,45.0357],[-93.2271,45.0559],[-93.2277,45.0932],[-93.2277,45.1245],[-93.1275,45.1241],[-93.0609,45.1241],[-93.0205,45.1239],[-92.9846,45.1236]]]}},{"type":"Feature","properties":{"id":"27003","name":"Anoka Co., MN"},"geometry":{"type":"Polygon","coordinates":[[[-93.4496,45.4137],[-93.3677,45.4137],[-93.3475,45.4136],[-93.2355,45.4138],[-93.1629,45.4142],[-93.1422,45.4136],[-93.0933,45.4138],[-93.0832,45.4127],[-93.0659,45.4127],[-93.0196,45.4118],[-93.0184,45.375],[-93.0195,45.3421],[-93.0192,45.3112],[-93.0194,45.2969],[-93.0194,45.2339],[-93.0202,45.1743],[-93.0205,45.1239],[-93.0609,45.1241],[-93.1275,45.1241],[-93.2277,45.1245],[-93.2277,45.0932],[-93.2271,45.0559],[-93.2269,45.0357],[-93.2834,45.0354],[-93.2808,45.0436],[-93.2822,45.0512],[-93.2852,45.0585],[-93.2841,45.0649],[-93.2808,45.0717],[-93.279,45.0802],[-93.2801,45.0839],[-93.2799,45.09],[-93.2784,45.103],[-93.2803,45.1058],[-93.2951,45.1153],[-93.2971,45.127],[-93.3011,45.132],[-93.3083,45.1379],[-93.3115,45.1438],[-93.3234,45.1475],[-93.3306,45.153],[-93.3462,45.1602],[-93.354,45.1702],[-93.3588,45.175],[-93.3754,45.1787],[-93.3956,45.1913],[-93.412,45.1982],[-93.4152,45.2007],[-93.4225,45.2114],[-93.4249,45.2141],[-93.4332,45.218],[-93.4422,45.2164],[-93.4507,45.2195],[-93.4574,45.2201],[-93.4644,45.2246],[-93.4703,45.2259],[-93.4817,45.225],[-93.4855,45.2257],[-93.4923,45.2301],[-93.4969,45.2343],[-93.5002,45.2406],[-93.5027,45.2422],[-93.5122,45.2457],[-93.5126,45.2467],[-93.511,45.2993],[-93.5098,45.3856],[-93.5101,45.4148],[-93.4496,45.4137]]]}},{"type":"Feature","properties":{"id":"27095","name":"Mille Lacs Co., MN"},"geometry":{"type":"Polygon","coordinates":[[[-93.5124,45.7186],[-93.5121,45.7028],[-93.5123,45.6786],[-93.5127,45.6761],[-93.5128,45.6452],[-93.5116,45.588],[-93.5107,45.5588],[-93.5821,45.559],[-93.6452,45.5597],[-93.7594,45.5596],[-93.76,45.5889],[-93.7601,45.6195],[-93.7606,45.6565],[-93.7617,45.703],[-93.7622,45.7352],[-93.7618,45.7653],[-93.7639,45.8221],[-93.7643,45.8366],[-93.7658,45.8621],[-93.7666,45.8658],[-93.7665,45.8735],[-93.7684,45.9097],[-93.7686,45.9104],[-93.7684,45.9391],[-93.7679,45.953],[-93.7689,45.9825],[-93.8103,45.9831],[-93.8105,46.0702],[-93.8102,46.1523],[-93.8104,46.1566],[-93.8106,46.2145],[-93.8109,46.2431],[-93.7961,46.2432],[-93.6853,46.2448],[-93.5339,46.2472],[-93.4932,46.2468],[-93.4306,46.2464],[-93.4304,46.2182],[-93.4302,46.2155],[-93.4303,46.1618],[-93.4318,46.154],[-93.4321,46.1467],[-93.4324,46.068],[-93.4328,46.0393],[-93.4328,46.0105],[-93.4325,45.9815],[-93.4428,45.9817],[-93.5181,45.9817],[-93.5182,45.9087],[-93.518,45.8784],[-93.5168,45.8212],[-93.5141,45.7595],[-93.5137,45.7343],[-93.5124,45.7186]]]}},{"type":"Feature","properties":{"id":"27025","name":"Chisago Co., MN"},"geometry":{"type":"Polygon","coordinates":[[[-93.0695,45.731],[-93.0626,45.7307],[-93.0219,45.7307],[-92.9603,45.7303],[-92.8545,45.73],[-92.8489,45.7288],[-92.8505,45.7244],[-92.8534,45.7232],[-92.8626,45.7222],[-92.8692,45.7176],[-92.8689,45.712],[-92.8718,45.6998],[-92.8701,45.6968],[-92.8755,45.689],[-92.8769,45.6753],[-92.8789,45.6656],[-92.8825,45.6595],[-92.8857,45.646],[-92.8879,45.639],[-92.8868,45.6334],[-92.8881,45.6284],[-92.8867,45.6198],[-92.883,45.6137],[-92.8825,45.6102],[-92.8849,45.605],[-92.8864,45.5949],[-92.8833,45.5898],[-92.885,45.5788],[-92.8837,45.5755],[-92.8711,45.5676],[-92.8464,45.5665],[-92.8342,45.5631],[-92.8233,45.5609],[-92.8121,45.5611],[-92.8015,45.5629],[-92.7901,45.5669],[-92.7857,45.5679],[-92.776,45.5685],[-92.7702,45.5669],[-92.7646,45.5636],[-92.7569,45.5575],[-92.7456,45.553],[-92.7261,45.5411],[-92.7246,45.5367],[-92.728,45.5257],[-92.7267,45.5145],[-92.7119,45.5033],[-92.7022,45.493],[-92.6952,45.4829],[-92.6916,45.4763],[-92.6868,45.4723],[-92.6802,45.4643],[-92.6772,45.4629],[-92.6611,45.4583],[-92.6527,45.4545],[-92.6466,45.4416],[-92.6468,45.4379],[-92.6492,45.4296],[-92.6503,45.4192],[-92.6467,45.4132],[-92.6482,45.4074],[-92.6506,45.4033],[-92.6504,45.3985],[-92.6585,45.3961],[-92.6641,45.3933],[-92.6695,45.3891],[-92.677,45.3801],[-92.6792,45.3727],[-92.6965,45.3635],[-92.7027,45.3585],[-92.7041,45.3537],[-92.6995,45.3424],[-92.699,45.3364],[-92.7048,45.3265],[-92.71,45.3213],[-92.7277,45.3093],[-92.7371,45.3005],[-92.7456,45.2958],[-92.7457,45.296],[-92.8152,45.2963],[-92.8929,45.2962],[-92.9273,45.2963],[-92.9868,45.2968],[-93.0194,45.2969],[-93.0192,45.3112],[-93.0195,45.3421],[-93.0184,45.375],[-93.0196,45.4118],[-93.0217,45.4704],[-93.0217,45.4849],[-93.0223,45.5058],[-93.0221,45.5349],[-93.0217,45.5425],[-93.022,45.5574],[-93.0836,45.5579],[-93.142,45.5581],[-93.1417,45.5784],[-93.142,45.5883],[-93.1416,45.7018],[-93.1418,45.7307],[-93.0695,45.731]]]}},{"type":"Feature","properties":{"id":"55109","name":"St. Croix Co., WI"},"geometry":{"type":"Polygon","coordinates":[[[-92.643,45.2103],[-92.6103,45.2102],[-92.56,45.2104],[-92.5374,45.2098],[-92.5187,45.2096],[-92.4323,45.2093],[-92.3467,45.2093],[-92.2395,45.2093],[-92.1565,45.2096],[-92.1568,45.1355],[-92.1571,45.1216],[-92.1361,45.1214],[-92.1365,45.0754],[-92.1365,45.0427],[-92.1361,45.0],[-92.1353,44.9338],[-92.1361,44.8867],[-92.1363,44.8578],[-92.1725,44.8579],[-92.181,44.8578],[-92.2162,44.858],[-92.2365,44.8577],[-92.2584,44.8581],[-92.3541,44.8615],[-92.3749,44.8623],[-92.4002,44.8623],[-92.497,44.8625],[-92.5798,44.8625],[-92.6497,44.8627],[-92.6853,44.8626],[-92.7691,44.862],[-92.7637,44.8721],[-92.7641,44.8759],[-92.7696,44.883],[-92.7749,44.8928],[-92.7746,44.8981],[-92.7731,44.9014],[-92.7596,44.9079],[-92.7576,44.9112],[-92.7506,44.9373],[-92.7508,44.9416],[-92.7546,44.9558],[-92.7607,44.965],[-92.7672,44.9681],[-92.7694,44.9722],[-92.7703,44.9833],[-92.769,44.9882],[-92.7708,44.9941],[-92.7712,45.0014],[-92.7681,45.0091],[-92.7625,45.0206],[-92.7621,45.0243],[-92.7646,45.0288],[-92.7704,45.0338],[-92.7788,45.0393],[-92.7879,45.0435],[-92.7971,45.0506],[-92.8021,45.0574],[-92.8029,45.0654],[-92.8009,45.0695],[-92.7915,45.0796],[-92.774,45.0891],[-92.7656,45.0957],[-92.7544,45.1031],[-92.7449,45.1083],[-92.7405,45.1134],[-92.7395,45.1165],[-92.7457,45.1231],[-92.7494,45.1381],[-92.7521,45.1421],[-92.7491,45.1485],[-92.751,45.1576],[-92.7498,45.1633],[-92.7524,45.1662],[-92.7524,45.1739],[-92.7649,45.1828],[-92.7671,45.1879],[-92.7669,45.1951],[-92.7639,45.2049],[-92.758,45.2096],[-92.643,45.2103]]]}}]}