{"type":"FeatureCollection","features":[{"type":"Feature","properties":{"id":"24015","name":"Cecil Co., MD"},"geometry":{"type":"Polygon","coordinates":[[[-76.0131,39.7219],[-75.9986,39.7216],[-75.8101,39.7219],[-75.7886,39.7222],[-75.7884,39.7],[-75.7887,39.6582],[-75.7875,39.6375],[-75.7808,39.5503],[-75.7667,39.3775],[-75.7727,39.3795],[-75.7764,39.3791],[-75.7811,39.3821],[-75.7842,39.3825],[-75.7844,39.3804],[-75.7894,39.3811],[-75.7942,39.3797],[-75.7957,39.3772],[-75.8018,39.3779],[-75.8061,39.3753],[-75.8095,39.3797],[-75.8163,39.3807],[-75.8188,39.3823],[-75.8237,39.3814],[-75.8312,39.3742],[-75.8424,39.371],[-75.8455,39.3677],[-75.8485,39.3682],[-75.8554,39.3646],[-75.861,39.3676],[-75.8638,39.3664],[-75.8676,39.3678],[-75.8821,39.3643],[-75.8851,39.3608],[-75.896,39.3659],[-75.9038,39.3643],[-75.908,39.3645],[-75.915,39.3666],[-75.9228,39.3672],[-75.9266,39.371],[-75.932,39.3715],[-75.9398,39.3678],[-75.9454,39.3686],[-75.9493,39.3725],[-75.957,39.3746],[-75.9641,39.3747],[-75.9706,39.3729],[-75.9744,39.3686],[-75.979,39.3666],[-75.9827,39.3675],[-75.9871,39.3726],[-75.9908,39.3746],[-75.9861,39.3795],[-75.9951,39.3847],[-76.0089,39.3859],[-76.0308,39.3855],[-76.038,39.3867],[-76.0413,39.3906],[-76.041,39.3942],[-76.0376,39.3995],[-76.0331,39.4031],[-76.0221,39.4071],[-76.0165,39.4085],[-76.0069,39.4145],[-76.0035,39.419],[-76.0025,39.4235],[-75.9974,39.4303],[-75.991,39.4334],[-75.9826,39.4353],[-75.9767,39.4446],[-75.9766,39.4478],[-75.9717,39.4569],[-75.9695,39.4579],[-75.9666,39.4628],[-75.9783,39.4705],[-75.9855,39.4699],[-75.9867,39.4613],[-75.99,39.4586],[-75.9972,39.4569],[-75.996,39.4538],[-76.0025,39.4502],[-76.0095,39.4492],[-76.0123,39.4531],[-76.0096,39.4575],[-75.9994,39.4659],[-75.9979,39.4663],[-75.9949,39.4719],[-75.994,39.4762],[-75.9958,39.4844],[-75.9948,39.4897],[-75.9903,39.4926],[-75.9881,39.497],[-75.9863,39.5104],[-75.9843,39.5142],[-75.9815,39.5162],[-75.9803,39.5206],[-75.9805,39.5291],[-75.9761,39.53],[-75.9732,39.5327],[-75.9663,39.5322],[-75.9623,39.5361],[-75.9631,39.5383],[-75.967,39.5386],[-75.9692,39.5416],[-75.9666,39.5461],[-75.97,39.5573],[-75.969,39.5613],[-75.9634,39.5606],[-75.9619,39.5628],[-75.9575,39.565],[-75.9543,39.5752],[-75.9478,39.5806],[-75.9496,39.5839],[-75.9488,39.5894],[-75.9449,39.593],[-75.9543,39.5936],[-75.9577,39.5925],[-75.9648,39.5865],[-75.9639,39.5832],[-75.9653,39.5789],[-75.973,39.5705],[-75.9997,39.5605],[-76.0047,39.5509],[-76.007,39.5489],[-76.0064,39.5462],[-76.0024,39.5418],[-76.0067,39.5389],[-76.0121,39.5393],[-76.0154,39.5448],[-76.0177,39.5466],[-76.0303,39.5486],[-76.031,39.5504],[-76.0369,39.5529],[-76.0455,39.5526],[-76.0471,39.5464],[-76.056,39.5461],[-76.0638,39.5466],[-76.0762,39.5436],[-76.086,39.559],[-76.0887,39.5613],[-76.1357,39.6131],[-76.136,39.6141],[-76.1475,39.6194],[-76.1618,39.6496],[-76.1684,39.6561],[-76.184,39.6666],[-76.1866,39.6695],[-76.1931,39.6727],[-76.1955,39.6751],[-76.2127,39.6864],[-76.2243,39.7029],[-76.2293,39.7091],[-76.2333,39.7213],[-76.1356,39.7216],[-76.0131,39.7219]]]}},{"type":"Feature","properties":{"id":"34015","name":"Gloucester Co., NJ"},"geometry":{"type":"Polygon","coordinates":[[[-75.4151,39.8019],[-75.4037,39.8075],[-75.3905,39.8153],[-75.3718,39.8276],[-75.3544,39.8399],[-75.3418,39.8461],[-75.3304,39.849],[-75.3232,39.8498],[-75.3097,39.8502],[-75.2934,39.8488],[-75.2721,39.8491],[-75.2434,39.8546],[-75.235,39.8566],[-75.2214,39.8615],[-75.2115,39.8671],[-75.1999,39.8732],[-75.195,39.8775],[-75.1893,39.8807],[-75.183,39.882],[-75.1489,39.8837],[-75.1437,39.885],[-75.1397,39.8882],[-75.1275,39.8815],[-75.1314,39.8773],[-75.1207,39.8726],[-75.1244,39.8718],[-75.1219,39.8662],[-75.1188,39.8628],[-75.1172,39.8632],[-75.118,39.8675],[-75.1129,39.8637],[-75.1151,39.8615],[-75.1131,39.8594],[-75.1079,39.8599],[-75.1095,39.8621],[-75.1068,39.8634],[-75.1055,39.8577],[-75.0941,39.8519],[-75.09,39.8476],[-75.0891,39.8442],[-75.0851,39.8446],[-75.0833,39.8421],[-75.0869,39.8385],[-75.0831,39.8336],[-75.0868,39.8315],[-75.0828,39.8271],[-75.0886,39.8205],[-75.0865,39.8157],[-75.0886,39.8149],[-75.0807,39.8081],[-75.0806,39.8056],[-75.0776,39.8062],[-75.0739,39.8031],[-75.0764,39.7989],[-75.0744,39.795],[-75.0708,39.7939],[-75.0767,39.7901],[-75.0819,39.7913],[-75.0849,39.7864],[-75.0871,39.7796],[-75.078,39.7809],[-75.0744,39.774],[-75.0697,39.7761],[-75.072,39.7798],[-75.0659,39.7823],[-75.0643,39.7847],[-75.0511,39.7802],[-75.049,39.7712],[-75.0443,39.767],[-75.0444,39.762],[-75.0407,39.7609],[-75.0361,39.7572],[-75.035,39.7548],[-75.0302,39.7507],[-75.0222,39.7464],[-75.022,39.738],[-75.0202,39.7363],[-75.0243,39.7306],[-75.0157,39.726],[-75.0066,39.7222],[-74.9996,39.72],[-74.9978,39.7173],[-74.9944,39.716],[-74.9937,39.7104],[-74.9876,39.7067],[-74.9799,39.704],[-74.9718,39.7022],[-74.9676,39.7032],[-74.9593,39.7031],[-74.9531,39.6991],[-74.9437,39.6984],[-74.9365,39.6949],[-74.9329,39.6913],[-74.9271,39.6875],[-74.9271,39.685],[-74.9235,39.6828],[-74.9215,39.6794],[-74.9186,39.6791],[-74.9125,39.6682],[-74.909,39.6654],[-74.9101,39.6629],[-74.9088,39.6583],[-74.9106,39.6529],[-74.9085,39.6507],[-74.9072,39.6457],[-74.9074,39.6407],[-74.9026,39.6317],[-74.8924,39.625],[-74.8926,39.6187],[-74.8888,39.616],[-74.884,39.6142],[-74.8812,39.6103],[-74.8773,39.6084],[-74.9853,39.515],[-75.0619,39.5687],[-75.134,39.6204],[-75.1944,39.6629],[-75.2,39.667],[-75.2105,39.664],[-75.2131,39.6644],[-75.2194,39.6618],[-75.2239,39.6631],[-75.2332,39.6615],[-75.2453,39.6641],[-75.2507,39.6686],[-75.2501,39.6729],[-75.2533,39.679],[-75.2585,39.6797],[-75.262,39.6817],[-75.2685,39.6823],[-75.276,39.6804],[-75.2779,39.6812],[-75.2868,39.6798],[-75.2951,39.6862],[-75.2972,39.6858],[-75.3022,39.6884],[-75.3091,39.6895],[-75.3145,39.6884],[-75.315,39.6914],[-75.3218,39.6912],[-75.3245,39.6895],[-75.3268,39.6907],[-75.3267,39.6963],[-75.3352,39.7002],[-75.3361,39.7039],[-75.3416,39.7043],[-75.3474,39.7071],[-75.3503,39.7112],[-75.3604,39.7132],[-75.361,39.7162],[-75.3673,39.7177],[-75.367,39.7218],[-75.3693,39.722],[-75.3766,39.7264],[-75.3741,39.7354],[-75.3774,39.7391],[-75.3768,39.7449],[-75.3802,39.7482],[-75.3831,39.7458],[-75.3858,39.747],[-75.3864,39.7508],[-75.3896,39.7521],[-75.3918,39.75],[-75.3947,39.7531],[-75.3943,39.7556],[-75.3893,39.7564],[-75.3927,39.758],[-75.3899,39.7605],[-75.3966,39.7613],[-75.3978,39.7575],[-75.3991,39.761],[-75.4032,39.7613],[-75.406,39.7635],[-75.4049,39.769],[-75.4016,39.7679],[-75.3974,39.7692],[-75.395,39.7738],[-75.4005,39.7736],[-75.4002,39.7784],[-75.4025,39.7826],[-75.4059,39.7811],[-75.4081,39.7877],[-75.4135,39.785],[-75.4174,39.7856],[-75.4247,39.7839],[-75.4291,39.7838],[-75.4217,39.7873],[-75.4193,39.7897],[-75.4113,39.7935],[-75.4043,39.7956],[-75.4055,39.7964],[-75.4151,39.8019]]]}},{"type":"Feature","properties":{"id":"10003","name":"New Castle Co., DE"},"geometry":{"type":"MultiPolygon","coordinates":[[[[-75.5626,39.5191],[-75.5604,39.5186],[-75.5655,39.5094],[-75.5675,39.5102],[-75.5626,39.5191]]],[[[-75.5587,39.6179],[-75.5562,39.6064],[-75.562,39.6057],[-75.5676,39.6138],[-75.5711,39.6213],[-75.5708,39.6268],[-75.5632,39.6298],[-75.5594,39.6298],[-75.5587,39.6179]]],[[[-75.5658,39.5906],[-75.5649,39.589],[-75.5677,39.5857],[-75.5721,39.5859],[-75.5754,39.5881],[-75.5792,39.5947],[-75.5782,39.5985],[-75.5658,39.5906]]],[[[-75.7738,39.7222],[-75.7661,39.7378],[-75.7603,39.7472],[-75.7531,39.7576],[-75.7444,39.7679],[-75.7365,39.7758],[-75.727,39.7841],[-75.717,39.792],[-75.7012,39.8026],[-75.686,39.8111],[-75.6628,39.8212],[-75.6415,39.8284],[-75.6173,39.834],[-75.5948,39.8373],[-75.5931,39.8375],[-75.5799,39.8385],[-75.5705,39.839],[-75.5393,39.8382],[-75.5184,39.8363],[-75.4988,39.8333],[-75.4812,39.8291],[-75.4633,39.8238],[-75.4537,39.8203],[-75.428,39.8092],[-75.4234,39.8066],[-75.4685,39.7865],[-75.4902,39.7548],[-75.5091,39.7201],[-75.5622,39.6567],[-75.569,39.6565],[-75.5871,39.651],[-75.612,39.622],[-75.6149,39.616],[-75.6113,39.6102],[-75.6138,39.6062],[-75.6119,39.5974],[-75.6036,39.589],[-75.5987,39.5891],[-75.5866,39.5789],[-75.5716,39.5677],[-75.563,39.5622],[-75.5656,39.5585],[-75.5694,39.5406],[-75.5704,39.5272],[-75.5724,39.5171],[-75.5764,39.5092],[-75.5877,39.4964],[-75.5878,39.4903],[-75.5931,39.4792],[-75.5923,39.4676],[-75.5894,39.4608],[-75.5802,39.4508],[-75.5789,39.4479],[-75.5731,39.4454],[-75.571,39.4425],[-75.5718,39.4389],[-75.5559,39.4304],[-75.5385,39.4165],[-75.536,39.4094],[-75.5236,39.3916],[-75.5217,39.3879],[-75.5213,39.3817],[-75.5158,39.3783],[-75.513,39.3662],[-75.516,39.3644],[-75.5169,39.361],[-75.5214,39.3586],[-75.5259,39.3596],[-75.5285,39.3583],[-75.5273,39.3547],[-75.5319,39.3546],[-75.5358,39.3506],[-75.5416,39.3544],[-75.5452,39.3508],[-75.5516,39.3539],[-75.5547,39.3515],[-75.5511,39.3495],[-75.551,39.3456],[-75.5542,39.3454],[-75.5574,39.3491],[-75.5605,39.3451],[-75.5578,39.3428],[-75.5583,39.3392],[-75.5557,39.3371],[-75.5588,39.3333],[-75.5648,39.3319],[-75.569,39.3287],[-75.5687,39.3235],[-75.5746,39.3134],[-75.5811,39.3111],[-75.5843,39.3087],[-75.5875,39.311],[-75.5921,39.3113],[-75.5939,39.3084],[-75.5955,39.3101],[-75.602,39.3081],[-75.6038,39.3112],[-75.6066,39.3081],[-75.6115,39.3093],[-75.6143,39.3083],[-75.6196,39.3101],[-75.6261,39.3041],[-75.6327,39.3013],[-75.641,39.3013],[-75.6482,39.2957],[-75.6513,39.2916],[-75.6605,39.2917],[-75.6673,39.2904],[-75.6693,39.2914],[-75.6752,39.2905],[-75.6803,39.2925],[-75.6852,39.2971],[-75.7149,39.2994],[-75.7601,39.2968],[-75.7667,39.3775],[-75.7808,39.5503],[-75.7875,39.6375],[-75.7887,39.6582],[-75.7884,39.7],[-75.7886,39.7222],[-75.7738,39.7222]]]]}},{"type":"Feature","properties":{"id":"42017","name":"Bucks Co., PA"},"geometry":{"type":"Polygon","coordinates":[[[-75.4581,40.4426],[-75.4423,40.4576],[-75.4097,40.488],[-75.3804,40.5067],[-75.3586,40.5208],[-75.3386,40.5341],[-75.333,40.5368],[-75.3087,40.5526],[-75.2935,40.562],[-75.2582,40.582],[-75.2368,40.5907],[-75.1968,40.6086],[-75.1923,40.6027],[-75.1901,40.5904],[-75.1908,40.5868],[-75.1947,40.5819],[-75.194,40.5763],[-75.1867,40.5694],[-75.1832,40.5674],[-75.1753,40.565],[-75.1629,40.5641],[-75.1584,40.5653],[-75.1474,40.5732],[-75.1419,40.5753],[-75.1367,40.5757],[-75.1173,40.5732],[-75.1109,40.5707],[-75.1003,40.5678],[-75.0957,40.5644],[-75.0785,40.5483],[-75.0686,40.5422],[-75.0664,40.5365],[-75.0651,40.5261],[-75.0659,40.5195],[-75.0648,40.5035],[-75.0633,40.4994],[-75.0626,40.4896],[-75.0629,40.4816],[-75.0643,40.4768],[-75.0677,40.4737],[-75.067,40.4653],[-75.0704,40.4584],[-75.0706,40.4552],[-75.0665,40.4472],[-75.0629,40.4334],[-75.0615,40.4228],[-75.0588,40.4181],[-75.0557,40.4164],[-75.0462,40.414],[-75.0355,40.4074],[-75.0344,40.4061],[-75.0248,40.4035],[-75.0067,40.4076],[-75.0038,40.4076],[-74.9964,40.4105],[-74.9889,40.4088],[-74.9855,40.4059],[-74.9769,40.4019],[-74.9681,40.3991],[-74.964,40.3952],[-74.9539,40.3759],[-74.9487,40.3648],[-74.946,40.3559],[-74.9451,40.3473],[-74.9438,40.3426],[-74.9397,40.338],[-74.9268,40.3294],[-74.9174,40.3224],[-74.9083,40.3169],[-74.8964,40.3151],[-74.8871,40.3103],[-74.8806,40.3056],[-74.8682,40.2952],[-74.8605,40.2846],[-74.8531,40.2697],[-74.8466,40.2588],[-74.8423,40.2505],[-74.8363,40.2462],[-74.8239,40.2415],[-74.8195,40.2385],[-74.7953,40.2294],[-74.7812,40.2215],[-74.7717,40.2153],[-74.7677,40.2078],[-74.7595,40.1969],[-74.7556,40.1867],[-74.7517,40.1833],[-74.7441,40.181],[-74.7372,40.1776],[-74.7338,40.1745],[-74.7223,40.1606],[-74.7215,40.1584],[-74.7221,40.1503],[-74.7244,40.1464],[-74.7317,40.1419],[-74.7406,40.1355],[-74.7444,40.1344],[-74.7531,40.135],[-74.7589,40.134],[-74.7695,40.1291],[-74.7821,40.1208],[-74.7887,40.1204],[-74.8006,40.1228],[-74.8161,40.1277],[-74.8225,40.1268],[-74.8262,40.1241],[-74.8331,40.112],[-74.8351,40.1039],[-74.838,40.1009],[-74.8434,40.098],[-74.8546,40.0933],[-74.8582,40.0888],[-74.8598,40.0849],[-74.8667,40.0819],[-74.8746,40.0807],[-74.8885,40.0762],[-74.909,40.0702],[-74.9209,40.0714],[-74.9251,40.0711],[-74.9326,40.0688],[-74.9669,40.0527],[-74.9737,40.0482],[-74.9797,40.0534],[-74.9843,40.0559],[-74.9804,40.0603],[-74.9809,40.066],[-74.9724,40.0722],[-74.9711,40.076],[-74.9636,40.0771],[-74.9588,40.0825],[-74.9577,40.0898],[-74.9558,40.0951],[-74.9616,40.0978],[-74.9612,40.1034],[-74.9652,40.1078],[-74.9634,40.11],[-74.9631,40.115],[-74.9645,40.1184],[-74.9701,40.1172],[-74.9732,40.1199],[-74.9801,40.1199],[-74.9827,40.1209],[-74.9835,40.1237],[-74.9872,40.1233],[-74.989,40.1261],[-74.9937,40.1266],[-74.9923,40.1307],[-74.9936,40.1323],[-74.9979,40.1278],[-75.0151,40.138],[-75.0601,40.1648],[-75.1298,40.206],[-75.1588,40.2236],[-75.193,40.2447],[-75.2141,40.2574],[-75.2573,40.2825],[-75.2841,40.2984],[-75.3172,40.3185],[-75.4222,40.3817],[-75.4257,40.3844],[-75.4829,40.4179],[-75.4841,40.4185],[-75.4581,40.4426]]]}},{"type":"Feature","properties":{"id":"42029","name":"Chester Co., PA"},"geometry":{"type":"MultiPolygon","coordinates":[[[[-75.5892,39.8432],[-75.5864,39.8443],[-75.582,39.8415],[-75.5799,39.8385],[-75.5931,39.8375],[-75.5892,39.8432]]],[[[-75.6902,40.2365],[-75.6856,40.2366],[-75.6769,40.2422],[-75.6712,40.2446],[-75.6649,40.2451],[-75.656,40.2412],[-75.6509,40.242],[-75.6403,40.2371],[-75.6345,40.2357],[-75.624,40.2313],[-75.6196,40.2301],[-75.6163,40.2249],[-75.6124,40.223],[-75.6055,40.2248],[-75.6032,40.227],[-75.6037,40.2295],[-75.6075,40.2328],[-75.6069,40.2361],[-75.6014,40.2381],[-75.597,40.2368],[-75.5927,40.2255],[-75.5878,40.2144],[-75.5815,40.2071],[-75.5797,40.2018],[-75.5733,40.1953],[-75.567,40.1943],[-75.5629,40.1974],[-75.5625,40.2021],[-75.5649,40.2062],[-75.5629,40.2099],[-75.5577,40.208],[-75.5553,40.2041],[-75.5503,40.1934],[-75.5492,40.1895],[-75.541,40.176],[-75.5292,40.1687],[-75.5266,40.1586],[-75.5278,40.1531],[-75.5268,40.1496],[-75.5211,40.1471],[-75.5178,40.1497],[-75.5132,40.1583],[-75.509,40.1601],[-75.5038,40.1597],[-75.5011,40.1574],[-75.501,40.1545],[-75.5033,40.1511],[-75.5093,40.1456],[-75.5108,40.1405],[-75.5097,40.1371],[-75.5056,40.1326],[-75.4937,40.1265],[-75.4811,40.1268],[-75.4724,40.1293],[-75.4621,40.1253],[-75.4626,40.1196],[-75.4694,40.1167],[-75.4716,40.1119],[-75.4692,40.1074],[-75.4617,40.103],[-75.4629,40.0973],[-75.4566,40.0939],[-75.4562,40.0878],[-75.4407,40.0943],[-75.4379,40.0896],[-75.4201,40.0972],[-75.4147,40.0894],[-75.4056,40.0784],[-75.3926,40.061],[-75.3667,40.0724],[-75.3611,40.0655],[-75.3914,40.052],[-75.415,40.0418],[-75.4043,40.0274],[-75.4231,40.0144],[-75.4538,39.9936],[-75.4377,39.9939],[-75.4382,39.9907],[-75.4356,39.9888],[-75.4361,39.9849],[-75.4622,39.9727],[-75.5021,39.9544],[-75.5238,39.9441],[-75.5195,39.939],[-75.519,39.9342],[-75.5245,39.9316],[-75.5262,39.935],[-75.5305,39.932],[-75.5235,39.9231],[-75.5302,39.9221],[-75.5361,39.9299],[-75.5427,39.9272],[-75.5411,39.9251],[-75.5444,39.9234],[-75.5425,39.9184],[-75.5505,39.9149],[-75.5464,39.9097],[-75.5561,39.9053],[-75.5586,39.9087],[-75.5613,39.9074],[-75.5593,39.903],[-75.5734,39.8964],[-75.5725,39.893],[-75.5743,39.8922],[-75.5712,39.8881],[-75.5804,39.8837],[-75.5824,39.8857],[-75.5872,39.8842],[-75.5848,39.881],[-75.5979,39.8745],[-75.593,39.867],[-75.5952,39.8666],[-75.5964,39.863],[-75.6015,39.8564],[-75.5987,39.8542],[-75.592,39.8525],[-75.5941,39.8499],[-75.5949,39.8449],[-75.5977,39.8411],[-75.5948,39.8373],[-75.6173,39.834],[-75.6415,39.8284],[-75.6628,39.8212],[-75.686,39.8111],[-75.7012,39.8026],[-75.717,39.792],[-75.727,39.7841],[-75.7365,39.7758],[-75.7444,39.7679],[-75.7531,39.7576],[-75.7603,39.7472],[-75.7661,39.7378],[-75.7738,39.7222],[-75.7886,39.7222],[-75.8101,39.7219],[-75.9986,39.7216],[-76.0131,39.7219],[-76.1356,39.7216],[-76.1367,39.7253],[-76.1344,39.7271],[-76.1276,39.7276],[-76.1247,39.7266],[-76.1223,39.7234],[-76.1182,39.7254],[-76.1203,39.7298],[-76.1199,39.7364],[-76.1136,39.7371],[-76.1086,39.7348],[-76.1112,39.7285],[-76.1052,39.724],[-76.1018,39.7243],[-76.0999,39.7274],[-76.0968,39.7291],[-76.0926,39.7335],[-76.0962,39.7372],[-76.102,39.7399],[-76.1003,39.7457],[-76.0969,39.7431],[-76.093,39.7428],[-76.088,39.7449],[-76.0843,39.7483],[-76.0826,39.7531],[-76.0858,39.7559],[-76.0819,39.7614],[-76.0765,39.7618],[-76.0667,39.76],[-76.0626,39.7645],[-76.0649,39.7703],[-76.0605,39.775],[-76.0584,39.7799],[-76.0554,39.7803],[-76.0497,39.7838],[-76.0485,39.7892],[-76.0436,39.7912],[-76.0451,39.793],[-76.0413,39.7969],[-76.0457,39.801],[-76.0497,39.8024],[-76.0457,39.8038],[-76.0402,39.8011],[-76.0385,39.8017],[-76.0351,39.8081],[-76.0352,39.8118],[-76.0296,39.813],[-76.0311,39.8175],[-76.0363,39.8233],[-76.0376,39.8269],[-76.0302,39.824],[-76.027,39.8242],[-76.0238,39.8271],[-76.0228,39.8308],[-76.0165,39.8315],[-76.0178,39.8382],[-76.0208,39.845],[-76.021,39.8495],[-76.0228,39.8498],[-76.0199,39.8535],[-76.0116,39.8532],[-76.0086,39.852],[-76.0067,39.854],[-76.007,39.8582],[-76.0059,39.8666],[-76.0041,39.8729],[-76.0017,39.8747],[-75.9975,39.8736],[-75.9984,39.872],[-75.9913,39.8687],[-75.9868,39.8747],[-75.9884,39.8782],[-75.9923,39.8822],[-75.9906,39.8846],[-75.9913,39.8876],[-75.9868,39.8922],[-75.9878,39.8948],[-75.9933,39.899],[-75.9951,39.8989],[-75.9975,39.9099],[-75.9955,39.9114],[-75.9949,39.9166],[-75.9971,39.9221],[-75.9958,39.9246],[-75.997,39.9287],[-75.9926,39.9266],[-75.9915,39.929],[-75.9874,39.9298],[-75.9847,39.9321],[-75.9814,39.9298],[-75.9822,39.9356],[-75.988,39.9396],[-75.991,39.9475],[-75.9946,39.9524],[-75.986,39.9645],[-75.9867,39.9672],[-75.9724,39.9875],[-75.9514,40.0164],[-75.9359,40.0375],[-75.9343,40.0476],[-75.9362,40.0654],[-75.9361,40.0785],[-75.943,40.1093],[-75.8905,40.1295],[-75.8734,40.1371],[-75.8545,40.1493],[-75.8465,40.1538],[-75.821,40.1697],[-75.7432,40.2167],[-75.7299,40.2245],[-75.6968,40.2419],[-75.6902,40.2365]]]]}},{"type":"Feature","properties":{"id":"34007","name":"Camden Co., NJ"},"geometry":{"type":"Polygon","coordinates":[[[-75.0494,39.9913],[-75.0479,39.9941],[-75.0436,39.9933],[-75.0412,39.9949],[-75.0352,39.9959],[-75.0323,39.9939],[-75.0326,39.9918],[-75.0281,39.9923],[-75.0203,39.9904],[-75.0182,39.9867],[-75.0149,39.9854],[-75.0138,39.9803],[-75.0104,39.98],[-75.0154,39.9765],[-75.016,39.9703],[-75.0199,39.9694],[-75.0189,39.964],[-75.0171,39.9629],[-75.0176,39.9595],[-75.0131,39.9565],[-75.0158,39.9511],[-75.0151,39.9468],[-75.0093,39.9452],[-75.0043,39.9415],[-74.9944,39.9394],[-74.9918,39.9409],[-74.9873,39.9399],[-74.9757,39.9398],[-74.9751,39.9378],[-74.9787,39.9343],[-74.9813,39.9339],[-74.9812,39.9313],[-74.9855,39.9299],[-74.9839,39.9268],[-74.9751,39.9216],[-74.9697,39.9218],[-74.963,39.9203],[-74.9609,39.9168],[-74.9559,39.9132],[-74.9525,39.906],[-74.952,39.9018],[-74.9496,39.8983],[-74.9455,39.8963],[-74.9441,39.893],[-74.9409,39.8925],[-74.9307,39.8859],[-74.9154,39.8343],[-74.903,39.7911],[-74.8986,39.7897],[-74.8949,39.7834],[-74.8898,39.782],[-74.8762,39.7815],[-74.8695,39.7843],[-74.854,39.7871],[-74.8514,39.7886],[-74.8481,39.7879],[-74.8432,39.7899],[-74.8305,39.7886],[-74.8276,39.7892],[-74.8194,39.788],[-74.818,39.786],[-74.8104,39.7848],[-74.8064,39.7832],[-74.7907,39.7713],[-74.7879,39.7669],[-74.7851,39.7656],[-74.7812,39.7586],[-74.7769,39.7578],[-74.7721,39.7504],[-74.7683,39.7496],[-74.7664,39.7466],[-74.7558,39.7422],[-74.7362,39.7298],[-74.8001,39.6749],[-74.8773,39.6084],[-74.8812,39.6103],[-74.884,39.6142],[-74.8888,39.616],[-74.8926,39.6187],[-74.8924,39.625],[-74.9026,39.6317],[-74.9074,39.6407],[-74.9072,39.6457],[-74.9085,39.6507],[-74.9106,39.6529],[-74.9088,39.6583],[-74.9101,39.6629],[-74.909,39.6654],[-74.9125,39.6682],[-74.9186,39.6791],[-74.9215,39.6794],[-74.9235,39.6828],[-74.9271,39.685],[-74.9271,39.6875],[-74.9329,39.6913],[-74.9365,39.6949],[-74.9437,39.6984],[-74.9531,39.6991],[-74.9593,39.7031],[-74.9676,39.7032],[-74.9718,39.7022],[-74.9799,39.704],[-74.9876,39.7067],[-74.9937,39.7104],[-74.9944,39.716],[-74.9978,39.7173],[-74.9996,39.72],[-75.0066,39.7222],[-75.0157,39.726],[-75.0243,39.7306],[-75.0202,39.7363],[-75.022,39.738],[-75.0222,39.7464],[-75.0302,39.7507],[-75.035,39.7548],[-75.0361,39.7572],[-75.0407,39.7609],[-75.0444,39.762],[-75.0443,39.767],[-75.049,39.7712],[-75.0511,39.7802],[-75.0643,39.7847],[-75.0659,39.7823],[-75.072,39.7798],[-75.0697,39.7761],[-75.0744,39.774],[-75.078,39.7809],[-75.0871,39.7796],[-75.0849,39.7864],[-75.0819,39.7913],[-75.0767,39.7901],[-75.0708,39.7939],[-75.0744,39.795],[-75.0764,39.7989],[-75.0739,39.8031],[-75.0776,39.8062],[-75.0806,39.8056],[-75.0807,39.8081],[-75.0886,39.8149],[-75.0865,39.8157],[-75.0886,39.8205],[-75.0828,39.8271],[-75.0868,39.8315],[-75.0831,39.8336],[-75.0869,39.8385],[-75.0833,39.8421],[-75.0851,39.8446],[-75.0891,39.8442],[-75.09,39.8476],[-75.0941,39.8519],[-75.1055,39.8577],[-75.1068,39.8634],[-75.1095,39.8621],[-75.1079,39.8599],[-75.1131,39.8594],[-75.1151,39.8615],[-75.1129,39.8637],[-75.118,39.8675],[-75.1172,39.8632],[-75.1188,39.8628],[-75.1219,39.8662],[-75.1244,39.8718],[-75.1207,39.8726],[-75.1314,39.8773],[-75.1275,39.8815],[-75.1397,39.8882],[-75.1373,39.89],[-75.1308,39.9002],[-75.1279,39.9118],[-75.135,39.9273],[-75.1361,39.9339],[-75.1357,39.9471],[-75.1339,39.9542],[-75.1301,39.9587],[-75.1192,39.9654],[-75.1023,39.9724],[-75.0937,39.9744],[-75.0858,39.9751],[-75.0756,39.978],[-75.0642,39.986],[-75.06,39.9916],[-75.0494,39.9913]]]}},{"type":"Feature","properties":{"id":"42091","name":"Montgomery Co., PA"},"geometry":{"type":"Polygon","coordinates":[[[-75.4829,40.4179],[-75.4257,40.3844],[-75.4222,40.3817],[-75.3172,40.3185],[-75.2841,40.2984],[-75.2573,40.2825],[-75.2141,40.2574],[-75.193,40.2447],[-75.1588,40.2236],[-75.1298,40.206],[-75.0601,40.1648],[-75.0151,40.138],[-75.0206,40.1323],[-75.0583,40.1059],[-75.0778,40.0858],[-75.0825,40.0829],[-75.0967,40.069],[-75.0874,40.0636],[-75.0951,40.0561],[-75.1079,40.0482],[-75.1094,40.0459],[-75.129,40.0571],[-75.1351,40.061],[-75.1634,40.0769],[-75.1764,40.0846],[-75.1885,40.0728],[-75.2236,40.0929],[-75.2433,40.0735],[-75.2563,40.0611],[-75.2644,40.0541],[-75.2577,40.0476],[-75.249,40.0418],[-75.2456,40.0377],[-75.2321,40.028],[-75.2181,40.0209],[-75.2122,40.0155],[-75.2058,40.0116],[-75.2137,40.0072],[-75.254,39.9883],[-75.2637,39.9827],[-75.2765,39.977],[-75.2842,39.9875],[-75.2928,39.9969],[-75.3022,40.0086],[-75.3088,40.0157],[-75.3114,40.0198],[-75.3207,40.0162],[-75.3394,40.0403],[-75.3495,40.0529],[-75.3568,40.0631],[-75.3611,40.0655],[-75.3667,40.0724],[-75.3926,40.061],[-75.4056,40.0784],[-75.4147,40.0894],[-75.4201,40.0972],[-75.4379,40.0896],[-75.4407,40.0943],[-75.4562,40.0878],[-75.4566,40.0939],[-75.4629,40.0973],[-75.4617,40.103],[-75.4692,40.1074],[-75.4716,40.1119],[-75.4694,40.1167],[-75.4626,40.1196],[-75.4621,40.1253],[-75.4724,40.1293],[-75.4811,40.1268],[-75.4937,40.1265],[-75.5056,40.1326],[-75.5097,40.1371],[-75.5108,40.1405],[-75.5093,40.1456],[-75.5033,40.1511],[-75.501,40.1545],[-75.5011,40.1574],[-75.5038,40.1597],[-75.509,40.1601],[-75.5132,40.1583],[-75.5178,40.1497],[-75.5211,40.1471],[-75.5268,40.1496],[-75.5278,40.1531],[-75.5266,40.1586],[-75.5292,40.1687],[-75.541,40.176],[-75.5492,40.1895],[-75.5503,40.1934],[-75.5553,40.2041],[-75.5577,40.208],[-75.5629,40.2099],[-75.5649,40.2062],[-75.5625,40.2021],[-75.5629,40.1974],[-75.567,40.1943],[-75.5733,40.1953],[-75.5797,40.2018],[-75.5815,40.2071],[-75.5878,40.2144],[-75.5927,40.2255],[-75.597,40.2368],[-75.6014,40.2381],[-75.6069,40.2361],[-75.6075,40.2328],[-75.6037,40.2295],[-75.6032,40.227],[-75.6055,40.2248],[-75.6124,40.223],[-75.6163,40.2249],[-75.6196,40.2301],[-75.624,40.2313],[-75.6345,40.2357],[-75.6403,40.2371],[-75.6509,40.242],[-75.656,40.2412],[-75.6649,40.2451],[-75.6712,40.2446],[-75.6769,40.2422],[-75.6856,40.2366],[-75.6902,40.2365],[-75.6968,40.2419],[-75.6959,40.2424],[-75.6755,40.2679],[-75.6645,40.2811],[-75.6479,40.3017],[-75.6252,40.3294],[-75.6151,40.3421],[-75.5855,40.3779],[-75.5693,40.3979],[-75.5297,40.447],[-75.4841,40.4185],[-75.4829,40.4179]]]}},{"type":"Feature","properties":{"id":"42045","name":"Delaware Co., PA"},"geometry":{"type":"Polygon","coordinates":[[[-75.3568,40.0631],[-75.3495,40.0529],[-75.3394,40.0403],[-75.3207,40.0162],[-75.3114,40.0198],[-75.3088,40.0157],[-75.3022,40.0086],[-75.2928,39.9969],[-75.2842,39.9875],[-75.2765,39.977],[-75.2803,39.975],[-75.2754,39.9696],[-75.2706,39.9687],[-75.2654,39.9653],[-75.2605,39.9663],[-75.2571,39.9637],[-75.2541,39.9654],[-75.2481,39.9641],[-75.2485,39.9603],[-75.2509,39.959],[-75.249,39.9569],[-75.2516,39.9521],[-75.2501,39.947],[-75.247,39.9434],[-75.2404,39.9422],[-75.2396,39.938],[-75.2349,39.9363],[-75.2376,39.9325],[-75.2419,39.9335],[-75.2434,39.9319],[-75.2443,39.9263],[-75.2478,39.9217],[-75.2472,39.9136],[-75.2515,39.9101],[-75.2503,39.9076],[-75.2535,39.9056],[-75.2513,39.9044],[-75.2591,39.8924],[-75.2617,39.8918],[-75.2625,39.8884],[-75.2652,39.8871],[-75.2619,39.883],[-75.2644,39.8822],[-75.2625,39.8766],[-75.2535,39.876],[-75.2484,39.8765],[-75.2405,39.8724],[-75.2341,39.8772],[-75.2198,39.8755],[-75.2157,39.8761],[-75.216,39.8711],[-75.2115,39.8671],[-75.2214,39.8615],[-75.235,39.8566],[-75.2434,39.8546],[-75.2721,39.8491],[-75.2934,39.8488],[-75.3097,39.8502],[-75.3232,39.8498],[-75.3304,39.849],[-75.3418,39.8461],[-75.3544,39.8399],[-75.3718,39.8276],[-75.3905,39.8153],[-75.4037,39.8075],[-75.4151,39.8019],[-75.4234,39.8066],[-75.428,39.8092],[-75.4537,39.8203],[-75.4633,39.8238],[-75.4812,39.8291],[-75.4988,39.8333],[-75.5184,39.8363],[-75.5393,39.8382],[-75.5705,39.839],[-75.5799,39.8385],[-75.582,39.8415],[-75.5864,39.8443],[-75.5892,39.8432],[-75.5931,39.8375],[-75.5948,39.8373],[-75.5977,39.8411],[-75.5949,39.8449],[-75.5941,39.8499],[-75.592,39.8525],[-75.5987,39.8542],[-75.6015,39.8564],[-75.5964,39.863],[-75.5952,39.8666],[-75.593,39.867],[-75.5979,39.8745],[-75.5848,39.881],[-75.5872,39.8842],[-75.5824,39.8857],[-75.5804,39.8837],[-75.5712,39.8881],[-75.5743,39.8922],[-75.5725,39.893],[-75.5734,39.8964],[-75.5593,39.903],[-75.5613,39.9074],[-75.5586,39.9087],[-75.5561,39.9053],[-75.5464,39.9097],[-75.5505,39.9149],[-75.5425,39.9184],[-75.5444,39.9234],[-75.5411,39.9251],[-75.5427,39.9272],[-75.5361,39.9299],[-75.5302,39.9221],[-75.5235,39.9231],[-75.5305,39.932],[-75.5262,39.935],[-75.5245,39.9316],[-75.519,39.9342],[-75.5195,39.939],[-75.5238,39.9441],[-75.5021,39.9544],[-75.4622,39.9727],[-75.4361,39.9849],[-75.4356,39.9888],[-75.4382,39.9907],[-75.4377,39.9939],[-75.4538,39.9936],[-75.4231,40.0144],[-75.4043,40.0274],[-75.415,40.0418],[-75.3914,40.052],[-75.3611,40.0655],[-75.3568,40.0631]]]}},{"type":"Feature","properties":{"id":"34033","name":"Salem Co., NJ"},"geometry":{"type":"MultiPolygon","coordinates":[[[[-75.4082,39.3868],[-75.407,39.3811],[-75.4125,39.3809],[-75.4113,39.3872],[-75.4082,39.3868]]],[[[-75.5562,39.6349],[-75.5472,39.6405],[-75.542,39.646],[-75.5351,39.6472],[-75.5267,39.6551],[-75.5223,39.6608],[-75.5183,39.6639],[-75.5146,39.6686],[-75.5117,39.6743],[-75.5093,39.6853],[-75.509,39.6945],[-75.5072,39.697],[-75.4962,39.7014],[-75.4913,39.7111],[-75.4886,39.7148],[-75.4852,39.7158],[-75.4789,39.7138],[-75.4769,39.7183],[-75.4772,39.7247],[-75.4754,39.7287],[-75.4742,39.7355],[-75.4692,39.7436],[-75.4635,39.757],[-75.4639,39.7608],[-75.4594,39.7658],[-75.4523,39.769],[-75.4493,39.7744],[-75.4507,39.7751],[-75.4383,39.7844],[-75.4055,39.7964],[-75.4043,39.7956],[-75.4113,39.7935],[-75.4193,39.7897],[-75.4217,39.7873],[-75.4291,39.7838],[-75.4247,39.7839],[-75.4174,39.7856],[-75.4135,39.785],[-75.4081,39.7877],[-75.4059,39.7811],[-75.4025,39.7826],[-75.4002,39.7784],[-75.4005,39.7736],[-75.395,39.7738],[-75.3974,39.7692],[-75.4016,39.7679],[-75.4049,39.769],[-75.406,39.7635],[-75.4032,39.7613],[-75.3991,39.761],[-75.3978,39.7575],[-75.3966,39.7613],[-75.3899,39.7605],[-75.3927,39.758],[-75.3893,39.7564],[-75.3943,39.7556],[-75.3947,39.7531],[-75.3918,39.75],[-75.3896,39.7521],[-75.3864,39.7508],[-75.3858,39.747],[-75.3831,39.7458],[-75.3802,39.7482],[-75.3768,39.7449],[-75.3774,39.7391],[-75.3741,39.7354],[-75.3766,39.7264],[-75.3693,39.722],[-75.367,39.7218],[-75.3673,39.7177],[-75.361,39.7162],[-75.3604,39.7132],[-75.3503,39.7112],[-75.3474,39.7071],[-75.3416,39.7043],[-75.3361,39.7039],[-75.3352,39.7002],[-75.3267,39.6963],[-75.3268,39.6907],[-75.3245,39.6895],[-75.3218,39.6912],[-75.315,39.6914],[-75.3145,39.6884],[-75.3091,39.6895],[-75.3022,39.6884],[-75.2972,39.6858],[-75.2951,39.6862],[-75.2868,39.6798],[-75.2779,39.6812],[-75.276,39.6804],[-75.2685,39.6823],[-75.262,39.6817],[-75.2585,39.6797],[-75.2533,39.679],[-75.2501,39.6729],[-75.2507,39.6686],[-75.2453,39.6641],[-75.2332,39.6615],[-75.2239,39.6631],[-75.2194,39.6618],[-75.2131,39.6644],[-75.2105,39.664],[-75.2,39.667],[-75.1944,39.6629],[-75.134,39.6204],[-75.0619,39.5687],[-75.0663,39.5605],[-75.0667,39.5562],[-75.0699,39.5531],[-75.0745,39.5446],[-75.071,39.5401],[-75.0726,39.5361],[-75.072,39.5291],[-75.0735,39.5274],[-75.0722,39.5243],[-75.0757,39.5189],[-75.0755,39.5151],[-75.078,39.512],[-75.0769,39.5049],[-75.0797,39.5014],[-75.0739,39.4922],[-75.0751,39.4885],[-75.0732,39.4854],[-75.0773,39.4786],[-75.0787,39.4724],[-75.0804,39.472],[-75.0819,39.4648],[-75.0803,39.4606],[-75.0838,39.4574],[-75.1127,39.4768],[-75.1736,39.5182],[-75.1838,39.5248],[-75.2384,39.559],[-75.2701,39.5312],[-75.2939,39.5116],[-75.3051,39.5034],[-75.318,39.4921],[-75.3261,39.4885],[-75.3312,39.4895],[-75.3353,39.4884],[-75.3379,39.4905],[-75.3423,39.4906],[-75.3439,39.4859],[-75.3499,39.4799],[-75.3514,39.4716],[-75.3568,39.4703],[-75.3681,39.4568],[-75.3744,39.4551],[-75.3795,39.4585],[-75.3866,39.4578],[-75.3958,39.4604],[-75.3998,39.4623],[-75.4077,39.4588],[-75.4147,39.4523],[-75.4103,39.45],[-75.4116,39.4454],[-75.4092,39.4431],[-75.412,39.4398],[-75.4156,39.4402],[-75.4142,39.437],[-75.4105,39.4386],[-75.4116,39.4337],[-75.416,39.4344],[-75.4188,39.4323],[-75.4177,39.4297],[-75.4137,39.429],[-75.4101,39.4302],[-75.4088,39.4238],[-75.4117,39.4237],[-75.4112,39.4204],[-75.4149,39.4191],[-75.4143,39.416],[-75.4183,39.4154],[-75.4189,39.4104],[-75.4156,39.4087],[-75.413,39.4045],[-75.4098,39.4087],[-75.4054,39.4076],[-75.4067,39.4036],[-75.4112,39.4011],[-75.4074,39.398],[-75.4094,39.3949],[-75.4169,39.3959],[-75.4178,39.3932],[-75.4148,39.3908],[-75.4168,39.3874],[-75.4221,39.3865],[-75.4278,39.3878],[-75.4424,39.4023],[-75.451,39.4163],[-75.4567,39.4227],[-75.4652,39.4389],[-75.4728,39.4371],[-75.4836,39.4408],[-75.4882,39.4434],[-75.4884,39.448],[-75.4937,39.4495],[-75.4989,39.4488],[-75.5057,39.4529],[-75.5084,39.4591],[-75.5364,39.4606],[-75.5429,39.4704],[-75.5444,39.4796],[-75.5427,39.4966],[-75.5278,39.4981],[-75.5301,39.5048],[-75.53,39.5108],[-75.5266,39.5171],[-75.5268,39.5314],[-75.5277,39.5353],[-75.5316,39.5368],[-75.534,39.5407],[-75.5323,39.5433],[-75.526,39.5485],[-75.519,39.5554],[-75.511,39.5681],[-75.5115,39.5772],[-75.5152,39.5808],[-75.5196,39.5832],[-75.5262,39.5854],[-75.5395,39.5943],[-75.5454,39.5968],[-75.5535,39.602],[-75.5562,39.6064],[-75.5587,39.6179],[-75.5594,39.6298],[-75.5562,39.6349]]]]}},{"type":"Feature","properties":{"id":"34005","name":"Burlington Co., NJ"},"geometry":{"type":"Polygon","coordinates":[[[-74.9669,40.0527],[-74.9326,40.0688],[-74.9251,40.0711],[-74.9209,40.0714],[-74.909,40.0702],[-74.8885,40.0762],[-74.8746,40.0807],[-74.8667,40.0819],[-74.8598,40.0849],[-74.8582,40.0888],[-74.8546,40.0933],[-74.8434,40.098],[-74.838,40.1009],[-74.8351,40.1039],[-74.8331,40.112],[-74.8262,40.1241],[-74.8225,40.1268],[-74.8161,40.1277],[-74.8006,40.1228],[-74.7887,40.1204],[-74.7821,40.1208],[-74.7695,40.1291],[-74.7589,40.134],[-74.7531,40.135],[-74.7444,40.1344],[-74.7406,40.1355],[-74.7317,40.1419],[-74.7244,40.1464],[-74.7221,40.1503],[-74.7185,40.15],[-74.7139,40.1527],[-74.7129,40.1561],[-74.7063,40.1618],[-74.7042,40.1687],[-74.708,40.1668],[-74.7108,40.168],[-74.7084,40.1718],[-74.7128,40.1752],[-74.7099,40.1781],[-74.7111,40.1807],[-74.7025,40.1824],[-74.7006,40.1836],[-74.6947,40.1814],[-74.6965,40.1793],[-74.6922,40.1792],[-74.6906,40.1769],[-74.6845,40.178],[-74.6794,40.1737],[-74.6747,40.1737],[-74.6743,40.17],[-74.6773,40.1673],[-74.662,40.1649],[-74.6615,40.1622],[-74.652,40.159],[-74.6478,40.1556],[-74.6385,40.1544],[-74.638,40.1519],[-74.6349,40.1516],[-74.6331,40.1491],[-74.6254,40.1496],[-74.6232,40.1486],[-74.6221,40.1449],[-74.6234,40.1427],[-74.6186,40.1405],[-74.6155,40.1418],[-74.6099,40.1397],[-74.6033,40.1386],[-74.6024,40.137],[-74.5974,40.1379],[-74.5878,40.1383],[-74.5531,40.0791],[-74.533,40.0453],[-74.5283,40.0367],[-74.5064,39.9913],[-74.4702,39.9225],[-74.4342,39.8552],[-74.4294,39.8454],[-74.3897,39.7733],[-74.3903,39.627],[-74.3904,39.5962],[-74.3923,39.5946],[-74.3976,39.5815],[-74.3977,39.5778],[-74.4008,39.5722],[-74.4052,39.5696],[-74.4104,39.571],[-74.416,39.5705],[-74.4191,39.5678],[-74.4144,39.561],[-74.4174,39.5573],[-74.4198,39.5575],[-74.4254,39.5535],[-74.4279,39.5532],[-74.4339,39.5556],[-74.4384,39.5535],[-74.4383,39.5513],[-74.4343,39.5466],[-74.4344,39.542],[-74.4409,39.5421],[-74.4457,39.5464],[-74.4461,39.5497],[-74.4436,39.5548],[-74.4456,39.5586],[-74.4486,39.559],[-74.4526,39.5569],[-74.4534,39.5486],[-74.4573,39.5473],[-74.4596,39.5486],[-74.4622,39.5561],[-74.4678,39.5557],[-74.4718,39.552],[-74.4757,39.5515],[-74.4825,39.5584],[-74.4863,39.5582],[-74.4919,39.5556],[-74.4943,39.5573],[-74.4961,39.5625],[-74.5,39.5645],[-74.5059,39.5696],[-74.5122,39.57],[-74.5139,39.5731],[-74.517,39.5742],[-74.5217,39.5702],[-74.5286,39.57],[-74.5324,39.5734],[-74.5406,39.5756],[-74.5426,39.5791],[-74.542,39.5858],[-74.549,39.5903],[-74.5543,39.5985],[-74.5633,39.5967],[-74.5717,39.5989],[-74.5757,39.5984],[-74.5808,39.6033],[-74.5851,39.605],[-74.5887,39.6118],[-74.5973,39.6147],[-74.6115,39.623],[-74.6166,39.6236],[-74.6206,39.6264],[-74.6243,39.6263],[-74.6276,39.6204],[-74.632,39.6221],[-74.632,39.6267],[-74.6348,39.628],[-74.6375,39.6233],[-74.64,39.6225],[-74.6402,39.6256],[-74.648,39.6251],[-74.6489,39.629],[-74.653,39.6266],[-74.6545,39.6299],[-74.6592,39.6311],[-74.6583,39.636],[-74.66,39.6391],[-74.6571,39.6442],[-74.6589,39.646],[-74.6584,39.654],[-74.6605,39.6688],[-74.6649,39.6748],[-74.6643,39.6768],[-74.668,39.6837],[-74.6733,39.6865],[-74.6761,39.6916],[-74.7239,39.7221],[-74.7362,39.7298],[-74.7558,39.7422],[-74.7664,39.7466],[-74.7683,39.7496],[-74.7721,39.7504],[-74.7769,39.7578],[-74.7812,39.7586],[-74.7851,39.7656],[-74.7879,39.7669],[-74.7907,39.7713],[-74.8064,39.7832],[-74.8104,39.7848],[-74.818,39.786],[-74.8194,39.788],[-74.8276,39.7892],[-74.8305,39.7886],[-74.8432,39.7899],[-74.8481,39.7879],[-74.8514,39.7886],[-74.854,39.7871],[-74.8695,39.7843],[-74.8762,39.7815],[-74.8898,39.782],[-74.8949,39.7834],[-74.8986,39.7897],[-74.903,39.7911],[-74.9154,39.8343],[-74.9307,39.8859],[-74.9409,39.8925],[-74.9441,39.893],[-74.9455,39.8963],[-74.9496,39.8983],[-74.952,39.9018],[-74.9525,39.906],[-74.9559,39.9132],[-74.9609,39.9168],[-74.963,39.9203],[-74.9697,39.9218],[-74.9751,39.9216],[-74.9839,39.9268],[-74.9855,39.9299],[-74.9812,39.9313],[-74.9813,39.9339],[-74.9787,39.9343],[-74.9751,39.9378],[-74.9757,39.9398],[-74.9873,39.9399],[-74.9918,39.9409],[-74.9944,39.9394],[-75.0043,39.9415],[-75.0093,39.9452],[-75.0151,39.9468],[-75.0158,39.9511],[-75.0131,39.9565],[-75.0176,39.9595],[-75.0171,39.9629],[-75.0189,39.964],[-75.0199,39.9694],[-75.016,39.9703],[-75.0154,39.9765],[-75.0104,39.98],[-75.0138,39.9803],[-75.0149,39.9854],[-75.0182,39.9867],[-75.0203,39.9904],[-75.0281,39.9923],[-75.0326,39.9918],[-75.0323,39.9939],[-75.0352,39.9959],[-75.0412,39.9949],[-75.0436,39.9933],[-75.0479,39.9941],[-75.0494,39.9913],[-75.06,39.9916],[-75.0581,39.9974],[-75.0534,40.0046],[-75.0471,40.0099],[-75.0342,40.0152],[-75.0196,40.0184],[-75.0122,40.0207],[-75.0086,40.0239],[-74.9889,40.0373],[-74.9737,40.0482],[-74.9669,40.0527]]]}},{"type":"Feature","properties":{"id":"42101","name":"Philadelphia Co., PA"},"geometry":{"type":"Polygon","coordinates":[[[-75.2637,39.9827],[-75.254,39.9883],[-75.2137,40.0072],[-75.2058,40.0116],[-75.2122,40.0155],[-75.2181,40.0209],[-75.2321,40.028],[-75.2456,40.0377],[-75.249,40.0418],[-75.2577,40.0476],[-75.2644,40.0541],[-75.2563,40.0611],[-75.2433,40.0735],[-75.2236,40.0929],[-75.1885,40.0728],[-75.1764,40.0846],[-75.1634,40.0769],[-75.1351,40.061],[-75.129,40.0571],[-75.1094,40.0459],[-75.1079,40.0482],[-75.0951,40.0561],[-75.0874,40.0636],[-75.0967,40.069],[-75.0825,40.0829],[-75.0778,40.0858],[-75.0583,40.1059],[-75.0206,40.1323],[-75.0151,40.138],[-74.9979,40.1278],[-74.9936,40.1323],[-74.9923,40.1307],[-74.9937,40.1266],[-74.989,40.1261],[-74.9872,40.1233],[-74.9835,40.1237],[-74.9827,40.1209],[-74.9801,40.1199],[-74.9732,40.1199],[-74.9701,40.1172],[-74.9645,40.1184],[-74.9631,40.115],[-74.9634,40.11],[-74.9652,40.1078],[-74.9612,40.1034],[-74.9616,40.0978],[-74.9558,40.0951],[-74.9577,40.0898],[-74.9588,40.0825],[-74.9636,40.0771],[-74.9711,40.076],[-74.9724,40.0722],[-74.9809,40.066],[-74.9804,40.0603],[-74.9843,40.0559],[-74.9797,40.0534],[-74.9737,40.0482],[-74.9889,40.0373],[-75.0086,40.0239],[-75.0122,40.0207],[-75.0196,40.0184],[-75.0342,40.0152],[-75.0471,40.0099],[-75.0534,40.0046],[-75.0581,39.9974],[-75.06,39.9916],[-75.0642,39.986],[-75.0756,39.978],[-75.0858,39.9751],[-75.0937,39.9744],[-75.1023,39.9724],[-75.1192,39.9654],[-75.1301,39.9587],[-75.1339,39.9542],[-75.1357,39.9471],[-75.1361,39.9339],[-75.135,39.9273],[-75.1279,39.9118],[-75.1308,39.9002],[-75.1373,39.89],[-75.1397,39.8882],[-75.1437,39.885],[-75.1489,39.8837],[-75.183,39.882],[-75.1893,39.8807],[-75.195,39.8775],[-75.1999,39.8732],[-75.2115,39.8671],[-75.216,39.8711],[-75.2157,39.8761],[-75.2198,39.8755],[-75.2341,39.8772],[-75.2405,39.8724],[-75.2484,39.8765],[-75.2535,39.876],[-75.2625,39.8766],[-75.2644,39.8822],[-75.2619,39.883],[-75.2652,39.8871],[-75.2625,39.8884],[-75.2617,39.8918],[-75.2591,39.8924],[-75.2513,39.9044],[-75.2535,39.9056],[-75.2503,39.9076],[-75.2515,39.9101],[-75.2472,39.9136],[-75.2478,39.9217],[-75.2443,39.9263],[-75.2434,39.9319],[-75.2419,39.9335],[-75.2376,39.9325],[-75.2349,39.9363],[-75.2396,39.938],[-75.2404,39.9422],[-75.247,39.9434],[-75.2501,39.947],[-75.2516,39.9521],[-75.249,39.9569],[-75.2509,39.959],[-75.2485,39.9603],[-75.2481,39.9641],[-75.2541,39.9654],[-75.2571,39.9637],[-75.2605,39.9663],[-75.2654,39.9653],[-75.2706,39.9687],[-75.2754,39.9696],[-75.2803,39.975],[-75.2765,39.977],[-75.2637,39.9827]]]}}]}