{"type":"FeatureCollection","features":[{"type":"Feature","properties":{"id":"48453","name":"Travis Co."},"geometry":{"type":"Polygon","coordinates":[[[-98.0403,30.6182],[-98.0365,30.6117],[-98.0297,30.6147],[-98.0127,30.6168],[-98.0063,30.6275],[-98.0019,30.6214],[-97.998,30.613],[-97.9924,30.6095],[-97.991,30.6098],[-97.9779,30.6221],[-97.9663,30.6237],[-97.9567,30.6282],[-97.9519,30.6252],[-97.9405,30.6148],[-97.9348,30.6103],[-97.9171,30.6049],[-97.9219,30.591],[-97.9204,30.5868],[-97.9151,30.5806],[-97.927,30.5677],[-97.9218,30.5642],[-97.9063,30.5703],[-97.9025,30.5713],[-97.8958,30.5649],[-97.8915,30.5665],[-97.8886,30.5639],[-97.8877,30.5566],[-97.8834,30.553],[-97.8812,30.5533],[-97.8679,30.5465],[-97.8714,30.5227],[-97.8672,30.5173],[-97.8597,30.5123],[-97.8558,30.5074],[-97.8561,30.5028],[-97.8622,30.4973],[-97.8459,30.4756],[-97.8465,30.4734],[-97.8266,30.4575],[-97.8231,30.4534],[-97.8119,30.4471],[-97.7997,30.4471],[-97.7944,30.4448],[-97.7888,30.4442],[-97.7853,30.4407],[-97.7794,30.4384],[-97.7763,30.4298],[-97.768,30.4326],[-97.7536,30.4333],[-97.7547,30.4402],[-97.7496,30.4476],[-97.7468,30.4493],[-97.7337,30.4497],[-97.7152,30.4586],[-97.704,30.4585],[-97.696,30.4614],[-97.6888,30.4614],[-97.6829,30.4801],[-97.6742,30.4808],[-97.6699,30.4784],[-97.6639,30.4816],[-97.6514,30.4749],[-97.6435,30.4781],[-97.6413,30.482],[-97.6279,30.4853],[-97.6186,30.4904],[-97.6175,30.4894],[-97.6068,30.4903],[-97.6061,30.4951],[-97.6016,30.4987],[-97.5962,30.5015],[-97.5913,30.5009],[-97.5899,30.4974],[-97.5812,30.5008],[-97.5683,30.4997],[-97.5689,30.4962],[-97.5638,30.4956],[-97.5635,30.4918],[-97.553,30.4903],[-97.5493,30.4811],[-97.5501,30.4765],[-97.5461,30.4754],[-97.5434,30.4794],[-97.5282,30.4754],[-97.524,30.4722],[-97.5224,30.4764],[-97.5109,30.4853],[-97.5026,30.4806],[-97.5013,30.4773],[-97.4891,30.4733],[-97.4864,30.4695],[-97.4801,30.4704],[-97.4755,30.4671],[-97.4713,30.467],[-97.4669,30.4652],[-97.4639,30.4606],[-97.4598,30.4583],[-97.4534,30.4613],[-97.4456,30.4614],[-97.4449,30.4561],[-97.4418,30.4553],[-97.4395,30.4603],[-97.4341,30.4597],[-97.4333,30.4529],[-97.4271,30.4522],[-97.4219,30.4443],[-97.4153,30.4383],[-97.4088,30.4382],[-97.4062,30.4423],[-97.4028,30.4401],[-97.3955,30.4378],[-97.393,30.4388],[-97.3925,30.4344],[-97.3876,30.4334],[-97.3869,30.4299],[-97.3848,30.429],[-97.3834,30.4242],[-97.3794,30.4239],[-97.3768,30.4192],[-97.3735,30.4177],[-97.3695,30.4196],[-97.3772,30.4071],[-97.4001,30.3679],[-97.4609,30.2644],[-97.462,30.2617],[-97.4698,30.2493],[-97.4804,30.2306],[-97.4927,30.2099],[-97.5163,30.1883],[-97.5797,30.1308],[-97.6097,30.1034],[-97.6142,30.1005],[-97.6392,30.0783],[-97.6494,30.0679],[-97.6537,30.0716],[-97.6864,30.0424],[-97.702,30.0287],[-97.7088,30.0235],[-97.7298,30.0387],[-97.7814,30.0757],[-97.8139,30.0992],[-97.8742,30.1424],[-97.9288,30.1817],[-98.066,30.2798],[-98.0897,30.2973],[-98.1259,30.3228],[-98.173,30.3563],[-98.1593,30.3767],[-98.1255,30.4262],[-98.0977,30.4676],[-98.0978,30.4981],[-98.1059,30.4953],[-98.1106,30.4909],[-98.1137,30.4856],[-98.1231,30.4847],[-98.1231,30.487],[-98.1164,30.5002],[-98.1013,30.5285],[-98.0499,30.6242],[-98.0403,30.6182]]]}},{"type":"Feature","properties":{"id":"48491","name":"Williamson Co."},"geometry":{"type":"Polygon","coordinates":[[[-97.998,30.7202],[-97.9744,30.7646],[-97.9629,30.7856],[-97.9396,30.8065],[-97.8791,30.8599],[-97.8748,30.8635],[-97.8281,30.9044],[-97.7738,30.8951],[-97.7054,30.8835],[-97.6803,30.8791],[-97.6241,30.87],[-97.4025,30.7856],[-97.3754,30.7753],[-97.3738,30.7743],[-97.3568,30.7678],[-97.2699,30.7354],[-97.2524,30.6935],[-97.2369,30.6547],[-97.222,30.6199],[-97.1552,30.4573],[-97.2399,30.4313],[-97.3065,30.4112],[-97.3345,30.4028],[-97.3695,30.4196],[-97.3735,30.4177],[-97.3768,30.4192],[-97.3794,30.4239],[-97.3834,30.4242],[-97.3848,30.429],[-97.3869,30.4299],[-97.3876,30.4334],[-97.3925,30.4344],[-97.393,30.4388],[-97.3955,30.4378],[-97.4028,30.4401],[-97.4062,30.4423],[-97.4088,30.4382],[-97.4153,30.4383],[-97.4219,30.4443],[-97.4271,30.4522],[-97.4333,30.4529],[-97.4341,30.4597],[-97.4395,30.4603],[-97.4418,30.4553],[-97.4449,30.4561],[-97.4456,30.4614],[-97.4534,30.4613],[-97.4598,30.4583],[-97.4639,30.4606],[-97.4669,30.4652],[-97.4713,30.467],[-97.4755,30.4671],[-97.4801,30.4704],[-97.4864,30.4695],[-97.4891,30.4733],[-97.5013,30.4773],[-97.5026,30.4806],[-97.5109,30.4853],[-97.5224,30.4764],[-97.524,30.4722],[-97.5282,30.4754],[-97.5434,30.4794],[-97.5461,30.4754],[-97.5501,30.4765],[-97.5493,30.4811],[-97.553,30.4903],[-97.5635,30.4918],[-97.5638,30.4956],[-97.5689,30.4962],[-97.5683,30.4997],[-97.5812,30.5008],[-97.5899,30.4974],[-97.5913,30.5009],[-97.5962,30.5015],[-97.6016,30.4987],[-97.6061,30.4951],[-97.6068,30.4903],[-97.6175,30.4894],[-97.6186,30.4904],[-97.6279,30.4853],[-97.6413,30.482],[-97.6435,30.4781],[-97.6514,30.4749],[-97.6639,30.4816],[-97.6699,30.4784],[-97.6742,30.4808],[-97.6829,30.4801],[-97.6888,30.4614],[-97.696,30.4614],[-97.704,30.4585],[-97.7152,30.4586],[-97.7337,30.4497],[-97.7468,30.4493],[-97.7496,30.4476],[-97.7547,30.4402],[-97.7536,30.4333],[-97.768,30.4326],[-97.7763,30.4298],[-97.7794,30.4384],[-97.7853,30.4407],[-97.7888,30.4442],[-97.7944,30.4448],[-97.7997,30.4471],[-97.8119,30.4471],[-97.8231,30.4534],[-97.8266,30.4575],[-97.8465,30.4734],[-97.8459,30.4756],[-97.8622,30.4973],[-97.8561,30.5028],[-97.8558,30.5074],[-97.8597,30.5123],[-97.8672,30.5173],[-97.8714,30.5227],[-97.8679,30.5465],[-97.8812,30.5533],[-97.8834,30.553],[-97.8877,30.5566],[-97.8886,30.5639],[-97.8915,30.5665],[-97.8958,30.5649],[-97.9025,30.5713],[-97.9063,30.5703],[-97.9218,30.5642],[-97.927,30.5677],[-97.9151,30.5806],[-97.9204,30.5868],[-97.9219,30.591],[-97.9171,30.6049],[-97.9348,30.6103],[-97.9405,30.6148],[-97.9519,30.6252],[-97.9567,30.6282],[-97.9663,30.6237],[-97.9779,30.6221],[-97.991,30.6098],[-97.9924,30.6095],[-97.998,30.613],[-98.0019,30.6214],[-98.0063,30.6275],[-98.0127,30.6168],[-98.0297,30.6147],[-98.0365,30.6117],[-98.0403,30.6182],[-98.0499,30.6242],[-97.998,30.7202]]]}},{"type":"Feature","properties":{"id":"48055","name":"Caldwell Co."},"geometry":{"type":"Polygon","coordinates":[[[-97.702,30.0287],[-97.6864,30.0424],[-97.6537,30.0716],[-97.6494,30.0679],[-97.6326,30.0536],[-97.6228,30.0455],[-97.5994,30.0258],[-97.5731,30.0029],[-97.5682,29.9991],[-97.5008,29.9421],[-97.4599,29.9078],[-97.3887,29.8477],[-97.3517,29.8169],[-97.3158,29.7865],[-97.3179,29.7847],[-97.4098,29.7343],[-97.5114,29.6784],[-97.5977,29.6307],[-97.5996,29.6312],[-97.5986,29.6352],[-97.6037,29.6418],[-97.6064,29.6404],[-97.6046,29.6365],[-97.6058,29.6351],[-97.6119,29.6369],[-97.6175,29.6336],[-97.6188,29.6355],[-97.6162,29.6411],[-97.6175,29.6451],[-97.622,29.6429],[-97.6282,29.6423],[-97.6294,29.6398],[-97.63,29.6444],[-97.6339,29.6475],[-97.631,29.6535],[-97.6356,29.6552],[-97.6405,29.6519],[-97.6429,29.6546],[-97.6517,29.654],[-97.6543,29.658],[-97.6522,29.6618],[-97.6479,29.6581],[-97.6478,29.6621],[-97.6526,29.6678],[-97.6586,29.6632],[-97.661,29.6685],[-97.6634,29.667],[-97.6709,29.6671],[-97.6712,29.6641],[-97.6735,29.6632],[-97.6751,29.6661],[-97.6739,29.6682],[-97.6776,29.6688],[-97.6785,29.6645],[-97.6838,29.6643],[-97.6883,29.6726],[-97.6907,29.6731],[-97.6983,29.6692],[-97.6985,29.667],[-97.7022,29.6686],[-97.7038,29.6742],[-97.7061,29.6746],[-97.7039,29.6813],[-97.7085,29.6837],[-97.7117,29.6815],[-97.7172,29.6818],[-97.7176,29.6841],[-97.7219,29.6821],[-97.7221,29.6855],[-97.7256,29.6857],[-97.7276,29.6879],[-97.7357,29.6912],[-97.7354,29.6936],[-97.738,29.6963],[-97.7427,29.6967],[-97.7433,29.6988],[-97.737,29.702],[-97.7359,29.7056],[-97.7368,29.711],[-97.7384,29.7129],[-97.7461,29.7113],[-97.7466,29.7126],[-97.7565,29.7178],[-97.7587,29.7149],[-97.7634,29.713],[-97.7657,29.7171],[-97.7685,29.7191],[-97.7665,29.7218],[-97.7635,29.7218],[-97.7586,29.725],[-97.7607,29.7278],[-97.7637,29.7279],[-97.7713,29.7328],[-97.7707,29.7378],[-97.7688,29.7417],[-97.7744,29.7422],[-97.774,29.7439],[-97.7795,29.7482],[-97.7812,29.7527],[-97.7802,29.7548],[-97.7816,29.7597],[-97.7864,29.761],[-97.7927,29.7594],[-97.7929,29.7542],[-97.7959,29.7523],[-97.8034,29.7537],[-97.803,29.7587],[-97.8009,29.7592],[-97.8002,29.7659],[-97.8049,29.7672],[-97.8112,29.7745],[-97.8059,29.7731],[-97.8056,29.7771],[-97.8114,29.7803],[-97.8129,29.7783],[-97.8151,29.7807],[-97.812,29.7835],[-97.8143,29.7847],[-97.8171,29.7904],[-97.8196,29.7894],[-97.8218,29.7827],[-97.8233,29.7855],[-97.8262,29.7845],[-97.8241,29.7817],[-97.8285,29.7814],[-97.8293,29.7796],[-97.8324,29.7845],[-97.83,29.79],[-97.8303,29.7955],[-97.8344,29.7946],[-97.8424,29.7992],[-97.8424,29.8083],[-97.8464,29.8086],[-97.8407,29.8158],[-97.8397,29.8204],[-97.8422,29.8217],[-97.8415,29.8249],[-97.8371,29.825],[-97.8376,29.8285],[-97.8439,29.8328],[-97.8448,29.8391],[-97.8486,29.8433],[-97.8555,29.8439],[-97.8562,29.8489],[-97.8637,29.8563],[-97.8672,29.8545],[-97.8675,29.8517],[-97.8722,29.8525],[-97.8753,29.8582],[-97.876,29.8606],[-97.8861,29.8621],[-97.8888,29.8568],[-97.8928,29.8565],[-97.8993,29.8578],[-97.8969,29.865],[-97.8939,29.8837],[-97.8696,29.9018],[-97.8492,29.916],[-97.8366,29.9223],[-97.8283,29.9284],[-97.8178,29.9344],[-97.8035,29.9412],[-97.7924,29.9452],[-97.7903,29.9478],[-97.7885,29.9538],[-97.7858,29.9572],[-97.7769,29.9635],[-97.7747,29.9675],[-97.7656,29.9788],[-97.7607,29.9881],[-97.7532,29.994],[-97.7468,29.9958],[-97.7088,30.0235],[-97.702,30.0287]]]}},{"type":"Feature","properties":{"id":"48021","name":"Bastrop Co."},"geometry":{"type":"Polygon","coordinates":[[[-97.3345,30.4028],[-97.28,30.3763],[-97.2517,30.3628],[-97.1989,30.3374],[-97.0818,30.2594],[-97.0592,30.1781],[-97.0245,30.0514],[-97.107,29.9754],[-97.1309,29.9541],[-97.2218,29.8718],[-97.3158,29.7865],[-97.3517,29.8169],[-97.3887,29.8477],[-97.4599,29.9078],[-97.5008,29.9421],[-97.5682,29.9991],[-97.5731,30.0029],[-97.5994,30.0258],[-97.6228,30.0455],[-97.6326,30.0536],[-97.6494,30.0679],[-97.6392,30.0783],[-97.6142,30.1005],[-97.6097,30.1034],[-97.5797,30.1308],[-97.5163,30.1883],[-97.4927,30.2099],[-97.4804,30.2306],[-97.4698,30.2493],[-97.462,30.2617],[-97.4609,30.2644],[-97.4001,30.3679],[-97.3772,30.4071],[-97.3695,30.4196],[-97.3345,30.4028]]]}},{"type":"Feature","properties":{"id":"48209","name":"Hays Co."},"geometry":{"type":"Polygon","coordinates":[[[-98.1259,30.3228],[-98.0897,30.2973],[-98.066,30.2798],[-97.9288,30.1817],[-97.8742,30.1424],[-97.8139,30.0992],[-97.7814,30.0757],[-97.7298,30.0387],[-97.7088,30.0235],[-97.7468,29.9958],[-97.7532,29.994],[-97.7607,29.9881],[-97.7656,29.9788],[-97.7747,29.9675],[-97.7769,29.9635],[-97.7858,29.9572],[-97.7885,29.9538],[-97.7903,29.9478],[-97.7924,29.9452],[-97.8035,29.9412],[-97.8178,29.9344],[-97.8283,29.9284],[-97.8366,29.9223],[-97.8492,29.916],[-97.8696,29.9018],[-97.8939,29.8837],[-97.8969,29.865],[-97.8993,29.8578],[-97.8928,29.8565],[-97.8888,29.8568],[-97.8861,29.8621],[-97.876,29.8606],[-97.8753,29.8582],[-97.9305,29.8166],[-97.9436,29.8069],[-97.9993,29.7524],[-98.0129,29.7947],[-98.0305,29.8485],[-98.0715,29.8777],[-98.1516,29.9343],[-98.2545,30.0076],[-98.2976,30.038],[-98.2592,30.1365],[-98.2368,30.1935],[-98.2065,30.2713],[-98.1828,30.332],[-98.173,30.3563],[-98.1259,30.3228]]]}}]}