{"type":"FeatureCollection","features":[{"type":"Feature","properties":{"id":"15003","name":"Honolulu Co."},"geometry":{"type":"MultiPolygon","coordinates":[[[[-157.6566,21.3317],[-157.6539,21.3283],[-157.6541,21.326],[-157.6596,21.327],[-157.6589,21.3305],[-157.6566,21.3317]]],[[[-157.7872,21.4358],[-157.788,21.4311],[-157.7904,21.4316],[-157.7909,21.4347],[-157.7872,21.4358]]],[[[-158.2595,21.5785],[-158.2348,21.5818],[-158.2279,21.5801],[-158.216,21.5801],[-158.2091,21.5821],[-158.1914,21.5827],[-158.1769,21.5807],[-158.1723,21.5818],[-158.1675,21.5796],[-158.1637,21.5812],[-158.1543,21.5808],[-158.1364,21.5845],[-158.1319,21.5824],[-158.1228,21.5835],[-158.118,21.5902],[-158.1148,21.592],[-158.1128,21.5898],[-158.1067,21.5966],[-158.1038,21.5964],[-158.1038,21.6006],[-158.1067,21.603],[-158.0949,21.6132],[-158.0858,21.6184],[-158.086,21.6218],[-158.08,21.6245],[-158.0716,21.6334],[-158.0682,21.6387],[-158.0651,21.6391],[-158.0629,21.6415],[-158.0639,21.6435],[-158.0623,21.6554],[-158.047,21.6701],[-158.0401,21.6752],[-158.0371,21.6812],[-158.0323,21.6828],[-158.0313,21.6864],[-158.0278,21.6897],[-158.0137,21.6983],[-158.0093,21.7003],[-158.0002,21.7016],[-157.9972,21.7054],[-157.9889,21.7057],[-157.9835,21.7107],[-157.9778,21.7092],[-157.9755,21.7109],[-157.9674,21.7104],[-157.962,21.7035],[-157.9579,21.7023],[-157.9491,21.693],[-157.9472,21.6896],[-157.9379,21.6769],[-157.9331,21.6741],[-157.936,21.6713],[-157.9353,21.6667],[-157.9322,21.6634],[-157.9263,21.6616],[-157.9282,21.6538],[-157.9199,21.6488],[-157.9141,21.6497],[-157.9168,21.6474],[-157.9182,21.6422],[-157.918,21.6351],[-157.9208,21.6298],[-157.9194,21.6263],[-157.9127,21.621],[-157.9127,21.6146],[-157.9077,21.6078],[-157.9016,21.6053],[-157.8981,21.6026],[-157.8951,21.5945],[-157.8893,21.5899],[-157.8867,21.5806],[-157.8827,21.5771],[-157.8774,21.5753],[-157.8752,21.5731],[-157.8751,21.563],[-157.8769,21.5574],[-157.8735,21.555],[-157.8689,21.556],[-157.8639,21.5602],[-157.8549,21.5575],[-157.8507,21.5549],[-157.8467,21.5498],[-157.8466,21.5449],[-157.8419,21.5419],[-157.8345,21.5269],[-157.8357,21.5169],[-157.8348,21.509],[-157.8506,21.5063],[-157.8526,21.5],[-157.847,21.4922],[-157.8493,21.4874],[-157.8471,21.485],[-157.8429,21.4846],[-157.8417,21.4804],[-157.8443,21.47],[-157.841,21.4595],[-157.8381,21.4567],[-157.8342,21.4582],[-157.8337,21.4624],[-157.8301,21.458],[-157.8249,21.4554],[-157.8223,21.4525],[-157.8166,21.4546],[-157.8112,21.4445],[-157.8085,21.4429],[-157.8052,21.4351],[-157.8059,21.4301],[-157.7967,21.4253],[-157.7954,21.4288],[-157.7923,21.4288],[-157.7891,21.4253],[-157.7872,21.4137],[-157.7842,21.4123],[-157.778,21.4118],[-157.77,21.4133],[-157.7665,21.4162],[-157.7641,21.4214],[-157.7655,21.4245],[-157.7637,21.4281],[-157.7614,21.4284],[-157.7604,21.4327],[-157.7575,21.4347],[-157.758,21.4368],[-157.7727,21.4431],[-157.7768,21.4432],[-157.7783,21.4465],[-157.7773,21.4518],[-157.774,21.4538],[-157.7728,21.4569],[-157.7682,21.4563],[-157.7655,21.4615],[-157.7632,21.4595],[-157.7459,21.4534],[-157.7399,21.4539],[-157.7391,21.4556],[-157.73,21.4603],[-157.7225,21.4592],[-157.7228,21.4558],[-157.7258,21.45],[-157.7295,21.4467],[-157.7357,21.4452],[-157.7364,21.4387],[-157.7358,21.4324],[-157.739,21.4242],[-157.7415,21.4256],[-157.7445,21.4224],[-157.7433,21.4137],[-157.7386,21.4043],[-157.7339,21.4005],[-157.7272,21.3984],[-157.7159,21.3933],[-157.712,21.389],[-157.7089,21.3833],[-157.7059,21.3803],[-157.7061,21.3759],[-157.7087,21.3691],[-157.709,21.3603],[-157.7066,21.3531],[-157.6938,21.3329],[-157.6884,21.3285],[-157.6778,21.3244],[-157.6659,21.3156],[-157.6634,21.3164],[-157.6601,21.3132],[-157.6594,21.3102],[-157.6491,21.3106],[-157.6489,21.3047],[-157.651,21.2988],[-157.6547,21.298],[-157.658,21.2933],[-157.6685,21.2876],[-157.6698,21.2854],[-157.6738,21.2853],[-157.6769,21.2807],[-157.6858,21.2758],[-157.6893,21.269],[-157.6933,21.273],[-157.696,21.2717],[-157.696,21.2672],[-157.6915,21.2643],[-157.6987,21.2607],[-157.7093,21.2597],[-157.7115,21.262],[-157.7087,21.2691],[-157.7095,21.2775],[-157.7127,21.2809],[-157.7194,21.2844],[-157.7224,21.2814],[-157.7269,21.2808],[-157.7322,21.282],[-157.7346,21.2797],[-157.7436,21.2797],[-157.7545,21.2761],[-157.7559,21.2728],[-157.7595,21.2758],[-157.7644,21.2752],[-157.7755,21.2705],[-157.7799,21.2652],[-157.7898,21.2598],[-157.7912,21.2555],[-157.7959,21.2572],[-157.8062,21.255],[-157.8149,21.2561],[-157.8211,21.2606],[-157.8228,21.265],[-157.8232,21.2714],[-157.8297,21.2766],[-157.8338,21.2778],[-157.8379,21.2812],[-157.846,21.2817],[-157.8698,21.2951],[-157.8707,21.2982],[-157.8776,21.3012],[-157.8838,21.3],[-157.8867,21.3066],[-157.8994,21.3053],[-157.9046,21.3053],[-157.9067,21.3033],[-157.9472,21.3038],[-157.9493,21.3065],[-157.9472,21.3155],[-157.9519,21.3187],[-157.9607,21.3217],[-157.9652,21.3275],[-157.9702,21.3283],[-157.9705,21.3228],[-157.9783,21.3159],[-157.9815,21.3159],[-158.0213,21.3071],[-158.0325,21.3051],[-158.0443,21.3038],[-158.0503,21.3011],[-158.068,21.2995],[-158.0794,21.2981],[-158.0841,21.2958],[-158.1029,21.2957],[-158.1083,21.2976],[-158.1127,21.3019],[-158.1186,21.3133],[-158.1205,21.321],[-158.1151,21.3215],[-158.1128,21.3241],[-158.1162,21.3288],[-158.1205,21.3252],[-158.1231,21.3257],[-158.1238,21.3341],[-158.1283,21.3407],[-158.1303,21.3516],[-158.1298,21.3551],[-158.1323,21.3618],[-158.1365,21.3692],[-158.1408,21.3719],[-158.1411,21.3764],[-158.1463,21.3797],[-158.1497,21.3852],[-158.162,21.3959],[-158.173,21.3986],[-158.1792,21.4043],[-158.1778,21.4097],[-158.1796,21.4286],[-158.1827,21.4301],[-158.1883,21.4405],[-158.1915,21.4401],[-158.1899,21.4465],[-158.1977,21.4487],[-158.1994,21.4525],[-158.2028,21.4537],[-158.2037,21.4579],[-158.2087,21.4606],[-158.2144,21.4603],[-158.2134,21.4633],[-158.2181,21.4676],[-158.2204,21.4761],[-158.2253,21.4783],[-158.2311,21.4827],[-158.23,21.4953],[-158.2296,21.5169],[-158.2291,21.525],[-158.2298,21.5343],[-158.2315,21.5372],[-158.2507,21.5574],[-158.2564,21.5593],[-158.2747,21.5721],[-158.2816,21.5752],[-158.2776,21.577],[-158.2595,21.5785]]],[[[-161.9225,23.0607],[-161.9164,23.0609],[-161.9156,23.0583],[-161.9189,23.0561],[-161.9258,23.0542],[-161.9281,23.0571],[-161.9295,23.0626],[-161.9225,23.0607]]],[[[-166.1631,23.7273],[-166.1656,23.7291],[-166.1639,23.7296],[-166.1631,23.7273]]],[[[-166.1654,23.7354],[-166.165,23.7333],[-166.1671,23.7348],[-166.1654,23.7354]]],[[[-166.1702,23.6424],[-166.1715,23.6426],[-166.1701,23.644],[-166.1702,23.6424]]],[[[-166.208,23.7858],[-166.2106,23.7865],[-166.2092,23.7882],[-166.208,23.7858]]],[[[-166.2215,23.8614],[-166.2238,23.8612],[-166.2225,23.8622],[-166.2215,23.8614]]],[[[-166.2811,23.8717],[-166.28,23.8702],[-166.2883,23.8673],[-166.2892,23.8692],[-166.2811,23.8717]]],[[[-168.0007,25.0031],[-167.9977,25.0044],[-167.9956,25.0019],[-167.9958,24.9982],[-168.001,24.9974],[-168.0021,25.0],[-168.0007,25.0031]]],[[[-171.7436,25.7769],[-171.7372,25.7797],[-171.7351,25.7818],[-171.7256,25.7793],[-171.7255,25.7741],[-171.7279,25.7731],[-171.7299,25.7629],[-171.7331,25.7573],[-171.7424,25.7561],[-171.7458,25.7601],[-171.7452,25.7709],[-171.7436,25.7769]]],[[[-173.9668,26.079],[-173.9633,26.0724],[-173.963,26.0651],[-173.9642,26.0623],[-173.9699,26.0646],[-173.9761,26.0786],[-173.973,26.0799],[-173.9668,26.079]]],[[[-175.7382,27.927],[-175.7363,27.9259],[-175.7396,27.9244],[-175.7382,27.927]]],[[[-175.8145,27.7893],[-175.8179,27.788],[-175.8211,27.7894],[-175.8199,27.7913],[-175.8145,27.7893]]],[[[-175.9063,27.7742],[-175.909,27.7724],[-175.9092,27.7741],[-175.9063,27.7742]]],[[[-175.9426,27.7624],[-175.9475,27.7635],[-175.9436,27.7659],[-175.9426,27.7624]]],[[[-178.3078,28.3901],[-178.298,28.3916],[-178.2889,28.4021],[-178.2881,28.3924],[-178.2932,28.3893],[-178.3045,28.3854],[-178.3347,28.3894],[-178.333,28.3945],[-178.3078,28.3901]]]]}}]}