{"type":"FeatureCollection","features":[{"type":"Feature","properties":{"zcta":"96859","d":0},"geometry":{"type":"Polygon","coordinates":[[[-157.88808,21.35962],[-157.88944,21.35804],[-157.89144,21.35982],[-157.88981,21.36222],[-157.88808,21.35962]]]}},{"type":"Feature","properties":{"zcta":"96857","d":0},"geometry":{"type":"MultiPolygon","coordinates":[[[[-158.05562,21.4928],[-158.05741,21.49424],[-158.05625,21.49551],[-158.04899,21.48968],[-158.04288,21.48553],[-158.04689,21.48383],[-158.04989,21.47835],[-158.05146,21.48175],[-158.057,21.48256],[-158.05641,21.48394],[-158.05662,21.48983],[-158.05777,21.49144],[-158.05562,21.4928]]],[[[-158.06299,21.49931],[-158.066,21.49661],[-158.06792,21.49845],[-158.06488,21.50117],[-158.06299,21.49931]]]]}},{"type":"Feature","properties":{"zcta":"96850","d":0},"geometry":{"type":"Polygon","coordinates":[[[-157.86252,21.3055],[-157.8612,21.30343],[-157.86291,21.30214],[-157.86367,21.30479],[-157.86252,21.3055]]]}},{"type":"Feature","properties":{"zcta":"96951","d":0},"geometry":{"type":"Polygon","coordinates":[[[145.12309,14.12719],[145.12643,14.13051],[145.13292,14.13446],[145.14236,14.1442],[145.14561,14.15167],[145.15793,14.16423],[145.15819,14.16661],[145.15968,14.16808],[145.16409,14.16848],[145.17225,14.16779],[145.17383,14.16701],[145.18769,14.17173],[145.19054,14.1735],[145.19644,14.17409],[145.20303,14.17711],[145.20893,14.18264],[145.21384,14.18608],[145.22987,14.19542],[145.23567,14.19827],[145.24127,14.20024],[145.24707,14.20034],[145.25799,14.19916],[145.26192,14.19906],[145.26615,14.19739],[145.27057,14.19729],[145.27559,14.19631],[145.27991,14.19473],[145.2847,14.19388],[145.28824,14.19235],[145.29043,14.18864],[145.29004,14.18628],[145.28542,14.17881],[145.28404,14.17271],[145.28453,14.16968],[145.28406,14.16227],[145.28335,14.16068],[145.27421,14.15609],[145.26988,14.15216],[145.26713,14.15177],[145.26251,14.15432],[145.26054,14.15472],[145.25248,14.15442],[145.24974,14.15272],[145.2457,14.15196],[145.24226,14.15206],[145.23646,14.14705],[145.23459,14.14607],[145.23272,14.14302],[145.23012,14.14096],[145.22889,14.13515],[145.23105,14.13174],[145.22908,14.12974],[145.22151,14.12601],[145.21876,14.12011],[145.21512,14.11657],[145.21247,14.11529],[145.20961,14.11637],[145.2047,14.11588],[145.20362,14.1146],[145.1986,14.11274],[145.19526,14.11519],[145.19015,14.1147],[145.18415,14.11618],[145.17894,14.1147],[145.17569,14.11106],[145.16989,14.11057],[145.16714,14.11224],[145.16931,14.11583],[145.16901,14.12129],[145.16763,14.12306],[145.16663,14.12752],[145.16458,14.13024],[145.15707,14.13432],[145.1518,14.13781],[145.14423,14.13958],[145.14049,14.13751],[145.13745,14.13456],[145.13479,14.12955],[145.13106,14.12375],[145.12658,14.11966],[145.12276,14.11744],[145.12123,14.11892],[145.12142,14.12296],[145.12309,14.12719]]]}},{"type":"Feature","properties":{"zcta":"96915","d":0},"geometry":{"type":"Polygon","coordinates":[[[144.70739,13.47044],[144.70676,13.4669],[144.70932,13.46211],[144.70735,13.45972],[144.71112,13.43512],[144.7123,13.43533],[144.71478,13.43844],[144.71706,13.44011],[144.72021,13.44024],[144.72463,13.44343],[144.72817,13.44271],[144.72842,13.44447],[144.73307,13.44022],[144.73776,13.44014],[144.73688,13.43827],[144.73952,13.43696],[144.74049,13.43504],[144.74349,13.43645],[144.74744,13.43557],[144.74886,13.43448],[144.75163,13.43472],[144.75655,13.43718],[144.75906,13.43548],[144.76173,13.43151],[144.7623,13.43278],[144.76492,13.42994],[144.76565,13.42648],[144.7691,13.42653],[144.76949,13.42421],[144.77824,13.42188],[144.77788,13.4202],[144.78065,13.42094],[144.78191,13.42296],[144.78395,13.42163],[144.78522,13.41653],[144.78823,13.41544],[144.78891,13.41352],[144.7852,13.41092],[144.7824,13.40499],[144.7808,13.39932],[144.77674,13.39576],[144.77268,13.39534],[144.77156,13.39305],[144.77594,13.38903],[144.77463,13.38131],[144.77261,13.37685],[144.77247,13.37142],[144.7704,13.36881],[144.77016,13.36638],[144.77168,13.36236],[144.77188,13.35094],[144.77246,13.34348],[144.77119,13.33821],[144.77126,13.3356],[144.76772,13.33424],[144.76432,13.32954],[144.76186,13.32914],[144.76039,13.3273],[144.7602,13.32444],[144.75807,13.32269],[144.75545,13.31394],[144.75616,13.31043],[144.75768,13.30796],[144.75639,13.30449],[144.75654,13.30266],[144.75211,13.30058],[144.75161,13.29923],[144.75348,13.29418],[144.75516,13.29179],[144.75406,13.28727],[144.75198,13.28815],[144.73981,13.28971],[144.73772,13.28661],[144.73752,13.27887],[144.73478,13.2799],[144.72864,13.28115],[144.72623,13.28093],[144.72298,13.28298],[144.72126,13.28001],[144.71856,13.28024],[144.71791,13.28179],[144.71229,13.28146],[144.71035,13.28072],[144.70518,13.28176],[144.70018,13.28437],[144.69631,13.28325],[144.69399,13.28339],[144.692,13.28186],[144.69276,13.27886],[144.67882,13.28387],[144.67889,13.28683],[144.67318,13.28356],[144.67216,13.28488],[144.66854,13.28647],[144.66268,13.28542],[144.6622,13.2837],[144.66244,13.28492],[144.65924,13.28683],[144.65745,13.29041],[144.65792,13.29438],[144.66148,13.29643],[144.66289,13.29818],[144.65962,13.29936],[144.65672,13.3025],[144.65824,13.30553],[144.65763,13.30683],[144.65493,13.3073],[144.65307,13.3132],[144.65752,13.31495],[144.65741,13.31645],[144.65396,13.31869],[144.65197,13.31906],[144.65026,13.32222],[144.65234,13.32692],[144.65201,13.32861],[144.64961,13.32884],[144.64915,13.33173],[144.64449,13.33765],[144.6388,13.33882],[144.63609,13.34116],[144.67093,13.32992],[144.66397,13.33976],[144.66608,13.34144],[144.66938,13.33923],[144.67202,13.34518],[144.66849,13.34955],[144.66856,13.35596],[144.66235,13.35555],[144.65848,13.356],[144.6577,13.35767],[144.65452,13.35721],[144.65456,13.36226],[144.65097,13.36087],[144.64961,13.3615],[144.65254,13.37282],[144.65418,13.36961],[144.6687,13.36938],[144.66873,13.37304],[144.66969,13.37465],[144.66896,13.37842],[144.66954,13.3812],[144.66808,13.38432],[144.66449,13.38446],[144.66277,13.38291],[144.66051,13.38753],[144.66173,13.3931],[144.66479,13.39416],[144.66303,13.39516],[144.66415,13.39793],[144.66289,13.39845],[144.6634,13.40106],[144.66276,13.40357],[144.66118,13.40453],[144.66133,13.40827],[144.65845,13.41246],[144.65567,13.41461],[144.65225,13.41549],[144.64876,13.41536],[144.6478,13.41777],[144.64414,13.41821],[144.63983,13.42103],[144.64041,13.42309],[144.63852,13.42928],[144.63289,13.43443],[144.62424,13.43774],[144.62076,13.44147],[144.61833,13.44578],[144.61807,13.44781],[144.62657,13.45773],[144.63589,13.4639],[144.63834,13.46479],[144.66164,13.46478],[144.66294,13.46592],[144.67052,13.46369],[144.67537,13.4631],[144.67747,13.46374],[144.68328,13.46705],[144.68625,13.4679],[144.6863,13.46626],[144.68814,13.46426],[144.69088,13.46378],[144.69259,13.46506],[144.69946,13.46796],[144.70253,13.46828],[144.70667,13.47167],[144.70739,13.47044]]]}},{"type":"Feature","properties":{"zcta":"96860","d":0},"geometry":{"type":"Polygon","coordinates":[[[-157.96236,21.35473],[-157.95586,21.35803],[-157.95046,21.36153],[-157.94397,21.36739],[-157.94158,21.36927],[-157.93468,21.37603],[-157.93282,21.37372],[-157.93712,21.36512],[-157.93779,21.36302],[-157.93479,21.34908],[-157.93914,21.34728],[-157.94685,21.3469],[-157.94698,21.34848],[-157.94444,21.34765],[-157.94293,21.34952],[-157.94768,21.35191],[-157.95176,21.3517],[-157.95424,21.35313],[-157.95668,21.3527],[-157.95971,21.34868],[-157.96587,21.34584],[-157.96475,21.34303],[-157.96966,21.34274],[-157.97076,21.34774],[-157.96926,21.35223],[-157.96236,21.35473]],[[-157.96274,21.35038],[-157.96624,21.35016],[-157.96462,21.34798],[-157.96274,21.35038]]]}},{"type":"Feature","properties":{"zcta":"96759","d":0},"geometry":{"type":"Polygon","coordinates":[[[-158.0585,21.45655],[-158.0625,21.45655],[-158.06316,21.46251],[-158.06221,21.46325],[-158.05597,21.46296],[-158.0585,21.45655]]]}},{"type":"Feature","properties":{"zcta":"96848","d":0},"geometry":{"type":"Polygon","coordinates":[[[-157.81496,21.30488],[-157.81202,21.30445],[-157.81396,21.30184],[-157.81273,21.30114],[-157.8139,21.29831],[-157.81355,21.29598],[-157.81519,21.29627],[-157.81461,21.30143],[-157.81582,21.30176],[-157.81496,21.30488]]]}},{"type":"Feature","properties":{"zcta":"96712","d":163},"geometry":{"type":"Polygon","coordinates":[[[-158.01583,21.69032],[-158.01402,21.68746],[-158.00844,21.68942],[-158.00322,21.68911],[-157.99983,21.69064],[-157.99478,21.68923],[-157.99196,21.69003],[-157.9911,21.6924],[-157.98769,21.69363],[-157.98506,21.69258],[-157.98734,21.68982],[-157.98795,21.69118],[-157.99085,21.69071],[-157.99079,21.68667],[-157.98763,21.68466],[-157.98608,21.68205],[-157.98743,21.68064],[-157.98728,21.67684],[-157.98287,21.67575],[-157.9812,21.67664],[-157.97918,21.67597],[-157.97862,21.67747],[-157.97507,21.67594],[-157.97244,21.67298],[-157.9718,21.67113],[-157.97375,21.6675],[-157.96819,21.66043],[-157.97019,21.65882],[-157.97228,21.65482],[-157.97198,21.65265],[-157.96746,21.65344],[-157.96625,21.65558],[-157.96065,21.65536],[-157.95722,21.65771],[-157.95458,21.65525],[-157.95762,21.65303],[-157.95797,21.65009],[-157.95978,21.64809],[-157.96146,21.64241],[-157.96076,21.64203],[-157.96128,21.6381],[-157.9605,21.6366],[-157.96146,21.6345],[-157.9634,21.63392],[-157.96176,21.63255],[-157.96318,21.6308],[-157.96288,21.62704],[-157.96399,21.62613],[-157.96537,21.61941],[-157.967,21.61966],[-157.96463,21.61524],[-157.9654,21.61189],[-157.96674,21.61428],[-157.96984,21.61743],[-157.97233,21.61898],[-157.97673,21.6235],[-157.97712,21.62579],[-157.97897,21.62796],[-157.98191,21.62734],[-157.98558,21.62925],[-157.99011,21.63021],[-157.99055,21.6316],[-157.99578,21.63463],[-158.0009,21.63409],[-158.00364,21.63619],[-158.00635,21.63509],[-158.00855,21.63585],[-158.01058,21.63426],[-158.01786,21.634],[-158.01758,21.63292],[-158.02106,21.63439],[-158.02596,21.63496],[-158.02773,21.63308],[-158.03179,21.63444],[-158.03342,21.63375],[-158.0414,21.6353],[-158.0454,21.63569],[-158.04905,21.63411],[-158.05207,21.63634],[-158.0548,21.63552],[-158.05392,21.63411],[-158.04773,21.63109],[-158.04114,21.62504],[-158.03898,21.62551],[-158.03817,21.62416],[-158.03606,21.62468],[-158.03511,21.62211],[-158.03302,21.62279],[-158.03184,21.62142],[-158.02977,21.62204],[-158.02808,21.6179],[-158.02535,21.61755],[-158.02085,21.61413],[-158.02041,21.6084],[-158.02188,21.60698],[-158.02184,21.60469],[-158.01983,21.60165],[-158.01791,21.60123],[-158.01419,21.59588],[-158.01715,21.5954],[-158.02599,21.59121],[-158.02509,21.58777],[-158.02448,21.58925],[-158.01923,21.58806],[-158.01564,21.58914],[-158.01332,21.58836],[-158.0127,21.58552],[-158.00989,21.58362],[-158.0141,21.58047],[-158.01317,21.57898],[-158.01502,21.57821],[-158.0139,21.57523],[-158.0155,21.5768],[-158.01781,21.5766],[-158.01802,21.57516],[-158.0154,21.57264],[-158.00681,21.56873],[-158.00935,21.56824],[-158.0151,21.56841],[-158.02184,21.56657],[-158.02513,21.56722],[-158.02864,21.56984],[-158.03267,21.56916],[-158.02892,21.56636],[-158.03351,21.56615],[-158.03348,21.56422],[-158.04232,21.56578],[-158.04524,21.56541],[-158.0498,21.56676],[-158.053,21.56658],[-158.05903,21.56918],[-158.06259,21.57166],[-158.06928,21.57298],[-158.07705,21.57234],[-158.08328,21.57432],[-158.08677,21.576],[-158.10109,21.57949],[-158.10264,21.58043],[-158.10339,21.57474],[-158.10637,21.57617],[-158.11146,21.57525],[-158.11675,21.57505],[-158.12005,21.5757],[-158.11971,21.582],[-158.12116,21.58583],[-158.118,21.59023],[-158.11484,21.59201],[-158.11285,21.5898],[-158.11023,21.59356],[-158.10673,21.59657],[-158.10382,21.59643],[-158.10382,21.60063],[-158.10669,21.60302],[-158.10332,21.60544],[-158.0949,21.61321],[-158.08584,21.61836],[-158.08599,21.62185],[-158.08005,21.6245],[-158.07163,21.63338],[-158.06817,21.63868],[-158.06507,21.63908],[-158.06294,21.64151],[-158.06389,21.6435],[-158.06226,21.65537],[-158.04697,21.67006],[-158.04007,21.67525],[-158.03711,21.68124],[-158.03231,21.68277],[-158.03132,21.68635],[-158.02776,21.68966],[-158.02357,21.69226],[-158.01583,21.69032]]]}},{"type":"Feature","properties":{"zcta":"96786","d":201},"geometry":{"type":"Polygon","coordinates":[[[-158.14194,21.50942],[-158.13764,21.51155],[-158.1315,21.51204],[-158.12656,21.51417],[-158.11371,21.51652],[-158.11014,21.51691],[-158.09394,21.52187],[-158.08697,21.52119],[-158.08548,21.51936],[-158.08408,21.51979],[-158.08292,21.51733],[-158.0813,21.51838],[-158.07994,21.51534],[-158.07695,21.51126],[-158.07477,21.51021],[-158.07484,21.50802],[-158.06963,21.50774],[-158.06548,21.50649],[-158.0638,21.50779],[-158.06188,21.50743],[-158.05844,21.50987],[-158.06314,21.51362],[-158.07956,21.52833],[-158.08559,21.53449],[-158.08814,21.53587],[-158.08619,21.53936],[-158.08297,21.54172],[-158.08632,21.547],[-158.08852,21.54713],[-158.0914,21.54993],[-158.09359,21.54917],[-158.09647,21.55121],[-158.09854,21.55422],[-158.1003,21.55443],[-158.10305,21.56047],[-158.10598,21.56064],[-158.10789,21.56179],[-158.10976,21.56494],[-158.10986,21.56686],[-158.10637,21.57617],[-158.10339,21.57474],[-158.10264,21.58043],[-158.10109,21.57949],[-158.08677,21.576],[-158.08328,21.57432],[-158.07705,21.57234],[-158.06928,21.57298],[-158.06259,21.57166],[-158.05903,21.56918],[-158.053,21.56658],[-158.0498,21.56676],[-158.04524,21.56541],[-158.04232,21.56578],[-158.03348,21.56422],[-158.03351,21.56615],[-158.02892,21.56636],[-158.03267,21.56916],[-158.02864,21.56984],[-158.02513,21.56722],[-158.02184,21.56657],[-158.0151,21.56841],[-158.00935,21.56824],[-158.00681,21.56873],[-158.0154,21.57264],[-158.01802,21.57516],[-158.01781,21.5766],[-158.0155,21.5768],[-158.0139,21.57523],[-158.01502,21.57821],[-158.01317,21.57898],[-158.0141,21.58047],[-158.00989,21.58362],[-158.0127,21.58552],[-158.01332,21.58836],[-158.01564,21.58914],[-158.01923,21.58806],[-158.02448,21.58925],[-158.02509,21.58777],[-158.02599,21.59121],[-158.01715,21.5954],[-158.01419,21.59588],[-158.01791,21.60123],[-158.01983,21.60165],[-158.02184,21.60469],[-158.02188,21.60698],[-158.02041,21.6084],[-158.02085,21.61413],[-158.02535,21.61755],[-158.02808,21.6179],[-158.02977,21.62204],[-158.03184,21.62142],[-158.03302,21.62279],[-158.03511,21.62211],[-158.03606,21.62468],[-158.03817,21.62416],[-158.03898,21.62551],[-158.04114,21.62504],[-158.04773,21.63109],[-158.05392,21.63411],[-158.0548,21.63552],[-158.05207,21.63634],[-158.04905,21.63411],[-158.0454,21.63569],[-158.0414,21.6353],[-158.03342,21.63375],[-158.03179,21.63444],[-158.02773,21.63308],[-158.02596,21.63496],[-158.02106,21.63439],[-158.01758,21.63292],[-158.01786,21.634],[-158.01058,21.63426],[-158.00855,21.63585],[-158.00635,21.63509],[-158.00364,21.63619],[-158.0009,21.63409],[-157.99578,21.63463],[-157.99055,21.6316],[-157.99011,21.63021],[-157.98558,21.62925],[-157.98191,21.62734],[-157.97897,21.62796],[-157.97712,21.62579],[-157.97673,21.6235],[-157.97233,21.61898],[-157.96984,21.61743],[-157.96674,21.61428],[-157.9654,21.61189],[-157.96572,21.6082],[-157.96205,21.60406],[-157.96089,21.60036],[-157.95717,21.59792],[-157.95516,21.59143],[-157.95407,21.59007],[-157.95386,21.58623],[-157.95004,21.58553],[-157.94873,21.58376],[-157.945,21.58367],[-157.94031,21.58005],[-157.94029,21.57857],[-157.93607,21.56969],[-157.93258,21.5676],[-157.92994,21.5642],[-157.9279,21.56422],[-157.92678,21.56199],[-157.92541,21.56216],[-157.9237,21.5594],[-157.92368,21.55716],[-157.92211,21.55508],[-157.91812,21.55175],[-157.91919,21.54358],[-157.92136,21.54032],[-157.92133,21.53492],[-157.91971,21.53073],[-157.91996,21.52712],[-157.91696,21.52412],[-157.91431,21.51705],[-157.91123,21.5133],[-157.90723,21.51041],[-157.90746,21.50852],[-157.91296,21.50854],[-157.91505,21.5093],[-157.92642,21.50894],[-157.93047,21.50979],[-157.93406,21.50863],[-157.93639,21.50872],[-157.93783,21.50713],[-157.94467,21.50839],[-157.95246,21.50813],[-157.95565,21.50655],[-157.95664,21.50779],[-157.96375,21.50754],[-157.96627,21.50854],[-157.97197,21.50626],[-157.97469,21.50643],[-157.97955,21.50784],[-157.98209,21.50737],[-157.98614,21.50837],[-157.99306,21.50537],[-158.02187,21.49401],[-158.02496,21.4918],[-158.02572,21.49243],[-158.02853,21.49087],[-158.02389,21.46565],[-158.02376,21.45933],[-158.02713,21.45513],[-158.02914,21.45173],[-158.02898,21.4492],[-158.03106,21.44941],[-158.0311,21.45109],[-158.03647,21.45543],[-158.03316,21.45793],[-158.03092,21.46156],[-158.03318,21.46431],[-158.03553,21.46382],[-158.03827,21.46534],[-158.0416,21.46947],[-158.04419,21.46993],[-158.048,21.47459],[-158.05121,21.47494],[-158.05597,21.46296],[-158.06221,21.46325],[-158.06316,21.46251],[-158.0625,21.45655],[-158.0585,21.45655],[-158.06011,21.45223],[-158.05972,21.44186],[-158.06305,21.44272],[-158.06584,21.44492],[-158.0709,21.44567],[-158.07427,21.44709],[-158.0755,21.44945],[-158.08306,21.4525],[-158.08613,21.45274],[-158.08866,21.45393],[-158.09336,21.45299],[-158.09352,21.45435],[-158.09925,21.45829],[-158.1021,21.46171],[-158.10299,21.46732],[-158.10487,21.46886],[-158.10517,21.47101],[-158.1081,21.47381],[-158.11163,21.47346],[-158.11743,21.47486],[-158.11914,21.47835],[-158.12206,21.48033],[-158.12561,21.47879],[-158.13206,21.48023],[-158.13273,21.48499],[-158.13242,21.48816],[-158.13539,21.48874],[-158.14077,21.49236],[-158.14773,21.49975],[-158.14639,21.50509],[-158.14245,21.50773],[-158.14194,21.50942]],[[-158.06792,21.49845],[-158.066,21.49661],[-158.06299,21.49931],[-158.06488,21.50117],[-158.06792,21.49845]],[[-158.05662,21.48983],[-158.05641,21.48394],[-158.057,21.48256],[-158.05146,21.48175],[-158.04989,21.47835],[-158.04689,21.48383],[-158.04288,21.48553],[-158.04899,21.48968],[-158.05625,21.49551],[-158.05741,21.49424],[-158.05562,21.4928],[-158.05777,21.49144],[-158.05662,21.48983]]]}},{"type":"Feature","properties":{"zcta":"96863","d":0},"geometry":{"type":"Polygon","coordinates":[[[-157.75254,21.44428],[-157.74002,21.44013],[-157.73969,21.43911],[-157.743,21.43144],[-157.74378,21.42844],[-157.75413,21.42845],[-157.75485,21.42745],[-157.76005,21.42771],[-157.76136,21.42843],[-157.7604,21.43274],[-157.75763,21.43526],[-157.75254,21.44428]]]}},{"type":"Feature","properties":{"zcta":"96731","d":66},"geometry":{"type":"Polygon","coordinates":[[[-157.92989,21.65401],[-157.9311,21.6571],[-157.93603,21.66392],[-157.93974,21.67128],[-157.94121,21.67203],[-157.94046,21.66822],[-157.9511,21.65893],[-157.95458,21.65525],[-157.95722,21.65771],[-157.96065,21.65536],[-157.96625,21.65558],[-157.96746,21.65344],[-157.97198,21.65265],[-157.97228,21.65482],[-157.97019,21.65882],[-157.96819,21.66043],[-157.97375,21.6675],[-157.9718,21.67113],[-157.97244,21.67298],[-157.97507,21.67594],[-157.97862,21.67747],[-157.97918,21.67597],[-157.9812,21.67664],[-157.98287,21.67575],[-157.98728,21.67684],[-157.98743,21.68064],[-157.98608,21.68205],[-157.98763,21.68466],[-157.99079,21.68667],[-157.99085,21.69071],[-157.98795,21.69118],[-157.98734,21.68982],[-157.98506,21.69258],[-157.98769,21.69363],[-157.9911,21.6924],[-157.99196,21.69003],[-157.99478,21.68923],[-157.99983,21.69064],[-158.00322,21.68911],[-158.00844,21.68942],[-158.01402,21.68746],[-158.01583,21.69032],[-158.02357,21.69226],[-158.01368,21.69834],[-158.00926,21.70034],[-158.00375,21.70071],[-158.00019,21.70159],[-157.99718,21.70539],[-157.98889,21.70567],[-157.9835,21.71073],[-157.98073,21.7111],[-157.97784,21.70921],[-157.97547,21.71086],[-157.96739,21.71042],[-157.96336,21.70626],[-157.96202,21.70349],[-157.95788,21.70225],[-157.94909,21.69298],[-157.94718,21.68956],[-157.93792,21.67685],[-157.93311,21.67406],[-157.93601,21.67133],[-157.9353,21.66669],[-157.93221,21.66338],[-157.92627,21.66161],[-157.92792,21.65487],[-157.92989,21.65401]]]}},{"type":"Feature","properties":{"zcta":"96706","d":2140},"geometry":{"type":"Polygon","coordinates":[[[-158.02846,21.37903],[-158.02671,21.37598],[-158.02285,21.37213],[-158.02076,21.3735],[-158.01274,21.37309],[-158.01351,21.37057],[-158.00736,21.35923],[-158.00276,21.35543],[-157.99556,21.35593],[-157.99166,21.35183],[-157.98196,21.34993],[-157.97546,21.34263],[-157.97076,21.33803],[-157.97116,21.33393],[-157.9697,21.32825],[-157.97024,21.32834],[-157.97048,21.32281],[-157.97832,21.31592],[-157.98153,21.31589],[-158.02134,21.30709],[-158.03251,21.30509],[-158.04436,21.30375],[-158.04492,21.31368],[-158.0341,21.3186],[-158.03401,21.31924],[-158.0376,21.32615],[-158.04022,21.32768],[-158.04143,21.33132],[-158.04866,21.33184],[-158.05339,21.34041],[-158.05264,21.34413],[-158.05033,21.34702],[-158.04926,21.35358],[-158.05093,21.35813],[-158.05317,21.3608],[-158.06007,21.36634],[-158.05188,21.37366],[-158.04879,21.3756],[-158.04101,21.37868],[-158.03217,21.38362],[-158.02846,21.37903]]]}},{"type":"Feature","properties":{"zcta":"96817","d":2901},"geometry":{"type":"Polygon","coordinates":[[[-157.80733,21.36802],[-157.79742,21.36727],[-157.79369,21.36616],[-157.79061,21.36404],[-157.78864,21.35955],[-157.7883,21.35515],[-157.78908,21.3532],[-157.79424,21.35091],[-157.79888,21.34692],[-157.80346,21.34503],[-157.80646,21.34513],[-157.81006,21.34313],[-157.81826,21.34193],[-157.82186,21.33983],[-157.82376,21.33713],[-157.82846,21.33463],[-157.83316,21.33073],[-157.83546,21.33163],[-157.84235,21.3296],[-157.84431,21.32785],[-157.8446,21.32547],[-157.84644,21.32513],[-157.84783,21.32197],[-157.85191,21.32076],[-157.85401,21.31852],[-157.85236,21.31712],[-157.8576,21.3116],[-157.85833,21.31274],[-157.86259,21.30996],[-157.86646,21.30953],[-157.87003,21.29575],[-157.87106,21.29834],[-157.86929,21.30138],[-157.87193,21.30656],[-157.87379,21.30765],[-157.87522,21.31201],[-157.87806,21.31387],[-157.87626,21.31699],[-157.87982,21.31674],[-157.87738,21.32002],[-157.88244,21.32389],[-157.87548,21.33093],[-157.87151,21.32848],[-157.86995,21.32998],[-157.87291,21.33305],[-157.86843,21.3379],[-157.86647,21.34186],[-157.86534,21.3412],[-157.86193,21.34331],[-157.85208,21.34732],[-157.84388,21.35136],[-157.83923,21.35293],[-157.8371,21.35281],[-157.83112,21.35706],[-157.82016,21.36233],[-157.81096,21.36783],[-157.80966,21.36933],[-157.80733,21.36802]]]}},{"type":"Feature","properties":{"zcta":"96917","d":0},"geometry":{"type":"Polygon","coordinates":[[[144.77124,13.33076],[144.77221,13.32821],[144.77263,13.32098],[144.7713,13.31511],[144.77239,13.30645],[144.77211,13.30254],[144.76907,13.29583],[144.7652,13.29183],[144.76353,13.28773],[144.76308,13.28452],[144.76138,13.28279],[144.75908,13.28342],[144.75803,13.28244],[144.75902,13.27938],[144.75443,13.27558],[144.75338,13.27564],[144.75112,13.27851],[144.74862,13.27917],[144.74743,13.2766],[144.75015,13.27381],[144.74919,13.27194],[144.74543,13.27084],[144.74295,13.26925],[144.73842,13.26874],[144.73813,13.26695],[144.7413,13.26655],[144.7423,13.26526],[144.74111,13.26324],[144.73787,13.26264],[144.73718,13.26028],[144.73251,13.25282],[144.72722,13.24976],[144.72601,13.24757],[144.72312,13.24706],[144.72112,13.24979],[144.71907,13.25112],[144.71781,13.25188],[144.71853,13.25475],[144.71714,13.25792],[144.71224,13.26196],[144.7104,13.26571],[144.7107,13.26776],[144.70941,13.26998],[144.70561,13.26943],[144.702,13.27251],[144.70133,13.27442],[144.696,13.2774],[144.69411,13.27715],[144.69276,13.27886],[144.692,13.28186],[144.69399,13.28339],[144.69631,13.28325],[144.70018,13.28437],[144.70518,13.28176],[144.71035,13.28072],[144.71229,13.28146],[144.71791,13.28179],[144.71856,13.28024],[144.72126,13.28001],[144.72298,13.28298],[144.72623,13.28093],[144.72864,13.28115],[144.73478,13.2799],[144.73752,13.27887],[144.73772,13.28661],[144.73981,13.28971],[144.75198,13.28815],[144.75406,13.28727],[144.75516,13.29179],[144.75348,13.29418],[144.75161,13.29923],[144.75211,13.30058],[144.75654,13.30266],[144.75639,13.30449],[144.75768,13.30796],[144.75616,13.31043],[144.75545,13.31394],[144.75807,13.32269],[144.7602,13.32444],[144.76039,13.3273],[144.76186,13.32914],[144.76432,13.32954],[144.76772,13.33424],[144.77126,13.3356],[144.77124,13.33076]]]}},{"type":"Feature","properties":{"zcta":"96853","d":0},"geometry":{"type":"Polygon","coordinates":[[[-157.9441,21.33906],[-157.93996,21.33699],[-157.94015,21.33526],[-157.93821,21.33611],[-157.93536,21.33473],[-157.93628,21.33129],[-157.93764,21.33129],[-157.94283,21.33459],[-157.9447,21.33389],[-157.94485,21.33802],[-157.9441,21.33906]]]}},{"type":"Feature","properties":{"zcta":"96825","d":1348},"geometry":{"type":"Polygon","coordinates":[[[-157.72136,21.31863],[-157.71686,21.31713],[-157.71076,21.31703],[-157.70976,21.31823],[-157.70637,21.31664],[-157.69697,21.31904],[-157.69503,21.32042],[-157.69171,21.32002],[-157.68951,21.32121],[-157.68538,21.3211],[-157.68484,21.31991],[-157.67828,21.3202],[-157.67442,21.31774],[-157.67235,21.31724],[-157.66801,21.31253],[-157.66043,21.30813],[-157.6573,21.30863],[-157.65652,21.30347],[-157.65326,21.29829],[-157.65466,21.29796],[-157.65799,21.29332],[-157.66852,21.28763],[-157.66981,21.28538],[-157.67377,21.28528],[-157.67694,21.28073],[-157.68578,21.27576],[-157.68933,21.26897],[-157.69334,21.27298],[-157.69596,21.27165],[-157.69596,21.26722],[-157.69152,21.26428],[-157.69872,21.26068],[-157.70619,21.25952],[-157.70928,21.25971],[-157.71153,21.26198],[-157.71094,21.26497],[-157.70873,21.26911],[-157.70948,21.27746],[-157.71266,21.28093],[-157.71909,21.28414],[-157.71973,21.28651],[-157.71976,21.30443],[-157.71926,21.30613],[-157.72186,21.31323],[-157.72336,21.31523],[-157.72286,21.32003],[-157.72136,21.31863]]]}},{"type":"Feature","properties":{"zcta":"96792","d":313},"geometry":{"type":"Polygon","coordinates":[[[-158.14639,21.50509],[-158.14773,21.49975],[-158.14077,21.49236],[-158.13539,21.48874],[-158.13242,21.48816],[-158.13273,21.48499],[-158.13206,21.48023],[-158.12561,21.47879],[-158.12206,21.48033],[-158.11914,21.47835],[-158.11743,21.47486],[-158.11163,21.47346],[-158.1081,21.47381],[-158.10517,21.47101],[-158.10487,21.46886],[-158.10299,21.46732],[-158.1021,21.46171],[-158.09925,21.45829],[-158.09352,21.45435],[-158.09336,21.45299],[-158.09383,21.44907],[-158.09517,21.4471],[-158.09736,21.44012],[-158.09532,21.4382],[-158.09037,21.43542],[-158.08961,21.43373],[-158.09025,21.42738],[-158.09407,21.4226],[-158.09907,21.41882],[-158.10116,21.41353],[-158.09864,21.41013],[-158.09781,21.40076],[-158.09966,21.40024],[-158.10239,21.39513],[-158.10426,21.39374],[-158.10355,21.38841],[-158.10875,21.38353],[-158.11257,21.38218],[-158.11694,21.38195],[-158.11958,21.37954],[-158.12351,21.37766],[-158.12608,21.37421],[-158.12782,21.37307],[-158.13034,21.36961],[-158.13571,21.36785],[-158.13648,21.36925],[-158.14075,21.37189],[-158.14113,21.37638],[-158.14626,21.37971],[-158.14972,21.3852],[-158.16205,21.39585],[-158.17296,21.3986],[-158.17921,21.4043],[-158.17783,21.40975],[-158.17936,21.42282],[-158.17964,21.4286],[-158.18265,21.43007],[-158.18829,21.4405],[-158.19148,21.44013],[-158.18987,21.44342],[-158.18986,21.44652],[-158.19236,21.44804],[-158.1977,21.44873],[-158.19936,21.4525],[-158.20282,21.4537],[-158.2037,21.45794],[-158.20873,21.46057],[-158.21445,21.46028],[-158.21339,21.46327],[-158.21812,21.4676],[-158.22039,21.47609],[-158.22527,21.47825],[-158.23115,21.48268],[-158.23003,21.49531],[-158.22963,21.51688],[-158.22907,21.52504],[-158.22979,21.53432],[-158.23154,21.53718],[-158.25068,21.55737],[-158.25638,21.55933],[-158.2719,21.57015],[-158.26695,21.57193],[-158.26455,21.57077],[-158.26135,21.56773],[-158.24966,21.56157],[-158.24697,21.56134],[-158.24287,21.5633],[-158.23994,21.56107],[-158.23577,21.55979],[-158.22718,21.55494],[-158.2255,21.55315],[-158.22204,21.5532],[-158.21794,21.54899],[-158.21462,21.54879],[-158.21338,21.55045],[-158.20991,21.54875],[-158.20504,21.54788],[-158.20064,21.54359],[-158.19654,21.54335],[-158.195,21.54461],[-158.19274,21.53726],[-158.19016,21.53508],[-158.18305,21.53439],[-158.17748,21.52869],[-158.17377,21.5193],[-158.17157,21.51924],[-158.1648,21.51578],[-158.16313,21.51314],[-158.16018,21.51188],[-158.15738,21.5093],[-158.14975,21.50737],[-158.14245,21.50773],[-158.14639,21.50509]]]}},{"type":"Feature","properties":{"zcta":"96797","d":1044},"geometry":{"type":"Polygon","coordinates":[[[-158.05597,21.46296],[-158.05121,21.47494],[-158.048,21.47459],[-158.04419,21.46993],[-158.0416,21.46947],[-158.03827,21.46534],[-158.03553,21.46382],[-158.03318,21.46431],[-158.03092,21.46156],[-158.03316,21.45793],[-158.03647,21.45543],[-158.0311,21.45109],[-158.03106,21.44941],[-158.02898,21.4492],[-158.02788,21.44571],[-158.02956,21.44285],[-158.02832,21.43939],[-158.02875,21.43416],[-158.03019,21.43078],[-158.02982,21.42803],[-158.02491,21.42529],[-158.02262,21.41673],[-158.02314,21.41441],[-158.0199,21.41184],[-158.01767,21.41165],[-158.0167,21.40846],[-158.01332,21.40641],[-158.01457,21.40881],[-158.01284,21.41107],[-158.01201,21.41732],[-158.01305,21.41879],[-158.01146,21.42279],[-158.00979,21.42353],[-158.01171,21.42616],[-158.00895,21.42818],[-158.00774,21.43138],[-158.0075,21.43497],[-158.00557,21.43685],[-158.00359,21.44346],[-158.00131,21.4438],[-158.00049,21.44682],[-157.99885,21.44742],[-157.99768,21.45017],[-157.99821,21.4521],[-157.99537,21.45372],[-157.99552,21.45538],[-157.99337,21.45664],[-157.99283,21.45848],[-157.99095,21.45669],[-157.98972,21.4537],[-157.99094,21.44703],[-157.99304,21.44282],[-157.99479,21.43538],[-157.99667,21.43201],[-157.9954,21.4248],[-157.9927,21.41602],[-157.99015,21.41275],[-157.98708,21.39796],[-157.99183,21.39799],[-157.98946,21.39377],[-157.99236,21.39131],[-157.99233,21.38678],[-157.98909,21.38836],[-157.98606,21.37933],[-157.98236,21.37253],[-157.97556,21.37023],[-157.97347,21.36647],[-157.97226,21.35933],[-157.96986,21.35693],[-157.96926,21.35223],[-157.97076,21.34774],[-157.96966,21.34274],[-157.97076,21.33803],[-157.97546,21.34263],[-157.98196,21.34993],[-157.99166,21.35183],[-157.99556,21.35593],[-158.00276,21.35543],[-158.00736,21.35923],[-158.01351,21.37057],[-158.01274,21.37309],[-158.02076,21.3735],[-158.02285,21.37213],[-158.02671,21.37598],[-158.02846,21.37903],[-158.03217,21.38362],[-158.03305,21.38509],[-158.03942,21.39973],[-158.04707,21.41632],[-158.05493,21.42713],[-158.05953,21.43879],[-158.05972,21.44186],[-158.06011,21.45223],[-158.0585,21.45655],[-158.05597,21.46296]]]}},{"type":"Feature","properties":{"zcta":"96822","d":2506},"geometry":{"type":"Polygon","coordinates":[[[-157.79888,21.34692],[-157.79424,21.35091],[-157.78908,21.3532],[-157.78919,21.35001],[-157.78806,21.34303],[-157.78716,21.34113],[-157.78076,21.33623],[-157.77916,21.33583],[-157.78096,21.33423],[-157.78696,21.32543],[-157.79006,21.31663],[-157.79426,21.31263],[-157.79546,21.30813],[-157.80096,21.30583],[-157.80596,21.30443],[-157.80886,21.30203],[-157.8124,21.29572],[-157.81125,21.29417],[-157.81344,21.2928],[-157.81573,21.29206],[-157.8198,21.29442],[-157.81995,21.29677],[-157.82118,21.2968],[-157.82124,21.29443],[-157.82417,21.29614],[-157.82986,21.29829],[-157.83544,21.30174],[-157.83976,21.30253],[-157.8487,21.3056],[-157.84851,21.30835],[-157.84687,21.30811],[-157.84209,21.31011],[-157.83934,21.30988],[-157.83859,21.31341],[-157.83704,21.31213],[-157.83521,21.31408],[-157.83462,21.31674],[-157.83245,21.31446],[-157.83081,21.31451],[-157.83024,21.31671],[-157.83146,21.31789],[-157.82923,21.32016],[-157.82857,21.32301],[-157.82637,21.32582],[-157.82996,21.3232],[-157.83166,21.32075],[-157.8337,21.32109],[-157.83076,21.32473],[-157.82446,21.33013],[-157.81415,21.33484],[-157.81046,21.33813],[-157.80816,21.33903],[-157.80826,21.34113],[-157.80346,21.34503],[-157.79888,21.34692]],[[-157.81461,21.30143],[-157.81519,21.29627],[-157.81355,21.29598],[-157.8139,21.29831],[-157.81273,21.30114],[-157.81396,21.30184],[-157.81202,21.30445],[-157.81496,21.30488],[-157.81582,21.30176],[-157.81461,21.30143]]]}},{"type":"Feature","properties":{"zcta":"96795","d":408},"geometry":{"type":"MultiPolygon","coordinates":[[[[-157.65658,21.33168],[-157.65389,21.32834],[-157.65409,21.32599],[-157.6565,21.32591],[-157.65959,21.32701],[-157.65889,21.33046],[-157.65658,21.33168]]],[[[-157.75624,21.33639],[-157.75486,21.34022],[-157.75222,21.34128],[-157.74945,21.34596],[-157.74575,21.35375],[-157.74569,21.35537],[-157.74117,21.35762],[-157.73737,21.35765],[-157.73469,21.35957],[-157.72971,21.35479],[-157.72872,21.35708],[-157.72407,21.35971],[-157.72625,21.36223],[-157.72977,21.362],[-157.73238,21.36478],[-157.73046,21.36869],[-157.72768,21.36908],[-157.72405,21.36779],[-157.72011,21.36913],[-157.72049,21.37307],[-157.71862,21.37501],[-157.71946,21.37588],[-157.71932,21.38142],[-157.71683,21.37928],[-157.70895,21.37957],[-157.7059,21.38014],[-157.70612,21.37592],[-157.70872,21.36905],[-157.70904,21.36033],[-157.70663,21.35311],[-157.69381,21.3329],[-157.68837,21.32849],[-157.67784,21.32438],[-157.66588,21.31557],[-157.6634,21.31639],[-157.66008,21.31324],[-157.65936,21.31019],[-157.65227,21.31101],[-157.64906,21.31056],[-157.64893,21.30471],[-157.65104,21.29881],[-157.65326,21.29829],[-157.65652,21.30347],[-157.6573,21.30863],[-157.66043,21.30813],[-157.66801,21.31253],[-157.67235,21.31724],[-157.67442,21.31774],[-157.67828,21.3202],[-157.68484,21.31991],[-157.68538,21.3211],[-157.68951,21.32121],[-157.69171,21.32002],[-157.69503,21.32042],[-157.69697,21.31904],[-157.70637,21.31664],[-157.70976,21.31823],[-157.71076,21.31703],[-157.71686,21.31713],[-157.72136,21.31863],[-157.72286,21.32003],[-157.72586,21.32413],[-157.72766,21.32323],[-157.73226,21.32273],[-157.73706,21.32303],[-157.74778,21.32589],[-157.7492,21.32721],[-157.75268,21.32782],[-157.75533,21.33028],[-157.75811,21.33128],[-157.75905,21.33185],[-157.75624,21.33639]]]]}},{"type":"Feature","properties":{"zcta":"96701","d":1094},"geometry":{"type":"Polygon","coordinates":[[[-157.87397,21.44329],[-157.87247,21.43979],[-157.86689,21.43678],[-157.86417,21.43616],[-157.85856,21.4281],[-157.85056,21.42612],[-157.84815,21.42369],[-157.84031,21.41836],[-157.83843,21.41779],[-157.83777,21.41361],[-157.83651,21.41268],[-157.83833,21.41098],[-157.83891,21.40198],[-157.84218,21.40031],[-157.84507,21.40006],[-157.85233,21.39693],[-157.85519,21.39173],[-157.85668,21.3918],[-157.85817,21.38986],[-157.86194,21.38799],[-157.86672,21.3865],[-157.87606,21.37983],[-157.89998,21.36989],[-157.90635,21.36986],[-157.90808,21.36837],[-157.91058,21.36866],[-157.91851,21.37187],[-157.92545,21.37242],[-157.92954,21.36349],[-157.93262,21.36445],[-157.93599,21.36397],[-157.93712,21.36512],[-157.93282,21.37372],[-157.93468,21.37603],[-157.94158,21.36927],[-157.94397,21.36739],[-157.95656,21.37517],[-157.95349,21.38144],[-157.95227,21.38625],[-157.95436,21.38721],[-157.95332,21.39193],[-157.95122,21.39795],[-157.95015,21.4049],[-157.94764,21.40928],[-157.94586,21.41063],[-157.93958,21.41263],[-157.93584,21.41439],[-157.93403,21.41372],[-157.9292,21.41485],[-157.93215,21.42219],[-157.93276,21.42627],[-157.93417,21.42854],[-157.92923,21.42925],[-157.92589,21.43063],[-157.91823,21.43004],[-157.91731,21.42905],[-157.91544,21.43073],[-157.91168,21.43042],[-157.90662,21.43415],[-157.90439,21.43401],[-157.89964,21.43683],[-157.89843,21.43829],[-157.89237,21.43977],[-157.89023,21.4396],[-157.88657,21.44245],[-157.87926,21.4446],[-157.87601,21.44846],[-157.87446,21.44922],[-157.87397,21.44329]]]}},{"type":"Feature","properties":{"zcta":"96762","d":207},"geometry":{"type":"Polygon","coordinates":[[[-157.9511,21.65893],[-157.94046,21.66822],[-157.94121,21.67203],[-157.93974,21.67128],[-157.93603,21.66392],[-157.9311,21.6571],[-157.92989,21.65401],[-157.92792,21.65487],[-157.92819,21.6538],[-157.9246,21.65118],[-157.91985,21.6488],[-157.91415,21.64968],[-157.91324,21.64808],[-157.91678,21.64743],[-157.91819,21.64217],[-157.91795,21.6351],[-157.92076,21.62983],[-157.91938,21.62627],[-157.916,21.62357],[-157.92334,21.61763],[-157.91967,21.61678],[-157.91868,21.61554],[-157.92082,21.61466],[-157.9247,21.61027],[-157.92604,21.60682],[-157.92925,21.60381],[-157.93345,21.60122],[-157.93487,21.59855],[-157.93528,21.59448],[-157.93372,21.59411],[-157.93249,21.59055],[-157.93533,21.58735],[-157.93345,21.5826],[-157.93524,21.58177],[-157.93651,21.57948],[-157.93519,21.5762],[-157.93665,21.57464],[-157.93543,21.57195],[-157.93607,21.56969],[-157.94029,21.57857],[-157.94031,21.58005],[-157.945,21.58367],[-157.94873,21.58376],[-157.95004,21.58553],[-157.95386,21.58623],[-157.95407,21.59007],[-157.95516,21.59143],[-157.95717,21.59792],[-157.96089,21.60036],[-157.96205,21.60406],[-157.96572,21.6082],[-157.9654,21.61189],[-157.96463,21.61524],[-157.967,21.61966],[-157.96537,21.61941],[-157.96399,21.62613],[-157.96288,21.62704],[-157.96318,21.6308],[-157.96176,21.63255],[-157.9634,21.63392],[-157.96146,21.6345],[-157.9605,21.6366],[-157.96128,21.6381],[-157.96076,21.64203],[-157.96146,21.64241],[-157.95978,21.64809],[-157.95797,21.65009],[-157.95762,21.65303],[-157.95458,21.65525],[-157.9511,21.65893]]]}},{"type":"Feature","properties":{"zcta":"96816","d":2602},"geometry":{"type":"Polygon","coordinates":[[[-157.8172,21.28824],[-157.81258,21.28909],[-157.81379,21.29039],[-157.81344,21.2928],[-157.81125,21.29417],[-157.8124,21.29572],[-157.80886,21.30203],[-157.80596,21.30443],[-157.80096,21.30583],[-157.79546,21.30813],[-157.79426,21.31263],[-157.79006,21.31663],[-157.78696,21.32543],[-157.78096,21.33423],[-157.77916,21.33583],[-157.77556,21.33563],[-157.77156,21.33313],[-157.76816,21.33223],[-157.75905,21.33185],[-157.75811,21.33128],[-157.7617,21.32491],[-157.76323,21.32394],[-157.76429,21.32118],[-157.76882,21.3148],[-157.76972,21.30931],[-157.77229,21.30598],[-157.77721,21.30406],[-157.78058,21.30101],[-157.78124,21.2984],[-157.78248,21.28866],[-157.78172,21.28856],[-157.78447,21.27884],[-157.77675,21.27602],[-157.77807,21.27324],[-157.77619,21.27288],[-157.77369,21.27456],[-157.77292,21.27624],[-157.76993,21.27645],[-157.76667,21.27423],[-157.77546,21.27049],[-157.77995,21.26525],[-157.7898,21.25983],[-157.79122,21.25553],[-157.79374,21.25556],[-157.79588,21.25715],[-157.80621,21.25504],[-157.80743,21.25526],[-157.80164,21.25749],[-157.80255,21.25867],[-157.80742,21.25744],[-157.81167,21.2597],[-157.81143,21.26285],[-157.80834,21.26707],[-157.80388,21.26792],[-157.80493,21.26956],[-157.80322,21.27032],[-157.80976,21.27683],[-157.80987,21.27945],[-157.81396,21.2791],[-157.82052,21.28483],[-157.8172,21.28824]]]}},{"type":"Feature","properties":{"zcta":"96707","d":472},"geometry":{"type":"Polygon","coordinates":[[[-158.08866,21.45393],[-158.08613,21.45274],[-158.08306,21.4525],[-158.0755,21.44945],[-158.07427,21.44709],[-158.0709,21.44567],[-158.06584,21.44492],[-158.06305,21.44272],[-158.05972,21.44186],[-158.05953,21.43879],[-158.05493,21.42713],[-158.04707,21.41632],[-158.03942,21.39973],[-158.03305,21.38509],[-158.03217,21.38362],[-158.04101,21.37868],[-158.04879,21.3756],[-158.05188,21.37366],[-158.06007,21.36634],[-158.05317,21.3608],[-158.05093,21.35813],[-158.04926,21.35358],[-158.05033,21.34702],[-158.05264,21.34413],[-158.05339,21.34041],[-158.04866,21.33184],[-158.04143,21.33132],[-158.04022,21.32768],[-158.0376,21.32615],[-158.03401,21.31924],[-158.0341,21.3186],[-158.04492,21.31368],[-158.04436,21.30375],[-158.05025,21.30111],[-158.06798,21.29954],[-158.07945,21.29812],[-158.08409,21.29579],[-158.1029,21.29567],[-158.1083,21.29761],[-158.11271,21.3019],[-158.11857,21.31329],[-158.12051,21.32104],[-158.11825,21.32232],[-158.11508,21.32149],[-158.11284,21.3241],[-158.11341,21.3266],[-158.11622,21.32881],[-158.12052,21.32521],[-158.12309,21.32571],[-158.12383,21.33405],[-158.12827,21.34069],[-158.13033,21.35159],[-158.12982,21.35513],[-158.13234,21.36177],[-158.13571,21.36785],[-158.13034,21.36961],[-158.12782,21.37307],[-158.12608,21.37421],[-158.12351,21.37766],[-158.11958,21.37954],[-158.11694,21.38195],[-158.11257,21.38218],[-158.10875,21.38353],[-158.10355,21.38841],[-158.10426,21.39374],[-158.10239,21.39513],[-158.09966,21.40024],[-158.09781,21.40076],[-158.09864,21.41013],[-158.10116,21.41353],[-158.09907,21.41882],[-158.09407,21.4226],[-158.09025,21.42738],[-158.08961,21.43373],[-158.09037,21.43542],[-158.09532,21.4382],[-158.09736,21.44012],[-158.09517,21.4471],[-158.09383,21.44907],[-158.09336,21.45299],[-158.08866,21.45393]]]}},{"type":"Feature","properties":{"zcta":"96819","d":1032},"geometry":{"type":"Polygon","coordinates":[[[-157.94789,21.31662],[-157.94018,21.31552],[-157.93742,21.31555],[-157.93594,21.31444],[-157.93105,21.31316],[-157.92964,21.31211],[-157.92852,21.31714],[-157.92694,21.31916],[-157.92346,21.32145],[-157.92376,21.32263],[-157.92969,21.32274],[-157.92963,21.32714],[-157.93042,21.32724],[-157.93031,21.33251],[-157.92898,21.33486],[-157.92759,21.33472],[-157.92661,21.33875],[-157.92275,21.33816],[-157.92317,21.33531],[-157.91882,21.33433],[-157.91889,21.3376],[-157.90146,21.33507],[-157.90117,21.34114],[-157.8968,21.34833],[-157.8959,21.34906],[-157.89657,21.35415],[-157.89923,21.35762],[-157.90017,21.36166],[-157.90623,21.36808],[-157.90808,21.36837],[-157.90635,21.36986],[-157.89998,21.36989],[-157.87606,21.37983],[-157.86672,21.3865],[-157.86194,21.38799],[-157.85817,21.38986],[-157.85668,21.3918],[-157.85519,21.39173],[-157.85233,21.39693],[-157.84507,21.40006],[-157.84218,21.40031],[-157.83891,21.40198],[-157.83573,21.40029],[-157.82986,21.39843],[-157.82846,21.39623],[-157.82406,21.39513],[-157.82546,21.39203],[-157.82516,21.38843],[-157.82199,21.38327],[-157.81864,21.38193],[-157.81362,21.37864],[-157.81076,21.37556],[-157.81038,21.37035],[-157.80966,21.36933],[-157.81096,21.36783],[-157.82016,21.36233],[-157.83112,21.35706],[-157.8371,21.35281],[-157.83923,21.35293],[-157.84388,21.35136],[-157.85208,21.34732],[-157.86193,21.34331],[-157.86534,21.3412],[-157.86647,21.34186],[-157.86843,21.3379],[-157.87291,21.33305],[-157.86995,21.32998],[-157.87151,21.32848],[-157.87548,21.33093],[-157.88244,21.32389],[-157.87738,21.32002],[-157.87982,21.31674],[-157.87626,21.31699],[-157.87806,21.31387],[-157.87522,21.31201],[-157.87379,21.30765],[-157.87193,21.30656],[-157.86929,21.30138],[-157.87106,21.29834],[-157.87763,21.30117],[-157.88378,21.30001],[-157.88669,21.30664],[-157.89941,21.30531],[-157.90464,21.30531],[-157.90674,21.30331],[-157.94719,21.30376],[-157.94933,21.30647],[-157.94719,21.3155],[-157.94813,21.31615],[-157.94789,21.31662]],[[-157.89144,21.35982],[-157.88944,21.35804],[-157.88808,21.35962],[-157.88981,21.36222],[-157.89144,21.35982]],[[-157.88272,21.34353],[-157.88235,21.34536],[-157.88417,21.3457],[-157.88429,21.34355],[-157.88272,21.34353]]]}},{"type":"Feature","properties":{"zcta":"96818","d":1872},"geometry":{"type":"MultiPolygon","coordinates":[[[[-157.96624,21.35016],[-157.96274,21.35038],[-157.96462,21.34798],[-157.96624,21.35016]]],[[[-157.96966,21.34274],[-157.96475,21.34303],[-157.96587,21.34584],[-157.95971,21.34868],[-157.95668,21.3527],[-157.95424,21.35313],[-157.95176,21.3517],[-157.94768,21.35191],[-157.94293,21.34952],[-157.94444,21.34765],[-157.94698,21.34848],[-157.94685,21.3469],[-157.93914,21.34728],[-157.93479,21.34908],[-157.93779,21.36302],[-157.93712,21.36512],[-157.93599,21.36397],[-157.93262,21.36445],[-157.92954,21.36349],[-157.92545,21.37242],[-157.91851,21.37187],[-157.91058,21.36866],[-157.90808,21.36837],[-157.90623,21.36808],[-157.90017,21.36166],[-157.89923,21.35762],[-157.89657,21.35415],[-157.8959,21.34906],[-157.8968,21.34833],[-157.90117,21.34114],[-157.90146,21.33507],[-157.91889,21.3376],[-157.92275,21.33816],[-157.92661,21.33875],[-157.92759,21.33472],[-157.92898,21.33486],[-157.93031,21.33251],[-157.93042,21.32724],[-157.92963,21.32714],[-157.92969,21.32274],[-157.92376,21.32263],[-157.92346,21.32145],[-157.92694,21.31916],[-157.92852,21.31714],[-157.92964,21.31211],[-157.93105,21.31316],[-157.93594,21.31444],[-157.93742,21.31555],[-157.94018,21.31552],[-157.94789,21.31662],[-157.94813,21.31615],[-157.95189,21.31874],[-157.96073,21.3217],[-157.96525,21.32746],[-157.9697,21.32825],[-157.97116,21.33393],[-157.97076,21.33803],[-157.96966,21.34274]],[[-157.9447,21.33389],[-157.94283,21.33459],[-157.93764,21.33129],[-157.93628,21.33129],[-157.93536,21.33473],[-157.93821,21.33611],[-157.94015,21.33526],[-157.93996,21.33699],[-157.9441,21.33906],[-157.94485,21.33802],[-157.9447,21.33389]]],[[[-157.9705,21.36875],[-157.96768,21.36914],[-157.9658,21.37207],[-157.96189,21.38161],[-157.96112,21.37953],[-157.95656,21.37517],[-157.94397,21.36739],[-157.95046,21.36153],[-157.95586,21.35803],[-157.96236,21.35473],[-157.96926,21.35223],[-157.96986,21.35693],[-157.97226,21.35933],[-157.97347,21.36647],[-157.9705,21.36875]]]]}},{"type":"Feature","properties":{"zcta":"96813","d":4187},"geometry":{"type":"Polygon","coordinates":[[[-157.80826,21.34113],[-157.80816,21.33903],[-157.81046,21.33813],[-157.81415,21.33484],[-157.82446,21.33013],[-157.83076,21.32473],[-157.8337,21.32109],[-157.83166,21.32075],[-157.82996,21.3232],[-157.82637,21.32582],[-157.82857,21.32301],[-157.82923,21.32016],[-157.83146,21.31789],[-157.83024,21.31671],[-157.83081,21.31451],[-157.83245,21.31446],[-157.83462,21.31674],[-157.83521,21.31408],[-157.83704,21.31213],[-157.83859,21.31341],[-157.83934,21.30988],[-157.84209,21.31011],[-157.84687,21.30811],[-157.84851,21.30835],[-157.8487,21.3056],[-157.85019,21.302],[-157.85317,21.29838],[-157.85767,21.2961],[-157.85932,21.29683],[-157.85962,21.29423],[-157.8578,21.29498],[-157.85445,21.29322],[-157.85507,21.29206],[-157.85496,21.28673],[-157.86985,21.29513],[-157.87003,21.29575],[-157.86646,21.30953],[-157.86259,21.30996],[-157.85833,21.31274],[-157.8576,21.3116],[-157.85236,21.31712],[-157.85401,21.31852],[-157.85191,21.32076],[-157.84783,21.32197],[-157.84644,21.32513],[-157.8446,21.32547],[-157.84431,21.32785],[-157.84235,21.3296],[-157.83546,21.33163],[-157.83316,21.33073],[-157.82846,21.33463],[-157.82376,21.33713],[-157.82186,21.33983],[-157.81826,21.34193],[-157.81006,21.34313],[-157.80646,21.34513],[-157.80346,21.34503],[-157.80826,21.34113]],[[-157.86291,21.30214],[-157.8612,21.30343],[-157.86252,21.3055],[-157.86367,21.30479],[-157.86291,21.30214]]]}},{"type":"Feature","properties":{"zcta":"96782","d":1039},"geometry":{"type":"Polygon","coordinates":[[[-157.99121,21.46049],[-157.98885,21.45951],[-157.98858,21.46139],[-157.98625,21.4612],[-157.98496,21.46338],[-157.97918,21.46419],[-157.97718,21.46741],[-157.9737,21.46939],[-157.969,21.46831],[-157.96655,21.46698],[-157.96489,21.46829],[-157.96371,21.46617],[-157.96236,21.46801],[-157.95884,21.46703],[-157.95229,21.46931],[-157.94786,21.47003],[-157.94378,21.46978],[-157.94252,21.47232],[-157.93841,21.47048],[-157.93993,21.472],[-157.93663,21.47246],[-157.93395,21.47118],[-157.93087,21.47117],[-157.93044,21.47273],[-157.92852,21.47205],[-157.92702,21.47305],[-157.9255,21.47103],[-157.92313,21.47167],[-157.92287,21.47355],[-157.91953,21.47281],[-157.91748,21.47422],[-157.91262,21.47612],[-157.91074,21.47461],[-157.90728,21.47823],[-157.90719,21.47963],[-157.90105,21.47876],[-157.89655,21.48154],[-157.89333,21.4818],[-157.89036,21.48392],[-157.89095,21.48207],[-157.88921,21.47669],[-157.8907,21.47225],[-157.88956,21.46894],[-157.88776,21.46683],[-157.88721,21.46356],[-157.88221,21.46058],[-157.87986,21.4603],[-157.87583,21.46127],[-157.87626,21.45947],[-157.87476,21.45835],[-157.87496,21.45632],[-157.87302,21.45305],[-157.87446,21.44922],[-157.87601,21.44846],[-157.87926,21.4446],[-157.88657,21.44245],[-157.89023,21.4396],[-157.89237,21.43977],[-157.89843,21.43829],[-157.89964,21.43683],[-157.90439,21.43401],[-157.90662,21.43415],[-157.91168,21.43042],[-157.91544,21.43073],[-157.91731,21.42905],[-157.91823,21.43004],[-157.92589,21.43063],[-157.92923,21.42925],[-157.93417,21.42854],[-157.93276,21.42627],[-157.93215,21.42219],[-157.9292,21.41485],[-157.93403,21.41372],[-157.93584,21.41439],[-157.93958,21.41263],[-157.94586,21.41063],[-157.94764,21.40928],[-157.95015,21.4049],[-157.95122,21.39795],[-157.95332,21.39193],[-157.95436,21.38721],[-157.95227,21.38625],[-157.95349,21.38144],[-157.95656,21.37517],[-157.96112,21.37953],[-157.96189,21.38161],[-157.9658,21.37207],[-157.96768,21.36914],[-157.9705,21.36875],[-157.97347,21.36647],[-157.97556,21.37023],[-157.98236,21.37253],[-157.98606,21.37933],[-157.98909,21.38836],[-157.99233,21.38678],[-157.99236,21.39131],[-157.98946,21.39377],[-157.99183,21.39799],[-157.98708,21.39796],[-157.99015,21.41275],[-157.9927,21.41602],[-157.9954,21.4248],[-157.99667,21.43201],[-157.99479,21.43538],[-157.99304,21.44282],[-157.99094,21.44703],[-157.98972,21.4537],[-157.99095,21.45669],[-157.99283,21.45848],[-157.99121,21.46049]]]}},{"type":"Feature","properties":{"zcta":"96717","d":75},"geometry":{"type":"Polygon","coordinates":[[[-157.91272,21.62096],[-157.91265,21.61457],[-157.90772,21.60776],[-157.90158,21.60526],[-157.8981,21.60261],[-157.89513,21.59448],[-157.88928,21.58986],[-157.88674,21.5806],[-157.8827,21.57707],[-157.87736,21.57527],[-157.8752,21.57305],[-157.87506,21.56297],[-157.87694,21.5574],[-157.87348,21.55498],[-157.86887,21.55596],[-157.86414,21.55993],[-157.86299,21.55332],[-157.8568,21.55068],[-157.8561,21.55401],[-157.85154,21.55011],[-157.85132,21.54849],[-157.8544,21.54553],[-157.85096,21.54262],[-157.85671,21.5385],[-157.85499,21.53808],[-157.85253,21.53568],[-157.84718,21.53536],[-157.84852,21.53314],[-157.84344,21.53531],[-157.83985,21.53571],[-157.83894,21.53493],[-157.84074,21.53303],[-157.84331,21.52685],[-157.84785,21.52313],[-157.84857,21.52179],[-157.85318,21.51992],[-157.85635,21.51783],[-157.85989,21.51713],[-157.86139,21.51592],[-157.86749,21.51624],[-157.86956,21.51752],[-157.87211,21.51296],[-157.87203,21.51024],[-157.87868,21.51389],[-157.88575,21.51209],[-157.8889,21.5089],[-157.89127,21.50513],[-157.89625,21.50156],[-157.90126,21.50152],[-157.90746,21.50852],[-157.90723,21.51041],[-157.91123,21.5133],[-157.91431,21.51705],[-157.91696,21.52412],[-157.91996,21.52712],[-157.91971,21.53073],[-157.92133,21.53492],[-157.92136,21.54032],[-157.91919,21.54358],[-157.91812,21.55175],[-157.92211,21.55508],[-157.92368,21.55716],[-157.9237,21.5594],[-157.92541,21.56216],[-157.92678,21.56199],[-157.9279,21.56422],[-157.92994,21.5642],[-157.93258,21.5676],[-157.93607,21.56969],[-157.93543,21.57195],[-157.93665,21.57464],[-157.93519,21.5762],[-157.93651,21.57948],[-157.93524,21.58177],[-157.93345,21.5826],[-157.93533,21.58735],[-157.93249,21.59055],[-157.93372,21.59411],[-157.93528,21.59448],[-157.93487,21.59855],[-157.93345,21.60122],[-157.92925,21.60381],[-157.92604,21.60682],[-157.9247,21.61027],[-157.92082,21.61466],[-157.91868,21.61554],[-157.91967,21.61678],[-157.92334,21.61763],[-157.916,21.62357],[-157.91272,21.62096]]]}},{"type":"Feature","properties":{"zcta":"96730","d":699},"geometry":{"type":"Polygon","coordinates":[[[-157.83894,21.53493],[-157.83985,21.53571],[-157.84344,21.53531],[-157.84852,21.53314],[-157.84718,21.53536],[-157.85253,21.53568],[-157.85499,21.53808],[-157.85671,21.5385],[-157.85096,21.54262],[-157.8544,21.54553],[-157.85132,21.54849],[-157.85154,21.55011],[-157.8561,21.55401],[-157.8568,21.55068],[-157.86299,21.55332],[-157.86414,21.55993],[-157.86385,21.56017],[-157.85486,21.55751],[-157.85074,21.55491],[-157.84669,21.54983],[-157.84665,21.54493],[-157.84189,21.54195],[-157.83847,21.53521],[-157.83894,21.53493]]]}},{"type":"Feature","properties":{"zcta":"96814","d":11197},"geometry":{"type":"Polygon","coordinates":[[[-157.83976,21.30253],[-157.83544,21.30174],[-157.83716,21.29937],[-157.83814,21.29468],[-157.83664,21.29059],[-157.83478,21.28886],[-157.84386,21.28655],[-157.8454,21.28164],[-157.85496,21.28673],[-157.85507,21.29206],[-157.85445,21.29322],[-157.8578,21.29498],[-157.85962,21.29423],[-157.85932,21.29683],[-157.85767,21.2961],[-157.85317,21.29838],[-157.85019,21.302],[-157.8487,21.3056],[-157.83976,21.30253]]]}},{"type":"Feature","properties":{"zcta":"96821","d":834},"geometry":{"type":"Polygon","coordinates":[[[-157.75533,21.33028],[-157.75268,21.32782],[-157.7492,21.32721],[-157.74778,21.32589],[-157.73706,21.32303],[-157.73226,21.32273],[-157.72766,21.32323],[-157.72586,21.32413],[-157.72286,21.32003],[-157.72336,21.31523],[-157.72186,21.31323],[-157.71926,21.30613],[-157.71976,21.30443],[-157.71973,21.28651],[-157.71909,21.28414],[-157.72237,21.28139],[-157.72691,21.28084],[-157.73217,21.28201],[-157.7346,21.27966],[-157.74361,21.27972],[-157.75454,21.2761],[-157.75585,21.27276],[-157.7587,21.27396],[-157.75952,21.2758],[-157.76441,21.27519],[-157.76667,21.27423],[-157.76993,21.27645],[-157.77292,21.27624],[-157.77369,21.27456],[-157.77619,21.27288],[-157.77807,21.27324],[-157.77675,21.27602],[-157.78447,21.27884],[-157.78172,21.28856],[-157.78248,21.28866],[-157.78124,21.2984],[-157.78058,21.30101],[-157.77721,21.30406],[-157.77229,21.30598],[-157.76972,21.30931],[-157.76882,21.3148],[-157.76429,21.32118],[-157.76323,21.32394],[-157.7617,21.32491],[-157.75811,21.33128],[-157.75533,21.33028]]]}},{"type":"Feature","properties":{"zcta":"96950","d":0},"geometry":{"type":"MultiPolygon","coordinates":[[[[145.81434,15.2566],[145.81276,15.25744],[145.81449,15.25819],[145.81434,15.2566]]],[[[145.79259,15.15044],[145.79217,15.14893],[145.79011,15.14932],[145.79094,15.15151],[145.79259,15.15044]]],[[[145.71373,15.24111],[145.71153,15.24066],[145.71158,15.24227],[145.71373,15.24111]]],[[[145.69355,15.12289],[145.69402,15.12421],[145.69237,15.13046],[145.69336,15.13282],[145.69719,15.13864],[145.70049,15.14782],[145.70062,15.15238],[145.70006,15.15533],[145.70132,15.15809],[145.705,15.16081],[145.70814,15.16432],[145.71073,15.17071],[145.71413,15.18293],[145.71703,15.19599],[145.71627,15.20126],[145.7164,15.20557],[145.7155,15.21425],[145.71571,15.21683],[145.71709,15.21924],[145.72026,15.21943],[145.7219,15.21688],[145.72742,15.2176],[145.73146,15.21987],[145.73051,15.22236],[145.73226,15.22498],[145.73505,15.22711],[145.73846,15.22629],[145.74047,15.22898],[145.73985,15.23132],[145.74483,15.23303],[145.74714,15.23724],[145.75267,15.24021],[145.75356,15.24229],[145.75557,15.24352],[145.76258,15.24464],[145.7687,15.24797],[145.76952,15.25009],[145.77471,15.25148],[145.77751,15.25291],[145.78178,15.2571],[145.78275,15.26166],[145.78449,15.2629],[145.78652,15.26669],[145.79181,15.27171],[145.79328,15.27217],[145.7949,15.27585],[145.79891,15.2776],[145.80212,15.28193],[145.80358,15.28233],[145.80887,15.28864],[145.8111,15.29004],[145.81368,15.28742],[145.81789,15.28593],[145.81888,15.28649],[145.82127,15.28375],[145.82639,15.2749],[145.82984,15.2729],[145.83042,15.26988],[145.82943,15.26418],[145.82639,15.25956],[145.82462,15.25908],[145.81797,15.26013],[145.81484,15.26141],[145.8107,15.25869],[145.81023,15.2556],[145.81165,15.25271],[145.8083,15.24835],[145.80735,15.24412],[145.80982,15.24246],[145.80983,15.24077],[145.80642,15.23706],[145.80249,15.23642],[145.80228,15.23431],[145.7984,15.22907],[145.79268,15.22796],[145.79062,15.22573],[145.78749,15.22075],[145.78226,15.21582],[145.7809,15.21184],[145.77909,15.21025],[145.77897,15.20761],[145.7817,15.20355],[145.78128,15.19829],[145.77801,15.19565],[145.77811,15.18936],[145.78163,15.18286],[145.78358,15.18292],[145.78483,15.18047],[145.78431,15.17887],[145.78676,15.17339],[145.79161,15.17035],[145.79612,15.16686],[145.79591,15.1657],[145.79207,15.16352],[145.79173,15.15889],[145.79076,15.15609],[145.78818,15.15426],[145.78873,15.15143],[145.78764,15.15045],[145.78531,15.1516],[145.78205,15.15189],[145.78179,15.15088],[145.77457,15.15151],[145.77035,15.15548],[145.76995,15.15875],[145.76748,15.1619],[145.76154,15.16363],[145.75891,15.16224],[145.75178,15.16056],[145.74954,15.15899],[145.74889,15.15573],[145.74184,15.14191],[145.74085,15.13924],[145.74148,15.13519],[145.74567,15.12791],[145.74911,15.12476],[145.75265,15.12309],[145.75473,15.12334],[145.75659,15.12085],[145.75591,15.11607],[145.7563,15.11274],[145.75467,15.10818],[145.75266,15.10661],[145.7511,15.09533],[145.74881,15.09192],[145.74685,15.09291],[145.74516,15.09993],[145.74242,15.10382],[145.73868,15.10588],[145.73259,15.10647],[145.73179,15.1053],[145.72737,15.10662],[145.71613,15.10786],[145.7155,15.1064],[145.71096,15.10571],[145.70729,15.10645],[145.70706,15.11005],[145.70502,15.11234],[145.69995,15.1161],[145.69668,15.11794],[145.69047,15.1195],[145.69047,15.12081],[145.69355,15.12289]]]]}},{"type":"Feature","properties":{"zcta":"96913","d":0},"geometry":{"type":"Polygon","coordinates":[[[144.76936,13.48109],[144.77361,13.48677],[144.77515,13.49094],[144.77452,13.49424],[144.77005,13.49516],[144.76912,13.49966],[144.77235,13.50448],[144.77519,13.50664],[144.77719,13.50653],[144.78319,13.50808],[144.78626,13.50641],[144.7868,13.50505],[144.78974,13.50397],[144.79767,13.50633],[144.80069,13.50895],[144.8049,13.51544],[144.80634,13.51953],[144.80591,13.52092],[144.80359,13.5212],[144.804,13.525],[144.80336,13.52604],[144.80336,13.53184],[144.80212,13.53579],[144.80668,13.54078],[144.80756,13.53939],[144.81085,13.54077],[144.81541,13.52114],[144.81796,13.51428],[144.82091,13.51524],[144.82247,13.51438],[144.82359,13.5107],[144.81975,13.50926],[144.8213,13.50513],[144.81975,13.50221],[144.82019,13.49848],[144.82351,13.50119],[144.82508,13.49924],[144.83463,13.49975],[144.83462,13.49793],[144.84373,13.49875],[144.8486,13.49764],[144.85316,13.49911],[144.85691,13.49958],[144.87083,13.49969],[144.87084,13.49229],[144.86901,13.49055],[144.87087,13.48605],[144.86987,13.48267],[144.86506,13.47942],[144.85894,13.47149],[144.85666,13.46993],[144.8506,13.46327],[144.84598,13.46279],[144.84376,13.4604],[144.84087,13.45897],[144.83449,13.45279],[144.83267,13.44811],[144.83006,13.44591],[144.82708,13.44465],[144.82593,13.44276],[144.81995,13.44236],[144.81812,13.44169],[144.81397,13.43803],[144.81005,13.43305],[144.80902,13.42934],[144.80761,13.42744],[144.80514,13.42643],[144.80087,13.42678],[144.79675,13.42836],[144.79279,13.42651],[144.79255,13.43791],[144.78959,13.44068],[144.78575,13.44088],[144.78406,13.45887],[144.78132,13.46126],[144.78439,13.46171],[144.78574,13.46613],[144.77849,13.47791],[144.7729,13.47826],[144.77462,13.47868],[144.7767,13.48106],[144.77804,13.47936],[144.77965,13.4799],[144.77971,13.48171],[144.77339,13.48206],[144.77055,13.48109],[144.76925,13.47954],[144.7676,13.47998],[144.76936,13.48109]]]}},{"type":"Feature","properties":{"zcta":"96952","d":0},"geometry":{"type":"Polygon","coordinates":[[[145.58751,15.0299],[145.58781,15.03383],[145.58893,15.03686],[145.59202,15.03674],[145.59492,15.03824],[145.59685,15.04063],[145.59748,15.04564],[145.59899,15.05042],[145.59682,15.05348],[145.60261,15.0574],[145.60351,15.05884],[145.613,15.06948],[145.61608,15.07255],[145.61804,15.07639],[145.62276,15.07914],[145.6275,15.08451],[145.62999,15.08544],[145.63264,15.08758],[145.63316,15.08945],[145.63612,15.09311],[145.6418,15.09915],[145.64526,15.10078],[145.64794,15.09813],[145.65442,15.08978],[145.65633,15.08571],[145.6572,15.08181],[145.65657,15.07722],[145.65506,15.07081],[145.65494,15.06757],[145.65646,15.06163],[145.65801,15.06105],[145.65883,15.05784],[145.6557,15.05318],[145.64778,15.0468],[145.64695,15.04184],[145.64861,15.03361],[145.64972,15.03251],[145.65373,15.02349],[145.65727,15.01887],[145.65934,15.01798],[145.6645,15.01852],[145.66809,15.01629],[145.67097,15.01135],[145.67081,15.00957],[145.67357,15.00653],[145.6733,15.00402],[145.67167,14.99961],[145.66996,14.99272],[145.66957,14.98884],[145.66774,14.98261],[145.6662,14.97932],[145.66382,14.97699],[145.66554,14.97283],[145.66538,14.97067],[145.66345,14.96872],[145.66152,14.96496],[145.66194,14.96145],[145.66124,14.95842],[145.66403,14.95127],[145.66545,14.94984],[145.66483,14.94828],[145.65995,14.94877],[145.65625,14.94618],[145.6541,14.94558],[145.65136,14.94147],[145.65231,14.9377],[145.64765,14.93165],[145.64705,14.9294],[145.64499,14.9265],[145.64225,14.92426],[145.63908,14.92271],[145.63436,14.9232],[145.63234,14.92523],[145.63053,14.9293],[145.63092,14.93048],[145.62955,14.93394],[145.62984,14.93903],[145.62849,14.94113],[145.62854,14.94337],[145.63179,14.95058],[145.63175,14.9541],[145.62593,14.96509],[145.6241,14.96575],[145.6223,14.96454],[145.6178,14.96762],[145.61343,14.97137],[145.61247,14.97399],[145.61301,14.98132],[145.60885,14.98682],[145.60947,14.98841],[145.60831,14.99108],[145.60516,14.99222],[145.59952,14.99187],[145.59639,14.98979],[145.59258,14.99001],[145.58903,14.99346],[145.58582,14.99459],[145.58494,14.99772],[145.5867,15.00116],[145.58752,15.00729],[145.58874,15.00952],[145.58766,15.01241],[145.58401,15.01388],[145.58246,15.01652],[145.58452,15.02389],[145.58751,15.0299]]]}},{"type":"Feature","properties":{"zcta":"96916","d":0},"geometry":{"type":"Polygon","coordinates":[[[144.66268,13.28542],[144.66854,13.28647],[144.67216,13.28488],[144.67318,13.28356],[144.67889,13.28683],[144.67882,13.28387],[144.69276,13.27886],[144.69411,13.27715],[144.696,13.2774],[144.70133,13.27442],[144.702,13.27251],[144.70561,13.26943],[144.70941,13.26998],[144.7107,13.26776],[144.7104,13.26571],[144.71224,13.26196],[144.71714,13.25792],[144.71853,13.25475],[144.71781,13.25188],[144.71907,13.25112],[144.71509,13.24861],[144.7062,13.24626],[144.69882,13.24778],[144.69286,13.25089],[144.68905,13.25101],[144.68745,13.25272],[144.68672,13.25647],[144.68235,13.25437],[144.67733,13.25459],[144.67434,13.25794],[144.67435,13.26113],[144.66743,13.26616],[144.66461,13.26766],[144.66189,13.27143],[144.66367,13.27506],[144.66362,13.27809],[144.66205,13.28053],[144.6622,13.2837],[144.66268,13.28542]]]}},{"type":"Feature","properties":{"zcta":"96928","d":0},"geometry":{"type":"Polygon","coordinates":[[[144.63934,13.3431],[144.64309,13.34867],[144.64405,13.35232],[144.64872,13.36169],[144.64903,13.36537],[144.65236,13.37281],[144.65192,13.37817],[144.65589,13.3862],[144.65945,13.3893],[144.66065,13.39352],[144.66289,13.39845],[144.66415,13.39793],[144.66303,13.39516],[144.66479,13.39416],[144.66173,13.3931],[144.66051,13.38753],[144.66277,13.38291],[144.66449,13.38446],[144.66808,13.38432],[144.66954,13.3812],[144.66896,13.37842],[144.66969,13.37465],[144.66873,13.37304],[144.6687,13.36938],[144.65418,13.36961],[144.65254,13.37282],[144.64961,13.3615],[144.65097,13.36087],[144.65456,13.36226],[144.65452,13.35721],[144.6577,13.35767],[144.65848,13.356],[144.66235,13.35555],[144.66856,13.35596],[144.66849,13.34955],[144.67202,13.34518],[144.66938,13.33923],[144.66608,13.34144],[144.66397,13.33976],[144.67093,13.32992],[144.63609,13.34116],[144.63934,13.3431]]]}},{"type":"Feature","properties":{"zcta":"96734","d":1021},"geometry":{"type":"Polygon","coordinates":[[[-157.79013,21.3682],[-157.78517,21.36958],[-157.78134,21.36451],[-157.77985,21.36607],[-157.78216,21.3692],[-157.78134,21.37562],[-157.77978,21.37733],[-157.779,21.38204],[-157.78074,21.38235],[-157.78283,21.38513],[-157.78124,21.3857],[-157.77528,21.3897],[-157.77389,21.3916],[-157.77159,21.39854],[-157.76588,21.40649],[-157.76286,21.41269],[-157.7616,21.42212],[-157.76005,21.42771],[-157.75485,21.42745],[-157.75413,21.42845],[-157.74378,21.42844],[-157.743,21.43144],[-157.73969,21.43911],[-157.74002,21.44013],[-157.75254,21.44428],[-157.75763,21.43526],[-157.75804,21.43685],[-157.77275,21.44308],[-157.77681,21.44324],[-157.77828,21.44649],[-157.77732,21.45181],[-157.77404,21.45378],[-157.77275,21.45693],[-157.76824,21.45632],[-157.76555,21.46149],[-157.76438,21.46213],[-157.7632,21.4595],[-157.7459,21.45338],[-157.73985,21.45392],[-157.73911,21.45561],[-157.72998,21.46028],[-157.72251,21.45922],[-157.72283,21.4558],[-157.72576,21.44997],[-157.72951,21.44674],[-157.73567,21.44524],[-157.73642,21.43868],[-157.73584,21.4324],[-157.73901,21.42424],[-157.74151,21.42555],[-157.74449,21.42235],[-157.74329,21.41374],[-157.73861,21.4043],[-157.73394,21.40055],[-157.72719,21.3984],[-157.71587,21.39333],[-157.71198,21.38898],[-157.70891,21.3833],[-157.7059,21.38014],[-157.70895,21.37957],[-157.71683,21.37928],[-157.71932,21.38142],[-157.71946,21.37588],[-157.71862,21.37501],[-157.72049,21.37307],[-157.72011,21.36913],[-157.72405,21.36779],[-157.72768,21.36908],[-157.73046,21.36869],[-157.73238,21.36478],[-157.72977,21.362],[-157.72625,21.36223],[-157.72407,21.35971],[-157.72872,21.35708],[-157.72971,21.35479],[-157.73469,21.35957],[-157.73737,21.35765],[-157.74117,21.35762],[-157.74569,21.35537],[-157.74575,21.35375],[-157.74945,21.34596],[-157.75222,21.34128],[-157.75486,21.34022],[-157.75624,21.33639],[-157.75905,21.33185],[-157.76816,21.33223],[-157.77156,21.33313],[-157.77556,21.33563],[-157.77916,21.33583],[-157.78076,21.33623],[-157.78716,21.34113],[-157.78806,21.34303],[-157.78919,21.35001],[-157.78908,21.3532],[-157.7883,21.35515],[-157.78864,21.35955],[-157.79061,21.36404],[-157.79369,21.36616],[-157.79013,21.3682]]]}},{"type":"Feature","properties":{"zcta":"96744","d":776},"geometry":{"type":"MultiPolygon","coordinates":[[[[-157.78883,21.43614],[-157.78722,21.43582],[-157.78675,21.43317],[-157.78804,21.43114],[-157.79044,21.43159],[-157.79088,21.43467],[-157.78883,21.43614]]],[[[-157.89127,21.50513],[-157.8889,21.5089],[-157.88575,21.51209],[-157.87868,21.51389],[-157.87203,21.51024],[-157.87211,21.51296],[-157.86956,21.51752],[-157.86749,21.51624],[-157.86139,21.51592],[-157.85989,21.51713],[-157.85635,21.51783],[-157.85318,21.51992],[-157.84857,21.52179],[-157.84785,21.52313],[-157.84331,21.52685],[-157.84074,21.53303],[-157.83894,21.53493],[-157.83847,21.53521],[-157.83451,21.52691],[-157.83569,21.51692],[-157.83483,21.50896],[-157.84522,21.50712],[-157.84855,21.5058],[-157.85063,21.50629],[-157.85263,21.49997],[-157.84926,21.49452],[-157.84703,21.49224],[-157.84926,21.48744],[-157.84712,21.48501],[-157.84287,21.48455],[-157.84167,21.48044],[-157.84232,21.47553],[-157.84432,21.46999],[-157.84261,21.46311],[-157.841,21.45948],[-157.83809,21.4567],[-157.83422,21.45825],[-157.83374,21.46239],[-157.83009,21.45798],[-157.8249,21.45537],[-157.82231,21.45251],[-157.81659,21.45464],[-157.81123,21.44453],[-157.80854,21.44288],[-157.80518,21.43514],[-157.80591,21.4301],[-157.8016,21.42722],[-157.79675,21.42529],[-157.79539,21.42877],[-157.79229,21.42885],[-157.78911,21.42529],[-157.78807,21.4224],[-157.78839,21.41811],[-157.78721,21.4137],[-157.78418,21.41226],[-157.77805,21.41181],[-157.76996,21.41328],[-157.76654,21.41624],[-157.76413,21.42141],[-157.76554,21.4245],[-157.76369,21.42806],[-157.76136,21.42843],[-157.76005,21.42771],[-157.7616,21.42212],[-157.76286,21.41269],[-157.76588,21.40649],[-157.77159,21.39854],[-157.77389,21.3916],[-157.77528,21.3897],[-157.78124,21.3857],[-157.78283,21.38513],[-157.78074,21.38235],[-157.779,21.38204],[-157.77978,21.37733],[-157.78134,21.37562],[-157.78216,21.3692],[-157.77985,21.36607],[-157.78134,21.36451],[-157.78517,21.36958],[-157.79013,21.3682],[-157.79369,21.36616],[-157.79742,21.36727],[-157.80733,21.36802],[-157.80966,21.36933],[-157.81038,21.37035],[-157.81076,21.37556],[-157.81362,21.37864],[-157.81864,21.38193],[-157.82199,21.38327],[-157.82516,21.38843],[-157.82546,21.39203],[-157.82406,21.39513],[-157.82846,21.39623],[-157.82986,21.39843],[-157.83573,21.40029],[-157.83891,21.40198],[-157.83833,21.41098],[-157.83651,21.41268],[-157.83777,21.41361],[-157.83843,21.41779],[-157.84031,21.41836],[-157.84815,21.42369],[-157.85056,21.42612],[-157.85856,21.4281],[-157.86417,21.43616],[-157.86689,21.43678],[-157.87247,21.43979],[-157.87397,21.44329],[-157.87446,21.44922],[-157.87302,21.45305],[-157.87496,21.45632],[-157.87476,21.45835],[-157.87626,21.45947],[-157.87583,21.46127],[-157.87986,21.4603],[-157.88221,21.46058],[-157.88721,21.46356],[-157.88776,21.46683],[-157.88956,21.46894],[-157.8907,21.47225],[-157.88921,21.47669],[-157.89095,21.48207],[-157.89036,21.48392],[-157.89174,21.48669],[-157.89206,21.4929],[-157.89427,21.49584],[-157.89626,21.49994],[-157.89625,21.50156],[-157.89127,21.50513]]]]}},{"type":"Feature","properties":{"zcta":"96929","d":0},"geometry":{"type":"Polygon","coordinates":[[[144.81094,13.54811],[144.81197,13.55473],[144.81724,13.55829],[144.8189,13.56253],[144.82177,13.56691],[144.82161,13.56929],[144.8252,13.57358],[144.82871,13.5762],[144.83068,13.57625],[144.83182,13.57859],[144.831,13.58214],[144.83453,13.58741],[144.83596,13.59122],[144.83679,13.59775],[144.83576,13.60704],[144.83596,13.61744],[144.8367,13.62414],[144.84458,13.63395],[144.84801,13.63952],[144.85166,13.64827],[144.85535,13.6516],[144.85977,13.65438],[144.86385,13.65403],[144.86825,13.65261],[144.87558,13.64737],[144.8788,13.64573],[144.8816,13.64284],[144.88996,13.63129],[144.89331,13.62854],[144.89941,13.62199],[144.90442,13.61242],[144.90554,13.60696],[144.90785,13.60532],[144.9146,13.60296],[144.92586,13.60057],[144.92942,13.60031],[144.93131,13.60178],[144.93705,13.60016],[144.94932,13.60032],[144.95113,13.60099],[144.9561,13.59937],[144.95662,13.59612],[144.95178,13.58751],[144.9503,13.58093],[144.95044,13.57896],[144.94672,13.57231],[144.94034,13.56805],[144.93837,13.56086],[144.94017,13.55262],[144.93638,13.54493],[144.93235,13.53889],[144.93221,13.53394],[144.93117,13.53288],[144.92669,13.52205],[144.92351,13.51949],[144.9203,13.51891],[144.91219,13.5151],[144.90779,13.51481],[144.90576,13.51321],[144.90156,13.51235],[144.89708,13.50924],[144.89597,13.50699],[144.89181,13.50625],[144.89115,13.50447],[144.8913,13.49944],[144.89199,13.49827],[144.88808,13.49446],[144.88675,13.49225],[144.88373,13.49071],[144.88143,13.49096],[144.87686,13.48969],[144.87087,13.48605],[144.86901,13.49055],[144.87084,13.49229],[144.87083,13.49969],[144.85691,13.49958],[144.85316,13.49911],[144.8486,13.49764],[144.84373,13.49875],[144.83462,13.49793],[144.83463,13.49975],[144.82508,13.49924],[144.82351,13.50119],[144.82019,13.49848],[144.81975,13.50221],[144.8213,13.50513],[144.81975,13.50926],[144.82359,13.5107],[144.82247,13.51438],[144.82091,13.51524],[144.81796,13.51428],[144.81541,13.52114],[144.81085,13.54077],[144.80756,13.53939],[144.80668,13.54078],[144.81094,13.54811]]]}},{"type":"Feature","properties":{"zcta":"96815","d":7537},"geometry":{"type":"Polygon","coordinates":[[[-157.83275,21.28832],[-157.82651,21.28297],[-157.82222,21.28341],[-157.82052,21.28483],[-157.81396,21.2791],[-157.80987,21.27945],[-157.80976,21.27683],[-157.80322,21.27032],[-157.80493,21.26956],[-157.80388,21.26792],[-157.80834,21.26707],[-157.81143,21.26285],[-157.81167,21.2597],[-157.80742,21.25744],[-157.80255,21.25867],[-157.80164,21.25749],[-157.80743,21.25526],[-157.81491,21.25611],[-157.82111,21.2606],[-157.82277,21.26497],[-157.82317,21.27143],[-157.82973,21.27662],[-157.8338,21.27784],[-157.83794,21.28116],[-157.8454,21.28164],[-157.84386,21.28655],[-157.83478,21.28886],[-157.83275,21.28832]]]}},{"type":"Feature","properties":{"zcta":"96791","d":98},"geometry":{"type":"Polygon","coordinates":[[[-158.11971,21.582],[-158.12005,21.5757],[-158.11675,21.57505],[-158.11146,21.57525],[-158.10637,21.57617],[-158.10986,21.56686],[-158.10976,21.56494],[-158.10789,21.56179],[-158.10598,21.56064],[-158.10305,21.56047],[-158.1003,21.55443],[-158.09854,21.55422],[-158.09647,21.55121],[-158.09359,21.54917],[-158.0914,21.54993],[-158.08852,21.54713],[-158.08632,21.547],[-158.08297,21.54172],[-158.08619,21.53936],[-158.08814,21.53587],[-158.08559,21.53449],[-158.07956,21.52833],[-158.06314,21.51362],[-158.05844,21.50987],[-158.06188,21.50743],[-158.0638,21.50779],[-158.06548,21.50649],[-158.06963,21.50774],[-158.07484,21.50802],[-158.07477,21.51021],[-158.07695,21.51126],[-158.07994,21.51534],[-158.0813,21.51838],[-158.08292,21.51733],[-158.08408,21.51979],[-158.08548,21.51936],[-158.08697,21.52119],[-158.09394,21.52187],[-158.11014,21.51691],[-158.11371,21.51652],[-158.12656,21.51417],[-158.1315,21.51204],[-158.13764,21.51155],[-158.14194,21.50942],[-158.14245,21.50773],[-158.14975,21.50737],[-158.15738,21.5093],[-158.16018,21.51188],[-158.16313,21.51314],[-158.1648,21.51578],[-158.17157,21.51924],[-158.17377,21.5193],[-158.17748,21.52869],[-158.18305,21.53439],[-158.19016,21.53508],[-158.19274,21.53726],[-158.195,21.54461],[-158.19654,21.54335],[-158.20064,21.54359],[-158.20504,21.54788],[-158.20991,21.54875],[-158.21338,21.55045],[-158.21462,21.54879],[-158.21794,21.54899],[-158.22204,21.5532],[-158.2255,21.55315],[-158.22718,21.55494],[-158.23577,21.55979],[-158.23994,21.56107],[-158.24287,21.5633],[-158.24697,21.56134],[-158.24966,21.56157],[-158.26135,21.56773],[-158.26455,21.57077],[-158.26695,21.57193],[-158.2719,21.57015],[-158.27472,21.57211],[-158.28158,21.57516],[-158.27756,21.57699],[-158.2595,21.57853],[-158.23478,21.58185],[-158.22789,21.58008],[-158.216,21.58008],[-158.20911,21.58207],[-158.19141,21.58267],[-158.17687,21.58066],[-158.17227,21.58185],[-158.16751,21.57964],[-158.16371,21.58118],[-158.15434,21.58084],[-158.13638,21.58453],[-158.13195,21.58238],[-158.12283,21.58351],[-158.12116,21.58583],[-158.11971,21.582]]]}},{"type":"Feature","properties":{"zcta":"96789","d":975},"geometry":{"type":"Polygon","coordinates":[[[-158.02914,21.45173],[-158.02713,21.45513],[-158.02376,21.45933],[-158.02389,21.46565],[-158.02853,21.49087],[-158.02572,21.49243],[-158.02496,21.4918],[-158.02187,21.49401],[-157.99306,21.50537],[-157.98614,21.50837],[-157.98209,21.50737],[-157.97955,21.50784],[-157.97469,21.50643],[-157.97197,21.50626],[-157.96627,21.50854],[-157.96375,21.50754],[-157.95664,21.50779],[-157.95565,21.50655],[-157.95246,21.50813],[-157.94467,21.50839],[-157.93783,21.50713],[-157.93639,21.50872],[-157.93406,21.50863],[-157.93047,21.50979],[-157.92642,21.50894],[-157.91505,21.5093],[-157.91296,21.50854],[-157.90746,21.50852],[-157.90126,21.50152],[-157.89625,21.50156],[-157.89626,21.49994],[-157.89427,21.49584],[-157.89206,21.4929],[-157.89174,21.48669],[-157.89036,21.48392],[-157.89333,21.4818],[-157.89655,21.48154],[-157.90105,21.47876],[-157.90719,21.47963],[-157.90728,21.47823],[-157.91074,21.47461],[-157.91262,21.47612],[-157.91748,21.47422],[-157.91953,21.47281],[-157.92287,21.47355],[-157.92313,21.47167],[-157.9255,21.47103],[-157.92702,21.47305],[-157.92852,21.47205],[-157.93044,21.47273],[-157.93087,21.47117],[-157.93395,21.47118],[-157.93663,21.47246],[-157.93993,21.472],[-157.93841,21.47048],[-157.94252,21.47232],[-157.94378,21.46978],[-157.94786,21.47003],[-157.95229,21.46931],[-157.95884,21.46703],[-157.96236,21.46801],[-157.96371,21.46617],[-157.96489,21.46829],[-157.96655,21.46698],[-157.969,21.46831],[-157.9737,21.46939],[-157.97718,21.46741],[-157.97918,21.46419],[-157.98496,21.46338],[-157.98625,21.4612],[-157.98858,21.46139],[-157.98885,21.45951],[-157.99121,21.46049],[-157.99283,21.45848],[-157.99337,21.45664],[-157.99552,21.45538],[-157.99537,21.45372],[-157.99821,21.4521],[-157.99768,21.45017],[-157.99885,21.44742],[-158.00049,21.44682],[-158.00131,21.4438],[-158.00359,21.44346],[-158.00557,21.43685],[-158.0075,21.43497],[-158.00774,21.43138],[-158.00895,21.42818],[-158.01171,21.42616],[-158.00979,21.42353],[-158.01146,21.42279],[-158.01305,21.41879],[-158.01201,21.41732],[-158.01284,21.41107],[-158.01457,21.40881],[-158.01332,21.40641],[-158.0167,21.40846],[-158.01767,21.41165],[-158.0199,21.41184],[-158.02314,21.41441],[-158.02262,21.41673],[-158.02491,21.42529],[-158.02982,21.42803],[-158.03019,21.43078],[-158.02875,21.43416],[-158.02832,21.43939],[-158.02956,21.44285],[-158.02788,21.44571],[-158.02898,21.4492],[-158.02914,21.45173]]]}},{"type":"Feature","properties":{"zcta":"96910","d":0},"geometry":{"type":"Polygon","coordinates":[[[144.76925,13.47954],[144.77055,13.48109],[144.77339,13.48206],[144.77971,13.48171],[144.77965,13.4799],[144.77804,13.47936],[144.7767,13.48106],[144.77462,13.47868],[144.7729,13.47826],[144.77849,13.47791],[144.78574,13.46613],[144.78439,13.46171],[144.78132,13.46126],[144.78406,13.45887],[144.78575,13.44088],[144.78959,13.44068],[144.79255,13.43791],[144.79279,13.42651],[144.78588,13.42422],[144.78395,13.42163],[144.78191,13.42296],[144.78065,13.42094],[144.77788,13.4202],[144.77824,13.42188],[144.76949,13.42421],[144.7691,13.42653],[144.76565,13.42648],[144.76492,13.42994],[144.7623,13.43278],[144.76173,13.43151],[144.75906,13.43548],[144.75655,13.43718],[144.75163,13.43472],[144.74886,13.43448],[144.74744,13.43557],[144.74349,13.43645],[144.74049,13.43504],[144.73952,13.43696],[144.73688,13.43827],[144.73776,13.44014],[144.73307,13.44022],[144.72842,13.44447],[144.72817,13.44271],[144.72463,13.44343],[144.72021,13.44024],[144.71706,13.44011],[144.71478,13.43844],[144.7123,13.43533],[144.71112,13.43512],[144.70735,13.45972],[144.70932,13.46211],[144.70676,13.4669],[144.70739,13.47044],[144.70667,13.47167],[144.70678,13.47614],[144.71054,13.47414],[144.71713,13.47343],[144.72474,13.47812],[144.72864,13.47896],[144.72927,13.48092],[144.73126,13.47863],[144.7387,13.47914],[144.74382,13.47763],[144.75077,13.47773],[144.75306,13.48097],[144.75411,13.48085],[144.75461,13.47772],[144.76113,13.47815],[144.7676,13.47998],[144.76925,13.47954]]]}},{"type":"Feature","properties":{"zcta":"96826","d":13734},"geometry":{"type":"Polygon","coordinates":[[[-157.82986,21.29829],[-157.82417,21.29614],[-157.82124,21.29443],[-157.82118,21.2968],[-157.81995,21.29677],[-157.8198,21.29442],[-157.81573,21.29206],[-157.81344,21.2928],[-157.81379,21.29039],[-157.81258,21.28909],[-157.8172,21.28824],[-157.82052,21.28483],[-157.82222,21.28341],[-157.82651,21.28297],[-157.83275,21.28832],[-157.83478,21.28886],[-157.83664,21.29059],[-157.83814,21.29468],[-157.83716,21.29937],[-157.83544,21.30174],[-157.82986,21.29829]]]}}]}