{"type":"FeatureCollection","features":[{"type":"Feature","properties":{"id":"12031","name":"Duval Co."},"geometry":{"type":"Polygon","coordinates":[[[-82.0115,30.3061],[-81.9549,30.357],[-81.9355,30.374],[-81.8663,30.4363],[-81.8312,30.4674],[-81.8095,30.4845],[-81.8019,30.4947],[-81.7949,30.5054],[-81.7911,30.5055],[-81.7816,30.5033],[-81.7653,30.5187],[-81.7637,30.5349],[-81.7561,30.5312],[-81.7469,30.5308],[-81.7384,30.5346],[-81.7352,30.5421],[-81.7379,30.5426],[-81.7357,30.5449],[-81.7373,30.5484],[-81.7363,30.5526],[-81.7335,30.5515],[-81.7352,30.559],[-81.7311,30.557],[-81.7318,30.5608],[-81.7283,30.5625],[-81.7274,30.5596],[-81.7252,30.5635],[-81.7291,30.5654],[-81.7262,30.5676],[-81.7232,30.5673],[-81.7219,30.5719],[-81.7204,30.5705],[-81.7159,30.5712],[-81.7096,30.5659],[-81.7039,30.5674],[-81.7046,30.5636],[-81.701,30.5639],[-81.7016,30.5659],[-81.6976,30.5696],[-81.6955,30.5673],[-81.6955,30.5632],[-81.6931,30.5641],[-81.6921,30.5672],[-81.6881,30.5663],[-81.6864,30.5629],[-81.6842,30.5664],[-81.6811,30.563],[-81.6776,30.5621],[-81.6739,30.5662],[-81.6694,30.5633],[-81.6729,30.5601],[-81.6678,30.5607],[-81.6677,30.5576],[-81.6726,30.5561],[-81.6685,30.5548],[-81.6667,30.5517],[-81.6601,30.5516],[-81.6593,30.5539],[-81.6623,30.5546],[-81.6616,30.5601],[-81.6596,30.5653],[-81.6562,30.57],[-81.6511,30.5718],[-81.6491,30.5768],[-81.6458,30.5756],[-81.6419,30.5801],[-81.637,30.5783],[-81.6345,30.5818],[-81.6287,30.5835],[-81.6245,30.5862],[-81.6203,30.5822],[-81.6138,30.5805],[-81.6094,30.5848],[-81.6043,30.584],[-81.611,30.5759],[-81.6033,30.5726],[-81.6015,30.5677],[-81.6077,30.5663],[-81.6142,30.5631],[-81.6107,30.555],[-81.6057,30.5544],[-81.6042,30.5586],[-81.5987,30.5611],[-81.5921,30.5653],[-81.5865,30.5667],[-81.5832,30.5645],[-81.5843,30.56],[-81.5888,30.5505],[-81.5878,30.5467],[-81.5772,30.538],[-81.5678,30.5366],[-81.565,30.5375],[-81.5593,30.5425],[-81.5553,30.5445],[-81.5509,30.543],[-81.5508,30.5316],[-81.547,30.5259],[-81.543,30.5239],[-81.5372,30.5241],[-81.5302,30.5263],[-81.5214,30.5388],[-81.5198,30.5467],[-81.5238,30.5563],[-81.514,30.5673],[-81.4996,30.5638],[-81.491,30.5546],[-81.488,30.5422],[-81.4844,30.5374],[-81.4799,30.5335],[-81.4598,30.5247],[-81.4555,30.522],[-81.4559,30.5134],[-81.4437,30.4988],[-81.4324,30.4872],[-81.4156,30.4848],[-81.4132,30.4829],[-81.4124,30.4682],[-81.4083,30.4407],[-81.4081,30.4346],[-81.4125,30.4229],[-81.4037,30.4091],[-81.4037,30.4048],[-81.41,30.4035],[-81.4105,30.4005],[-81.4048,30.3972],[-81.403,30.3946],[-81.3947,30.3965],[-81.3935,30.3956],[-81.3976,30.3795],[-81.398,30.3617],[-81.3962,30.3311],[-81.3919,30.3044],[-81.3883,30.291],[-81.3799,30.2529],[-81.4301,30.2522],[-81.4369,30.2523],[-81.4337,30.106],[-81.4347,30.1053],[-81.479,30.1048],[-81.5387,30.1037],[-81.539,30.1199],[-81.56,30.117],[-81.5678,30.1178],[-81.5737,30.1206],[-81.5809,30.1261],[-81.5905,30.1258],[-81.6012,30.1305],[-81.6123,30.1329],[-81.6237,30.1336],[-81.6292,30.1315],[-81.6505,30.1215],[-81.6802,30.1212],[-81.6918,30.1423],[-81.6921,30.1447],[-81.6902,30.1613],[-81.6905,30.1719],[-81.6817,30.1814],[-81.6796,30.1905],[-81.7026,30.1915],[-81.7033,30.1891],[-81.7088,30.1912],[-81.7252,30.191],[-81.7335,30.1935],[-81.7389,30.1893],[-81.8027,30.1891],[-81.8459,30.1885],[-81.9204,30.1869],[-81.9555,30.1863],[-82.0494,30.1869],[-82.0493,30.2733],[-82.0492,30.2734],[-82.0115,30.3061]]]}},{"type":"Feature","properties":{"id":"12089","name":"Nassau Co."},"geometry":{"type":"Polygon","coordinates":[[[-81.4598,30.5247],[-81.4799,30.5335],[-81.4844,30.5374],[-81.488,30.5422],[-81.491,30.5546],[-81.4996,30.5638],[-81.514,30.5673],[-81.5238,30.5563],[-81.5198,30.5467],[-81.5214,30.5388],[-81.5302,30.5263],[-81.5372,30.5241],[-81.543,30.5239],[-81.547,30.5259],[-81.5508,30.5316],[-81.5509,30.543],[-81.5553,30.5445],[-81.5593,30.5425],[-81.565,30.5375],[-81.5678,30.5366],[-81.5772,30.538],[-81.5878,30.5467],[-81.5888,30.5505],[-81.5843,30.56],[-81.5832,30.5645],[-81.5865,30.5667],[-81.5921,30.5653],[-81.5987,30.5611],[-81.6042,30.5586],[-81.6057,30.5544],[-81.6107,30.555],[-81.6142,30.5631],[-81.6077,30.5663],[-81.6015,30.5677],[-81.6033,30.5726],[-81.611,30.5759],[-81.6043,30.584],[-81.6094,30.5848],[-81.6138,30.5805],[-81.6203,30.5822],[-81.6245,30.5862],[-81.6287,30.5835],[-81.6345,30.5818],[-81.637,30.5783],[-81.6419,30.5801],[-81.6458,30.5756],[-81.6491,30.5768],[-81.6511,30.5718],[-81.6562,30.57],[-81.6596,30.5653],[-81.6616,30.5601],[-81.6623,30.5546],[-81.6593,30.5539],[-81.6601,30.5516],[-81.6667,30.5517],[-81.6685,30.5548],[-81.6726,30.5561],[-81.6677,30.5576],[-81.6678,30.5607],[-81.6729,30.5601],[-81.6694,30.5633],[-81.6739,30.5662],[-81.6776,30.5621],[-81.6811,30.563],[-81.6842,30.5664],[-81.6864,30.5629],[-81.6881,30.5663],[-81.6921,30.5672],[-81.6931,30.5641],[-81.6955,30.5632],[-81.6955,30.5673],[-81.6976,30.5696],[-81.7016,30.5659],[-81.701,30.5639],[-81.7046,30.5636],[-81.7039,30.5674],[-81.7096,30.5659],[-81.7159,30.5712],[-81.7204,30.5705],[-81.7219,30.5719],[-81.7232,30.5673],[-81.7262,30.5676],[-81.7291,30.5654],[-81.7252,30.5635],[-81.7274,30.5596],[-81.7283,30.5625],[-81.7318,30.5608],[-81.7311,30.557],[-81.7352,30.559],[-81.7335,30.5515],[-81.7363,30.5526],[-81.7373,30.5484],[-81.7357,30.5449],[-81.7379,30.5426],[-81.7352,30.5421],[-81.7384,30.5346],[-81.7469,30.5308],[-81.7561,30.5312],[-81.7637,30.5349],[-81.7653,30.5187],[-81.7816,30.5033],[-81.7911,30.5055],[-81.7949,30.5054],[-81.8019,30.4947],[-81.8095,30.4845],[-81.8312,30.4674],[-81.8663,30.4363],[-81.9355,30.374],[-81.9549,30.357],[-82.0115,30.3061],[-82.0492,30.2734],[-82.0497,30.2924],[-82.0501,30.3614],[-82.05,30.3624],[-82.0479,30.3633],[-82.0407,30.3702],[-82.0368,30.3779],[-82.0359,30.3853],[-82.0412,30.3968],[-82.042,30.4033],[-82.04,30.4143],[-82.034,30.4224],[-82.0345,30.428],[-82.0372,30.4345],[-82.0362,30.4385],[-82.0282,30.4474],[-82.0255,30.4578],[-82.0237,30.4673],[-82.0178,30.4751],[-82.017,30.4788],[-82.0173,30.4876],[-82.0182,30.4921],[-82.0159,30.4955],[-82.0148,30.513],[-82.0158,30.5182],[-82.0189,30.5238],[-82.0184,30.5312],[-82.0132,30.5501],[-82.0055,30.5635],[-82.0081,30.577],[-82.0121,30.5938],[-82.0165,30.6025],[-82.0269,30.6062],[-82.0265,30.6133],[-82.0285,30.6218],[-82.0399,30.6371],[-82.0391,30.6411],[-82.0423,30.6495],[-82.0461,30.6518],[-82.0495,30.6555],[-82.047,30.6659],[-82.0504,30.6763],[-82.0435,30.6847],[-82.0414,30.6936],[-82.043,30.6983],[-82.0364,30.7066],[-82.0368,30.713],[-82.0385,30.7159],[-82.0376,30.7186],[-82.04,30.7246],[-82.0445,30.7262],[-82.0448,30.7285],[-82.0394,30.7372],[-82.0396,30.7477],[-82.0368,30.7544],[-82.0348,30.7544],[-82.0319,30.7505],[-82.0271,30.7511],[-82.0237,30.7535],[-82.0188,30.7546],[-82.0189,30.7566],[-82.0114,30.7626],[-82.0152,30.772],[-82.0184,30.7728],[-82.018,30.7749],[-82.0233,30.7827],[-82.022,30.7882],[-82.0188,30.788],[-82.0159,30.7916],[-82.0125,30.7893],[-82.0081,30.7921],[-82.0048,30.7914],[-81.995,30.7861],[-81.9921,30.783],[-81.9834,30.7781],[-81.9777,30.7766],[-81.9734,30.7788],[-81.9708,30.7839],[-81.97,30.7891],[-81.9666,30.7939],[-81.9629,30.7958],[-81.9617,30.801],[-81.9645,30.8075],[-81.9624,30.8084],[-81.9639,30.8181],[-81.9557,30.8228],[-81.9495,30.8279],[-81.9437,30.826],[-81.9388,30.8288],[-81.9328,30.8204],[-81.927,30.8176],[-81.9187,30.8175],[-81.9109,30.8161],[-81.9045,30.8177],[-81.9041,30.8204],[-81.9073,30.8256],[-81.9014,30.8299],[-81.8949,30.8252],[-81.8929,30.8255],[-81.891,30.8225],[-81.8915,30.8168],[-81.8891,30.8136],[-81.8848,30.8115],[-81.8815,30.7999],[-81.8762,30.7998],[-81.8704,30.7975],[-81.8683,30.7929],[-81.8637,30.7943],[-81.8535,30.7946],[-81.8456,30.7907],[-81.8412,30.7923],[-81.8397,30.7912],[-81.8418,30.7879],[-81.8392,30.7866],[-81.8285,30.7894],[-81.8237,30.7868],[-81.8192,30.7899],[-81.8074,30.7901],[-81.8024,30.7872],[-81.7985,30.7823],[-81.7944,30.787],[-81.7926,30.7855],[-81.7837,30.7729],[-81.7867,30.7698],[-81.7826,30.7661],[-81.7821,30.7613],[-81.7719,30.7638],[-81.7735,30.767],[-81.7696,30.7771],[-81.7617,30.7757],[-81.7585,30.7711],[-81.75,30.7671],[-81.744,30.7664],[-81.7404,30.7636],[-81.742,30.7591],[-81.7323,30.7553],[-81.7328,30.7505],[-81.7293,30.7483],[-81.7199,30.7446],[-81.7091,30.748],[-81.7025,30.7454],[-81.6948,30.7484],[-81.6924,30.7476],[-81.691,30.7433],[-81.6884,30.7415],[-81.6801,30.7416],[-81.6728,30.7389],[-81.6701,30.7402],[-81.6691,30.745],[-81.6725,30.7484],[-81.6793,30.7447],[-81.6824,30.7455],[-81.6831,30.7485],[-81.6784,30.7511],[-81.6698,30.7517],[-81.6633,30.7544],[-81.6608,30.7532],[-81.6598,30.7494],[-81.6635,30.7457],[-81.6627,30.743],[-81.6599,30.7422],[-81.6546,30.7444],[-81.6515,30.7407],[-81.6541,30.7331],[-81.6531,30.7298],[-81.649,30.7275],[-81.6419,30.7289],[-81.6381,30.7334],[-81.635,30.7333],[-81.6328,30.7288],[-81.6291,30.7287],[-81.6283,30.7354],[-81.6244,30.7363],[-81.6208,30.7316],[-81.6235,30.7247],[-81.6211,30.7225],[-81.6151,30.7227],[-81.6107,30.7162],[-81.6076,30.7164],[-81.6058,30.7197],[-81.606,30.7262],[-81.6043,30.7289],[-81.6009,30.7294],[-81.5965,30.7273],[-81.5971,30.7193],[-81.5938,30.7185],[-81.5893,30.7228],[-81.5868,30.7237],[-81.5737,30.7223],[-81.5684,30.719],[-81.5638,30.7177],[-81.5635,30.7134],[-81.5607,30.7117],[-81.5561,30.7138],[-81.5493,30.7183],[-81.5461,30.717],[-81.5416,30.7101],[-81.5384,30.7087],[-81.5338,30.7121],[-81.5345,30.7179],[-81.5334,30.7234],[-81.5312,30.7242],[-81.5161,30.7222],[-81.5072,30.7229],[-81.4895,30.7261],[-81.4838,30.7239],[-81.4758,30.7148],[-81.4645,30.711],[-81.4487,30.7094],[-81.4441,30.7097],[-81.438,30.705],[-81.4292,30.7007],[-81.4258,30.7005],[-81.4276,30.6923],[-81.4279,30.6837],[-81.4292,30.6708],[-81.4321,30.6548],[-81.437,30.6314],[-81.4419,30.6014],[-81.4434,30.5705],[-81.4419,30.5527],[-81.4396,30.5416],[-81.4358,30.5261],[-81.4376,30.5187],[-81.4413,30.5175],[-81.4466,30.5231],[-81.4555,30.522],[-81.4598,30.5247]]]}},{"type":"Feature","properties":{"id":"12003","name":"Baker Co."},"geometry":{"type":"Polygon","coordinates":[[[-82.0501,30.3614],[-82.0497,30.2924],[-82.0492,30.2734],[-82.0493,30.2733],[-82.0494,30.1869],[-82.0494,30.1431],[-82.1426,30.1431],[-82.2121,30.1425],[-82.2158,30.1427],[-82.287,30.1417],[-82.3594,30.141],[-82.3594,30.1393],[-82.4437,30.1381],[-82.4584,30.1364],[-82.4575,30.2572],[-82.4576,30.2867],[-82.4579,30.2931],[-82.4577,30.3155],[-82.4583,30.4428],[-82.4571,30.4428],[-82.4595,30.5808],[-82.4598,30.5843],[-82.3748,30.579],[-82.2581,30.5716],[-82.2148,30.5686],[-82.2173,30.5652],[-82.2228,30.5656],[-82.2283,30.5626],[-82.2344,30.5566],[-82.2344,30.549],[-82.2389,30.5454],[-82.2404,30.5378],[-82.2361,30.5312],[-82.2308,30.5268],[-82.2294,30.5208],[-82.2304,30.5173],[-82.225,30.5078],[-82.2185,30.5042],[-82.2064,30.4919],[-82.2014,30.4852],[-82.2009,30.4744],[-82.2046,30.4689],[-82.2077,30.4605],[-82.2075,30.4569],[-82.2048,30.4518],[-82.204,30.4445],[-82.2065,30.4371],[-82.2099,30.4328],[-82.2103,30.4246],[-82.2042,30.4013],[-82.1965,30.3893],[-82.1923,30.3846],[-82.1929,30.3788],[-82.1888,30.3766],[-82.1846,30.3772],[-82.1838,30.3737],[-82.18,30.3686],[-82.1701,30.3589],[-82.1618,30.3579],[-82.1581,30.3599],[-82.1433,30.3634],[-82.1164,30.3673],[-82.1048,30.3683],[-82.1018,30.3653],[-82.0947,30.3608],[-82.0811,30.3588],[-82.0685,30.3592],[-82.05,30.3624],[-82.0501,30.3614]]]}},{"type":"Feature","properties":{"id":"12109","name":"St. Johns Co."},"geometry":{"type":"Polygon","coordinates":[[[-81.6505,30.1215],[-81.6292,30.1315],[-81.6237,30.1336],[-81.6123,30.1329],[-81.6012,30.1305],[-81.5905,30.1258],[-81.5809,30.1261],[-81.5737,30.1206],[-81.5678,30.1178],[-81.56,30.117],[-81.539,30.1199],[-81.5387,30.1037],[-81.479,30.1048],[-81.4347,30.1053],[-81.4337,30.106],[-81.4369,30.2523],[-81.4301,30.2522],[-81.3799,30.2529],[-81.3556,30.1626],[-81.3308,30.0592],[-81.325,30.0325],[-81.3169,30.0011],[-81.309,29.9694],[-81.2997,29.94],[-81.2953,29.9286],[-81.289,29.9152],[-81.2774,29.904],[-81.2751,29.8988],[-81.2751,29.8938],[-81.2729,29.8837],[-81.2666,29.8604],[-81.2656,29.8587],[-81.2649,29.8453],[-81.2606,29.8063],[-81.2583,29.7945],[-81.2539,29.7769],[-81.2404,29.7395],[-81.229,29.7147],[-81.2267,29.7112],[-81.2262,29.7071],[-81.2129,29.6707],[-81.2273,29.6705],[-81.2317,29.6634],[-81.2375,29.6626],[-81.2473,29.6591],[-81.2514,29.6624],[-81.2534,29.6616],[-81.2577,29.6645],[-81.2577,29.6674],[-81.2618,29.6687],[-81.2626,29.6662],[-81.2684,29.6631],[-81.2696,29.6598],[-81.2723,29.6606],[-81.2714,29.6563],[-81.2759,29.6545],[-81.2745,29.6527],[-81.2821,29.6504],[-81.2867,29.6513],[-81.2905,29.6497],[-81.2977,29.6511],[-81.302,29.6498],[-81.3059,29.6426],[-81.3114,29.6428],[-81.3185,29.6513],[-81.3243,29.6535],[-81.3241,29.6256],[-81.3696,29.6252],[-81.4581,29.6233],[-81.4945,29.6227],[-81.5237,29.6224],[-81.5239,29.6315],[-81.5243,29.6887],[-81.5245,29.6908],[-81.5252,29.7595],[-81.5334,29.7639],[-81.5412,29.77],[-81.5443,29.7791],[-81.55,29.7854],[-81.5621,29.7956],[-81.5665,29.8029],[-81.5718,29.8153],[-81.5812,29.8402],[-81.599,29.8754],[-81.6055,29.8965],[-81.6082,29.9094],[-81.6084,29.9157],[-81.606,29.9231],[-81.5999,29.9366],[-81.5987,29.943],[-81.601,29.956],[-81.6049,29.9635],[-81.6101,29.9702],[-81.6177,29.9766],[-81.6244,29.9813],[-81.658,30.0001],[-81.6711,30.0072],[-81.6782,30.0122],[-81.6828,30.0167],[-81.6867,30.023],[-81.6889,30.0286],[-81.6905,30.0428],[-81.6893,30.063],[-81.6806,30.0827],[-81.6802,30.0899],[-81.6816,30.0993],[-81.6817,30.1062],[-81.68,30.1191],[-81.6802,30.1212],[-81.6505,30.1215]]]}},{"type":"Feature","properties":{"id":"12019","name":"Clay Co."},"geometry":{"type":"Polygon","coordinates":[[[-81.9555,30.1863],[-81.9204,30.1869],[-81.8459,30.1885],[-81.8027,30.1891],[-81.7389,30.1893],[-81.7335,30.1935],[-81.7252,30.191],[-81.7088,30.1912],[-81.7033,30.1891],[-81.7026,30.1915],[-81.6796,30.1905],[-81.6817,30.1814],[-81.6905,30.1719],[-81.6902,30.1613],[-81.6921,30.1447],[-81.6918,30.1423],[-81.6802,30.1212],[-81.68,30.1191],[-81.6817,30.1062],[-81.6816,30.0993],[-81.6802,30.0899],[-81.6806,30.0827],[-81.6893,30.063],[-81.6905,30.0428],[-81.6889,30.0286],[-81.6867,30.023],[-81.6828,30.0167],[-81.6782,30.0122],[-81.6711,30.0072],[-81.658,30.0001],[-81.6244,29.9813],[-81.6177,29.9766],[-81.6101,29.9702],[-81.6049,29.9635],[-81.601,29.956],[-81.5987,29.943],[-81.5999,29.9366],[-81.606,29.9231],[-81.6084,29.9157],[-81.6082,29.9094],[-81.6055,29.8965],[-81.599,29.8754],[-81.5812,29.8402],[-81.7573,29.8371],[-81.8124,29.8365],[-81.8191,29.8302],[-81.8219,29.8263],[-81.8279,29.8244],[-81.837,29.8161],[-81.8472,29.8095],[-81.8533,29.807],[-81.8601,29.8026],[-81.862,29.8002],[-81.8703,29.8009],[-81.8907,29.7982],[-81.9002,29.7941],[-81.9047,29.7931],[-81.9093,29.7936],[-81.9142,29.7914],[-81.9202,29.7862],[-81.9235,29.7809],[-81.9249,29.7748],[-81.9278,29.7677],[-81.9283,29.7611],[-81.9311,29.7561],[-81.9394,29.7475],[-81.9762,29.7471],[-81.9859,29.745],[-81.9859,29.7437],[-81.9911,29.744],[-82.0071,29.7395],[-82.0249,29.7252],[-82.0289,29.7187],[-82.0492,29.7187],[-82.0461,29.7471],[-82.0465,29.769],[-82.0464,29.7901],[-82.0468,29.7982],[-82.0465,29.8196],[-82.0469,29.8275],[-82.0474,29.8649],[-82.0483,29.9385],[-82.0484,29.9738],[-82.0478,29.978],[-82.0477,29.9937],[-82.0492,30.0559],[-82.0494,30.1431],[-82.0494,30.1869],[-81.9555,30.1863]]]}}]}