{"type":"FeatureCollection","features":[{"type":"Feature","properties":{"id":"36091","name":"Saratoga Co."},"geometry":{"type":"Polygon","coordinates":[[[-73.64,42.9394],[-73.6507,42.9383],[-73.6597,42.9334],[-73.6629,42.9296],[-73.6634,42.9268],[-73.6789,42.9122],[-73.6837,42.9013],[-73.6845,42.8928],[-73.6798,42.8823],[-73.6732,42.8753],[-73.6738,42.8668],[-73.6759,42.8586],[-73.6738,42.8555],[-73.672,42.8439],[-73.6706,42.8397],[-73.6677,42.8365],[-73.6644,42.8303],[-73.663,42.8254],[-73.6597,42.819],[-73.6602,42.8168],[-73.6585,42.8091],[-73.6614,42.803],[-73.6674,42.8002],[-73.6724,42.7958],[-73.6735,42.7903],[-73.6768,42.7833],[-73.6803,42.7834],[-73.684,42.7787],[-73.6892,42.7754],[-73.6968,42.7783],[-73.7032,42.7825],[-73.709,42.7877],[-73.7114,42.7952],[-73.7199,42.8013],[-73.7204,42.8042],[-73.7167,42.8082],[-73.7214,42.8131],[-73.7222,42.8197],[-73.7267,42.8226],[-73.7377,42.8189],[-73.7484,42.8053],[-73.7502,42.8014],[-73.7585,42.7953],[-73.7635,42.7886],[-73.7688,42.7859],[-73.7774,42.7918],[-73.7825,42.7918],[-73.7871,42.7897],[-73.7936,42.7826],[-73.7995,42.7789],[-73.8094,42.7789],[-73.8222,42.7803],[-73.8285,42.7849],[-73.8291,42.7902],[-73.8322,42.7931],[-73.8416,42.7979],[-73.8459,42.8044],[-73.8527,42.8115],[-73.8585,42.82],[-73.8668,42.8284],[-73.8759,42.8343],[-73.8797,42.8486],[-73.8818,42.8509],[-73.888,42.8502],[-73.8959,42.8511],[-73.9009,42.8886],[-73.9044,42.9112],[-73.9185,42.9104],[-73.9345,42.9055],[-73.9457,42.9007],[-73.9555,42.8973],[-73.9648,42.9021],[-73.9768,42.9159],[-73.9952,42.9277],[-74.0065,42.9341],[-74.019,42.9388],[-74.0329,42.9431],[-74.0423,42.9484],[-74.0556,42.9533],[-74.0881,42.9553],[-74.093,42.9559],[-74.0951,42.9681],[-74.1142,43.0891],[-74.1281,43.1774],[-74.136,43.2288],[-74.1435,43.274],[-74.1501,43.312],[-74.1601,43.3715],[-74.0004,43.3868],[-73.9049,43.3959],[-73.884,43.398],[-73.8787,43.3909],[-73.8774,43.3866],[-73.8746,43.3845],[-73.8728,43.3766],[-73.871,43.3725],[-73.8752,43.3657],[-73.8751,43.3619],[-73.8734,43.3597],[-73.8657,43.3552],[-73.8643,43.3518],[-73.864,43.3455],[-73.8592,43.343],[-73.8533,43.3378],[-73.8543,43.3348],[-73.859,43.3303],[-73.8586,43.3281],[-73.8549,43.3253],[-73.8494,43.3239],[-73.8432,43.3189],[-73.8424,43.3147],[-73.8404,43.3132],[-73.8369,43.3066],[-73.8335,43.3049],[-73.8258,43.3053],[-73.8248,43.2991],[-73.8266,43.293],[-73.8275,43.2846],[-73.8252,43.2789],[-73.8261,43.2761],[-73.8327,43.2709],[-73.8356,43.2658],[-73.8358,43.2538],[-73.8329,43.2491],[-73.8266,43.2457],[-73.821,43.248],[-73.8195,43.2506],[-73.8084,43.2509],[-73.8033,43.2503],[-73.7929,43.2462],[-73.7881,43.243],[-73.7795,43.2349],[-73.7758,43.228],[-73.7691,43.2223],[-73.7653,43.2228],[-73.7602,43.2319],[-73.7509,43.2373],[-73.744,43.2427],[-73.7411,43.2494],[-73.7379,43.2547],[-73.7399,43.2613],[-73.7398,43.2656],[-73.7328,43.2699],[-73.7217,43.2727],[-73.7112,43.2736],[-73.7049,43.279],[-73.6984,43.2784],[-73.6948,43.2792],[-73.6919,43.2836],[-73.6886,43.2843],[-73.6855,43.2828],[-73.6817,43.272],[-73.6813,43.2681],[-73.6765,43.2633],[-73.6721,43.2632],[-73.6681,43.2647],[-73.664,43.2683],[-73.6618,43.2726],[-73.6732,43.2821],[-73.6712,43.2902],[-73.6679,43.2917],[-73.6605,43.2906],[-73.6531,43.2913],[-73.6514,43.2901],[-73.6419,43.2933],[-73.6428,43.3042],[-73.6359,43.307],[-73.6286,43.304],[-73.6098,43.3065],[-73.5995,43.3066],[-73.5947,43.3059],[-73.5888,43.3005],[-73.5892,43.2974],[-73.5927,43.2951],[-73.5951,43.2909],[-73.5971,43.2841],[-73.6,43.2798],[-73.6007,43.2688],[-73.596,43.2691],[-73.5891,43.2637],[-73.5872,43.2597],[-73.5879,43.2535],[-73.5971,43.2444],[-73.5975,43.241],[-73.5931,43.2322],[-73.5893,43.2308],[-73.586,43.2274],[-73.5843,43.2224],[-73.5815,43.2189],[-73.581,43.2136],[-73.5793,43.2089],[-73.5832,43.2023],[-73.5857,43.1931],[-73.5823,43.1896],[-73.581,43.1825],[-73.5838,43.1768],[-73.5886,43.173],[-73.5898,43.1705],[-73.5877,43.1668],[-73.5838,43.1661],[-73.584,43.1628],[-73.5804,43.1564],[-73.5802,43.1529],[-73.5849,43.1479],[-73.5908,43.1395],[-73.5898,43.1315],[-73.5866,43.1281],[-73.5856,43.1237],[-73.5772,43.119],[-73.5755,43.1149],[-73.5761,43.1105],[-73.5733,43.1005],[-73.5737,43.0984],[-73.5782,43.0906],[-73.5755,43.084],[-73.5758,43.0804],[-73.5811,43.073],[-73.5817,43.0687],[-73.5779,43.0587],[-73.5782,43.0558],[-73.5809,43.0526],[-73.5858,43.0497],[-73.587,43.0427],[-73.5908,43.0358],[-73.5916,43.032],[-73.5909,43.0232],[-73.5936,43.0143],[-73.5974,43.0074],[-73.6051,43.0014],[-73.6076,42.9948],[-73.6086,42.9839],[-73.6103,42.9813],[-73.6294,42.9721],[-73.6315,42.9697],[-73.6287,42.9592],[-73.6297,42.9503],[-73.6323,42.9444],[-73.6355,42.9413],[-73.64,42.9394]]]}},{"type":"Feature","properties":{"id":"36001","name":"Albany Co."},"geometry":{"type":"Polygon","coordinates":[[[-74.1065,42.7392],[-74.0385,42.7474],[-73.994,42.753],[-73.9602,42.7576],[-73.93,42.7611],[-73.9068,42.7634],[-73.8096,42.775],[-73.8094,42.7789],[-73.7995,42.7789],[-73.7936,42.7826],[-73.7871,42.7897],[-73.7825,42.7918],[-73.7774,42.7918],[-73.7688,42.7859],[-73.7635,42.7886],[-73.7585,42.7953],[-73.7502,42.8014],[-73.7484,42.8053],[-73.7377,42.8189],[-73.7267,42.8226],[-73.7222,42.8197],[-73.7214,42.8131],[-73.7167,42.8082],[-73.7204,42.8042],[-73.7199,42.8013],[-73.7114,42.7952],[-73.709,42.7877],[-73.7032,42.7825],[-73.6968,42.7783],[-73.6892,42.7754],[-73.684,42.7787],[-73.6803,42.7834],[-73.6768,42.7833],[-73.6818,42.7717],[-73.6844,42.7639],[-73.6844,42.7579],[-73.6871,42.7517],[-73.689,42.7383],[-73.69,42.7356],[-73.6972,42.7289],[-73.7036,42.7095],[-73.7024,42.701],[-73.7065,42.6941],[-73.7164,42.6824],[-73.725,42.6702],[-73.7309,42.6633],[-73.7404,42.6561],[-73.7466,42.6462],[-73.7512,42.6361],[-73.753,42.6287],[-73.7613,42.6104],[-73.7613,42.6008],[-73.7573,42.5872],[-73.7544,42.5826],[-73.7524,42.5767],[-73.7522,42.5667],[-73.7541,42.5568],[-73.7565,42.5487],[-73.7583,42.5342],[-73.7631,42.522],[-73.7667,42.518],[-73.7759,42.5058],[-73.7846,42.4899],[-73.786,42.4838],[-73.7857,42.4716],[-73.7837,42.4642],[-73.8368,42.4586],[-73.876,42.4529],[-73.9307,42.4452],[-73.948,42.4432],[-73.9958,42.4383],[-74.0287,42.4345],[-74.1173,42.4236],[-74.1264,42.423],[-74.1754,42.417],[-74.2543,42.4082],[-74.2635,42.4071],[-74.2647,42.4201],[-74.2524,42.4454],[-74.2445,42.4702],[-74.2416,42.472],[-74.2364,42.4855],[-74.2285,42.4944],[-74.2264,42.4992],[-74.225,42.5086],[-74.2256,42.5264],[-74.2291,42.529],[-74.2382,42.5439],[-74.2416,42.5508],[-74.237,42.5601],[-74.2376,42.5631],[-74.234,42.5757],[-74.2203,42.5854],[-74.2196,42.5914],[-74.2152,42.5974],[-74.2105,42.601],[-74.2052,42.6074],[-74.1935,42.619],[-74.1926,42.6271],[-74.1793,42.6464],[-74.1697,42.6674],[-74.1685,42.6743],[-74.1695,42.6914],[-74.1647,42.7172],[-74.1803,42.73],[-74.1065,42.7392]]]}},{"type":"Feature","properties":{"id":"36083","name":"Rensselaer Co."},"geometry":{"type":"Polygon","coordinates":[[[-73.6735,42.7903],[-73.6724,42.7958],[-73.6674,42.8002],[-73.6614,42.803],[-73.6585,42.8091],[-73.6602,42.8168],[-73.6597,42.819],[-73.663,42.8254],[-73.6644,42.8303],[-73.6677,42.8365],[-73.6706,42.8397],[-73.672,42.8439],[-73.6738,42.8555],[-73.6759,42.8586],[-73.6738,42.8668],[-73.6732,42.8753],[-73.6798,42.8823],[-73.6845,42.8928],[-73.6837,42.9013],[-73.6789,42.9122],[-73.6634,42.9268],[-73.6629,42.9296],[-73.6597,42.9334],[-73.6507,42.9383],[-73.64,42.9394],[-73.6355,42.9413],[-73.6246,42.9412],[-73.5957,42.9419],[-73.4988,42.9437],[-73.4645,42.9443],[-73.4623,42.9448],[-73.4506,42.9446],[-73.4493,42.9453],[-73.4493,42.9512],[-73.4406,42.9537],[-73.4332,42.9582],[-73.4268,42.9585],[-73.4249,42.956],[-73.4207,42.9549],[-73.4121,42.9574],[-73.4056,42.9561],[-73.4038,42.9515],[-73.3981,42.9531],[-73.3921,42.9526],[-73.3889,42.9482],[-73.3841,42.9472],[-73.3794,42.9476],[-73.3802,42.9437],[-73.3681,42.944],[-73.2743,42.9437],[-73.2758,42.8972],[-73.2787,42.8334],[-73.2843,42.835],[-73.2854,42.8341],[-73.2871,42.8201],[-73.2837,42.8139],[-73.2863,42.808],[-73.2909,42.8019],[-73.2764,42.746],[-73.265,42.7459],[-73.3525,42.51],[-73.3789,42.5076],[-73.4625,42.4988],[-73.4976,42.4952],[-73.4999,42.4948],[-73.5544,42.4882],[-73.6081,42.482],[-73.7378,42.4687],[-73.7837,42.4642],[-73.7857,42.4716],[-73.786,42.4838],[-73.7846,42.4899],[-73.7759,42.5058],[-73.7667,42.518],[-73.7631,42.522],[-73.7583,42.5342],[-73.7565,42.5487],[-73.7541,42.5568],[-73.7522,42.5667],[-73.7524,42.5767],[-73.7544,42.5826],[-73.7573,42.5872],[-73.7613,42.6008],[-73.7613,42.6104],[-73.753,42.6287],[-73.7512,42.6361],[-73.7466,42.6462],[-73.7404,42.6561],[-73.7309,42.6633],[-73.725,42.6702],[-73.7164,42.6824],[-73.7065,42.6941],[-73.7024,42.701],[-73.7036,42.7095],[-73.6972,42.7289],[-73.69,42.7356],[-73.689,42.7383],[-73.6871,42.7517],[-73.6844,42.7579],[-73.6844,42.7639],[-73.6818,42.7717],[-73.6768,42.7833],[-73.6735,42.7903]]]}},{"type":"Feature","properties":{"id":"36095","name":"Schoharie Co."},"geometry":{"type":"Polygon","coordinates":[[[-74.2605,42.7951],[-74.2565,42.7959],[-74.2539,42.7945],[-74.2534,42.7905],[-74.2481,42.7869],[-74.2481,42.7846],[-74.2516,42.7809],[-74.2544,42.776],[-74.2544,42.7722],[-74.2515,42.7661],[-74.2585,42.7574],[-74.2638,42.7556],[-74.2697,42.7574],[-74.287,42.7567],[-74.2932,42.7558],[-74.3048,42.7522],[-74.3067,42.7501],[-74.3052,42.7472],[-74.2822,42.7242],[-74.2778,42.7195],[-74.2708,42.7195],[-74.2723,42.7143],[-74.241,42.7169],[-74.2398,42.7189],[-74.2027,42.7108],[-74.1843,42.7125],[-74.1803,42.73],[-74.1647,42.7172],[-74.1695,42.6914],[-74.1685,42.6743],[-74.1697,42.6674],[-74.1793,42.6464],[-74.1926,42.6271],[-74.1935,42.619],[-74.2052,42.6074],[-74.2105,42.601],[-74.2152,42.5974],[-74.2196,42.5914],[-74.2203,42.5854],[-74.234,42.5757],[-74.2376,42.5631],[-74.237,42.5601],[-74.2416,42.5508],[-74.2382,42.5439],[-74.2291,42.529],[-74.2256,42.5264],[-74.225,42.5086],[-74.2264,42.4992],[-74.2285,42.4944],[-74.2364,42.4855],[-74.2416,42.472],[-74.2445,42.4702],[-74.2524,42.4454],[-74.2647,42.4201],[-74.2635,42.4071],[-74.2543,42.4082],[-74.2447,42.3772],[-74.247,42.3792],[-74.2551,42.3798],[-74.2589,42.3792],[-74.2654,42.3746],[-74.2695,42.3684],[-74.2766,42.3633],[-74.284,42.3618],[-74.293,42.3612],[-74.2995,42.3626],[-74.3085,42.3598],[-74.3126,42.3571],[-74.3175,42.36],[-74.3248,42.3598],[-74.3294,42.3574],[-74.341,42.3585],[-74.3461,42.3557],[-74.352,42.3603],[-74.3553,42.3611],[-74.3572,42.3647],[-74.3717,42.3701],[-74.3762,42.3707],[-74.3791,42.3739],[-74.384,42.3726],[-74.4435,42.355],[-74.4763,42.3682],[-74.5675,42.4042],[-74.6189,42.4244],[-74.6716,42.4777],[-74.7116,42.5178],[-74.672,42.5648],[-74.6556,42.5891],[-74.6405,42.6123],[-74.6307,42.6268],[-74.6346,42.6478],[-74.6593,42.7275],[-74.6675,42.7507],[-74.668,42.7646],[-74.6652,42.7922],[-74.6483,42.8296],[-74.5977,42.8196],[-74.5625,42.8129],[-74.5208,42.7976],[-74.4549,42.773],[-74.3247,42.7834],[-74.2894,42.7838],[-74.2633,42.7965],[-74.2605,42.7951]]]}},{"type":"Feature","properties":{"id":"36093","name":"Schenectady Co."},"geometry":{"type":"Polygon","coordinates":[[[-74.2647,42.7997],[-74.2585,42.8024],[-74.2548,42.8085],[-74.2568,42.8122],[-74.2383,42.8214],[-74.1788,42.8506],[-74.1252,42.8766],[-74.0839,42.8974],[-74.0883,42.9273],[-74.093,42.9559],[-74.0881,42.9553],[-74.0556,42.9533],[-74.0423,42.9484],[-74.0329,42.9431],[-74.019,42.9388],[-74.0065,42.9341],[-73.9952,42.9277],[-73.9768,42.9159],[-73.9648,42.9021],[-73.9555,42.8973],[-73.9457,42.9007],[-73.9345,42.9055],[-73.9185,42.9104],[-73.9044,42.9112],[-73.9009,42.8886],[-73.8959,42.8511],[-73.888,42.8502],[-73.8818,42.8509],[-73.8797,42.8486],[-73.8759,42.8343],[-73.8668,42.8284],[-73.8585,42.82],[-73.8527,42.8115],[-73.8459,42.8044],[-73.8416,42.7979],[-73.8322,42.7931],[-73.8291,42.7902],[-73.8285,42.7849],[-73.8222,42.7803],[-73.8094,42.7789],[-73.8096,42.775],[-73.9068,42.7634],[-73.93,42.7611],[-73.9602,42.7576],[-73.994,42.753],[-74.0385,42.7474],[-74.1065,42.7392],[-74.1803,42.73],[-74.1843,42.7125],[-74.2027,42.7108],[-74.2398,42.7189],[-74.241,42.7169],[-74.2723,42.7143],[-74.2708,42.7195],[-74.2778,42.7195],[-74.2822,42.7242],[-74.3052,42.7472],[-74.3067,42.7501],[-74.3048,42.7522],[-74.2932,42.7558],[-74.287,42.7567],[-74.2697,42.7574],[-74.2638,42.7556],[-74.2585,42.7574],[-74.2515,42.7661],[-74.2544,42.7722],[-74.2544,42.776],[-74.2516,42.7809],[-74.2481,42.7846],[-74.2481,42.7869],[-74.2534,42.7905],[-74.2539,42.7945],[-74.2565,42.7959],[-74.2605,42.7951],[-74.2633,42.7965],[-74.2647,42.7997]]]}}]}