{"type":"FeatureCollection","features":[{"type":"Feature","properties":{"id":"24005","name":"Baltimore Co."},"geometry":{"type":"MultiPolygon","coordinates":[[[[-76.3214,39.3129],[-76.3248,39.3128],[-76.3257,39.314],[-76.3214,39.3129]]],[[[-76.3788,39.249],[-76.3569,39.261],[-76.3534,39.261],[-76.3438,39.2573],[-76.348,39.2501],[-76.3715,39.238],[-76.3754,39.2379],[-76.3812,39.2396],[-76.3847,39.2422],[-76.3855,39.2476],[-76.3788,39.249]]],[[[-76.3906,39.2337],[-76.3934,39.2319],[-76.3944,39.234],[-76.3906,39.2337]]],[[[-76.7156,39.7211],[-76.5694,39.7212],[-76.5679,39.6852],[-76.5674,39.6843],[-76.5658,39.6255],[-76.5652,39.6145],[-76.5629,39.6062],[-76.5595,39.5977],[-76.5601,39.5961],[-76.556,39.5939],[-76.5532,39.5894],[-76.5478,39.5882],[-76.5435,39.5786],[-76.5439,39.575],[-76.5413,39.575],[-76.5404,39.5691],[-76.5368,39.5655],[-76.5361,39.5618],[-76.5323,39.5616],[-76.5311,39.5554],[-76.5341,39.5546],[-76.5341,39.5513],[-76.5321,39.5513],[-76.5322,39.544],[-76.528,39.5436],[-76.5259,39.54],[-76.522,39.5389],[-76.5225,39.5367],[-76.519,39.5367],[-76.5165,39.5292],[-76.5126,39.529],[-76.5106,39.5246],[-76.505,39.5251],[-76.499,39.5235],[-76.4965,39.526],[-76.4894,39.5241],[-76.4836,39.5195],[-76.4787,39.5186],[-76.4777,39.5146],[-76.4748,39.5173],[-76.4694,39.5139],[-76.4633,39.5125],[-76.4602,39.5106],[-76.4602,39.5076],[-76.4536,39.5069],[-76.448,39.5085],[-76.4401,39.503],[-76.437,39.502],[-76.4322,39.5066],[-76.4279,39.5017],[-76.4286,39.4976],[-76.4336,39.4923],[-76.4331,39.4883],[-76.4292,39.4883],[-76.4248,39.4811],[-76.4209,39.4784],[-76.4112,39.4785],[-76.4085,39.4765],[-76.4081,39.4726],[-76.405,39.474],[-76.4018,39.4727],[-76.4003,39.4691],[-76.3955,39.4683],[-76.3917,39.4645],[-76.3903,39.4597],[-76.3867,39.4597],[-76.3865,39.4555],[-76.3888,39.4538],[-76.3831,39.4504],[-76.3789,39.4454],[-76.3796,39.4382],[-76.3776,39.4362],[-76.3783,39.4327],[-76.381,39.4295],[-76.3803,39.4248],[-76.373,39.4212],[-76.3702,39.4153],[-76.3719,39.4051],[-76.3663,39.4042],[-76.3652,39.4018],[-76.3611,39.4003],[-76.3588,39.3903],[-76.3576,39.3897],[-76.3574,39.3856],[-76.3593,39.3814],[-76.3537,39.3804],[-76.3501,39.3752],[-76.3439,39.3756],[-76.3378,39.3733],[-76.34,39.3686],[-76.3388,39.3661],[-76.341,39.3599],[-76.3455,39.3583],[-76.3373,39.3463],[-76.3342,39.3397],[-76.3306,39.3354],[-76.3339,39.3339],[-76.3369,39.3388],[-76.345,39.3403],[-76.3494,39.3392],[-76.3493,39.3341],[-76.3526,39.3294],[-76.3518,39.3265],[-76.3454,39.328],[-76.3421,39.3259],[-76.3334,39.3241],[-76.334,39.3201],[-76.3292,39.315],[-76.3361,39.3144],[-76.34,39.3113],[-76.3383,39.3065],[-76.34,39.3045],[-76.3441,39.3108],[-76.3473,39.3141],[-76.3482,39.3176],[-76.3511,39.3159],[-76.3514,39.312],[-76.3535,39.3104],[-76.3555,39.3122],[-76.3557,39.3159],[-76.3608,39.3197],[-76.3653,39.3217],[-76.3709,39.3207],[-76.3663,39.3158],[-76.3644,39.3118],[-76.3711,39.3042],[-76.3802,39.2986],[-76.3833,39.2983],[-76.3849,39.3019],[-76.3815,39.3059],[-76.3839,39.3084],[-76.3915,39.3081],[-76.3933,39.3041],[-76.3988,39.3093],[-76.4029,39.3083],[-76.4029,39.3114],[-76.4088,39.3117],[-76.411,39.3082],[-76.4106,39.3042],[-76.4081,39.3001],[-76.4024,39.2995],[-76.399,39.297],[-76.3992,39.2923],[-76.3933,39.2863],[-76.387,39.287],[-76.3826,39.2865],[-76.3816,39.2843],[-76.3835,39.2813],[-76.3828,39.2775],[-76.3849,39.2759],[-76.3889,39.278],[-76.3933,39.2777],[-76.3992,39.2703],[-76.3951,39.2693],[-76.3954,39.2668],[-76.4049,39.2555],[-76.4041,39.2524],[-76.4009,39.249],[-76.4045,39.2493],[-76.4081,39.2471],[-76.4106,39.249],[-76.4157,39.2478],[-76.4227,39.2529],[-76.427,39.2549],[-76.4366,39.2534],[-76.4434,39.2559],[-76.4471,39.2528],[-76.4463,39.251],[-76.4508,39.2491],[-76.4511,39.2467],[-76.4466,39.2456],[-76.4446,39.2476],[-76.4407,39.2453],[-76.4443,39.243],[-76.4431,39.2411],[-76.44,39.2416],[-76.4301,39.2391],[-76.424,39.2352],[-76.4225,39.2325],[-76.4102,39.2315],[-76.406,39.2331],[-76.4015,39.2378],[-76.3981,39.237],[-76.4011,39.2327],[-76.3991,39.229],[-76.4097,39.2251],[-76.4177,39.2198],[-76.4219,39.2106],[-76.4253,39.2057],[-76.4365,39.2022],[-76.4425,39.1954],[-76.4477,39.1977],[-76.4496,39.2038],[-76.4441,39.2104],[-76.4448,39.2154],[-76.4468,39.2183],[-76.4579,39.2191],[-76.4625,39.2158],[-76.4615,39.2041],[-76.4635,39.2059],[-76.4801,39.2051],[-76.492,39.2014],[-76.4957,39.2019],[-76.501,39.2094],[-76.5009,39.2142],[-76.4969,39.215],[-76.4963,39.2217],[-76.4991,39.223],[-76.4974,39.2269],[-76.5032,39.2321],[-76.5069,39.2322],[-76.5126,39.2285],[-76.5166,39.2323],[-76.5172,39.2416],[-76.5223,39.2424],[-76.5296,39.2403],[-76.5298,39.2558],[-76.5298,39.2991],[-76.53,39.3196],[-76.5297,39.3233],[-76.5298,39.3721],[-76.5835,39.3721],[-76.5979,39.3718],[-76.6098,39.3722],[-76.6262,39.372],[-76.7113,39.3719],[-76.7114,39.3495],[-76.711,39.3364],[-76.7115,39.3346],[-76.711,39.2896],[-76.7111,39.2779],[-76.6974,39.2722],[-76.6734,39.2613],[-76.6442,39.2489],[-76.6326,39.2434],[-76.6186,39.2374],[-76.6301,39.2246],[-76.6371,39.2235],[-76.6472,39.229],[-76.6587,39.231],[-76.6645,39.2306],[-76.6699,39.2284],[-76.6775,39.2218],[-76.681,39.22],[-76.6877,39.2213],[-76.6928,39.2198],[-76.697,39.2171],[-76.6971,39.2141],[-76.7004,39.213],[-76.7052,39.2157],[-76.7067,39.2212],[-76.7131,39.2217],[-76.7173,39.2255],[-76.7222,39.2264],[-76.7246,39.2286],[-76.7299,39.229],[-76.7335,39.2309],[-76.7401,39.2324],[-76.7432,39.2364],[-76.7499,39.2416],[-76.7518,39.2445],[-76.7572,39.2475],[-76.7632,39.2463],[-76.7647,39.2476],[-76.7638,39.2513],[-76.7689,39.2527],[-76.7717,39.2552],[-76.782,39.2583],[-76.789,39.2639],[-76.7945,39.2666],[-76.7944,39.2703],[-76.7906,39.2722],[-76.7888,39.2774],[-76.7852,39.2829],[-76.7854,39.2911],[-76.7846,39.2926],[-76.7786,39.295],[-76.7791,39.2971],[-76.7875,39.3002],[-76.7913,39.3038],[-76.7965,39.305],[-76.794,39.3068],[-76.7925,39.3115],[-76.7947,39.3143],[-76.8045,39.3167],[-76.8101,39.3152],[-76.8147,39.3179],[-76.8165,39.3132],[-76.8188,39.3135],[-76.8233,39.319],[-76.8293,39.3172],[-76.8327,39.3119],[-76.8355,39.312],[-76.8356,39.3158],[-76.8397,39.3153],[-76.844,39.3182],[-76.8494,39.3159],[-76.8539,39.3177],[-76.8554,39.3232],[-76.8624,39.3298],[-76.8666,39.3317],[-76.875,39.3322],[-76.8784,39.3363],[-76.8751,39.3377],[-76.8823,39.3502],[-76.8802,39.3497],[-76.8797,39.3568],[-76.8739,39.3561],[-76.8734,39.3572],[-76.8807,39.3605],[-76.8818,39.3628],[-76.878,39.3641],[-76.8794,39.3661],[-76.882,39.3643],[-76.8849,39.365],[-76.8865,39.3693],[-76.8889,39.3706],[-76.891,39.3767],[-76.8913,39.3822],[-76.8832,39.3858],[-76.8851,39.3881],[-76.8791,39.388],[-76.88,39.3949],[-76.8855,39.3976],[-76.8794,39.4023],[-76.8789,39.4039],[-76.8844,39.4046],[-76.8825,39.4088],[-76.8814,39.4174],[-76.8759,39.4176],[-76.8753,39.4205],[-76.8795,39.4202],[-76.8865,39.4217],[-76.8863,39.4259],[-76.8884,39.4254],[-76.8907,39.4286],[-76.8896,39.4302],[-76.8951,39.4284],[-76.8945,39.4345],[-76.8911,39.435],[-76.8943,39.4398],[-76.8873,39.4405],[-76.8918,39.4454],[-76.8885,39.4461],[-76.8823,39.4442],[-76.8818,39.4459],[-76.8764,39.4508],[-76.8794,39.4529],[-76.8839,39.4506],[-76.893,39.4553],[-76.8931,39.4574],[-76.8857,39.4564],[-76.892,39.4618],[-76.8869,39.4632],[-76.8845,39.4669],[-76.8886,39.4685],[-76.884,39.47],[-76.8818,39.4772],[-76.8769,39.4767],[-76.8754,39.479],[-76.8773,39.4809],[-76.8693,39.4825],[-76.8665,39.4876],[-76.8687,39.4895],[-76.8667,39.5009],[-76.8567,39.5316],[-76.8406,39.5756],[-76.8367,39.5874],[-76.8242,39.622],[-76.8068,39.6694],[-76.8034,39.678],[-76.7871,39.7208],[-76.7156,39.7211]]]]}},{"type":"Feature","properties":{"id":"24025","name":"Harford Co."},"geometry":{"type":"MultiPolygon","coordinates":[[[[-76.0895,39.5341],[-76.092,39.5349],[-76.0882,39.536],[-76.0895,39.5341]]],[[[-76.2699,39.2789],[-76.2699,39.2834],[-76.2667,39.2874],[-76.2664,39.2905],[-76.2604,39.2925],[-76.258,39.2878],[-76.2619,39.2841],[-76.2662,39.282],[-76.265,39.2795],[-76.2701,39.275],[-76.2723,39.2746],[-76.2699,39.2789]]],[[[-76.5171,39.7213],[-76.3956,39.7212],[-76.3806,39.7213],[-76.2333,39.7213],[-76.2293,39.7091],[-76.2243,39.7029],[-76.2127,39.6864],[-76.1955,39.6751],[-76.1931,39.6727],[-76.1866,39.6695],[-76.184,39.6666],[-76.1684,39.6561],[-76.1618,39.6496],[-76.1475,39.6194],[-76.136,39.6141],[-76.1357,39.6131],[-76.0887,39.5613],[-76.086,39.559],[-76.0762,39.5436],[-76.0836,39.5419],[-76.0886,39.5382],[-76.0961,39.5369],[-76.0982,39.5295],[-76.1048,39.5216],[-76.1056,39.5187],[-76.1111,39.5095],[-76.1112,39.506],[-76.1173,39.4961],[-76.1199,39.4944],[-76.1231,39.4889],[-76.1281,39.4867],[-76.1224,39.4814],[-76.1165,39.4814],[-76.1146,39.4836],[-76.1154,39.4869],[-76.1121,39.4862],[-76.1047,39.4788],[-76.0979,39.4752],[-76.0928,39.4765],[-76.0816,39.4779],[-76.0796,39.475],[-76.072,39.475],[-76.0693,39.4677],[-76.0641,39.4588],[-76.06,39.4499],[-76.0605,39.4483],[-76.0661,39.4468],[-76.0812,39.4367],[-76.0851,39.4414],[-76.0845,39.4435],[-76.0893,39.4451],[-76.094,39.4451],[-76.1003,39.4432],[-76.1022,39.4357],[-76.1048,39.4332],[-76.1168,39.4276],[-76.1219,39.4212],[-76.1315,39.4152],[-76.1363,39.411],[-76.1454,39.407],[-76.1464,39.4053],[-76.1588,39.4063],[-76.1621,39.4042],[-76.1649,39.3995],[-76.1741,39.3892],[-76.1759,39.3822],[-76.1801,39.3776],[-76.1867,39.3809],[-76.1969,39.3678],[-76.2036,39.364],[-76.2217,39.3564],[-76.227,39.3499],[-76.2338,39.352],[-76.2399,39.3614],[-76.2467,39.3622],[-76.2501,39.3613],[-76.2515,39.3661],[-76.2534,39.3667],[-76.2527,39.37],[-76.2485,39.3688],[-76.2458,39.3721],[-76.2481,39.3726],[-76.2534,39.3787],[-76.2498,39.3791],[-76.2447,39.3836],[-76.2466,39.3874],[-76.2498,39.3889],[-76.247,39.3923],[-76.2416,39.404],[-76.2427,39.4075],[-76.2378,39.4105],[-76.2364,39.4135],[-76.2301,39.4181],[-76.2246,39.4257],[-76.2251,39.4276],[-76.23,39.4302],[-76.237,39.4381],[-76.2395,39.4386],[-76.2327,39.4516],[-76.231,39.4564],[-76.2329,39.4594],[-76.2415,39.4613],[-76.244,39.4579],[-76.2432,39.4541],[-76.2468,39.4533],[-76.2516,39.4496],[-76.2536,39.4426],[-76.2474,39.435],[-76.2505,39.4311],[-76.2498,39.4274],[-76.2517,39.4218],[-76.251,39.4194],[-76.2542,39.4167],[-76.2548,39.4119],[-76.2635,39.4081],[-76.2691,39.4031],[-76.2689,39.3999],[-76.2651,39.3923],[-76.2685,39.3911],[-76.2688,39.3887],[-76.2756,39.3809],[-76.2722,39.3764],[-76.2755,39.3748],[-76.2777,39.3715],[-76.2812,39.3719],[-76.2869,39.369],[-76.2836,39.3651],[-76.28,39.3661],[-76.2756,39.3644],[-76.2735,39.3615],[-76.2655,39.3592],[-76.2669,39.3561],[-76.2653,39.35],[-76.2585,39.347],[-76.2588,39.3413],[-76.2571,39.3379],[-76.2636,39.3343],[-76.2668,39.3297],[-76.2777,39.3221],[-76.2777,39.3155],[-76.2813,39.3104],[-76.2806,39.3061],[-76.2817,39.2997],[-76.2873,39.2999],[-76.2966,39.302],[-76.2919,39.3068],[-76.2904,39.3098],[-76.2896,39.3172],[-76.2911,39.3181],[-76.2935,39.325],[-76.2988,39.3292],[-76.2988,39.3402],[-76.2944,39.3489],[-76.2969,39.3513],[-76.3094,39.3542],[-76.3117,39.3558],[-76.3206,39.3563],[-76.3209,39.3582],[-76.3134,39.3578],[-76.3094,39.3596],[-76.3059,39.3644],[-76.3031,39.3707],[-76.3025,39.3773],[-76.304,39.3815],[-76.3071,39.3854],[-76.3114,39.3885],[-76.3187,39.3888],[-76.323,39.3899],[-76.3292,39.3877],[-76.3354,39.3904],[-76.3444,39.3917],[-76.346,39.3941],[-76.3509,39.3926],[-76.3534,39.3952],[-76.3571,39.3941],[-76.3576,39.3897],[-76.3588,39.3903],[-76.3611,39.4003],[-76.3652,39.4018],[-76.3663,39.4042],[-76.3719,39.4051],[-76.3702,39.4153],[-76.373,39.4212],[-76.3803,39.4248],[-76.381,39.4295],[-76.3783,39.4327],[-76.3776,39.4362],[-76.3796,39.4382],[-76.3789,39.4454],[-76.3831,39.4504],[-76.3888,39.4538],[-76.3865,39.4555],[-76.3867,39.4597],[-76.3903,39.4597],[-76.3917,39.4645],[-76.3955,39.4683],[-76.4003,39.4691],[-76.4018,39.4727],[-76.405,39.474],[-76.4081,39.4726],[-76.4085,39.4765],[-76.4112,39.4785],[-76.4209,39.4784],[-76.4248,39.4811],[-76.4292,39.4883],[-76.4331,39.4883],[-76.4336,39.4923],[-76.4286,39.4976],[-76.4279,39.5017],[-76.4322,39.5066],[-76.437,39.502],[-76.4401,39.503],[-76.448,39.5085],[-76.4536,39.5069],[-76.4602,39.5076],[-76.4602,39.5106],[-76.4633,39.5125],[-76.4694,39.5139],[-76.4748,39.5173],[-76.4777,39.5146],[-76.4787,39.5186],[-76.4836,39.5195],[-76.4894,39.5241],[-76.4965,39.526],[-76.499,39.5235],[-76.505,39.5251],[-76.5106,39.5246],[-76.5126,39.529],[-76.5165,39.5292],[-76.519,39.5367],[-76.5225,39.5367],[-76.522,39.5389],[-76.5259,39.54],[-76.528,39.5436],[-76.5322,39.544],[-76.5321,39.5513],[-76.5341,39.5513],[-76.5341,39.5546],[-76.5311,39.5554],[-76.5323,39.5616],[-76.5361,39.5618],[-76.5368,39.5655],[-76.5404,39.5691],[-76.5413,39.575],[-76.5439,39.575],[-76.5435,39.5786],[-76.5478,39.5882],[-76.5532,39.5894],[-76.556,39.5939],[-76.5601,39.5961],[-76.5595,39.5977],[-76.5629,39.6062],[-76.5652,39.6145],[-76.5658,39.6255],[-76.5674,39.6843],[-76.5679,39.6852],[-76.5694,39.7212],[-76.5171,39.7213]]]]}},{"type":"Feature","properties":{"id":"24035","name":"Queen Anne's Co."},"geometry":{"type":"MultiPolygon","coordinates":[[[[-76.2491,38.9133],[-76.2431,38.9121],[-76.2432,38.9067],[-76.2458,38.9051],[-76.2489,38.9057],[-76.2476,38.911],[-76.2491,38.9133]]],[[[-76.3747,38.8553],[-76.3692,38.863],[-76.3647,38.8738],[-76.3639,38.8841],[-76.3652,38.8924],[-76.3657,38.9075],[-76.3623,38.9293],[-76.3617,38.9392],[-76.3538,38.9572],[-76.347,38.9671],[-76.3409,38.9746],[-76.336,38.9755],[-76.333,38.9868],[-76.3245,38.9957],[-76.3214,39.0034],[-76.3236,39.009],[-76.3203,39.023],[-76.3118,39.0353],[-76.3053,39.0389],[-76.3016,39.0382],[-76.3028,39.0321],[-76.3053,39.0319],[-76.3053,39.0263],[-76.2979,39.0192],[-76.2973,39.0136],[-76.294,39.0039],[-76.289,38.9967],[-76.2811,38.9888],[-76.2775,38.9825],[-76.271,38.9834],[-76.2599,38.9838],[-76.2625,38.9804],[-76.2618,38.978],[-76.2566,38.9754],[-76.2512,38.9768],[-76.2528,38.9805],[-76.2441,38.9807],[-76.2423,38.9759],[-76.2386,38.9735],[-76.2309,38.9739],[-76.2321,38.9791],[-76.2294,38.9799],[-76.2262,38.9746],[-76.2189,38.9705],[-76.2081,38.9735],[-76.2024,38.9731],[-76.1914,38.9796],[-76.1895,38.9819],[-76.181,38.9877],[-76.1789,38.9903],[-76.172,38.9953],[-76.164,38.9995],[-76.1629,39.0061],[-76.1636,39.0101],[-76.1704,39.0237],[-76.1744,39.026],[-76.1783,39.0317],[-76.1754,39.0392],[-76.1771,39.0442],[-76.1842,39.0463],[-76.1806,39.0506],[-76.1799,39.0534],[-76.1753,39.0588],[-76.1691,39.0628],[-76.1663,39.0628],[-76.159,39.0655],[-76.1541,39.0743],[-76.1502,39.0788],[-76.1406,39.0796],[-76.139,39.0825],[-76.1449,39.0901],[-76.1448,39.093],[-76.1363,39.0984],[-76.1343,39.1043],[-76.1229,39.1048],[-76.1171,39.1071],[-76.0942,39.1269],[-76.0856,39.1311],[-76.075,39.1339],[-76.0725,39.1373],[-76.0746,39.1414],[-76.0805,39.1455],[-76.0816,39.1477],[-76.0786,39.1511],[-76.0734,39.1534],[-76.0639,39.1551],[-76.0492,39.1619],[-76.0426,39.166],[-76.04,39.17],[-76.0402,39.1752],[-76.0467,39.1808],[-76.0533,39.1832],[-76.0644,39.1846],[-76.0675,39.1882],[-76.0688,39.1923],[-76.064,39.1988],[-76.0594,39.2075],[-76.0566,39.2103],[-76.0282,39.2262],[-76.0205,39.2274],[-76.0153,39.2343],[-76.0103,39.2395],[-76.0075,39.2402],[-76.0046,39.2386],[-75.9988,39.2381],[-75.9878,39.2393],[-75.9862,39.2405],[-75.9848,39.2461],[-75.9773,39.2448],[-75.9704,39.2464],[-75.9668,39.2454],[-75.9626,39.242],[-75.9561,39.2406],[-75.9517,39.2427],[-75.9485,39.2424],[-75.9446,39.2391],[-75.9407,39.2385],[-75.9269,39.2437],[-75.9176,39.2433],[-75.8939,39.2479],[-75.8942,39.2525],[-75.8918,39.2541],[-75.8885,39.2529],[-75.8857,39.2492],[-75.8801,39.2515],[-75.8741,39.2498],[-75.8742,39.2542],[-75.8663,39.2609],[-75.8601,39.2603],[-75.8554,39.2618],[-75.8539,39.2601],[-75.8444,39.2578],[-75.8397,39.2577],[-75.8399,39.2549],[-75.8366,39.2529],[-75.8345,39.2537],[-75.8201,39.2462],[-75.8102,39.2452],[-75.8063,39.242],[-75.8036,39.2441],[-75.8021,39.2423],[-75.7968,39.2413],[-75.7931,39.2429],[-75.785,39.2443],[-75.7844,39.2452],[-75.7752,39.247],[-75.7719,39.246],[-75.7678,39.2475],[-75.7621,39.2464],[-75.7574,39.2473],[-75.756,39.2461],[-75.751,39.1778],[-75.7494,39.1648],[-75.7477,39.1433],[-75.7579,39.1384],[-75.7757,39.1346],[-75.7911,39.1328],[-75.794,39.1298],[-75.7989,39.1286],[-75.8023,39.1246],[-75.8099,39.1204],[-75.8232,39.1151],[-75.8262,39.1122],[-75.8327,39.1084],[-75.8349,39.1083],[-75.8397,39.1002],[-75.8433,39.0905],[-75.8467,39.0891],[-75.8482,39.0856],[-75.8472,39.0815],[-75.8471,39.0748],[-75.849,39.0714],[-75.8632,39.0593],[-75.8697,39.0573],[-75.8763,39.0475],[-75.8787,39.0469],[-75.876,39.0433],[-75.878,39.0388],[-75.8797,39.0384],[-75.8834,39.0325],[-75.8828,39.0279],[-75.8872,39.0266],[-75.8905,39.023],[-75.8908,39.0183],[-75.8974,39.0143],[-75.9038,39.0168],[-75.9052,39.0153],[-75.9041,39.0104],[-75.9088,39.0106],[-75.9085,39.0086],[-75.9111,39.0041],[-75.9196,39.0001],[-75.922,38.9944],[-75.9297,38.9907],[-75.9285,38.9887],[-75.9327,38.9868],[-75.9346,38.9802],[-75.9409,38.9763],[-75.9366,38.9734],[-75.9374,38.9712],[-75.9426,38.9677],[-75.9386,38.9611],[-75.9387,38.9577],[-75.942,38.9562],[-75.9422,38.9499],[-75.9447,38.9476],[-75.9509,38.9464],[-75.9504,38.9411],[-75.9471,38.94],[-75.9531,38.9387],[-75.9489,38.9363],[-75.948,38.9319],[-75.9527,38.9293],[-75.9496,38.9241],[-75.9493,38.9183],[-75.9666,38.9216],[-75.9719,38.9218],[-75.9783,38.9239],[-75.9863,38.9253],[-76.0657,38.9399],[-76.0733,38.9406],[-76.0779,38.9401],[-76.0886,38.9425],[-76.0905,38.9451],[-76.097,38.9443],[-76.1037,38.939],[-76.1062,38.9331],[-76.111,38.9267],[-76.1107,38.9206],[-76.1155,38.9137],[-76.1115,38.911],[-76.1134,38.9045],[-76.1102,38.9026],[-76.1091,38.899],[-76.1046,38.8942],[-76.1027,38.8902],[-76.1035,38.8823],[-76.1065,38.8813],[-76.1143,38.8808],[-76.1226,38.882],[-76.1252,38.8771],[-76.128,38.876],[-76.1321,38.8795],[-76.1407,38.8806],[-76.1498,38.8828],[-76.1527,38.8809],[-76.1575,38.8802],[-76.161,38.8814],[-76.1637,38.8795],[-76.1649,38.8751],[-76.1675,38.872],[-76.1676,38.8684],[-76.1699,38.8656],[-76.1779,38.8652],[-76.1822,38.8586],[-76.1851,38.8595],[-76.1907,38.8641],[-76.1931,38.8628],[-76.1999,38.8501],[-76.2017,38.8481],[-76.2061,38.853],[-76.2063,38.8556],[-76.2026,38.8626],[-76.2001,38.8829],[-76.1982,38.8871],[-76.1968,38.8951],[-76.2013,38.8962],[-76.2033,38.8944],[-76.2052,38.9088],[-76.204,38.924],[-76.2025,38.9251],[-76.2051,38.9309],[-76.213,38.9336],[-76.2138,38.9374],[-76.2094,38.9388],[-76.2083,38.9413],[-76.21,38.9463],[-76.213,38.9432],[-76.2143,38.9447],[-76.2211,38.9475],[-76.2245,38.9472],[-76.2275,38.9416],[-76.2348,38.9425],[-76.2373,38.9494],[-76.2365,38.9542],[-76.2435,38.9656],[-76.2486,38.9667],[-76.2534,38.9649],[-76.2519,38.9587],[-76.2535,38.9561],[-76.2521,38.954],[-76.2518,38.9469],[-76.2536,38.9449],[-76.2511,38.9432],[-76.2511,38.9402],[-76.2543,38.9386],[-76.2609,38.9327],[-76.2561,38.9271],[-76.2524,38.9263],[-76.2509,38.9283],[-76.248,38.9238],[-76.2497,38.9209],[-76.2528,38.9211],[-76.2564,38.9188],[-76.2622,38.92],[-76.2657,38.928],[-76.2649,38.9303],[-76.2683,38.9334],[-76.2695,38.9381],[-76.2731,38.9419],[-76.281,38.9365],[-76.2882,38.9332],[-76.2887,38.9306],[-76.2959,38.9287],[-76.2959,38.9246],[-76.2993,38.9209],[-76.2994,38.9185],[-76.2939,38.9101],[-76.2961,38.9082],[-76.2933,38.9032],[-76.2996,38.9027],[-76.2995,38.9068],[-76.302,38.9147],[-76.3028,38.922],[-76.3051,38.9243],[-76.309,38.9247],[-76.3166,38.923],[-76.3176,38.9177],[-76.3158,38.9153],[-76.318,38.9113],[-76.3241,38.9112],[-76.3247,38.9154],[-76.3272,38.9181],[-76.3339,38.9181],[-76.3402,38.9118],[-76.3361,38.906],[-76.3372,38.9001],[-76.3362,38.8967],[-76.3385,38.8925],[-76.3336,38.8806],[-76.3339,38.877],[-76.331,38.8643],[-76.334,38.8602],[-76.3406,38.8557],[-76.3504,38.8574],[-76.3611,38.852],[-76.3635,38.85],[-76.3657,38.8442],[-76.3653,38.8418],[-76.3682,38.8361],[-76.3751,38.8395],[-76.3749,38.8476],[-76.3762,38.8505],[-76.3747,38.8553]]]]}},{"type":"Feature","properties":{"id":"24003","name":"Anne Arundel Co."},"geometry":{"type":"Polygon","coordinates":[[[-76.697,39.2171],[-76.6928,39.2198],[-76.6877,39.2213],[-76.681,39.22],[-76.6775,39.2218],[-76.6699,39.2284],[-76.6645,39.2306],[-76.6587,39.231],[-76.6472,39.229],[-76.6371,39.2235],[-76.6301,39.2246],[-76.6186,39.2374],[-76.6117,39.2344],[-76.5833,39.2074],[-76.5501,39.1972],[-76.5331,39.2076],[-76.5354,39.2038],[-76.5309,39.201],[-76.5282,39.1943],[-76.5338,39.1932],[-76.5334,39.1904],[-76.53,39.187],[-76.5261,39.181],[-76.5258,39.1779],[-76.5177,39.1732],[-76.5124,39.1725],[-76.5037,39.166],[-76.5006,39.1621],[-76.5031,39.1575],[-76.5009,39.1554],[-76.4939,39.1552],[-76.4886,39.1574],[-76.4862,39.1624],[-76.4803,39.1666],[-76.4769,39.1663],[-76.476,39.1611],[-76.4715,39.1547],[-76.4528,39.1435],[-76.4401,39.1375],[-76.431,39.1321],[-76.4333,39.1218],[-76.432,39.1196],[-76.4331,39.1112],[-76.4222,39.0838],[-76.4219,39.077],[-76.4245,39.0711],[-76.4299,39.0629],[-76.4389,39.0528],[-76.4312,39.047],[-76.4137,39.0389],[-76.4051,39.0332],[-76.3978,39.0226],[-76.3945,39.0127],[-76.4061,39.0067],[-76.414,39.0014],[-76.4132,38.997],[-76.4151,38.9956],[-76.4219,38.9946],[-76.421,38.9892],[-76.4227,38.9866],[-76.4269,38.987],[-76.4272,38.9896],[-76.4241,38.9942],[-76.4239,38.9995],[-76.4313,39.0015],[-76.4345,38.9967],[-76.4466,38.9949],[-76.4497,38.9935],[-76.4504,38.991],[-76.4487,38.987],[-76.4505,38.9776],[-76.4546,38.9745],[-76.4557,38.9808],[-76.4545,38.9824],[-76.4585,38.9847],[-76.4631,38.9811],[-76.4692,38.9826],[-76.4762,38.9815],[-76.4802,38.9777],[-76.4742,38.9726],[-76.4749,38.9673],[-76.4713,38.9565],[-76.4631,38.9486],[-76.4578,38.9484],[-76.4503,38.9411],[-76.4597,38.9339],[-76.4636,38.9275],[-76.4588,38.9152],[-76.4603,38.9071],[-76.4694,38.9076],[-76.4695,38.9115],[-76.4782,38.9165],[-76.4783,38.919],[-76.4835,38.9236],[-76.4895,38.9274],[-76.4972,38.9255],[-76.5091,38.9199],[-76.5073,38.9129],[-76.4997,38.9086],[-76.4945,38.9093],[-76.4952,38.9053],[-76.4932,38.9038],[-76.4939,38.8996],[-76.4909,38.8945],[-76.4894,38.8874],[-76.4907,38.8848],[-76.497,38.8798],[-76.5194,38.8631],[-76.5221,38.8624],[-76.5344,38.8628],[-76.5385,38.8614],[-76.5365,38.8518],[-76.5376,38.8486],[-76.5254,38.8515],[-76.5199,38.8501],[-76.5149,38.8522],[-76.5033,38.8455],[-76.4998,38.8522],[-76.4966,38.8531],[-76.4944,38.8507],[-76.4931,38.8443],[-76.491,38.8429],[-76.4899,38.8387],[-76.4914,38.8347],[-76.4958,38.8301],[-76.4969,38.8217],[-76.4989,38.8175],[-76.4979,38.8148],[-76.5015,38.8116],[-76.5067,38.8098],[-76.5063,38.8055],[-76.5081,38.8055],[-76.5101,38.8012],[-76.5247,38.795],[-76.5275,38.7918],[-76.527,38.787],[-76.5354,38.7781],[-76.5394,38.7747],[-76.5496,38.7729],[-76.5599,38.7674],[-76.5592,38.7587],[-76.5542,38.754],[-76.5543,38.7504],[-76.5575,38.7447],[-76.5527,38.7353],[-76.5494,38.7314],[-76.5445,38.7277],[-76.5413,38.7285],[-76.5371,38.7269],[-76.5299,38.7284],[-76.5262,38.7243],[-76.5283,38.7127],[-76.5356,38.7215],[-76.6035,38.7212],[-76.6159,38.7208],[-76.6229,38.7267],[-76.6231,38.7439],[-76.621,38.7463],[-76.623,38.7491],[-76.6231,38.7673],[-76.6345,38.7667],[-76.6431,38.7693],[-76.6513,38.7674],[-76.653,38.7651],[-76.6604,38.7641],[-76.6635,38.7618],[-76.6661,38.7622],[-76.6696,38.7567],[-76.6733,38.7554],[-76.679,38.7555],[-76.6812,38.7576],[-76.6852,38.7561],[-76.6843,38.7516],[-76.6865,38.7486],[-76.6944,38.7489],[-76.6973,38.7501],[-76.6993,38.7534],[-76.7001,38.7662],[-76.7009,38.7687],[-76.7082,38.7732],[-76.7125,38.7749],[-76.7144,38.7808],[-76.7123,38.7844],[-76.7061,38.7857],[-76.7021,38.7885],[-76.7025,38.7904],[-76.7101,38.796],[-76.7107,38.7984],[-76.7081,38.8049],[-76.7115,38.809],[-76.7123,38.8129],[-76.7094,38.8163],[-76.7018,38.8155],[-76.697,38.8188],[-76.6964,38.8227],[-76.6994,38.8328],[-76.6997,38.8368],[-76.6965,38.8472],[-76.6936,38.8497],[-76.6912,38.8544],[-76.6919,38.8592],[-76.6881,38.8646],[-76.6832,38.8667],[-76.6807,38.8723],[-76.6766,38.876],[-76.6752,38.8857],[-76.6721,38.8866],[-76.6763,38.8919],[-76.6763,38.8959],[-76.6715,38.8994],[-76.6695,38.9044],[-76.6706,38.9074],[-76.6729,38.9074],[-76.6785,38.9105],[-76.6781,38.9142],[-76.6828,38.919],[-76.6851,38.918],[-76.6906,38.9235],[-76.6905,38.9248],[-76.6831,38.9263],[-76.6814,38.9313],[-76.6889,38.9335],[-76.6922,38.9363],[-76.691,38.9408],[-76.6953,38.9478],[-76.6935,38.9514],[-76.6942,38.9568],[-76.699,38.9627],[-76.6994,38.9691],[-76.704,38.9728],[-76.7016,38.9738],[-76.7022,38.9798],[-76.6989,38.9812],[-76.6985,38.9838],[-76.7058,38.989],[-76.7089,38.9934],[-76.7128,38.9948],[-76.7213,38.9997],[-76.7255,38.9989],[-76.724,39.0042],[-76.729,39.0071],[-76.7333,39.0068],[-76.7381,39.0125],[-76.7445,39.0171],[-76.7428,39.0205],[-76.7431,39.0237],[-76.7459,39.0282],[-76.7499,39.03],[-76.7476,39.0334],[-76.754,39.0371],[-76.757,39.0378],[-76.7613,39.0354],[-76.7645,39.0376],[-76.7654,39.0404],[-76.7692,39.039],[-76.7732,39.0407],[-76.7738,39.0437],[-76.7765,39.0453],[-76.7837,39.0463],[-76.7876,39.0446],[-76.7926,39.0462],[-76.7939,39.0521],[-76.7957,39.0546],[-76.8007,39.0554],[-76.8039,39.0624],[-76.8105,39.0609],[-76.8132,39.0623],[-76.8173,39.0618],[-76.8265,39.0657],[-76.829,39.0644],[-76.8315,39.0692],[-76.8356,39.0679],[-76.8381,39.0736],[-76.8327,39.0759],[-76.8349,39.0829],[-76.8271,39.0898],[-76.8285,39.095],[-76.8376,39.0969],[-76.8378,39.1009],[-76.8404,39.1031],[-76.8305,39.1066],[-76.8267,39.1099],[-76.8257,39.1156],[-76.8227,39.1187],[-76.812,39.1227],[-76.8012,39.1222],[-76.795,39.1232],[-76.7905,39.1255],[-76.7852,39.1321],[-76.7842,39.1396],[-76.7815,39.1455],[-76.7637,39.1662],[-76.7604,39.1689],[-76.7501,39.175],[-76.7464,39.1795],[-76.7382,39.1791],[-76.7345,39.1803],[-76.7295,39.1838],[-76.722,39.183],[-76.7192,39.1915],[-76.7135,39.1932],[-76.7119,39.1977],[-76.7122,39.2019],[-76.708,39.2034],[-76.7033,39.2107],[-76.7008,39.2124],[-76.6976,39.212],[-76.6971,39.2141],[-76.697,39.2171]]]}},{"type":"Feature","properties":{"id":"24027","name":"Howard Co."},"geometry":{"type":"Polygon","coordinates":[[[-77.1559,39.3495],[-77.1515,39.3487],[-77.1451,39.3512],[-77.1357,39.3602],[-77.1272,39.3635],[-77.1167,39.3664],[-77.1133,39.3658],[-77.1071,39.3668],[-77.1027,39.369],[-77.0934,39.3681],[-77.0924,39.3672],[-77.086,39.3679],[-77.0804,39.3657],[-77.0777,39.3662],[-77.0743,39.3626],[-77.065,39.3619],[-77.0602,39.3598],[-77.0514,39.3591],[-77.0491,39.3623],[-77.0457,39.36],[-77.0335,39.3553],[-77.0305,39.3513],[-77.0288,39.3525],[-77.0226,39.3508],[-77.0209,39.3535],[-77.0157,39.3526],[-77.0091,39.3548],[-76.9976,39.355],[-76.9976,39.356],[-76.9894,39.3613],[-76.9744,39.3614],[-76.969,39.3638],[-76.9644,39.3611],[-76.9624,39.3581],[-76.9504,39.358],[-76.9464,39.361],[-76.9414,39.3575],[-76.9386,39.3589],[-76.9338,39.3577],[-76.9293,39.354],[-76.9168,39.3506],[-76.9129,39.351],[-76.9102,39.3487],[-76.908,39.3494],[-76.9089,39.3527],[-76.9058,39.3541],[-76.9013,39.3542],[-76.8979,39.3516],[-76.889,39.3538],[-76.8865,39.3506],[-76.8858,39.3526],[-76.8823,39.3502],[-76.8751,39.3377],[-76.8784,39.3363],[-76.875,39.3322],[-76.8666,39.3317],[-76.8624,39.3298],[-76.8554,39.3232],[-76.8539,39.3177],[-76.8494,39.3159],[-76.844,39.3182],[-76.8397,39.3153],[-76.8356,39.3158],[-76.8355,39.312],[-76.8327,39.3119],[-76.8293,39.3172],[-76.8233,39.319],[-76.8188,39.3135],[-76.8165,39.3132],[-76.8147,39.3179],[-76.8101,39.3152],[-76.8045,39.3167],[-76.7947,39.3143],[-76.7925,39.3115],[-76.794,39.3068],[-76.7965,39.305],[-76.7913,39.3038],[-76.7875,39.3002],[-76.7791,39.2971],[-76.7786,39.295],[-76.7846,39.2926],[-76.7854,39.2911],[-76.7852,39.2829],[-76.7888,39.2774],[-76.7906,39.2722],[-76.7944,39.2703],[-76.7945,39.2666],[-76.789,39.2639],[-76.782,39.2583],[-76.7717,39.2552],[-76.7689,39.2527],[-76.7638,39.2513],[-76.7647,39.2476],[-76.7632,39.2463],[-76.7572,39.2475],[-76.7518,39.2445],[-76.7499,39.2416],[-76.7432,39.2364],[-76.7401,39.2324],[-76.7335,39.2309],[-76.7299,39.229],[-76.7246,39.2286],[-76.7222,39.2264],[-76.7173,39.2255],[-76.7131,39.2217],[-76.7067,39.2212],[-76.7052,39.2157],[-76.7004,39.213],[-76.6971,39.2141],[-76.6976,39.212],[-76.7008,39.2124],[-76.7033,39.2107],[-76.708,39.2034],[-76.7122,39.2019],[-76.7119,39.1977],[-76.7135,39.1932],[-76.7192,39.1915],[-76.722,39.183],[-76.7295,39.1838],[-76.7345,39.1803],[-76.7382,39.1791],[-76.7464,39.1795],[-76.7501,39.175],[-76.7604,39.1689],[-76.7637,39.1662],[-76.7815,39.1455],[-76.7842,39.1396],[-76.7852,39.1321],[-76.7905,39.1255],[-76.795,39.1232],[-76.8012,39.1222],[-76.812,39.1227],[-76.8227,39.1187],[-76.8257,39.1156],[-76.8267,39.1099],[-76.8305,39.1066],[-76.8404,39.1031],[-76.8416,39.1059],[-76.8491,39.1091],[-76.8567,39.1107],[-76.8622,39.1103],[-76.869,39.1122],[-76.8753,39.1168],[-76.8779,39.1205],[-76.8844,39.127],[-76.8857,39.1313],[-76.8894,39.131],[-76.8937,39.1284],[-76.9028,39.1256],[-76.9073,39.1255],[-76.9156,39.127],[-76.919,39.1321],[-76.9264,39.1353],[-76.9291,39.1384],[-76.9334,39.1366],[-76.9383,39.1328],[-76.9437,39.1321],[-76.9486,39.1296],[-76.9585,39.134],[-76.9555,39.1381],[-76.9531,39.139],[-76.9526,39.143],[-76.95,39.1444],[-76.9517,39.1462],[-76.9555,39.1449],[-76.963,39.1458],[-76.9641,39.1482],[-76.9756,39.1497],[-76.9767,39.1542],[-76.973,39.1614],[-76.9756,39.1632],[-76.9821,39.1643],[-76.9871,39.1663],[-76.9973,39.1665],[-77.0014,39.1709],[-76.9974,39.1741],[-76.9983,39.1751],[-77.0044,39.1743],[-77.0054,39.1763],[-76.9996,39.1771],[-76.9999,39.1786],[-77.0045,39.1791],[-77.0084,39.1816],[-77.0075,39.1849],[-77.0043,39.1893],[-77.0049,39.1933],[-77.0122,39.1952],[-77.0094,39.2067],[-77.0176,39.2098],[-77.0193,39.2129],[-77.0223,39.214],[-77.0323,39.2203],[-77.0321,39.2244],[-77.0359,39.2297],[-77.0448,39.2377],[-77.0559,39.2383],[-77.0615,39.2413],[-77.0622,39.2473],[-77.0701,39.2541],[-77.0778,39.2565],[-77.0821,39.26],[-77.0892,39.2623],[-77.0932,39.2625],[-77.0975,39.2648],[-77.1036,39.266],[-77.1052,39.2645],[-77.1108,39.2641],[-77.115,39.2652],[-77.117,39.2675],[-77.1214,39.2672],[-77.1262,39.2686],[-77.1306,39.2684],[-77.1346,39.2731],[-77.134,39.2762],[-77.14,39.2834],[-77.1379,39.2882],[-77.1402,39.2893],[-77.1401,39.2921],[-77.1436,39.293],[-77.1456,39.2961],[-77.1534,39.302],[-77.1598,39.3049],[-77.1624,39.3079],[-77.1646,39.3074],[-77.1668,39.3121],[-77.1703,39.3131],[-77.1729,39.3195],[-77.1786,39.3255],[-77.1868,39.3382],[-77.1871,39.3406],[-77.1838,39.3455],[-77.1802,39.3466],[-77.1681,39.354],[-77.1559,39.3495]]]}},{"type":"Feature","properties":{"id":"24510","name":"Baltimore city"},"geometry":{"type":"Polygon","coordinates":[[[-76.5332,39.2393],[-76.5389,39.2455],[-76.5403,39.2504],[-76.5527,39.2575],[-76.5633,39.2569],[-76.5663,39.2596],[-76.5715,39.2607],[-76.5722,39.2647],[-76.5775,39.2646],[-76.5795,39.2615],[-76.5865,39.2613],[-76.5845,39.2538],[-76.5785,39.2512],[-76.5785,39.2488],[-76.5717,39.2456],[-76.5656,39.2412],[-76.5622,39.2353],[-76.5584,39.2337],[-76.5625,39.2304],[-76.562,39.2276],[-76.5645,39.2246],[-76.5553,39.217],[-76.5502,39.2173],[-76.5491,39.2138],[-76.5418,39.2123],[-76.5343,39.2132],[-76.5324,39.21],[-76.5331,39.2076],[-76.5501,39.1972],[-76.5833,39.2074],[-76.6117,39.2344],[-76.6186,39.2374],[-76.6326,39.2434],[-76.6442,39.2489],[-76.6734,39.2613],[-76.6974,39.2722],[-76.7111,39.2779],[-76.711,39.2896],[-76.7115,39.3346],[-76.711,39.3364],[-76.7114,39.3495],[-76.7113,39.3719],[-76.6262,39.372],[-76.6098,39.3722],[-76.5979,39.3718],[-76.5835,39.3721],[-76.5298,39.3721],[-76.5297,39.3233],[-76.53,39.3196],[-76.5298,39.2991],[-76.5298,39.2558],[-76.5296,39.2403],[-76.5332,39.2393]]]}},{"type":"Feature","properties":{"id":"24013","name":"Carroll Co."},"geometry":{"type":"Polygon","coordinates":[[[-76.8034,39.678],[-76.8068,39.6694],[-76.8242,39.622],[-76.8367,39.5874],[-76.8406,39.5756],[-76.8567,39.5316],[-76.8667,39.5009],[-76.8687,39.4895],[-76.8665,39.4876],[-76.8693,39.4825],[-76.8773,39.4809],[-76.8754,39.479],[-76.8769,39.4767],[-76.8818,39.4772],[-76.884,39.47],[-76.8886,39.4685],[-76.8845,39.4669],[-76.8869,39.4632],[-76.892,39.4618],[-76.8857,39.4564],[-76.8931,39.4574],[-76.893,39.4553],[-76.8839,39.4506],[-76.8794,39.4529],[-76.8764,39.4508],[-76.8818,39.4459],[-76.8823,39.4442],[-76.8885,39.4461],[-76.8918,39.4454],[-76.8873,39.4405],[-76.8943,39.4398],[-76.8911,39.435],[-76.8945,39.4345],[-76.8951,39.4284],[-76.8896,39.4302],[-76.8907,39.4286],[-76.8884,39.4254],[-76.8863,39.4259],[-76.8865,39.4217],[-76.8795,39.4202],[-76.8753,39.4205],[-76.8759,39.4176],[-76.8814,39.4174],[-76.8825,39.4088],[-76.8844,39.4046],[-76.8789,39.4039],[-76.8794,39.4023],[-76.8855,39.3976],[-76.88,39.3949],[-76.8791,39.388],[-76.8851,39.3881],[-76.8832,39.3858],[-76.8913,39.3822],[-76.891,39.3767],[-76.8889,39.3706],[-76.8865,39.3693],[-76.8849,39.365],[-76.882,39.3643],[-76.8794,39.3661],[-76.878,39.3641],[-76.8818,39.3628],[-76.8807,39.3605],[-76.8734,39.3572],[-76.8739,39.3561],[-76.8797,39.3568],[-76.8802,39.3497],[-76.8823,39.3502],[-76.8858,39.3526],[-76.8865,39.3506],[-76.889,39.3538],[-76.8979,39.3516],[-76.9013,39.3542],[-76.9058,39.3541],[-76.9089,39.3527],[-76.908,39.3494],[-76.9102,39.3487],[-76.9129,39.351],[-76.9168,39.3506],[-76.9293,39.354],[-76.9338,39.3577],[-76.9386,39.3589],[-76.9414,39.3575],[-76.9464,39.361],[-76.9504,39.358],[-76.9624,39.3581],[-76.9644,39.3611],[-76.969,39.3638],[-76.9744,39.3614],[-76.9894,39.3613],[-76.9976,39.356],[-76.9976,39.355],[-77.0091,39.3548],[-77.0157,39.3526],[-77.0209,39.3535],[-77.0226,39.3508],[-77.0288,39.3525],[-77.0305,39.3513],[-77.0335,39.3553],[-77.0457,39.36],[-77.0491,39.3623],[-77.0514,39.3591],[-77.0602,39.3598],[-77.065,39.3619],[-77.0743,39.3626],[-77.0777,39.3662],[-77.0804,39.3657],[-77.086,39.3679],[-77.0924,39.3672],[-77.0934,39.3681],[-77.1027,39.369],[-77.1071,39.3668],[-77.1133,39.3658],[-77.1167,39.3664],[-77.1272,39.3635],[-77.1357,39.3602],[-77.1451,39.3512],[-77.1515,39.3487],[-77.1559,39.3495],[-77.1681,39.354],[-77.1697,39.3551],[-77.1673,39.3591],[-77.1644,39.3681],[-77.1582,39.3735],[-77.1592,39.3741],[-77.1561,39.3789],[-77.1562,39.3829],[-77.1538,39.3885],[-77.1544,39.3913],[-77.1483,39.4053],[-77.147,39.4124],[-77.1481,39.4164],[-77.1472,39.419],[-77.1405,39.4241],[-77.1334,39.4324],[-77.1302,39.4392],[-77.1267,39.4438],[-77.1238,39.4515],[-77.116,39.4603],[-77.12,39.4656],[-77.1177,39.4786],[-77.1102,39.486],[-77.1068,39.4917],[-77.11,39.4975],[-77.1124,39.4975],[-77.1216,39.5044],[-77.1249,39.5054],[-77.1298,39.5096],[-77.1336,39.5086],[-77.1347,39.5119],[-77.1381,39.516],[-77.1385,39.5205],[-77.1509,39.5233],[-77.1503,39.5263],[-77.1523,39.5325],[-77.156,39.5337],[-77.1621,39.5324],[-77.1707,39.5348],[-77.1715,39.5392],[-77.169,39.5423],[-77.1716,39.5438],[-77.1718,39.5466],[-77.1696,39.5499],[-77.1694,39.5541],[-77.1715,39.5546],[-77.1746,39.5595],[-77.1778,39.5609],[-77.1827,39.5593],[-77.1872,39.563],[-77.1871,39.5664],[-77.1911,39.571],[-77.1945,39.5722],[-77.1996,39.5767],[-77.2001,39.5786],[-77.207,39.5795],[-77.2111,39.5789],[-77.2156,39.5745],[-77.2221,39.5764],[-77.2191,39.58],[-77.2225,39.5831],[-77.23,39.5834],[-77.2326,39.5855],[-77.2273,39.5878],[-77.2307,39.589],[-77.2344,39.5881],[-77.238,39.5844],[-77.2388,39.589],[-77.2484,39.5951],[-77.2508,39.6016],[-77.2565,39.6038],[-77.2602,39.6025],[-77.262,39.5994],[-77.2601,39.594],[-77.2628,39.5941],[-77.2664,39.5987],[-77.2709,39.6012],[-77.2698,39.6035],[-77.2716,39.6062],[-77.2762,39.6062],[-77.2858,39.6077],[-77.2877,39.6045],[-77.2957,39.6114],[-77.2998,39.6123],[-77.3074,39.6191],[-77.3018,39.6212],[-77.3006,39.6252],[-77.3054,39.6264],[-77.3096,39.6308],[-77.3098,39.6361],[-77.3112,39.6397],[-77.3072,39.6411],[-77.2984,39.6381],[-77.2975,39.6349],[-77.2915,39.6306],[-77.28,39.6308],[-77.2758,39.6327],[-77.2792,39.6363],[-77.2773,39.6389],[-77.2713,39.642],[-77.2756,39.6471],[-77.2725,39.6515],[-77.2661,39.6551],[-77.2652,39.6582],[-77.2666,39.6614],[-77.2622,39.6652],[-77.2558,39.6632],[-77.2542,39.6678],[-77.2493,39.6675],[-77.2432,39.6699],[-77.2368,39.6746],[-77.2344,39.679],[-77.2364,39.6812],[-77.236,39.6852],[-77.2444,39.6923],[-77.243,39.695],[-77.226,39.6938],[-77.2178,39.6963],[-77.2152,39.6992],[-77.2186,39.703],[-77.2243,39.7045],[-77.2266,39.7066],[-77.2257,39.7098],[-77.2185,39.7114],[-77.2154,39.713],[-77.2146,39.7169],[-77.217,39.72],[-77.0589,39.7201],[-76.9909,39.7198],[-76.9366,39.7207],[-76.8901,39.7204],[-76.7871,39.7208],[-76.8034,39.678]]]}}]}