{"type":"FeatureCollection","features":[{"type":"Feature","properties":{"id":"08041","name":"El Paso Co."},"geometry":{"type":"Polygon","coordinates":[[[-104.895,39.13],[-104.8685,39.1298],[-104.6925,39.1295],[-104.5518,39.1294],[-104.4668,39.1297],[-104.4612,39.1295],[-104.3482,39.1289],[-104.167,39.1285],[-104.1255,39.1287],[-104.125,39.1289],[-104.0516,39.1281],[-104.0533,38.9844],[-104.0531,38.954],[-104.0555,38.8689],[-104.0545,38.7827],[-104.0543,38.7807],[-104.0525,38.7092],[-104.0519,38.6943],[-104.053,38.6943],[-104.0533,38.6816],[-104.0543,38.5224],[-104.0835,38.5224],[-104.0902,38.522],[-104.1502,38.5217],[-104.1525,38.5219],[-104.2751,38.5211],[-104.4131,38.5205],[-104.6124,38.5202],[-104.6447,38.5198],[-104.718,38.5196],[-104.7981,38.52],[-104.8661,38.5199],[-104.8957,38.5203],[-104.9329,38.5203],[-104.9415,38.5196],[-104.9421,38.5675],[-104.9424,38.6086],[-104.9422,38.6501],[-104.9422,38.6963],[-104.9397,38.6963],[-104.939,38.7105],[-104.9399,38.7965],[-104.9488,38.7986],[-104.9947,38.7986],[-105.0155,38.7978],[-105.029,38.7981],[-105.0544,38.7995],[-105.0722,38.7994],[-105.0725,38.8084],[-105.0718,38.8179],[-105.0679,38.8568],[-105.0664,38.8692],[-105.0286,38.8687],[-105.0277,38.8977],[-105.0279,38.9121],[-105.0274,38.9249],[-105.0271,38.9553],[-105.0273,38.9854],[-105.0299,38.9996],[-105.0278,39.0144],[-105.0271,39.029],[-105.0335,39.1298],[-104.895,39.13]]]}},{"type":"Feature","properties":{"id":"08119","name":"Teller Co."},"geometry":{"type":"Polygon","coordinates":[[[-104.995,38.6517],[-105.0132,38.6527],[-105.0314,38.6523],[-105.0498,38.6524],[-105.0735,38.6485],[-105.0914,38.6478],[-105.114,38.648],[-105.1904,38.6482],[-105.2399,38.6475],[-105.2403,38.6622],[-105.2371,38.6792],[-105.237,38.6973],[-105.2619,38.6974],[-105.329,38.6976],[-105.3291,38.8575],[-105.3293,38.8928],[-105.3299,38.9608],[-105.3295,38.9929],[-105.3304,39.1295],[-105.1627,39.1296],[-105.0336,39.1297],[-105.0335,39.1298],[-105.0271,39.029],[-105.0278,39.0144],[-105.0299,38.9996],[-105.0273,38.9854],[-105.0271,38.9553],[-105.0274,38.9249],[-105.0279,38.9121],[-105.0277,38.8977],[-105.0286,38.8687],[-105.0664,38.8692],[-105.0679,38.8568],[-105.0718,38.8179],[-105.0725,38.8084],[-105.0722,38.7994],[-105.0544,38.7995],[-105.029,38.7981],[-105.0155,38.7978],[-104.9947,38.7986],[-104.9488,38.7986],[-104.9399,38.7965],[-104.939,38.7105],[-104.9397,38.6963],[-104.9422,38.6963],[-104.9422,38.6501],[-104.995,38.6517]]]}}]}