{"type":"FeatureCollection","features":[{"type":"Feature","properties":{"id":"22075","name":"Plaquemines Par."},"geometry":{"type":"MultiPolygon","coordinates":[[[[-89.297,29.3825],[-89.3004,29.3822],[-89.2983,29.3854],[-89.297,29.3825]]],[[[-89.5097,29.6403],[-89.5206,29.6407],[-89.5291,29.6516],[-89.5224,29.6508],[-89.5186,29.6491],[-89.5117,29.6418],[-89.5076,29.639],[-89.5055,29.6356],[-89.5097,29.6403]]],[[[-89.5747,29.578],[-89.5691,29.5752],[-89.5702,29.5735],[-89.576,29.5741],[-89.5817,29.578],[-89.5805,29.5795],[-89.5747,29.578]]],[[[-89.6225,29.5369],[-89.6171,29.5357],[-89.6108,29.5365],[-89.6029,29.539],[-89.5933,29.5468],[-89.589,29.5476],[-89.5839,29.5453],[-89.5783,29.5475],[-89.5752,29.5499],[-89.5709,29.5485],[-89.5692,29.5464],[-89.5654,29.5459],[-89.5654,29.54],[-89.5742,29.5381],[-89.5784,29.5323],[-89.5904,29.5239],[-89.5904,29.5189],[-89.5974,29.5119],[-89.5997,29.5076],[-89.6053,29.5103],[-89.6107,29.5158],[-89.6143,29.5172],[-89.6264,29.5295],[-89.628,29.5331],[-89.6268,29.5352],[-89.6225,29.5369]]],[[[-89.6396,29.5557],[-89.6433,29.5537],[-89.6451,29.5566],[-89.641,29.5591],[-89.6396,29.5557]]],[[[-89.6429,29.5674],[-89.6324,29.5698],[-89.6313,29.5673],[-89.6436,29.564],[-89.6458,29.5653],[-89.6429,29.5674]]],[[[-89.6634,29.5561],[-89.6568,29.551],[-89.6579,29.5471],[-89.66,29.5471],[-89.6661,29.5504],[-89.6667,29.5531],[-89.6634,29.5561]]],[[[-89.8902,29.3239],[-89.8868,29.3213],[-89.8726,29.3211],[-89.8697,29.3165],[-89.8611,29.313],[-89.8612,29.3117],[-89.8731,29.308],[-89.8835,29.3071],[-89.8896,29.3092],[-89.9012,29.3149],[-89.8945,29.3224],[-89.8902,29.3239]]],[[[-90.0025,29.8923],[-90.0023,29.8978],[-89.9892,29.8894],[-89.9873,29.905],[-89.9792,29.9023],[-89.9727,29.9044],[-89.959,29.9026],[-89.9354,29.893],[-89.9205,29.8716],[-89.9176,29.8667],[-89.9107,29.8679],[-89.903,29.8505],[-89.8959,29.8332],[-89.885,29.8214],[-89.8786,29.8155],[-89.8797,29.8079],[-89.8747,29.8055],[-89.8744,29.8022],[-89.8697,29.7955],[-89.8654,29.793],[-89.8598,29.793],[-89.8307,29.8012],[-89.825,29.8022],[-89.8192,29.8018],[-89.8098,29.7988],[-89.803,29.7927],[-89.7954,29.7829],[-89.7919,29.7801],[-89.7894,29.7757],[-89.7862,29.7733],[-89.7916,29.767],[-89.7908,29.7608],[-89.7828,29.7571],[-89.7786,29.7561],[-89.7677,29.7553],[-89.758,29.7585],[-89.7452,29.7571],[-89.7339,29.7586],[-89.7194,29.7574],[-89.705,29.7528],[-89.698,29.7438],[-89.6919,29.738],[-89.6873,29.7207],[-89.6839,29.716],[-89.6717,29.7113],[-89.6667,29.7113],[-89.6603,29.7087],[-89.6483,29.7009],[-89.6433,29.6954],[-89.6389,29.6923],[-89.6282,29.6807],[-89.6226,29.6779],[-89.6074,29.6749],[-89.5996,29.6748],[-89.5918,29.6709],[-89.5885,29.6682],[-89.5799,29.666],[-89.5752,29.6666],[-89.5709,29.665],[-89.5674,29.6613],[-89.5637,29.6595],[-89.5581,29.6602],[-89.5511,29.6569],[-89.5461,29.6529],[-89.5516,29.6539],[-89.5578,29.6573],[-89.5654,29.6593],[-89.5828,29.655],[-89.5938,29.6435],[-89.6008,29.6411],[-89.6205,29.6361],[-89.6246,29.6376],[-89.6327,29.6442],[-89.6443,29.6454],[-89.6616,29.6465],[-89.6657,29.6431],[-89.6605,29.6411],[-89.659,29.6372],[-89.65,29.6322],[-89.6455,29.6287],[-89.6299,29.6289],[-89.6344,29.6215],[-89.629,29.6138],[-89.6211,29.6103],[-89.6126,29.6142],[-89.6021,29.6103],[-89.6119,29.6101],[-89.6204,29.6053],[-89.6183,29.601],[-89.6092,29.5971],[-89.6013,29.5836],[-89.6026,29.5822],[-89.6111,29.5865],[-89.6294,29.5973],[-89.6378,29.5967],[-89.638,29.6117],[-89.6493,29.6252],[-89.6577,29.6242],[-89.6747,29.6266],[-89.6845,29.6248],[-89.6877,29.6162],[-89.682,29.6169],[-89.6727,29.6091],[-89.671,29.6016],[-89.6737,29.5983],[-89.6827,29.5969],[-89.6711,29.5882],[-89.6504,29.5869],[-89.648,29.583],[-89.6418,29.5756],[-89.6447,29.5725],[-89.6637,29.5644],[-89.6779,29.5673],[-89.6845,29.5633],[-89.6803,29.5553],[-89.6835,29.5493],[-89.6772,29.5377],[-89.6724,29.5351],[-89.6572,29.5323],[-89.6573,29.5227],[-89.6502,29.5162],[-89.6402,29.5036],[-89.6291,29.5024],[-89.6219,29.499],[-89.6092,29.4898],[-89.6042,29.4895],[-89.6006,29.4921],[-89.5931,29.4943],[-89.5832,29.4946],[-89.5696,29.494],[-89.5673,29.4834],[-89.5721,29.4752],[-89.559,29.4617],[-89.5511,29.4634],[-89.5523,29.4555],[-89.5452,29.4511],[-89.5395,29.4517],[-89.5328,29.4557],[-89.5228,29.4562],[-89.5269,29.4524],[-89.5313,29.4526],[-89.5355,29.4508],[-89.5393,29.4419],[-89.5388,29.4317],[-89.5344,29.423],[-89.5262,29.4176],[-89.5218,29.4138],[-89.5196,29.4026],[-89.5223,29.3987],[-89.525,29.4025],[-89.535,29.4048],[-89.544,29.4042],[-89.5455,29.4068],[-89.5529,29.4095],[-89.555,29.4079],[-89.5569,29.4006],[-89.5613,29.3952],[-89.5464,29.3927],[-89.5386,29.3867],[-89.5218,29.3845],[-89.5123,29.3823],[-89.5086,29.3862],[-89.505,29.386],[-89.4873,29.3933],[-89.4844,29.3975],[-89.4785,29.3958],[-89.4701,29.4015],[-89.4573,29.3931],[-89.447,29.3893],[-89.4381,29.388],[-89.4279,29.39],[-89.4221,29.3884],[-89.4291,29.3787],[-89.4217,29.3763],[-89.4154,29.3793],[-89.4083,29.3796],[-89.4076,29.3861],[-89.4035,29.3882],[-89.3991,29.3877],[-89.3837,29.3884],[-89.366,29.3834],[-89.3604,29.3793],[-89.3375,29.3795],[-89.3368,29.3782],[-89.3483,29.3661],[-89.3386,29.3554],[-89.3208,29.3551],[-89.3105,29.3613],[-89.3105,29.371],[-89.3084,29.3715],[-89.2804,29.357],[-89.2725,29.3512],[-89.2667,29.3499],[-89.2579,29.3369],[-89.2535,29.3228],[-89.2354,29.3043],[-89.2297,29.3074],[-89.2242,29.3138],[-89.2244,29.3218],[-89.2197,29.3244],[-89.2047,29.3387],[-89.2004,29.3444],[-89.1878,29.342],[-89.1821,29.3377],[-89.1782,29.327],[-89.1729,29.3244],[-89.165,29.303],[-89.1576,29.2967],[-89.1403,29.2911],[-89.1343,29.2793],[-89.137,29.2752],[-89.1297,29.2656],[-89.1203,29.2601],[-89.1151,29.2529],[-89.1208,29.2436],[-89.1196,29.2334],[-89.1296,29.232],[-89.1306,29.2266],[-89.1265,29.2208],[-89.1167,29.2195],[-89.1153,29.2127],[-89.122,29.2021],[-89.1127,29.2023],[-89.1027,29.1998],[-89.0997,29.1927],[-89.0963,29.188],[-89.0913,29.1911],[-89.0878,29.195],[-89.0821,29.1923],[-89.0711,29.1936],[-89.0664,29.1975],[-89.0566,29.1983],[-89.054,29.2017],[-89.0551,29.2126],[-89.0471,29.2064],[-89.036,29.2089],[-89.0317,29.2154],[-89.026,29.2152],[-89.0212,29.2073],[-89.0062,29.1863],[-89.0039,29.1799],[-89.0105,29.1708],[-89.0143,29.1691],[-89.0174,29.1712],[-89.0184,29.1764],[-89.0267,29.1793],[-89.0471,29.1844],[-89.0512,29.1705],[-89.0802,29.171],[-89.0894,29.1664],[-89.0901,29.1577],[-89.1018,29.1654],[-89.1118,29.16],[-89.1103,29.1527],[-89.1068,29.1463],[-89.097,29.1388],[-89.0766,29.1359],[-89.0654,29.1338],[-89.0395,29.1355],[-89.049,29.1211],[-89.0564,29.1061],[-89.0666,29.0907],[-89.073,29.088],[-89.0745,29.1001],[-89.0787,29.1094],[-89.0859,29.1117],[-89.0916,29.1177],[-89.0987,29.1177],[-89.1037,29.1167],[-89.1063,29.1115],[-89.1068,29.093],[-89.1127,29.0924],[-89.1139,29.087],[-89.1108,29.0812],[-89.1165,29.0741],[-89.1308,29.0708],[-89.1403,29.0726],[-89.147,29.071],[-89.1462,29.0652],[-89.141,29.0612],[-89.1443,29.0602],[-89.1493,29.0606],[-89.1498,29.056],[-89.147,29.0517],[-89.148,29.041],[-89.1563,29.0288],[-89.1586,29.0218],[-89.1572,29.0184],[-89.1515,29.0132],[-89.1404,29.0197],[-89.1377,29.0189],[-89.1488,29.0033],[-89.1441,28.9954],[-89.1429,28.9916],[-89.1537,28.9875],[-89.1543,28.9927],[-89.1582,28.9964],[-89.1823,29.0074],[-89.2187,29.0225],[-89.222,29.0282],[-89.2156,29.0456],[-89.2175,29.0557],[-89.2215,29.0646],[-89.23,29.0737],[-89.2412,29.0845],[-89.2517,29.0832],[-89.255,29.0759],[-89.2536,29.065],[-89.2594,29.0584],[-89.2832,29.0533],[-89.2863,29.0503],[-89.2931,29.0413],[-89.3048,29.0294],[-89.3092,29.0238],[-89.3153,29.0177],[-89.3337,29.0038],[-89.3638,28.972],[-89.3644,28.9647],[-89.3781,28.9565],[-89.4052,28.9316],[-89.4179,28.9286],[-89.4199,28.9297],[-89.4189,28.9333],[-89.4115,28.9452],[-89.4107,28.9499],[-89.4062,28.9507],[-89.403,28.9557],[-89.4024,28.9618],[-89.3996,28.9718],[-89.3934,28.9765],[-89.393,28.9871],[-89.388,28.9855],[-89.3858,28.9878],[-89.3808,28.9892],[-89.3738,28.9979],[-89.3703,29.0005],[-89.3682,29.0076],[-89.3621,29.0121],[-89.3588,29.0195],[-89.3515,29.0294],[-89.3506,29.0343],[-89.3528,29.0413],[-89.3519,29.0435],[-89.3409,29.0458],[-89.3438,29.0529],[-89.343,29.0577],[-89.3297,29.056],[-89.3197,29.0575],[-89.315,29.0631],[-89.31,29.071],[-89.3105,29.0751],[-89.3131,29.0822],[-89.3129,29.0874],[-89.3041,29.0886],[-89.3026,29.0978],[-89.3038,29.1084],[-89.3112,29.1115],[-89.3124,29.1175],[-89.3019,29.1206],[-89.2962,29.1264],[-89.2957,29.1337],[-89.2853,29.1356],[-89.2786,29.1376],[-89.2779,29.1464],[-89.2815,29.1599],[-89.2765,29.1736],[-89.295,29.1989],[-89.3076,29.2032],[-89.3186,29.2016],[-89.3285,29.1906],[-89.3257,29.1771],[-89.3297,29.1626],[-89.3319,29.1486],[-89.3464,29.1354],[-89.3506,29.1296],[-89.3596,29.1275],[-89.3905,29.1236],[-89.3996,29.1237],[-89.4058,29.1281],[-89.4177,29.1387],[-89.4274,29.1445],[-89.4369,29.163],[-89.4469,29.1816],[-89.4555,29.1917],[-89.4723,29.2076],[-89.4828,29.2151],[-89.5366,29.2362],[-89.606,29.2537],[-89.605,29.2607],[-89.6083,29.2642],[-89.6111,29.265],[-89.6138,29.2681],[-89.624,29.2692],[-89.6266,29.276],[-89.6333,29.2794],[-89.6397,29.2905],[-89.6608,29.2893],[-89.6718,29.289],[-89.6973,29.2967],[-89.7262,29.304],[-89.7821,29.3111],[-89.8146,29.3145],[-89.8203,29.3165],[-89.8426,29.3188],[-89.8441,29.3226],[-89.8362,29.3254],[-89.8339,29.3315],[-89.837,29.3366],[-89.8351,29.3423],[-89.8278,29.3451],[-89.8253,29.355],[-89.8221,29.3566],[-89.8161,29.3573],[-89.8015,29.3533],[-89.8006,29.3432],[-89.7906,29.3283],[-89.7692,29.3363],[-89.7597,29.3502],[-89.7407,29.3548],[-89.7259,29.358],[-89.7091,29.3581],[-89.6886,29.3589],[-89.6684,29.3647],[-89.6468,29.3763],[-89.6397,29.373],[-89.6283,29.3562],[-89.6233,29.3463],[-89.5955,29.356],[-89.6033,29.3753],[-89.6088,29.3875],[-89.6138,29.3889],[-89.6214,29.3937],[-89.6373,29.3972],[-89.6421,29.406],[-89.6463,29.4075],[-89.6474,29.4099],[-89.6505,29.4104],[-89.6528,29.4002],[-89.6517,29.3956],[-89.6449,29.39],[-89.6696,29.3902],[-89.6948,29.3925],[-89.7164,29.3881],[-89.7267,29.3898],[-89.768,29.3894],[-89.7697,29.398],[-89.7802,29.4028],[-89.7909,29.4108],[-89.8147,29.4001],[-89.8176,29.406],[-89.8222,29.4095],[-89.826,29.4156],[-89.8436,29.4217],[-89.8414,29.4358],[-89.8353,29.4522],[-89.8296,29.4532],[-89.816,29.4603],[-89.8232,29.4651],[-89.8263,29.4692],[-89.8364,29.4749],[-89.852,29.4757],[-89.863,29.4703],[-89.8643,29.455],[-89.8693,29.4511],[-89.874,29.445],[-89.8759,29.4367],[-89.8795,29.4345],[-89.8838,29.4346],[-89.8862,29.4402],[-89.8909,29.4451],[-89.9053,29.4397],[-89.9057,29.447],[-89.9193,29.4484],[-89.9343,29.4397],[-89.9447,29.4589],[-89.9578,29.457],[-89.964,29.463],[-89.9687,29.4633],[-89.9774,29.4596],[-89.9775,29.4856],[-89.9796,29.4856],[-89.9796,29.5057],[-89.9789,29.5336],[-89.9798,29.538],[-89.9844,29.5363],[-89.9869,29.5463],[-89.9887,29.5489],[-89.9884,29.5626],[-89.9826,29.5671],[-89.9832,29.5724],[-89.9859,29.5754],[-89.9808,29.5802],[-89.9812,29.5842],[-89.9768,29.5869],[-89.9773,29.5888],[-89.9812,29.5887],[-89.9818,29.5927],[-89.9797,29.5962],[-89.9835,29.6018],[-89.98,29.6076],[-89.9851,29.6095],[-89.9882,29.6145],[-89.9845,29.6166],[-89.9875,29.6215],[-89.9906,29.6225],[-89.9948,29.6212],[-90.0022,29.6234],[-90.0036,29.6313],[-90.0055,29.6371],[-90.0159,29.6744],[-90.0199,29.6787],[-90.0295,29.6871],[-90.038,29.6997],[-90.0406,29.708],[-90.0424,29.7096],[-90.0622,29.731],[-90.0673,29.7389],[-90.0657,29.7531],[-90.0757,29.7719],[-90.0728,29.7733],[-90.0628,29.7832],[-90.0603,29.7849],[-90.0656,29.7924],[-90.0685,29.8018],[-90.0704,29.8037],[-90.0716,29.8104],[-90.0675,29.8237],[-90.0686,29.8288],[-90.0643,29.833],[-90.0579,29.8369],[-90.0517,29.8379],[-90.0446,29.8414],[-90.0399,29.846],[-90.0341,29.8478],[-90.0275,29.8529],[-90.0256,29.8592],[-90.0229,29.8625],[-90.023,29.8682],[-90.0177,29.8785],[-90.0098,29.8915],[-90.0081,29.8955],[-90.0025,29.8923]]]]}},{"type":"Feature","properties":{"id":"22087","name":"St. Bernard Par."},"geometry":{"type":"MultiPolygon","coordinates":[[[[-88.8627,29.8568],[-88.8614,29.8504],[-88.8623,29.8462],[-88.8651,29.8485],[-88.8657,29.8558],[-88.8677,29.8595],[-88.8657,29.8626],[-88.8627,29.8568]]],[[[-88.8753,29.8819],[-88.8761,29.875],[-88.8788,29.8724],[-88.8783,29.877],[-88.8753,29.8819]]],[[[-88.8556,30.0344],[-88.8412,30.0128],[-88.8337,29.9988],[-88.8242,29.9705],[-88.817,29.9343],[-88.8181,29.8891],[-88.8265,29.8471],[-88.8327,29.8241],[-88.8458,29.7991],[-88.8679,29.7623],[-88.8751,29.7598],[-88.8651,29.781],[-88.8638,29.7936],[-88.853,29.8111],[-88.8465,29.8171],[-88.843,29.826],[-88.8363,29.8552],[-88.8368,29.859],[-88.8433,29.8638],[-88.8312,29.8788],[-88.8282,29.9207],[-88.8374,29.9449],[-88.8387,29.9623],[-88.8355,29.9677],[-88.8355,29.9741],[-88.8398,29.9838],[-88.8409,29.9956],[-88.8484,30.0133],[-88.8574,30.0278],[-88.8697,30.0438],[-88.8815,30.0532],[-88.8705,30.0492],[-88.8556,30.0344]]],[[[-89.2495,29.8286],[-89.2455,29.8266],[-89.2489,29.8232],[-89.2629,29.8247],[-89.2622,29.8275],[-89.2495,29.8286]]],[[[-89.2878,29.9996],[-89.2899,29.9952],[-89.2934,29.9947],[-89.2939,30.0003],[-89.2878,29.9996]]],[[[-89.3259,29.9553],[-89.3195,29.9523],[-89.3194,29.9489],[-89.3237,29.9462],[-89.3266,29.947],[-89.3273,29.9518],[-89.3259,29.9553]]],[[[-89.3322,29.9624],[-89.334,29.9591],[-89.3373,29.9594],[-89.3357,29.9628],[-89.3322,29.9624]]],[[[-89.3367,29.9942],[-89.3367,29.988],[-89.3403,29.9882],[-89.3396,29.994],[-89.3367,29.9942]]],[[[-89.3361,30.0609],[-89.3287,30.0612],[-89.324,30.0644],[-89.3188,30.0651],[-89.303,30.0916],[-89.2834,30.1018],[-89.2637,30.1109],[-89.2455,30.1216],[-89.2326,30.1282],[-89.211,30.1414],[-89.202,30.1476],[-89.1957,30.157],[-89.1905,30.1618],[-89.1857,30.157],[-89.1909,30.1491],[-89.2002,30.1443],[-89.2128,30.1319],[-89.2185,30.1226],[-89.2277,30.1197],[-89.2431,30.1007],[-89.2369,30.095],[-89.2291,30.0989],[-89.2271,30.0951],[-89.227,30.086],[-89.2232,30.0801],[-89.2208,30.0714],[-89.2073,30.0706],[-89.1921,30.0673],[-89.1858,30.0639],[-89.1757,30.0628],[-89.1768,30.0607],[-89.1734,30.0434],[-89.184,30.0328],[-89.188,30.0318],[-89.203,30.0346],[-89.213,30.0274],[-89.2115,30.0101],[-89.2016,30.0014],[-89.2157,29.9935],[-89.2295,30.0004],[-89.2244,30.007],[-89.2272,30.0212],[-89.238,30.0335],[-89.2401,30.0451],[-89.2389,30.0529],[-89.2443,30.0583],[-89.2534,30.0605],[-89.2598,30.0494],[-89.2688,30.0435],[-89.2755,30.0371],[-89.2762,30.0317],[-89.2758,30.0231],[-89.2816,30.0282],[-89.2809,30.0369],[-89.2876,30.0406],[-89.3085,30.0398],[-89.3121,30.0445],[-89.324,30.0478],[-89.3287,30.0383],[-89.3332,30.0348],[-89.3403,30.0446],[-89.3401,30.0529],[-89.3422,30.0592],[-89.3361,30.0609]]],[[[-89.3435,29.9813],[-89.3404,29.9762],[-89.3434,29.9734],[-89.3474,29.9752],[-89.3435,29.9813]]],[[[-89.3525,29.9279],[-89.3524,29.9244],[-89.3562,29.9199],[-89.3603,29.9199],[-89.3625,29.9227],[-89.3578,29.934],[-89.3525,29.9279]]],[[[-89.362,29.9623],[-89.3658,29.972],[-89.3668,29.9767],[-89.3644,29.98],[-89.3604,29.9792],[-89.3592,29.9768],[-89.3518,29.9729],[-89.3619,29.9737],[-89.3632,29.9719],[-89.3591,29.9644],[-89.3534,29.9618],[-89.3537,29.9596],[-89.3617,29.9517],[-89.3649,29.9507],[-89.3691,29.9525],[-89.3637,29.9552],[-89.362,29.9623]]],[[[-89.3797,30.0146],[-89.3765,30.0144],[-89.3759,30.011],[-89.3713,30.0096],[-89.3648,30.0091],[-89.3673,30.0049],[-89.37,30.0067],[-89.375,30.007],[-89.3784,30.0042],[-89.3809,30.0058],[-89.3814,30.0091],[-89.3797,30.0146]]],[[[-89.4421,30.1444],[-89.4298,30.1444],[-89.427,30.1485],[-89.4177,30.1437],[-89.4239,30.133],[-89.429,30.1286],[-89.439,30.1275],[-89.4466,30.1303],[-89.4409,30.1352],[-89.4421,30.1444]]],[[[-89.8546,29.9828],[-89.8462,29.9564],[-89.8434,29.9504],[-89.8402,29.9466],[-89.8388,29.9428],[-89.8365,29.9427],[-89.8193,29.9331],[-89.8078,29.9317],[-89.7981,29.9317],[-89.7901,29.933],[-89.7746,29.9369],[-89.7613,29.9408],[-89.7485,29.9458],[-89.7473,29.9455],[-89.7294,29.9575],[-89.7198,29.9521],[-89.7148,29.947],[-89.7292,29.9406],[-89.7363,29.9363],[-89.7427,29.9359],[-89.7472,29.9308],[-89.7466,29.9172],[-89.7449,29.9079],[-89.7388,29.9021],[-89.7275,29.8958],[-89.7205,29.89],[-89.7112,29.8793],[-89.7053,29.8743],[-89.6886,29.8676],[-89.6783,29.8668],[-89.6722,29.867],[-89.6703,29.8647],[-89.6654,29.8628],[-89.65,29.8621],[-89.6348,29.8632],[-89.6137,29.8698],[-89.5964,29.8796],[-89.5909,29.889],[-89.5923,29.9173],[-89.5819,29.9294],[-89.5813,29.9349],[-89.5816,29.9459],[-89.5752,29.9571],[-89.5704,29.9615],[-89.5719,29.9711],[-89.5706,29.9757],[-89.5744,29.9837],[-89.5801,29.9905],[-89.576,29.9962],[-89.5598,29.9986],[-89.5513,30.0057],[-89.5341,30.0155],[-89.5071,30.0285],[-89.5016,30.034],[-89.4915,30.0375],[-89.4894,30.0418],[-89.4927,30.0452],[-89.4967,30.0606],[-89.493,30.0645],[-89.4925,30.0707],[-89.4844,30.0788],[-89.4804,30.0745],[-89.4635,30.0661],[-89.4564,30.0589],[-89.4521,30.0609],[-89.4446,30.061],[-89.4311,30.0518],[-89.4426,30.0463],[-89.4416,30.0404],[-89.4371,30.0361],[-89.4304,30.0338],[-89.4231,30.0367],[-89.4155,30.0439],[-89.4019,30.049],[-89.3905,30.0521],[-89.3805,30.0522],[-89.3727,30.0498],[-89.3777,30.0474],[-89.3803,30.0416],[-89.3724,30.0367],[-89.3746,30.0326],[-89.3817,30.035],[-89.385,30.0338],[-89.3893,30.03],[-89.3938,30.0311],[-89.4052,30.0287],[-89.4078,30.0239],[-89.4029,30.0192],[-89.4043,30.0151],[-89.4021,30.0093],[-89.3972,30.0056],[-89.3991,30.0009],[-89.4045,30.0046],[-89.4093,30.0095],[-89.4093,30.02],[-89.4136,30.0232],[-89.4176,30.0219],[-89.4212,30.0167],[-89.4235,30.0169],[-89.4243,30.0233],[-89.4257,30.0268],[-89.43,30.0289],[-89.4359,30.0276],[-89.4385,30.0249],[-89.4445,30.0233],[-89.449,30.0192],[-89.4473,30.0142],[-89.4349,30.013],[-89.4321,30.0105],[-89.4354,30.0095],[-89.4487,30.0118],[-89.454,30.0077],[-89.4578,29.9982],[-89.4535,29.9939],[-89.4428,29.9974],[-89.4334,29.9912],[-89.4366,29.9832],[-89.434,29.9743],[-89.4259,29.9714],[-89.4198,29.9725],[-89.4195,29.9706],[-89.424,29.9688],[-89.4235,29.9634],[-89.4166,29.9605],[-89.4102,29.9646],[-89.3948,29.9635],[-89.3812,29.9595],[-89.3811,29.9562],[-89.3865,29.956],[-89.395,29.9589],[-89.3983,29.9578],[-89.3979,29.9548],[-89.3917,29.9488],[-89.3893,29.9449],[-89.3805,29.9416],[-89.3786,29.9196],[-89.376,29.9063],[-89.3724,29.9012],[-89.3701,29.8921],[-89.3598,29.8909],[-89.3556,29.8962],[-89.352,29.9024],[-89.3539,29.9115],[-89.3443,29.9115],[-89.3423,29.9079],[-89.3344,29.9069],[-89.327,29.918],[-89.3176,29.9212],[-89.3079,29.935],[-89.2982,29.9525],[-89.2908,29.9599],[-89.2836,29.9733],[-89.2758,29.9776],[-89.2729,29.9832],[-89.2752,29.99],[-89.2733,29.9938],[-89.2665,29.9911],[-89.2572,29.9906],[-89.2478,29.9973],[-89.2465,29.9926],[-89.2515,29.9814],[-89.25,29.9756],[-89.2465,29.9738],[-89.2279,29.9705],[-89.2255,29.9671],[-89.2352,29.9468],[-89.238,29.937],[-89.2324,29.9304],[-89.2427,29.9311],[-89.2555,29.9286],[-89.2631,29.9295],[-89.2798,29.9272],[-89.2862,29.9226],[-89.2957,29.9189],[-89.2983,29.9149],[-89.2988,29.9093],[-89.3051,29.91],[-89.3108,29.9072],[-89.3157,29.9023],[-89.3205,29.8921],[-89.3247,29.8889],[-89.3349,29.8861],[-89.342,29.8831],[-89.3391,29.8775],[-89.3351,29.8728],[-89.3273,29.8741],[-89.3127,29.8811],[-89.2966,29.8795],[-89.2904,29.8795],[-89.2605,29.8842],[-89.2412,29.8851],[-89.2403,29.8786],[-89.2438,29.876],[-89.2534,29.8746],[-89.2581,29.867],[-89.2644,29.867],[-89.2699,29.86],[-89.2709,29.8521],[-89.2764,29.8489],[-89.2859,29.8507],[-89.2933,29.8634],[-89.2994,29.8655],[-89.306,29.8657],[-89.306,29.8582],[-89.3152,29.8528],[-89.303,29.8436],[-89.3009,29.8363],[-89.3087,29.8411],[-89.3195,29.8371],[-89.3174,29.8309],[-89.3122,29.8264],[-89.3124,29.8236],[-89.3193,29.8239],[-89.3241,29.8264],[-89.3275,29.8233],[-89.3368,29.8363],[-89.3431,29.8383],[-89.3384,29.8399],[-89.3351,29.8388],[-89.3306,29.8401],[-89.3294,29.8432],[-89.3349,29.847],[-89.3408,29.8497],[-89.3633,29.8458],[-89.3836,29.8401],[-89.3857,29.8355],[-89.3794,29.8221],[-89.3699,29.8258],[-89.3623,29.8267],[-89.3603,29.8229],[-89.353,29.82],[-89.3493,29.8208],[-89.345,29.8154],[-89.3532,29.8144],[-89.3587,29.8098],[-89.357,29.8],[-89.3446,29.7977],[-89.3397,29.7921],[-89.341,29.7901],[-89.3365,29.7852],[-89.329,29.7827],[-89.3245,29.7842],[-89.3184,29.7837],[-89.3083,29.789],[-89.3036,29.7964],[-89.299,29.7988],[-89.2925,29.7992],[-89.2905,29.7855],[-89.2929,29.7753],[-89.2913,29.767],[-89.2857,29.7634],[-89.2951,29.7604],[-89.3049,29.7587],[-89.307,29.7622],[-89.3104,29.7635],[-89.3147,29.7629],[-89.324,29.7734],[-89.3328,29.7799],[-89.3439,29.7824],[-89.3539,29.7832],[-89.3606,29.7814],[-89.3673,29.7775],[-89.3735,29.7836],[-89.376,29.7886],[-89.3837,29.7909],[-89.3947,29.7902],[-89.4003,29.7857],[-89.4014,29.7801],[-89.4016,29.7696],[-89.412,29.7596],[-89.4175,29.7524],[-89.4308,29.7408],[-89.4255,29.7312],[-89.4292,29.727],[-89.4302,29.7126],[-89.4064,29.6944],[-89.3961,29.6957],[-89.3877,29.6838],[-89.3878,29.68],[-89.404,29.6818],[-89.4119,29.6864],[-89.4242,29.6976],[-89.4319,29.6887],[-89.4267,29.6786],[-89.4403,29.682],[-89.4431,29.6712],[-89.439,29.6636],[-89.4338,29.6564],[-89.4456,29.6519],[-89.4557,29.6509],[-89.4656,29.6517],[-89.4686,29.6615],[-89.4712,29.6732],[-89.4625,29.6798],[-89.466,29.6877],[-89.4676,29.699],[-89.4764,29.7064],[-89.4851,29.72],[-89.4916,29.7239],[-89.4975,29.7179],[-89.5018,29.7228],[-89.512,29.7277],[-89.5249,29.7266],[-89.5228,29.7198],[-89.5188,29.7021],[-89.5099,29.6977],[-89.5077,29.692],[-89.5196,29.6922],[-89.5228,29.6883],[-89.5249,29.6828],[-89.5249,29.6754],[-89.5165,29.6731],[-89.5145,29.6688],[-89.5323,29.6734],[-89.5315,29.6664],[-89.5226,29.6593],[-89.5114,29.6569],[-89.508,29.6468],[-89.503,29.6398],[-89.5003,29.6345],[-89.5055,29.6356],[-89.5076,29.639],[-89.5117,29.6418],[-89.5186,29.6491],[-89.5224,29.6508],[-89.5291,29.6516],[-89.537,29.6512],[-89.5461,29.6529],[-89.5511,29.6569],[-89.5581,29.6602],[-89.5637,29.6595],[-89.5674,29.6613],[-89.5709,29.665],[-89.5752,29.6666],[-89.5799,29.666],[-89.5885,29.6682],[-89.5918,29.6709],[-89.5996,29.6748],[-89.6074,29.6749],[-89.6226,29.6779],[-89.6282,29.6807],[-89.6389,29.6923],[-89.6433,29.6954],[-89.6483,29.7009],[-89.6603,29.7087],[-89.6667,29.7113],[-89.6717,29.7113],[-89.6839,29.716],[-89.6873,29.7207],[-89.6919,29.738],[-89.698,29.7438],[-89.705,29.7528],[-89.7194,29.7574],[-89.7339,29.7586],[-89.7452,29.7571],[-89.758,29.7585],[-89.7677,29.7553],[-89.7786,29.7561],[-89.7828,29.7571],[-89.7908,29.7608],[-89.7916,29.767],[-89.7862,29.7733],[-89.7894,29.7757],[-89.7919,29.7801],[-89.7954,29.7829],[-89.803,29.7927],[-89.8098,29.7988],[-89.8192,29.8018],[-89.825,29.8022],[-89.8307,29.8012],[-89.8598,29.793],[-89.8654,29.793],[-89.8697,29.7955],[-89.8744,29.8022],[-89.8747,29.8055],[-89.8797,29.8079],[-89.8786,29.8155],[-89.885,29.8214],[-89.8959,29.8332],[-89.903,29.8505],[-89.9107,29.8679],[-89.9057,29.8719],[-89.903,29.877],[-89.9024,29.8829],[-89.9033,29.8874],[-89.9083,29.898],[-89.9168,29.9104],[-89.921,29.9157],[-89.9288,29.9218],[-89.9387,29.9245],[-89.9607,29.9238],[-89.9698,29.9247],[-89.9839,29.9297],[-89.9925,29.9342],[-90.0121,29.946],[-90.0064,29.9583],[-89.9987,29.9737],[-89.9955,29.9727],[-89.992,29.9806],[-89.9924,29.9824],[-89.9899,29.9895],[-89.9835,29.987],[-89.9756,29.9938],[-89.9726,29.9948],[-89.971,29.9923],[-89.9651,29.9899],[-89.9606,29.9861],[-89.9566,29.9871],[-89.953,29.9812],[-89.9454,29.9824],[-89.939,29.9804],[-89.9377,29.9845],[-89.9312,29.9878],[-89.9282,29.9877],[-89.919,29.9939],[-89.9142,29.9991],[-89.9044,30.0025],[-89.8974,30.0007],[-89.8945,30.0023],[-89.8899,30.0],[-89.8881,29.9973],[-89.8852,29.9965],[-89.8852,29.9913],[-89.8816,29.9862],[-89.876,29.987],[-89.8717,29.9925],[-89.8684,29.9922],[-89.8668,29.9887],[-89.8631,29.9877],[-89.8592,29.9926],[-89.8654,29.9971],[-89.8599,30.0017],[-89.8546,29.9828]]]]}},{"type":"Feature","properties":{"id":"22071","name":"Orleans Par."},"geometry":{"type":"Polygon","coordinates":[[[-90.0985,30.1612],[-90.0825,30.1572],[-90.0697,30.1554],[-90.0403,30.1551],[-90.0234,30.158],[-90.0034,30.163],[-89.9744,30.1762],[-89.9622,30.1792],[-89.9516,30.1826],[-89.9032,30.1987],[-89.8662,30.1914],[-89.8484,30.1901],[-89.8208,30.18],[-89.8178,30.178],[-89.7974,30.1608],[-89.7759,30.1594],[-89.7563,30.169],[-89.7486,30.1759],[-89.7454,30.1775],[-89.741,30.1768],[-89.7368,30.1747],[-89.7262,30.1647],[-89.7193,30.161],[-89.7117,30.162],[-89.6976,30.1682],[-89.6941,30.1731],[-89.6904,30.1751],[-89.6853,30.1753],[-89.6801,30.1736],[-89.6629,30.1657],[-89.6554,30.1593],[-89.6504,30.1581],[-89.6405,30.1582],[-89.6255,30.1551],[-89.6313,30.1444],[-89.635,30.1432],[-89.641,30.1386],[-89.6486,30.1306],[-89.657,30.1184],[-89.6692,30.1107],[-89.6746,30.1104],[-89.6782,30.1083],[-89.6807,30.1046],[-89.6843,30.0846],[-89.6849,30.0752],[-89.6982,30.0707],[-89.7209,30.0684],[-89.7309,30.0607],[-89.733,30.0527],[-89.7309,30.0451],[-89.7264,30.0415],[-89.7172,30.0284],[-89.7177,30.0253],[-89.7246,30.0225],[-89.7333,30.0221],[-89.7465,30.0326],[-89.7486,30.0359],[-89.7534,30.0387],[-89.7679,30.0457],[-89.7746,30.0453],[-89.7936,30.047],[-89.8183,30.0457],[-89.8211,30.0411],[-89.8335,30.0336],[-89.8459,30.0212],[-89.854,30.0105],[-89.8585,30.0083],[-89.8599,30.0017],[-89.8654,29.9971],[-89.8592,29.9926],[-89.8631,29.9877],[-89.8668,29.9887],[-89.8684,29.9922],[-89.8717,29.9925],[-89.876,29.987],[-89.8816,29.9862],[-89.8852,29.9913],[-89.8852,29.9965],[-89.8881,29.9973],[-89.8899,30.0],[-89.8945,30.0023],[-89.8974,30.0007],[-89.9044,30.0025],[-89.9142,29.9991],[-89.919,29.9939],[-89.9282,29.9877],[-89.9312,29.9878],[-89.9377,29.9845],[-89.939,29.9804],[-89.9454,29.9824],[-89.953,29.9812],[-89.9566,29.9871],[-89.9606,29.9861],[-89.9651,29.9899],[-89.971,29.9923],[-89.9726,29.9948],[-89.9756,29.9938],[-89.9835,29.987],[-89.9899,29.9895],[-89.9924,29.9824],[-89.992,29.9806],[-89.9955,29.9727],[-89.9987,29.9737],[-90.0064,29.9583],[-90.0121,29.946],[-89.9925,29.9342],[-89.9839,29.9297],[-89.9698,29.9247],[-89.9607,29.9238],[-89.9387,29.9245],[-89.9288,29.9218],[-89.921,29.9157],[-89.9168,29.9104],[-89.9083,29.898],[-89.9033,29.8874],[-89.9024,29.8829],[-89.903,29.877],[-89.9057,29.8719],[-89.9107,29.8679],[-89.9176,29.8667],[-89.9205,29.8716],[-89.9354,29.893],[-89.959,29.9026],[-89.9727,29.9044],[-89.9792,29.9023],[-89.9873,29.905],[-89.9892,29.8894],[-90.0023,29.8978],[-90.0025,29.8923],[-90.0081,29.8955],[-90.0081,29.8969],[-90.0183,29.9068],[-90.0524,29.9391],[-90.0585,29.9453],[-90.058,29.9377],[-90.0592,29.9304],[-90.0625,29.926],[-90.0717,29.9193],[-90.0856,29.9144],[-90.1044,29.9088],[-90.1165,29.9087],[-90.1251,29.9102],[-90.1325,29.913],[-90.1386,29.9188],[-90.1393,29.9249],[-90.139,29.9384],[-90.1401,29.9479],[-90.125,29.9737],[-90.1234,29.9958],[-90.121,30.0223],[-90.1199,30.0287],[-90.1185,30.0298],[-90.1194,30.0366],[-90.1081,30.1649],[-90.0985,30.1612]]]}},{"type":"Feature","properties":{"id":"22093","name":"St. James Par."},"geometry":{"type":"Polygon","coordinates":[[[-90.6498,30.1207],[-90.6537,30.0964],[-90.6709,30.0941],[-90.6612,30.0508],[-90.67,30.0476],[-90.6824,30.0406],[-90.6888,30.036],[-90.6716,29.9928],[-90.6793,29.9877],[-90.6757,29.9871],[-90.6756,29.9807],[-90.6671,29.981],[-90.6665,29.9664],[-90.6751,29.9662],[-90.6749,29.9516],[-90.6665,29.9518],[-90.6656,29.9077],[-90.6563,29.8892],[-90.6607,29.8904],[-90.6682,29.8894],[-90.6755,29.893],[-90.6807,29.8926],[-90.6838,29.8983],[-90.6882,29.8992],[-90.688,29.9029],[-90.69,29.9048],[-90.6978,29.9006],[-90.7008,29.9035],[-90.7099,29.9006],[-90.7091,29.8975],[-90.7173,29.8967],[-90.7178,29.9023],[-90.7232,29.907],[-90.7398,29.9045],[-90.7495,29.9079],[-90.7581,29.913],[-90.762,29.9131],[-90.7699,29.9165],[-90.7752,29.9174],[-90.7787,29.922],[-90.7858,29.9217],[-90.7854,29.9076],[-90.8857,29.9053],[-90.8863,29.9356],[-90.9118,29.9351],[-90.9118,29.9785],[-90.9463,29.9779],[-90.9464,30.036],[-90.9634,30.0358],[-90.9637,30.0668],[-90.9427,30.0811],[-90.9356,30.0856],[-90.937,30.0889],[-90.9345,30.0942],[-90.9147,30.1088],[-90.9156,30.1133],[-90.8693,30.122],[-90.7596,30.1436],[-90.6421,30.1664],[-90.6498,30.1207]]]}},{"type":"Feature","properties":{"id":"22095","name":"St. John the Baptist Par."},"geometry":{"type":"Polygon","coordinates":[[[-90.6319,30.2212],[-90.6178,30.2191],[-90.6138,30.2148],[-90.6104,30.2142],[-90.6056,30.2172],[-90.6012,30.2175],[-90.5976,30.2156],[-90.592,30.2083],[-90.5915,30.2058],[-90.5814,30.1989],[-90.5778,30.1972],[-90.5675,30.1954],[-90.5541,30.1956],[-90.547,30.1987],[-90.5384,30.2035],[-90.5161,30.2213],[-90.5091,30.2301],[-90.5017,30.2514],[-90.4858,30.277],[-90.4581,30.2771],[-90.4321,30.2792],[-90.4205,30.2798],[-90.4107,30.2814],[-90.4049,30.2843],[-90.3979,30.2861],[-90.3914,30.2855],[-90.3861,30.2869],[-90.3825,30.2865],[-90.3737,30.2834],[-90.3687,30.2859],[-90.3629,30.2904],[-90.3503,30.2968],[-90.3471,30.2974],[-90.3407,30.2956],[-90.3336,30.2952],[-90.3279,30.2963],[-90.3205,30.299],[-90.3122,30.2953],[-90.3009,30.2947],[-90.297,30.2924],[-90.2834,30.2872],[-90.1606,30.2343],[-90.1582,30.2281],[-90.154,30.2035],[-90.1543,30.1984],[-90.1563,30.1896],[-90.1786,30.1853],[-90.2053,30.1793],[-90.2418,30.1694],[-90.2599,30.1634],[-90.2842,30.158],[-90.3214,30.1515],[-90.3266,30.1502],[-90.3326,30.1434],[-90.3422,30.1278],[-90.3497,30.1203],[-90.407,30.0831],[-90.4502,30.0331],[-90.4746,30.0313],[-90.4758,30.0359],[-90.4945,30.03],[-90.5356,30.0175],[-90.538,30.0169],[-90.539,30.0022],[-90.5497,30.0027],[-90.5493,29.968],[-90.5322,29.9679],[-90.5296,29.885],[-90.5354,29.8911],[-90.553,29.8933],[-90.5786,29.8934],[-90.5935,29.8929],[-90.5988,29.8902],[-90.6031,29.8853],[-90.6093,29.8831],[-90.6108,29.8844],[-90.6121,29.8911],[-90.6171,29.8902],[-90.6238,29.8941],[-90.6291,29.8952],[-90.6353,29.8948],[-90.6506,29.8918],[-90.6563,29.8892],[-90.6656,29.9077],[-90.6665,29.9518],[-90.6749,29.9516],[-90.6751,29.9662],[-90.6665,29.9664],[-90.6671,29.981],[-90.6756,29.9807],[-90.6757,29.9871],[-90.6793,29.9877],[-90.6716,29.9928],[-90.6888,30.036],[-90.6824,30.0406],[-90.67,30.0476],[-90.6612,30.0508],[-90.6709,30.0941],[-90.6537,30.0964],[-90.6498,30.1207],[-90.6421,30.1664],[-90.6319,30.2212]]]}},{"type":"Feature","properties":{"id":"22051","name":"Jefferson Par."},"geometry":{"type":"MultiPolygon","coordinates":[[[[-89.943,29.2765],[-89.934,29.2856],[-89.9286,29.2869],[-89.9106,29.2956],[-89.9066,29.2966],[-89.9077,29.2926],[-89.9158,29.2865],[-89.9289,29.2796],[-89.936,29.2769],[-89.9442,29.2717],[-89.9504,29.2755],[-89.9502,29.277],[-89.943,29.2765]]],[[[-89.9574,29.3055],[-89.9579,29.3025],[-89.9621,29.3033],[-89.9598,29.3068],[-89.9574,29.3055]]],[[[-89.9715,29.2849],[-89.9669,29.2826],[-89.9656,29.2749],[-89.9671,29.2714],[-89.9691,29.2721],[-89.971,29.276],[-89.9795,29.2776],[-89.9791,29.2811],[-89.9715,29.2849]]],[[[-89.9739,29.3209],[-89.9703,29.3169],[-89.9691,29.3114],[-89.9705,29.3033],[-89.9732,29.301],[-89.9767,29.3033],[-89.9816,29.3088],[-89.9842,29.3188],[-89.984,29.3208],[-89.9739,29.3209]]],[[[-90.0169,29.2506],[-90.0145,29.2509],[-90.0117,29.2483],[-90.008,29.2395],[-90.0109,29.2378],[-90.0118,29.2407],[-90.0214,29.2397],[-90.0246,29.2411],[-90.0201,29.2441],[-90.0169,29.2506]]],[[[-90.0226,29.2672],[-90.0199,29.2649],[-90.022,29.261],[-90.0269,29.26],[-90.0288,29.2645],[-90.0226,29.2672]]],[[[-90.0279,29.3588],[-90.0237,29.3548],[-90.0158,29.354],[-90.0123,29.3591],[-90.0086,29.367],[-90.0049,29.3702],[-89.9975,29.3705],[-89.9861,29.3577],[-89.977,29.3532],[-89.9789,29.347],[-89.9827,29.3413],[-89.9961,29.3412],[-90.0035,29.3439],[-90.0074,29.3432],[-90.0144,29.3505],[-90.0175,29.3508],[-90.0304,29.3449],[-90.0353,29.3502],[-90.0351,29.3574],[-90.0279,29.3588]]],[[[-90.0389,29.2051],[-90.0344,29.21],[-90.03,29.2126],[-90.0294,29.215],[-90.0239,29.2195],[-90.0153,29.2298],[-90.0053,29.2339],[-90.0052,29.2367],[-90.0013,29.2397],[-90.0019,29.2462],[-90.0006,29.2481],[-89.994,29.2492],[-89.9911,29.2563],[-89.9882,29.2601],[-89.9848,29.2616],[-89.9828,29.2592],[-89.9798,29.26],[-89.977,29.2576],[-89.9738,29.2571],[-89.9702,29.2635],[-89.9605,29.2647],[-89.9569,29.2671],[-89.9521,29.2666],[-89.9491,29.2619],[-89.9556,29.2528],[-89.9982,29.23],[-90.021,29.2165],[-90.04,29.2001],[-90.0432,29.2003],[-90.0427,29.2027],[-90.0389,29.2051]]],[[[-90.0866,29.1868],[-90.0828,29.1908],[-90.0753,29.1966],[-90.0723,29.1974],[-90.0705,29.2008],[-90.063,29.2042],[-90.0636,29.2083],[-90.0552,29.2083],[-90.0528,29.2123],[-90.0479,29.2153],[-90.0499,29.2102],[-90.0552,29.2051],[-90.0476,29.1939],[-90.0479,29.1896],[-90.0664,29.1804],[-90.0888,29.1669],[-90.0861,29.1744],[-90.0878,29.1787],[-90.0905,29.1809],[-90.0849,29.1846],[-90.0866,29.1868]]],[[[-90.2418,30.1694],[-90.2053,30.1793],[-90.1786,30.1853],[-90.1563,30.1896],[-90.1447,30.18],[-90.1398,30.1774],[-90.1081,30.1649],[-90.1194,30.0366],[-90.1185,30.0298],[-90.1199,30.0287],[-90.121,30.0223],[-90.1234,29.9958],[-90.125,29.9737],[-90.1401,29.9479],[-90.139,29.9384],[-90.1393,29.9249],[-90.1386,29.9188],[-90.1325,29.913],[-90.1251,29.9102],[-90.1165,29.9087],[-90.1044,29.9088],[-90.0856,29.9144],[-90.0717,29.9193],[-90.0625,29.926],[-90.0592,29.9304],[-90.058,29.9377],[-90.0585,29.9453],[-90.0524,29.9391],[-90.0183,29.9068],[-90.0081,29.8969],[-90.0081,29.8955],[-90.0098,29.8915],[-90.0177,29.8785],[-90.023,29.8682],[-90.0229,29.8625],[-90.0256,29.8592],[-90.0275,29.8529],[-90.0341,29.8478],[-90.0399,29.846],[-90.0446,29.8414],[-90.0517,29.8379],[-90.0579,29.8369],[-90.0643,29.833],[-90.0686,29.8288],[-90.0675,29.8237],[-90.0716,29.8104],[-90.0704,29.8037],[-90.0685,29.8018],[-90.0656,29.7924],[-90.0603,29.7849],[-90.0628,29.7832],[-90.0728,29.7733],[-90.0757,29.7719],[-90.0657,29.7531],[-90.0673,29.7389],[-90.0622,29.731],[-90.0424,29.7096],[-90.0406,29.708],[-90.038,29.6997],[-90.0295,29.6871],[-90.0199,29.6787],[-90.0159,29.6744],[-90.0055,29.6371],[-90.0036,29.6313],[-90.0022,29.6234],[-89.9948,29.6212],[-89.9906,29.6225],[-89.9875,29.6215],[-89.9845,29.6166],[-89.9882,29.6145],[-89.9851,29.6095],[-89.98,29.6076],[-89.9835,29.6018],[-89.9797,29.5962],[-89.9818,29.5927],[-89.9812,29.5887],[-89.9773,29.5888],[-89.9768,29.5869],[-89.9812,29.5842],[-89.9808,29.5802],[-89.9859,29.5754],[-89.9832,29.5724],[-89.9826,29.5671],[-89.9884,29.5626],[-89.9887,29.5489],[-89.9869,29.5463],[-89.9844,29.5363],[-89.9798,29.538],[-89.9789,29.5336],[-89.9796,29.5057],[-89.9796,29.4856],[-89.9775,29.4856],[-89.9774,29.4596],[-89.9806,29.4583],[-89.9918,29.4506],[-89.9915,29.4461],[-89.9839,29.4434],[-89.9814,29.4381],[-89.9704,29.4318],[-89.9756,29.4277],[-89.9804,29.419],[-89.9858,29.4121],[-89.9873,29.4055],[-90.0025,29.4034],[-90.0032,29.3993],[-90.0006,29.3923],[-90.006,29.3871],[-90.0089,29.3792],[-90.0156,29.3761],[-90.0308,29.375],[-90.0286,29.3794],[-90.0309,29.3845],[-90.0291,29.3875],[-90.0333,29.3933],[-90.0251,29.4133],[-90.0206,29.4285],[-90.0223,29.4312],[-90.0292,29.4319],[-90.0376,29.4363],[-90.0421,29.4434],[-90.042,29.4459],[-90.0374,29.4478],[-90.0429,29.4523],[-90.0486,29.4552],[-90.0474,29.4586],[-90.049,29.4615],[-90.0542,29.4615],[-90.0614,29.4592],[-90.0695,29.4614],[-90.0749,29.4651],[-90.0805,29.4659],[-90.0859,29.4625],[-90.0952,29.4614],[-90.1141,29.4657],[-90.125,29.4702],[-90.1375,29.4772],[-90.1402,29.4817],[-90.1423,29.4915],[-90.1467,29.501],[-90.1506,29.5048],[-90.1598,29.5165],[-90.1665,29.5265],[-90.1693,29.5327],[-90.171,29.539],[-90.1742,29.5429],[-90.1861,29.5457],[-90.1897,29.5482],[-90.1922,29.5527],[-90.1918,29.5573],[-90.1862,29.5633],[-90.1747,29.5672],[-90.166,29.5673],[-90.1585,29.57],[-90.1578,29.5737],[-90.1645,29.5777],[-90.163,29.5817],[-90.1517,29.5879],[-90.152,29.5915],[-90.1541,29.5943],[-90.1515,29.5961],[-90.1519,29.5996],[-90.1562,29.6025],[-90.1512,29.6091],[-90.1577,29.6094],[-90.1571,29.6136],[-90.16,29.6166],[-90.1612,29.6234],[-90.1597,29.6327],[-90.1593,29.6406],[-90.1611,29.6462],[-90.1591,29.6534],[-90.1554,29.6574],[-90.1556,29.6622],[-90.1579,29.6665],[-90.1576,29.6723],[-90.1558,29.6775],[-90.1642,29.6769],[-90.1704,29.6835],[-90.176,29.6831],[-90.1835,29.6806],[-90.188,29.6819],[-90.1952,29.6905],[-90.2004,29.6885],[-90.2026,29.6914],[-90.2282,29.692],[-90.2023,29.7507],[-90.1725,29.8042],[-90.1695,29.8064],[-90.1709,29.8134],[-90.1673,29.8185],[-90.1723,29.8247],[-90.1732,29.8275],[-90.182,29.8276],[-90.2402,29.8621],[-90.2417,29.8684],[-90.2403,29.8713],[-90.2431,29.8768],[-90.2433,29.8809],[-90.2548,29.89],[-90.2565,29.8942],[-90.2598,29.8975],[-90.264,29.8985],[-90.2646,29.9012],[-90.2683,29.905],[-90.2735,29.9218],[-90.2782,29.9617],[-90.2803,29.9726],[-90.2801,29.9927],[-90.2795,30.0068],[-90.2797,30.0133],[-90.2792,30.0525],[-90.2776,30.057],[-90.2758,30.078],[-90.2756,30.0889],[-90.2731,30.0961],[-90.2726,30.1078],[-90.2695,30.1196],[-90.2669,30.1332],[-90.2654,30.144],[-90.2599,30.1634],[-90.2418,30.1694]]]]}},{"type":"Feature","properties":{"id":"22089","name":"St. Charles Par."},"geometry":{"type":"Polygon","coordinates":[[[-90.2654,30.144],[-90.2669,30.1332],[-90.2695,30.1196],[-90.2726,30.1078],[-90.2731,30.0961],[-90.2756,30.0889],[-90.2758,30.078],[-90.2776,30.057],[-90.2792,30.0525],[-90.2797,30.0133],[-90.2795,30.0068],[-90.2801,29.9927],[-90.2803,29.9726],[-90.2782,29.9617],[-90.2735,29.9218],[-90.2683,29.905],[-90.2646,29.9012],[-90.264,29.8985],[-90.2598,29.8975],[-90.2565,29.8942],[-90.2548,29.89],[-90.2433,29.8809],[-90.2431,29.8768],[-90.2403,29.8713],[-90.2417,29.8684],[-90.2402,29.8621],[-90.182,29.8276],[-90.1732,29.8275],[-90.1723,29.8247],[-90.1673,29.8185],[-90.1709,29.8134],[-90.1695,29.8064],[-90.1725,29.8042],[-90.2023,29.7507],[-90.2282,29.692],[-90.316,29.6924],[-90.3462,29.6933],[-90.3528,29.6959],[-90.3535,29.6979],[-90.361,29.7062],[-90.3618,29.7094],[-90.3602,29.7245],[-90.3633,29.7313],[-90.3608,29.7371],[-90.3642,29.742],[-90.3709,29.7462],[-90.3724,29.7512],[-90.372,29.7592],[-90.3748,29.7626],[-90.3807,29.7652],[-90.3921,29.7674],[-90.4012,29.7717],[-90.4048,29.7741],[-90.4093,29.7722],[-90.419,29.7757],[-90.4244,29.7767],[-90.4299,29.7764],[-90.4386,29.7828],[-90.4467,29.7904],[-90.4573,29.7951],[-90.4629,29.8008],[-90.4699,29.8052],[-90.4719,29.81],[-90.4758,29.8129],[-90.4772,29.8208],[-90.4763,29.8249],[-90.4769,29.8321],[-90.4802,29.8393],[-90.479,29.8442],[-90.4799,29.8474],[-90.486,29.8531],[-90.4892,29.8593],[-90.4989,29.8651],[-90.504,29.8651],[-90.5102,29.8633],[-90.5157,29.8647],[-90.5241,29.8745],[-90.5296,29.885],[-90.5322,29.9679],[-90.5493,29.968],[-90.5497,30.0027],[-90.539,30.0022],[-90.538,30.0169],[-90.5356,30.0175],[-90.4945,30.03],[-90.4758,30.0359],[-90.4746,30.0313],[-90.4502,30.0331],[-90.407,30.0831],[-90.3497,30.1203],[-90.3422,30.1278],[-90.3326,30.1434],[-90.3266,30.1502],[-90.3214,30.1515],[-90.2842,30.158],[-90.2599,30.1634],[-90.2654,30.144]]]}}]}