{"type":"FeatureCollection","features":[{"type":"Feature","properties":{"zcta":"70040","d":8},"geometry":{"type":"Polygon","coordinates":[[[-89.91071,29.86787],[-89.90565,29.87192],[-89.90299,29.87695],[-89.89793,29.87643],[-89.89844,29.87423],[-89.89876,29.87322],[-89.89708,29.86912],[-89.89203,29.86752],[-89.89614,29.86721],[-89.89653,29.8592],[-89.89488,29.85919],[-89.89447,29.85367],[-89.90417,29.85366],[-89.9001,29.84284],[-89.89593,29.83324],[-89.88496,29.82139],[-89.88271,29.82008],[-89.87896,29.816],[-89.87978,29.81289],[-89.87974,29.80794],[-89.87506,29.80575],[-89.87482,29.80232],[-89.8737,29.8011],[-89.87471,29.79494],[-89.87661,29.79057],[-89.87639,29.78658],[-89.87438,29.78087],[-89.87278,29.77939],[-89.87034,29.77906],[-89.86246,29.78008],[-89.85511,29.7827],[-89.84722,29.78482],[-89.8415,29.7873],[-89.83822,29.7876],[-89.83942,29.7836],[-89.83758,29.78124],[-89.83608,29.78144],[-89.83834,29.78419],[-89.83819,29.78657],[-89.83571,29.78455],[-89.83387,29.78492],[-89.83375,29.7866],[-89.83096,29.78801],[-89.82484,29.78827],[-89.8246,29.7865],[-89.81934,29.78343],[-89.81281,29.76431],[-89.81487,29.76215],[-89.81499,29.76379],[-89.81904,29.76652],[-89.81758,29.77005],[-89.81799,29.77202],[-89.82,29.77408],[-89.82422,29.7764],[-89.82989,29.7764],[-89.82955,29.77283],[-89.82725,29.77155],[-89.82797,29.76684],[-89.83015,29.7666],[-89.82792,29.76363],[-89.82543,29.76348],[-89.82384,29.76457],[-89.82464,29.75996],[-89.82117,29.76165],[-89.81947,29.76152],[-89.81872,29.7595],[-89.81624,29.76198],[-89.8164,29.76006],[-89.81404,29.75813],[-89.81052,29.75784],[-89.8066,29.74919],[-89.80707,29.74791],[-89.80281,29.73741],[-89.80273,29.73431],[-89.80169,29.73153],[-89.80007,29.73055],[-89.80093,29.72906],[-89.80474,29.7315],[-89.8074,29.73168],[-89.81004,29.73071],[-89.811,29.72859],[-89.80999,29.72383],[-89.81395,29.72434],[-89.81866,29.72253],[-89.82161,29.72384],[-89.81899,29.72413],[-89.82154,29.72521],[-89.82247,29.72353],[-89.83056,29.72747],[-89.83469,29.72724],[-89.8365,29.72628],[-89.83989,29.72642],[-89.84333,29.72448],[-89.84326,29.72557],[-89.84598,29.72859],[-89.84457,29.72861],[-89.84335,29.73102],[-89.84816,29.72807],[-89.84696,29.72628],[-89.84966,29.72569],[-89.85827,29.72673],[-89.86068,29.72119],[-89.86057,29.71866],[-89.86169,29.71621],[-89.86085,29.70715],[-89.86011,29.70333],[-89.85801,29.7022],[-89.86075,29.6996],[-89.85834,29.69736],[-89.8607,29.69707],[-89.86004,29.69276],[-89.86111,29.69176],[-89.86038,29.68791],[-89.86194,29.6844],[-89.86193,29.68208],[-89.86605,29.68244],[-89.87112,29.68149],[-89.87581,29.68287],[-89.88196,29.68624],[-89.8858,29.68751],[-89.89408,29.68872],[-89.90042,29.69067],[-89.90355,29.69311],[-89.90623,29.69219],[-89.90958,29.68725],[-89.91148,29.68568],[-89.91136,29.68098],[-89.91277,29.67801],[-89.9159,29.67526],[-89.9221,29.67427],[-89.92806,29.67273],[-89.9294,29.66966],[-89.92707,29.66753],[-89.92599,29.66504],[-89.9266,29.66183],[-89.92843,29.66035],[-89.92603,29.65728],[-89.93575,29.64802],[-89.9229,29.64398],[-89.91671,29.6408],[-89.89999,29.63099],[-89.89708,29.62979],[-89.88341,29.62614],[-89.87293,29.62246],[-89.8691,29.62827],[-89.84851,29.62146],[-89.84275,29.61904],[-89.84543,29.61301],[-89.84226,29.61898],[-89.84024,29.61825],[-89.83431,29.61442],[-89.82781,29.60934],[-89.81347,29.60033],[-89.80899,29.59646],[-89.81015,29.59282],[-89.80837,29.59585],[-89.80537,29.59317],[-89.79809,29.58987],[-89.79619,29.5886],[-89.79643,29.58685],[-89.7973,29.58511],[-89.80326,29.58749],[-89.80694,29.58947],[-89.81585,29.59623],[-89.82608,29.60253],[-89.82797,29.59892],[-89.81147,29.5879],[-89.80596,29.58509],[-89.80025,29.58041],[-89.80041,29.57986],[-89.81192,29.58703],[-89.82128,29.59372],[-89.8342,29.60189],[-89.84396,29.60533],[-89.85631,29.6076],[-89.86914,29.61041],[-89.87507,29.61245],[-89.8911,29.61733],[-89.89646,29.61994],[-89.90569,29.62521],[-89.9094,29.62791],[-89.92399,29.63753],[-89.92628,29.63432],[-89.93688,29.63901],[-89.9462,29.64189],[-89.94903,29.64342],[-89.95373,29.64826],[-89.95597,29.65137],[-89.95756,29.65618],[-89.9588,29.66234],[-89.95936,29.66864],[-89.9607,29.67381],[-89.96249,29.67786],[-89.96754,29.68608],[-89.97466,29.69572],[-89.98227,29.70784],[-89.98717,29.71814],[-89.99049,29.72417],[-89.9945,29.73002],[-90.00007,29.73595],[-90.0116,29.74533],[-90.01848,29.75021],[-90.02215,29.75372],[-90.02332,29.75867],[-90.02374,29.7656],[-90.02255,29.77497],[-90.01851,29.78428],[-90.00702,29.80185],[-89.99966,29.82208],[-89.99768,29.82667],[-89.99276,29.83585],[-89.97888,29.85232],[-89.97745,29.85566],[-89.97584,29.86241],[-89.97314,29.87569],[-89.9717,29.87822],[-89.96584,29.88085],[-89.96116,29.88097],[-89.95811,29.8802],[-89.94169,29.87229],[-89.92815,29.86838],[-89.91759,29.86666],[-89.91071,29.86787]]]}},{"type":"Feature","properties":{"zcta":"70113","d":3088},"geometry":{"type":"Polygon","coordinates":[[[-90.08782,29.95335],[-90.08639,29.9542],[-90.08325,29.95368],[-90.08535,29.95073],[-90.08425,29.94874],[-90.07819,29.94478],[-90.07654,29.94844],[-90.07837,29.94886],[-90.07743,29.9515],[-90.07561,29.95064],[-90.07532,29.94933],[-90.07247,29.94991],[-90.07222,29.9486],[-90.07416,29.94647],[-90.07356,29.94414],[-90.07865,29.93723],[-90.0796,29.9373],[-90.08332,29.9337],[-90.08706,29.93161],[-90.08906,29.93507],[-90.091,29.93513],[-90.09084,29.93753],[-90.09384,29.94157],[-90.09446,29.94237],[-90.09093,29.9439],[-90.08774,29.94698],[-90.08486,29.94637],[-90.08364,29.94803],[-90.08635,29.94959],[-90.09164,29.95538],[-90.09011,29.95493],[-90.08782,29.95335]]]}},{"type":"Feature","properties":{"zcta":"70085","d":47},"geometry":{"type":"Polygon","coordinates":[[[-89.89687,29.87404],[-89.895,29.87152],[-89.89541,29.87448],[-89.89338,29.87426],[-89.89263,29.8762],[-89.88895,29.87609],[-89.87706,29.87489],[-89.87472,29.87547],[-89.87536,29.88063],[-89.87044,29.87883],[-89.84765,29.87667],[-89.84258,29.87444],[-89.82343,29.88003],[-89.81965,29.88152],[-89.79439,29.8803],[-89.78224,29.87714],[-89.77868,29.87034],[-89.77961,29.8668],[-89.774,29.86011],[-89.7732,29.86009],[-89.76855,29.85473],[-89.76083,29.85441],[-89.75675,29.85498],[-89.75327,29.85398],[-89.75071,29.85521],[-89.73089,29.85608],[-89.72964,29.85457],[-89.72055,29.85263],[-89.71465,29.85335],[-89.71104,29.85317],[-89.70626,29.85143],[-89.70457,29.85488],[-89.69925,29.85222],[-89.69538,29.85915],[-89.6953,29.86032],[-89.68392,29.85729],[-89.67487,29.8542],[-89.67053,29.85346],[-89.66312,29.85023],[-89.65926,29.84985],[-89.65276,29.84625],[-89.65076,29.84691],[-89.64673,29.84517],[-89.63899,29.84306],[-89.63346,29.84225],[-89.62826,29.83954],[-89.62258,29.83838],[-89.61686,29.83483],[-89.60756,29.82854],[-89.60615,29.82834],[-89.60175,29.82452],[-89.60297,29.82401],[-89.614,29.81581],[-89.62175,29.81064],[-89.62444,29.80763],[-89.62772,29.80672],[-89.63056,29.80704],[-89.63458,29.80883],[-89.64006,29.81208],[-89.64678,29.81539],[-89.64774,29.81093],[-89.65108,29.81248],[-89.65641,29.81292],[-89.65979,29.81425],[-89.66516,29.81356],[-89.66693,29.81138],[-89.6688,29.81233],[-89.67193,29.81165],[-89.67497,29.8121],[-89.67566,29.81776],[-89.67774,29.81522],[-89.67911,29.80977],[-89.67861,29.80653],[-89.67966,29.80654],[-89.68011,29.80376],[-89.68244,29.80155],[-89.68868,29.80009],[-89.69146,29.80093],[-89.68987,29.80192],[-89.69175,29.80559],[-89.69511,29.8092],[-89.69085,29.81082],[-89.6924,29.81126],[-89.69546,29.80898],[-89.69397,29.80496],[-89.69793,29.80324],[-89.70179,29.80284],[-89.70584,29.80633],[-89.70402,29.8085],[-89.70167,29.80659],[-89.69774,29.80582],[-89.69786,29.80841],[-89.70022,29.80818],[-89.7034,29.81004],[-89.70591,29.81241],[-89.70667,29.81097],[-89.70676,29.80664],[-89.70486,29.80467],[-89.70177,29.80265],[-89.69686,29.80336],[-89.69439,29.80221],[-89.69299,29.79987],[-89.69082,29.79869],[-89.69046,29.79704],[-89.69276,29.79669],[-89.69348,29.79421],[-89.69656,29.79916],[-89.69852,29.79884],[-89.69764,29.79691],[-89.69471,29.79447],[-89.69514,29.79348],[-89.69817,29.79564],[-89.69931,29.79475],[-89.69437,29.78814],[-89.69015,29.78624],[-89.69095,29.78425],[-89.69621,29.78513],[-89.69598,29.7843],[-89.69929,29.78196],[-89.70109,29.77825],[-89.70663,29.77588],[-89.70696,29.77141],[-89.70536,29.7714],[-89.70144,29.76911],[-89.69993,29.76684],[-89.70026,29.76366],[-89.70156,29.76115],[-89.69819,29.75692],[-89.69176,29.75333],[-89.69453,29.75268],[-89.69477,29.75124],[-89.69185,29.7479],[-89.69305,29.74352],[-89.69507,29.74425],[-89.68609,29.73354],[-89.68663,29.73205],[-89.68377,29.72947],[-89.68502,29.72417],[-89.68284,29.7228],[-89.67941,29.72244],[-89.67511,29.72326],[-89.67241,29.72062],[-89.67741,29.72037],[-89.6725,29.71799],[-89.66875,29.7152],[-89.66686,29.71631],[-89.66594,29.71433],[-89.66958,29.71235],[-89.66745,29.71214],[-89.66128,29.70977],[-89.65605,29.70662],[-89.65392,29.70871],[-89.65073,29.70878],[-89.64734,29.70629],[-89.64659,29.70761],[-89.64275,29.704],[-89.64274,29.70272],[-89.63924,29.70213],[-89.63646,29.69793],[-89.63454,29.69828],[-89.63374,29.69549],[-89.63225,29.69567],[-89.62987,29.69331],[-89.62593,29.69424],[-89.62397,29.69146],[-89.62033,29.6846],[-89.61721,29.68781],[-89.61719,29.6893],[-89.61935,29.68961],[-89.61663,29.69088],[-89.61368,29.68963],[-89.61371,29.68809],[-89.61085,29.68791],[-89.61246,29.68661],[-89.60973,29.68509],[-89.60777,29.68285],[-89.60529,29.68382],[-89.6067,29.68732],[-89.60492,29.68814],[-89.60293,29.68476],[-89.60099,29.68451],[-89.60007,29.68058],[-89.59638,29.68089],[-89.59238,29.67956],[-89.59205,29.68073],[-89.5893,29.67885],[-89.58612,29.67817],[-89.58699,29.67667],[-89.58543,29.67499],[-89.57604,29.67322],[-89.574,29.67202],[-89.57168,29.66874],[-89.56807,29.66836],[-89.56938,29.66662],[-89.57651,29.67012],[-89.57799,29.66906],[-89.57392,29.66664],[-89.56984,29.66514],[-89.5674,29.66541],[-89.55968,29.66278],[-89.55954,29.6615],[-89.55486,29.6599],[-89.5533,29.65874],[-89.55198,29.66079],[-89.54837,29.66121],[-89.54797,29.65745],[-89.54218,29.65499],[-89.53953,29.65512],[-89.53662,29.65363],[-89.53479,29.65419],[-89.53038,29.65364],[-89.52826,29.65443],[-89.52625,29.65367],[-89.52777,29.65218],[-89.523,29.65106],[-89.51962,29.64986],[-89.51684,29.64799],[-89.51673,29.65107],[-89.51334,29.64988],[-89.51335,29.64736],[-89.51637,29.64805],[-89.51609,29.64684],[-89.51282,29.64391],[-89.51148,29.64201],[-89.50882,29.64091],[-89.50512,29.6356],[-89.5076,29.63645],[-89.50965,29.6403],[-89.51175,29.64183],[-89.5131,29.6439],[-89.5186,29.64912],[-89.5259,29.65158],[-89.53705,29.6512],[-89.54613,29.65287],[-89.55109,29.65686],[-89.55542,29.65946],[-89.55813,29.66018],[-89.56373,29.6595],[-89.56739,29.6613],[-89.57093,29.66505],[-89.57515,29.66657],[-89.57987,29.66595],[-89.58848,29.6682],[-89.59179,29.67095],[-89.59961,29.67476],[-89.60737,29.67494],[-89.62255,29.6779],[-89.62572,29.67893],[-89.62818,29.68068],[-89.63893,29.69231],[-89.64331,29.69544],[-89.64577,29.69872],[-89.64831,29.70086],[-89.65351,29.70396],[-89.66028,29.70875],[-89.66665,29.7113],[-89.67173,29.7113],[-89.68385,29.71603],[-89.68732,29.72065],[-89.68928,29.72764],[-89.69095,29.73565],[-89.69189,29.73803],[-89.69799,29.74376],[-89.70168,29.74825],[-89.70346,29.75158],[-89.70503,29.75279],[-89.71937,29.75738],[-89.72715,29.7576],[-89.73387,29.75859],[-89.74518,29.7571],[-89.75802,29.7585],[-89.76773,29.75532],[-89.77863,29.75605],[-89.78282,29.75709],[-89.78747,29.75983],[-89.79156,29.76156],[-89.79199,29.76564],[-89.78877,29.77064],[-89.78611,29.77271],[-89.78936,29.77566],[-89.79191,29.78009],[-89.79537,29.78293],[-89.803,29.79272],[-89.80977,29.79879],[-89.81639,29.80133],[-89.82496,29.80215],[-89.83066,29.80125],[-89.85981,29.79304],[-89.86394,29.79279],[-89.86672,29.79349],[-89.86972,29.79545],[-89.8737,29.8011],[-89.87482,29.80232],[-89.87506,29.80575],[-89.87974,29.80794],[-89.87978,29.81289],[-89.87896,29.816],[-89.88271,29.82008],[-89.88496,29.82139],[-89.89593,29.83324],[-89.9001,29.84284],[-89.90417,29.85366],[-89.89447,29.85367],[-89.89488,29.85919],[-89.89653,29.8592],[-89.89614,29.86721],[-89.89203,29.86752],[-89.89708,29.86912],[-89.89876,29.87322],[-89.89844,29.87423],[-89.89687,29.87404]]]}},{"type":"Feature","properties":{"zcta":"70047","d":506},"geometry":{"type":"Polygon","coordinates":[[[-90.37614,29.99264],[-90.371,29.98986],[-90.34179,29.98166],[-90.31926,29.97525],[-90.32439,29.97145],[-90.32882,29.96881],[-90.33523,29.9665],[-90.33845,29.96579],[-90.33822,29.95239],[-90.33684,29.94666],[-90.32899,29.95249],[-90.32968,29.95104],[-90.32673,29.94317],[-90.32231,29.93669],[-90.32318,29.93644],[-90.32679,29.93545],[-90.33504,29.93406],[-90.33931,29.93411],[-90.3476,29.93507],[-90.3548,29.93628],[-90.37261,29.94162],[-90.37438,29.94244],[-90.38304,29.94686],[-90.3916,29.95219],[-90.39434,29.95498],[-90.39639,29.9597],[-90.39683,29.97272],[-90.3974,29.97827],[-90.39941,29.98266],[-90.40131,29.98491],[-90.39761,29.98737],[-90.40002,29.99022],[-90.39759,29.99389],[-90.39787,29.99636],[-90.40427,29.99926],[-90.40511,30.00073],[-90.4034,30.00544],[-90.40333,30.0073],[-90.40485,30.0084],[-90.4034,30.01274],[-90.37614,29.99264]]]}},{"type":"Feature","properties":{"zcta":"70038","d":0},"geometry":{"type":"Polygon","coordinates":[[[-89.40642,29.33816],[-89.39564,29.32808],[-89.39117,29.32298],[-89.39284,29.32187],[-89.40808,29.33662],[-89.41047,29.33824],[-89.40939,29.34023],[-89.40642,29.33816]]]}},{"type":"Feature","properties":{"zcta":"70121","d":1387},"geometry":{"type":"Polygon","coordinates":[[[-90.17799,29.9689],[-90.1738,29.97075],[-90.17391,29.97141],[-90.12766,29.96834],[-90.13074,29.96392],[-90.14007,29.9479],[-90.14418,29.95395],[-90.15067,29.95607],[-90.15716,29.95395],[-90.16434,29.94888],[-90.16906,29.94444],[-90.1782,29.95301],[-90.18181,29.95542],[-90.18532,29.96474],[-90.18329,29.96818],[-90.17799,29.9689]]]}},{"type":"Feature","properties":{"zcta":"70139","d":0},"geometry":{"type":"Polygon","coordinates":[[[-90.07017,29.9506],[-90.07054,29.94967],[-90.07154,29.95072],[-90.07017,29.9506]]]}},{"type":"Feature","properties":{"zcta":"70031","d":183},"geometry":{"type":"Polygon","coordinates":[[[-90.31995,29.93759],[-90.31198,29.94347],[-90.307,29.94835],[-90.29909,29.9568],[-90.29308,29.96194],[-90.28762,29.96469],[-90.27953,29.96797],[-90.27816,29.96167],[-90.27553,29.94019],[-90.31892,29.92213],[-90.32137,29.93112],[-90.32318,29.93644],[-90.32231,29.93669],[-90.31995,29.93759]]]}},{"type":"Feature","properties":{"zcta":"70043","d":1123},"geometry":{"type":"Polygon","coordinates":[[[-89.99204,29.98063],[-89.99238,29.98237],[-89.98988,29.98949],[-89.98346,29.98701],[-89.98078,29.98796],[-89.97959,29.99032],[-89.97429,29.99469],[-89.97238,29.99477],[-89.97103,29.99232],[-89.96681,29.98982],[-89.96509,29.98985],[-89.96013,29.98595],[-89.95655,29.98708],[-89.95502,29.98298],[-89.95304,29.98117],[-89.9496,29.98125],[-89.94521,29.98234],[-89.9433,29.98112],[-89.94422,29.977],[-89.94322,29.97514],[-89.94841,29.97232],[-89.94373,29.97227],[-89.94098,29.97427],[-89.93989,29.97203],[-89.93645,29.97331],[-89.94567,29.95527],[-89.93223,29.95048],[-89.93032,29.94963],[-89.9364,29.93852],[-89.94109,29.93048],[-89.94416,29.93052],[-89.94301,29.92825],[-89.94335,29.92445],[-89.9607,29.92385],[-89.96977,29.9247],[-89.972,29.92546],[-89.97089,29.9286],[-89.97645,29.92997],[-89.98998,29.93685],[-89.99015,29.93749],[-89.98594,29.94524],[-89.99155,29.94762],[-89.99393,29.95038],[-89.98424,29.96844],[-89.99277,29.97155],[-89.99617,29.96975],[-89.99654,29.97308],[-89.99204,29.98063]]]}},{"type":"Feature","properties":{"zcta":"70052","d":550},"geometry":{"type":"Polygon","coordinates":[[[-90.65372,30.09636],[-90.67087,30.09411],[-90.66232,30.05604],[-90.66121,30.05081],[-90.66997,30.0476],[-90.6824,30.04059],[-90.68727,30.0372],[-90.6915,30.04455],[-90.70888,30.0729],[-90.71229,30.07569],[-90.71351,30.07813],[-90.72196,30.08631],[-90.72035,30.09219],[-90.71802,30.09265],[-90.6865,30.0931],[-90.68166,30.09341],[-90.65355,30.09744],[-90.65372,30.09636]]]}},{"type":"Feature","properties":{"zcta":"70075","d":693},"geometry":{"type":"Polygon","coordinates":[[[-89.9064,29.94132],[-89.89669,29.92813],[-89.89812,29.92916],[-89.90675,29.92249],[-89.91392,29.91785],[-89.91436,29.91572],[-89.91305,29.91296],[-89.91681,29.91039],[-89.92102,29.91573],[-89.92689,29.92062],[-89.93127,29.9229],[-89.93606,29.92421],[-89.94335,29.92445],[-89.94301,29.92825],[-89.94416,29.93052],[-89.94109,29.93048],[-89.9364,29.93852],[-89.93032,29.94963],[-89.93223,29.95048],[-89.9064,29.94132]]]}},{"type":"Feature","properties":{"zcta":"70083","d":7},"geometry":{"type":"Polygon","coordinates":[[[-90.0114,29.66034],[-90.00905,29.66029],[-90.00451,29.66253],[-90.0052,29.66525],[-89.99065,29.67002],[-89.98926,29.66453],[-89.97736,29.66863],[-89.9607,29.67381],[-89.95936,29.66864],[-89.9588,29.66234],[-89.95756,29.65618],[-89.95597,29.65137],[-89.95373,29.64826],[-89.94903,29.64342],[-89.9462,29.64189],[-89.93688,29.63901],[-89.92628,29.63432],[-89.92017,29.63031],[-89.91434,29.62556],[-89.90387,29.61974],[-89.89086,29.61431],[-89.87699,29.60984],[-89.87118,29.60743],[-89.85535,29.60431],[-89.83971,29.59988],[-89.83478,29.59738],[-89.8254,29.59163],[-89.8127,29.58343],[-89.80976,29.58123],[-89.80328,29.57786],[-89.78822,29.56759],[-89.7849,29.56446],[-89.77873,29.55982],[-89.77588,29.5572],[-89.77093,29.55143],[-89.76105,29.54198],[-89.75582,29.53729],[-89.75049,29.53385],[-89.74545,29.53219],[-89.74245,29.53053],[-89.73302,29.52661],[-89.72603,29.52277],[-89.7157,29.5143],[-89.70941,29.50728],[-89.7061,29.50291],[-89.70402,29.49847],[-89.69713,29.48991],[-89.68427,29.477],[-89.67527,29.46983],[-89.6663,29.46476],[-89.65831,29.46125],[-89.65446,29.46013],[-89.64487,29.45829],[-89.6471,29.45459],[-89.63371,29.45274],[-89.63446,29.45009],[-89.6365,29.45016],[-89.63893,29.44854],[-89.64192,29.44924],[-89.65401,29.4509],[-89.66475,29.45147],[-89.66519,29.45055],[-89.67526,29.43624],[-89.67822,29.43572],[-89.68038,29.43902],[-89.68307,29.43837],[-89.68312,29.44029],[-89.68505,29.44114],[-89.68638,29.44769],[-89.68822,29.45003],[-89.68781,29.45186],[-89.68403,29.44813],[-89.68793,29.45282],[-89.68956,29.45323],[-89.69268,29.46082],[-89.69111,29.46012],[-89.68881,29.46128],[-89.6915,29.46416],[-89.6904,29.46537],[-89.69164,29.46666],[-89.69343,29.4656],[-89.69815,29.46566],[-89.7,29.46506],[-89.70533,29.45846],[-89.70851,29.45517],[-89.71209,29.45054],[-89.71253,29.44724],[-89.70926,29.44856],[-89.70684,29.44694],[-89.71049,29.44724],[-89.71245,29.44563],[-89.71372,29.44689],[-89.71372,29.44927],[-89.71593,29.44641],[-89.72374,29.43927],[-89.74043,29.42677],[-89.75472,29.417],[-89.75564,29.41425],[-89.76767,29.40646],[-89.77254,29.40012],[-89.77372,29.39982],[-89.78019,29.40277],[-89.78402,29.40593],[-89.78187,29.40725],[-89.78144,29.41086],[-89.77814,29.41482],[-89.78192,29.41641],[-89.7862,29.41462],[-89.79089,29.41085],[-89.81465,29.40008],[-89.8153,29.40266],[-89.81286,29.40526],[-89.80974,29.40597],[-89.81573,29.4088],[-89.81846,29.41085],[-89.81196,29.41177],[-89.81075,29.41447],[-89.81352,29.4151],[-89.81477,29.41736],[-89.81407,29.41882],[-89.81568,29.42132],[-89.81169,29.42649],[-89.81146,29.43074],[-89.81227,29.43255],[-89.81384,29.43043],[-89.81746,29.4298],[-89.82383,29.42393],[-89.82755,29.42252],[-89.82898,29.42092],[-89.83362,29.42025],[-89.83558,29.41861],[-89.83997,29.4203],[-89.83743,29.42189],[-89.84355,29.42168],[-89.84263,29.42768],[-89.83979,29.42883],[-89.83435,29.42907],[-89.83294,29.42801],[-89.82765,29.42965],[-89.83291,29.42975],[-89.83744,29.43114],[-89.83597,29.43207],[-89.82887,29.43272],[-89.8272,29.43399],[-89.82693,29.43647],[-89.82841,29.43858],[-89.83061,29.43865],[-89.83096,29.43554],[-89.83538,29.4342],[-89.83546,29.4361],[-89.84165,29.43414],[-89.84139,29.43579],[-89.83533,29.45225],[-89.82963,29.45318],[-89.81596,29.46032],[-89.82107,29.46425],[-89.82321,29.46508],[-89.8263,29.46922],[-89.8364,29.47491],[-89.85197,29.47573],[-89.86302,29.47034],[-89.86433,29.45503],[-89.86932,29.4511],[-89.87396,29.44499],[-89.87586,29.43671],[-89.87954,29.43454],[-89.88382,29.43464],[-89.8862,29.44023],[-89.89095,29.4451],[-89.89525,29.44343],[-89.89865,29.44413],[-89.90048,29.4414],[-89.90533,29.43971],[-89.90596,29.44278],[-89.90435,29.44459],[-89.90569,29.44696],[-89.91929,29.44836],[-89.92565,29.44646],[-89.93,29.44409],[-89.93192,29.44102],[-89.93427,29.43966],[-89.93997,29.4498],[-89.94472,29.45891],[-89.9578,29.45705],[-89.96017,29.45935],[-89.95502,29.46235],[-89.95188,29.46125],[-89.95282,29.46503],[-89.95166,29.46729],[-89.95363,29.46767],[-89.95461,29.46935],[-89.95133,29.47177],[-89.95085,29.4832],[-89.9542,29.48986],[-89.95106,29.49668],[-89.9497,29.49811],[-89.95051,29.50103],[-89.9503,29.52378],[-89.95345,29.53519],[-89.95476,29.55725],[-89.9568,29.55686],[-89.95865,29.55803],[-89.9623,29.55778],[-89.96722,29.55464],[-89.97402,29.55381],[-89.97698,29.55422],[-89.98156,29.55228],[-89.98309,29.55278],[-89.98692,29.5463],[-89.98868,29.54889],[-89.9888,29.56053],[-89.98838,29.56256],[-89.98589,29.56511],[-89.98263,29.56707],[-89.98324,29.57244],[-89.98586,29.57545],[-89.98217,29.57798],[-89.98081,29.58016],[-89.98115,29.58423],[-89.97683,29.58691],[-89.97728,29.58876],[-89.98014,29.58756],[-89.9812,29.58874],[-89.98183,29.59275],[-89.97974,29.59619],[-89.98032,29.59833],[-89.98326,29.60032],[-89.98354,29.60182],[-89.98002,29.60758],[-89.98116,29.60866],[-89.98513,29.60952],[-89.98818,29.6145],[-89.98449,29.61656],[-89.98523,29.61892],[-89.98755,29.62149],[-89.99058,29.62248],[-89.99485,29.6212],[-89.99832,29.62283],[-90.00074,29.62231],[-90.0022,29.62342],[-90.00356,29.63126],[-90.00551,29.63708],[-90.00779,29.64546],[-90.00649,29.64595],[-90.00837,29.64764],[-90.01267,29.66276],[-90.0114,29.66034]]]}},{"type":"Feature","properties":{"zcta":"70091","d":0},"geometry":{"type":"Polygon","coordinates":[[[-89.40429,29.34714],[-89.39903,29.34356],[-89.39815,29.34209],[-89.39242,29.33646],[-89.38614,29.33118],[-89.38163,29.32564],[-89.38025,29.32556],[-89.3787,29.3229],[-89.37243,29.31506],[-89.36647,29.30816],[-89.36667,29.30744],[-89.36299,29.30247],[-89.35884,29.29602],[-89.35101,29.28833],[-89.34823,29.29127],[-89.34623,29.29154],[-89.33802,29.29508],[-89.33787,29.29098],[-89.33168,29.29152],[-89.33098,29.29716],[-89.33002,29.2985],[-89.3223,29.30103],[-89.31265,29.30229],[-89.31281,29.29869],[-89.31697,29.30054],[-89.32016,29.3],[-89.32026,29.29786],[-89.31804,29.2975],[-89.31744,29.29585],[-89.31927,29.29546],[-89.3201,29.29167],[-89.31779,29.29026],[-89.32111,29.29029],[-89.32057,29.28864],[-89.32311,29.28937],[-89.32192,29.28586],[-89.32213,29.28225],[-89.32088,29.28014],[-89.32445,29.28288],[-89.32629,29.28054],[-89.32863,29.28017],[-89.33193,29.27775],[-89.33319,29.27593],[-89.32961,29.27346],[-89.32671,29.27262],[-89.32881,29.2716],[-89.32565,29.27033],[-89.31935,29.26495],[-89.31319,29.26263],[-89.31237,29.26332],[-89.32161,29.26918],[-89.32691,29.27308],[-89.31127,29.26472],[-89.30978,29.26448],[-89.30496,29.26143],[-89.3023,29.26542],[-89.30153,29.27082],[-89.29996,29.2699],[-89.2976,29.26617],[-89.29919,29.26588],[-89.29802,29.26425],[-89.29508,29.26372],[-89.29476,29.26571],[-89.29316,29.26639],[-89.28944,29.26245],[-89.28514,29.26413],[-89.28412,29.2634],[-89.2844,29.26898],[-89.28581,29.26962],[-89.28808,29.26729],[-89.289,29.26469],[-89.29001,29.26748],[-89.29282,29.26836],[-89.2935,29.27044],[-89.29407,29.26788],[-89.29886,29.27255],[-89.29722,29.27452],[-89.29878,29.2761],[-89.30301,29.27499],[-89.30215,29.27101],[-89.30439,29.27316],[-89.30522,29.2759],[-89.30211,29.27686],[-89.3061,29.27705],[-89.30735,29.27899],[-89.30508,29.28159],[-89.30225,29.27981],[-89.29525,29.28167],[-89.29674,29.28205],[-89.29565,29.284],[-89.29825,29.28208],[-89.29983,29.28336],[-89.30152,29.28263],[-89.30246,29.28455],[-89.29883,29.28572],[-89.29977,29.28767],[-89.2976,29.29012],[-89.29807,29.29198],[-89.29472,29.29471],[-89.28455,29.29782],[-89.27922,29.2982],[-89.2795,29.29607],[-89.28141,29.29726],[-89.28187,29.29396],[-89.28559,29.29368],[-89.28147,29.29317],[-89.28059,29.29126],[-89.27495,29.29428],[-89.26587,29.29467],[-89.26456,29.29513],[-89.26043,29.29992],[-89.25348,29.30076],[-89.2559,29.30507],[-89.26031,29.30672],[-89.26211,29.30891],[-89.2658,29.31088],[-89.25906,29.30935],[-89.26215,29.30926],[-89.25671,29.3071],[-89.25005,29.30057],[-89.25118,29.30366],[-89.24383,29.30946],[-89.24145,29.31066],[-89.23537,29.30432],[-89.22966,29.30742],[-89.22419,29.31379],[-89.22444,29.32183],[-89.21973,29.32441],[-89.2047,29.33867],[-89.20039,29.34442],[-89.18794,29.34205],[-89.18917,29.33938],[-89.18769,29.33963],[-89.1856,29.33769],[-89.1868,29.33617],[-89.18638,29.3341],[-89.18783,29.33214],[-89.18447,29.32794],[-89.18487,29.32119],[-89.18298,29.31768],[-89.18493,29.31446],[-89.1893,29.29973],[-89.17319,29.29631],[-89.17015,29.29504],[-89.16616,29.29626],[-89.16519,29.29418],[-89.16679,29.29367],[-89.15834,29.29031],[-89.15643,29.2921],[-89.15539,29.28879],[-89.15165,29.28789],[-89.14513,29.285],[-89.14414,29.28609],[-89.14213,29.28478],[-89.13837,29.28732],[-89.13434,29.27934],[-89.13698,29.27524],[-89.12969,29.26563],[-89.12034,29.26012],[-89.1151,29.2529],[-89.12081,29.24357],[-89.11962,29.23341],[-89.1296,29.23195],[-89.13055,29.22656],[-89.12651,29.22075],[-89.11665,29.21953],[-89.11534,29.21266],[-89.122,29.20208],[-89.11273,29.20229],[-89.10274,29.1998],[-89.09965,29.19275],[-89.09633,29.18797],[-89.09134,29.19109],[-89.08777,29.19503],[-89.08207,29.19233],[-89.07113,29.19358],[-89.06638,29.19752],[-89.05663,29.19835],[-89.05402,29.20167],[-89.05511,29.21258],[-89.04713,29.20644],[-89.03596,29.20893],[-89.03168,29.21536],[-89.02597,29.21515],[-89.02122,29.20727],[-89.00615,29.18627],[-89.00387,29.17988],[-89.01052,29.17075],[-89.01433,29.16909],[-89.01742,29.17117],[-89.01837,29.17635],[-89.02669,29.17926],[-89.04713,29.18445],[-89.05117,29.17048],[-89.08016,29.17096],[-89.08943,29.16639],[-89.09015,29.15767],[-89.10179,29.16535],[-89.11178,29.15996],[-89.11035,29.15269],[-89.10678,29.14626],[-89.09704,29.13878],[-89.0766,29.13588],[-89.06543,29.1338],[-89.03952,29.13546],[-89.04903,29.12114],[-89.0564,29.10608],[-89.06662,29.09071],[-89.07303,29.08801],[-89.07446,29.10006],[-89.07874,29.10941],[-89.08587,29.11169],[-89.09157,29.11771],[-89.0987,29.11771],[-89.10369,29.11667],[-89.10631,29.11148],[-89.10631,29.10338],[-89.10678,29.093],[-89.11273,29.09238],[-89.11391,29.08698],[-89.11082,29.08116],[-89.11653,29.0741],[-89.13079,29.07077],[-89.1403,29.07264],[-89.14695,29.07098],[-89.14624,29.06516],[-89.14101,29.06122],[-89.14434,29.06018],[-89.14933,29.06059],[-89.1498,29.05602],[-89.14695,29.05166],[-89.14798,29.04098],[-89.15634,29.02878],[-89.15859,29.02176],[-89.15716,29.01843],[-89.15145,29.0132],[-89.14036,29.01971],[-89.13774,29.01888],[-89.14879,29.00329],[-89.14415,28.99539],[-89.14287,28.99162],[-89.15367,28.98749],[-89.15431,28.99273],[-89.15818,28.99643],[-89.17767,29.00516],[-89.18231,29.00745],[-89.19966,29.01472],[-89.21867,29.02252],[-89.222,29.02823],[-89.21558,29.04558],[-89.21751,29.05568],[-89.22149,29.06457],[-89.22996,29.07373],[-89.24122,29.08447],[-89.25173,29.08317],[-89.25496,29.07595],[-89.25364,29.06495],[-89.25935,29.05836],[-89.28321,29.05333],[-89.28629,29.05026],[-89.29307,29.04132],[-89.30483,29.02937],[-89.30923,29.02376],[-89.31529,29.01773],[-89.33371,29.00381],[-89.36378,28.972],[-89.36437,28.96472],[-89.37808,28.95646],[-89.3716,28.96275],[-89.36917,28.96294],[-89.36685,28.96564],[-89.36878,28.96776],[-89.36903,28.97202],[-89.36616,28.97605],[-89.36374,28.97834],[-89.35904,28.98453],[-89.35653,28.98404],[-89.35301,28.98819],[-89.35395,28.99119],[-89.34951,28.99553],[-89.34825,28.99801],[-89.34302,29.00081],[-89.3406,29.00516],[-89.34568,29.00752],[-89.34487,29.00879],[-89.34325,29.00696],[-89.34001,29.0062],[-89.33554,29.01388],[-89.33669,29.01383],[-89.33777,29.0177],[-89.33209,29.02523],[-89.33167,29.02678],[-89.32923,29.02867],[-89.32556,29.0331],[-89.31817,29.0407],[-89.31443,29.0456],[-89.31058,29.05199],[-89.31221,29.06127],[-89.31048,29.06365],[-89.30136,29.07237],[-89.29859,29.0742],[-89.29856,29.07709],[-89.3119,29.07899],[-89.31309,29.0822],[-89.31285,29.08739],[-89.30406,29.08864],[-89.30263,29.09778],[-89.30382,29.10837],[-89.31119,29.11148],[-89.31238,29.1175],[-89.30192,29.12062],[-89.29622,29.12643],[-89.29574,29.1337],[-89.28528,29.13557],[-89.27863,29.13764],[-89.27791,29.14636],[-89.28148,29.15985],[-89.27649,29.17355],[-89.29503,29.19887],[-89.30762,29.20322],[-89.31856,29.20156],[-89.32854,29.19057],[-89.32569,29.17708],[-89.32973,29.16255],[-89.33187,29.14865],[-89.33755,29.14351],[-89.34013,29.14491],[-89.34486,29.14924],[-89.34695,29.14544],[-89.34822,29.14157],[-89.34805,29.13306],[-89.35023,29.13008],[-89.35216,29.13162],[-89.35114,29.13748],[-89.35317,29.13873],[-89.35087,29.13887],[-89.34926,29.14681],[-89.34845,29.14789],[-89.34814,29.15315],[-89.3492,29.15789],[-89.34767,29.17092],[-89.34915,29.17343],[-89.35074,29.17233],[-89.35149,29.16654],[-89.35179,29.16903],[-89.35438,29.16667],[-89.35569,29.16709],[-89.35714,29.16504],[-89.35844,29.16606],[-89.36348,29.16596],[-89.36309,29.16867],[-89.36539,29.16818],[-89.36825,29.16603],[-89.37167,29.16942],[-89.37947,29.16294],[-89.37839,29.16195],[-89.38582,29.15914],[-89.38723,29.15711],[-89.39056,29.1502],[-89.38855,29.14869],[-89.39006,29.14393],[-89.39277,29.14337],[-89.39258,29.14845],[-89.39317,29.14917],[-89.39872,29.14994],[-89.40145,29.15169],[-89.4082,29.14993],[-89.41063,29.14473],[-89.41476,29.14571],[-89.42053,29.14277],[-89.42064,29.14043],[-89.42738,29.14445],[-89.43482,29.15888],[-89.42912,29.16411],[-89.42642,29.16933],[-89.42533,29.17752],[-89.4264,29.18618],[-89.43568,29.23963],[-89.43637,29.24253],[-89.43766,29.25213],[-89.43675,29.24608],[-89.43411,29.24637],[-89.43208,29.25172],[-89.42668,29.25704],[-89.42835,29.25446],[-89.42678,29.24997],[-89.42436,29.25027],[-89.42263,29.25374],[-89.41788,29.25306],[-89.42184,29.25286],[-89.42269,29.25022],[-89.42081,29.24895],[-89.41729,29.25308],[-89.41629,29.25242],[-89.41214,29.25449],[-89.40685,29.25448],[-89.4036,29.25227],[-89.40123,29.25543],[-89.39596,29.25569],[-89.39201,29.25858],[-89.39022,29.25882],[-89.39578,29.25527],[-89.39713,29.25495],[-89.39304,29.25143],[-89.39225,29.24959],[-89.39022,29.25011],[-89.38017,29.24986],[-89.37781,29.25254],[-89.37626,29.25588],[-89.37249,29.25835],[-89.37218,29.26144],[-89.37042,29.26402],[-89.37427,29.26438],[-89.3703,29.27395],[-89.36423,29.27858],[-89.36063,29.2739],[-89.3623,29.26883],[-89.35569,29.26677],[-89.35609,29.27007],[-89.35876,29.27407],[-89.37172,29.29073],[-89.36986,29.29189],[-89.37648,29.30066],[-89.37388,29.30238],[-89.37823,29.30869],[-89.38468,29.31669],[-89.38146,29.31915],[-89.39253,29.3315],[-89.39929,29.33759],[-89.40736,29.34423],[-89.40429,29.34714]]]}},{"type":"Feature","properties":{"zcta":"70092","d":599},"geometry":{"type":"Polygon","coordinates":[[[-89.89203,29.92187],[-89.88921,29.91711],[-89.88197,29.90765],[-89.88086,29.90488],[-89.88135,29.90331],[-89.87929,29.90074],[-89.88223,29.89991],[-89.88383,29.89774],[-89.88779,29.89594],[-89.87947,29.88259],[-89.87804,29.88104],[-89.87536,29.88063],[-89.87472,29.87547],[-89.87706,29.87489],[-89.88895,29.87609],[-89.89263,29.8762],[-89.89338,29.87426],[-89.89541,29.87448],[-89.895,29.87152],[-89.89687,29.87404],[-89.89844,29.87423],[-89.89793,29.87643],[-89.90299,29.87695],[-89.90241,29.88289],[-89.90328,29.88744],[-89.90574,29.89346],[-89.90827,29.89796],[-89.91681,29.91039],[-89.91305,29.91296],[-89.91436,29.91572],[-89.91392,29.91785],[-89.90675,29.92249],[-89.89812,29.92916],[-89.89669,29.92813],[-89.89203,29.92187]]]}},{"type":"Feature","properties":{"zcta":"70163","d":0},"geometry":{"type":"Polygon","coordinates":[[[-90.07493,29.95046],[-90.07532,29.94933],[-90.07561,29.95064],[-90.07493,29.95046]]]}},{"type":"Feature","properties":{"zcta":"70076","d":0},"geometry":{"type":"Polygon","coordinates":[[[-90.65584,30.05706],[-90.6344,30.05796],[-90.63026,30.06531],[-90.62877,30.06457],[-90.62993,30.06257],[-90.62608,30.06043],[-90.6259,30.05564],[-90.62539,30.04711],[-90.62752,30.04289],[-90.63116,30.04489],[-90.63228,30.04411],[-90.63019,30.04113],[-90.62652,30.04008],[-90.62596,30.03835],[-90.62141,30.03598],[-90.61812,30.03552],[-90.61546,30.03672],[-90.61288,30.03478],[-90.619,30.03231],[-90.62161,30.03151],[-90.62544,30.03312],[-90.63376,30.03889],[-90.6416,30.04508],[-90.6494,30.05019],[-90.65453,30.05146],[-90.66121,30.05081],[-90.66232,30.05604],[-90.65584,30.05706]]]}},{"type":"Feature","properties":{"zcta":"70148","d":0},"geometry":{"type":"Polygon","coordinates":[[[-90.07298,30.03247],[-90.06484,30.03376],[-90.06199,30.03343],[-90.06152,30.02524],[-90.06518,30.024],[-90.07098,30.02336],[-90.07227,30.02636],[-90.07429,30.02769],[-90.07423,30.03124],[-90.07298,30.03247]]]}},{"type":"Feature","properties":{"zcta":"70032","d":1211},"geometry":{"type":"Polygon","coordinates":[[[-90.00641,29.95829],[-89.99867,29.9737],[-89.99681,29.97319],[-89.99654,29.97308],[-89.99617,29.96975],[-89.99277,29.97155],[-89.98424,29.96844],[-89.99393,29.95038],[-89.99155,29.94762],[-89.98594,29.94524],[-89.99015,29.93749],[-89.98998,29.93685],[-89.97645,29.92997],[-89.97089,29.9286],[-89.972,29.92546],[-89.98021,29.92818],[-89.98923,29.93231],[-90.00518,29.94207],[-90.0121,29.94598],[-90.00641,29.95829]]]}},{"type":"Feature","properties":{"zcta":"70071","d":503},"geometry":{"type":"Polygon","coordinates":[[[-90.70888,30.0729],[-90.6915,30.04455],[-90.68727,30.0372],[-90.69757,30.03019],[-90.70044,30.03381],[-90.71422,30.05551],[-90.71144,30.05687],[-90.7168,30.06508],[-90.71505,30.06665],[-90.71229,30.07569],[-90.70888,30.0729]]]}},{"type":"Feature","properties":{"zcta":"70079","d":612},"geometry":{"type":"Polygon","coordinates":[[[-90.40485,30.0084],[-90.40333,30.0073],[-90.4034,30.00544],[-90.40511,30.00073],[-90.40427,29.99926],[-90.39787,29.99636],[-90.39759,29.99389],[-90.40002,29.99022],[-90.39761,29.98737],[-90.40131,29.98491],[-90.40769,29.98955],[-90.41512,29.99243],[-90.42326,29.99414],[-90.42195,29.99762],[-90.42253,29.99847],[-90.4275,29.99862],[-90.42885,30.00057],[-90.42341,30.00943],[-90.41043,30.01822],[-90.4034,30.01274],[-90.40485,30.0084]]]}},{"type":"Feature","properties":{"zcta":"70056","d":2477},"geometry":{"type":"Polygon","coordinates":[[[-90.0183,29.90683],[-90.01438,29.90296],[-90.00815,29.8969],[-90.00806,29.89553],[-90.00983,29.89151],[-90.01772,29.8785],[-90.02297,29.86821],[-90.02351,29.86552],[-90.02293,29.86248],[-90.0256,29.85921],[-90.02548,29.85648],[-90.02746,29.85285],[-90.02987,29.85049],[-90.03413,29.84785],[-90.03509,29.84831],[-90.03961,29.86122],[-90.04267,29.86866],[-90.04414,29.88301],[-90.04449,29.887],[-90.04243,29.91991],[-90.04243,29.9214],[-90.0447,29.91893],[-90.03967,29.927],[-90.0183,29.90683]]]}},{"type":"Feature","properties":{"zcta":"70743","d":0},"geometry":{"type":"Polygon","coordinates":[[[-90.7597,30.0413],[-90.76219,30.02541],[-90.75356,30.02425],[-90.7539,30.01491],[-90.76322,30.01471],[-90.77182,30.01342],[-90.78192,30.00998],[-90.78454,30.0082],[-90.78822,30.01352],[-90.78693,30.02193],[-90.78458,30.04401],[-90.7597,30.0413]]]}},{"type":"Feature","properties":{"zcta":"70130","d":3075},"geometry":{"type":"Polygon","coordinates":[[[-90.07154,29.95072],[-90.07087,29.9528],[-90.06581,29.95842],[-90.06216,29.95633],[-90.06332,29.95456],[-90.05864,29.95315],[-90.05855,29.94533],[-90.05803,29.93771],[-90.05917,29.9304],[-90.06247,29.926],[-90.06737,29.9219],[-90.07167,29.9193],[-90.07257,29.919],[-90.07463,29.92186],[-90.07834,29.92063],[-90.07987,29.9219],[-90.08426,29.92862],[-90.08706,29.93161],[-90.08332,29.9337],[-90.0796,29.9373],[-90.07865,29.93723],[-90.07356,29.94414],[-90.07416,29.94647],[-90.07222,29.9486],[-90.07247,29.94991],[-90.07154,29.95072]],[[-90.07054,29.94967],[-90.07017,29.9506],[-90.07154,29.95072],[-90.07054,29.94967]]]}},{"type":"Feature","properties":{"zcta":"70070","d":66},"geometry":{"type":"Polygon","coordinates":[[[-90.37261,29.94162],[-90.3548,29.93628],[-90.3476,29.93507],[-90.33931,29.93411],[-90.33504,29.93406],[-90.32679,29.93545],[-90.32318,29.93644],[-90.32137,29.93112],[-90.31892,29.92213],[-90.27553,29.94019],[-90.27349,29.92176],[-90.26828,29.90499],[-90.26671,29.90391],[-90.26592,29.90149],[-90.26461,29.90116],[-90.26401,29.89851],[-90.25976,29.89754],[-90.25649,29.89417],[-90.25476,29.88998],[-90.25127,29.88799],[-90.24912,29.8851],[-90.24334,29.88094],[-90.24315,29.87678],[-90.24032,29.8713],[-90.24165,29.8684],[-90.24017,29.86212],[-90.21139,29.845],[-90.18204,29.8276],[-90.1732,29.82752],[-90.17226,29.8247],[-90.16727,29.81846],[-90.16795,29.81631],[-90.17079,29.81393],[-90.17069,29.81155],[-90.16929,29.80738],[-90.17116,29.80511],[-90.17327,29.80675],[-90.17924,29.80513],[-90.18297,29.80547],[-90.18452,29.80438],[-90.19414,29.80493],[-90.19992,29.8031],[-90.20206,29.80338],[-90.2103,29.80111],[-90.214,29.79851],[-90.21887,29.79677],[-90.22256,29.79443],[-90.22407,29.7974],[-90.2233,29.79327],[-90.22969,29.79212],[-90.23173,29.79027],[-90.23794,29.78913],[-90.23729,29.78637],[-90.24003,29.77982],[-90.24242,29.77737],[-90.24638,29.77488],[-90.25114,29.76938],[-90.25366,29.76834],[-90.2559,29.76861],[-90.26105,29.76744],[-90.26733,29.7648],[-90.26918,29.76476],[-90.27881,29.76166],[-90.28905,29.75723],[-90.29245,29.75515],[-90.29475,29.75465],[-90.30917,29.74505],[-90.3124,29.74381],[-90.31895,29.73875],[-90.32162,29.73836],[-90.32852,29.73525],[-90.33288,29.73199],[-90.33617,29.7306],[-90.34022,29.72689],[-90.34416,29.72593],[-90.34694,29.7236],[-90.34934,29.71945],[-90.35125,29.7185],[-90.35321,29.71539],[-90.35371,29.71297],[-90.35281,29.70665],[-90.34889,29.70029],[-90.34998,29.69728],[-90.34942,29.69539],[-90.35277,29.69589],[-90.35352,29.69788],[-90.35739,29.70183],[-90.36095,29.70625],[-90.36179,29.70941],[-90.36069,29.71618],[-90.3608,29.7209],[-90.36021,29.7245],[-90.36305,29.72913],[-90.3633,29.73132],[-90.36079,29.73705],[-90.36418,29.74199],[-90.37093,29.74619],[-90.37237,29.75121],[-90.37198,29.75924],[-90.37478,29.76261],[-90.38068,29.7652],[-90.39209,29.76742],[-90.39729,29.77038],[-90.39645,29.77712],[-90.39413,29.78171],[-90.37775,29.81068],[-90.38205,29.81253],[-90.38455,29.81623],[-90.38714,29.82145],[-90.38845,29.82556],[-90.3847,29.83598],[-90.3796,29.83813],[-90.3781,29.838],[-90.3736,29.83471],[-90.36801,29.84071],[-90.3548,29.84325],[-90.35544,29.84419],[-90.36116,29.84759],[-90.36565,29.8515],[-90.36919,29.8534],[-90.37598,29.85809],[-90.37167,29.85984],[-90.36047,29.86089],[-90.36059,29.86127],[-90.33269,29.86137],[-90.33047,29.8657],[-90.32861,29.86665],[-90.32727,29.87252],[-90.33055,29.8767],[-90.33695,29.87984],[-90.34069,29.88027],[-90.3426,29.88128],[-90.34444,29.88489],[-90.34756,29.88848],[-90.34902,29.88846],[-90.35339,29.89127],[-90.35688,29.89064],[-90.36426,29.89606],[-90.36711,29.89902],[-90.3726,29.9018],[-90.36974,29.9069],[-90.37621,29.90545],[-90.38843,29.90211],[-90.38023,29.91317],[-90.38487,29.91497],[-90.39611,29.92209],[-90.39598,29.92246],[-90.40417,29.92741],[-90.40591,29.92898],[-90.39898,29.93516],[-90.4009,29.93658],[-90.39739,29.93978],[-90.40293,29.94349],[-90.39876,29.94672],[-90.39533,29.94481],[-90.39341,29.94649],[-90.38476,29.94195],[-90.37905,29.93952],[-90.37637,29.93893],[-90.37438,29.94244],[-90.37261,29.94162]]]}},{"type":"Feature","properties":{"zcta":"70131","d":930},"geometry":{"type":"Polygon","coordinates":[[[-90.0121,29.94598],[-90.00518,29.94207],[-89.98923,29.93231],[-89.98021,29.92818],[-89.972,29.92546],[-89.96977,29.9247],[-89.9607,29.92385],[-89.94335,29.92445],[-89.93606,29.92421],[-89.93127,29.9229],[-89.92689,29.92062],[-89.92102,29.91573],[-89.91681,29.91039],[-89.90827,29.89796],[-89.90574,29.89346],[-89.90328,29.88744],[-89.90241,29.88289],[-89.90299,29.87695],[-89.90565,29.87192],[-89.91071,29.86787],[-89.91759,29.86666],[-89.92047,29.87164],[-89.93507,29.89271],[-89.95081,29.89946],[-89.95885,29.9026],[-89.97271,29.90441],[-89.97727,29.90202],[-89.97923,29.90229],[-89.98727,29.905],[-89.98918,29.88939],[-90.00227,29.89781],[-90.00252,29.89235],[-90.00806,29.89553],[-90.00815,29.8969],[-90.01438,29.90296],[-90.01318,29.92],[-90.01495,29.92185],[-90.01427,29.92974],[-90.01204,29.92932],[-90.01032,29.9346],[-90.01278,29.93621],[-90.01249,29.94139],[-90.01491,29.94298],[-90.01387,29.947],[-90.0121,29.94598]]]}},{"type":"Feature","properties":{"zcta":"70053","d":1921},"geometry":{"type":"Polygon","coordinates":[[[-90.05239,29.93915],[-90.03967,29.927],[-90.0447,29.91893],[-90.04243,29.9214],[-90.04243,29.91991],[-90.04449,29.887],[-90.04414,29.88301],[-90.04734,29.88328],[-90.05434,29.89361],[-90.06225,29.90575],[-90.06452,29.90788],[-90.06778,29.91362],[-90.07167,29.9193],[-90.06737,29.9219],[-90.06247,29.926],[-90.05917,29.9304],[-90.05803,29.93771],[-90.05855,29.94533],[-90.05239,29.93915]]]}},{"type":"Feature","properties":{"zcta":"70112","d":2317},"geometry":{"type":"Polygon","coordinates":[[[-90.07502,29.96549],[-90.07042,29.9615],[-90.06921,29.95972],[-90.06581,29.95842],[-90.07087,29.9528],[-90.07154,29.95072],[-90.07247,29.94991],[-90.07532,29.94933],[-90.07493,29.95046],[-90.07561,29.95064],[-90.07743,29.9515],[-90.07837,29.94886],[-90.07654,29.94844],[-90.07819,29.94478],[-90.08425,29.94874],[-90.08535,29.95073],[-90.08325,29.95368],[-90.08639,29.9542],[-90.08831,29.95515],[-90.08392,29.95869],[-90.08494,29.95927],[-90.0786,29.96603],[-90.07727,29.96603],[-90.07502,29.96549]]]}},{"type":"Feature","properties":{"zcta":"70002","d":2788},"geometry":{"type":"Polygon","coordinates":[[[-90.17627,30.02332],[-90.16336,30.02209],[-90.15605,30.02234],[-90.15342,30.02426],[-90.15339,30.02027],[-90.15146,30.01973],[-90.14567,30.01992],[-90.14493,30.01722],[-90.14595,29.99695],[-90.16236,29.99759],[-90.17703,29.99846],[-90.18031,30.01985],[-90.18063,30.024],[-90.17627,30.02332]]]}},{"type":"Feature","properties":{"zcta":"70051","d":90},"geometry":{"type":"Polygon","coordinates":[[[-90.62975,30.09631],[-90.62593,30.08275],[-90.62551,30.07582],[-90.606,30.07623],[-90.60432,30.07156],[-90.61238,30.07155],[-90.60754,30.05893],[-90.61538,30.05845],[-90.6105,30.04502],[-90.6131,30.04352],[-90.61608,30.04061],[-90.62026,30.03773],[-90.62068,30.04458],[-90.62178,30.04443],[-90.62218,30.04788],[-90.62355,30.04774],[-90.62478,30.05568],[-90.6259,30.05564],[-90.62608,30.06043],[-90.62993,30.06257],[-90.62877,30.06457],[-90.63026,30.06531],[-90.6344,30.05796],[-90.65584,30.05706],[-90.66232,30.05604],[-90.67087,30.09411],[-90.65372,30.09636],[-90.65355,30.09744],[-90.62975,30.09631]]]}},{"type":"Feature","properties":{"zcta":"70030","d":56},"geometry":{"type":"Polygon","coordinates":[[[-90.46442,29.85635],[-90.45528,29.85638],[-90.45307,29.85499],[-90.45359,29.85843],[-90.4501,29.85963],[-90.44955,29.85546],[-90.44776,29.8543],[-90.44335,29.85429],[-90.44076,29.85302],[-90.42982,29.85265],[-90.42969,29.84312],[-90.40597,29.84343],[-90.40584,29.85037],[-90.41298,29.8529],[-90.41313,29.86057],[-90.36059,29.86127],[-90.36047,29.86089],[-90.37167,29.85984],[-90.37598,29.85809],[-90.36919,29.8534],[-90.36565,29.8515],[-90.36116,29.84759],[-90.35544,29.84419],[-90.3548,29.84325],[-90.36801,29.84071],[-90.3736,29.83471],[-90.3781,29.838],[-90.3796,29.83813],[-90.3847,29.83598],[-90.38845,29.82556],[-90.38714,29.82145],[-90.38455,29.81623],[-90.38205,29.81253],[-90.37775,29.81068],[-90.39413,29.78171],[-90.39645,29.77712],[-90.39729,29.77038],[-90.40121,29.77171],[-90.40482,29.77415],[-90.40736,29.77386],[-90.40929,29.7722],[-90.41901,29.77568],[-90.42439,29.77669],[-90.42714,29.77577],[-90.42989,29.77639],[-90.43861,29.78282],[-90.44306,29.78763],[-90.44669,29.79039],[-90.45076,29.79174],[-90.45731,29.79509],[-90.46294,29.80079],[-90.46804,29.80347],[-90.46949,29.80163],[-90.50521,29.76649],[-90.52495,29.78238],[-90.51431,29.7908],[-90.51188,29.79318],[-90.48714,29.81881],[-90.48396,29.82152],[-90.47631,29.82488],[-90.47694,29.83215],[-90.47845,29.83657],[-90.47598,29.8391],[-90.47312,29.84503],[-90.47355,29.84688],[-90.4719,29.85118],[-90.46938,29.85599],[-90.47132,29.85904],[-90.46442,29.85635]]]}},{"type":"Feature","properties":{"zcta":"70118","d":2438},"geometry":{"type":"Polygon","coordinates":[[[-90.13074,29.96392],[-90.12766,29.96834],[-90.12478,29.97415],[-90.1247,29.9761],[-90.1236,29.97619],[-90.12303,29.97947],[-90.11381,29.98104],[-90.11075,29.97283],[-90.10936,29.97004],[-90.11383,29.97111],[-90.10939,29.9682],[-90.10895,29.96656],[-90.11725,29.95879],[-90.11646,29.95816],[-90.1205,29.95574],[-90.11686,29.95279],[-90.11322,29.94404],[-90.11204,29.94275],[-90.11291,29.94032],[-90.1144,29.93977],[-90.12007,29.92399],[-90.12257,29.91949],[-90.1248,29.91315],[-90.12138,29.91229],[-90.12202,29.90964],[-90.12743,29.91086],[-90.13247,29.91301],[-90.13857,29.91881],[-90.13927,29.9249],[-90.13897,29.9384],[-90.14007,29.9479],[-90.13074,29.96392]]]}},{"type":"Feature","properties":{"zcta":"70062","d":967},"geometry":{"type":"Polygon","coordinates":[[[-90.27949,30.0068],[-90.24522,30.00944],[-90.24207,30.00957],[-90.23045,30.00885],[-90.23048,30.00858],[-90.23075,30.0059],[-90.22939,30.00581],[-90.23012,30.00292],[-90.23171,30.00088],[-90.23312,30.00097],[-90.23346,29.99728],[-90.22496,29.99649],[-90.22815,29.99131],[-90.22939,29.988],[-90.23407,29.98883],[-90.23605,29.98176],[-90.23581,29.97989],[-90.23807,29.97919],[-90.23434,29.97894],[-90.23615,29.97562],[-90.23762,29.97556],[-90.2356,29.97505],[-90.23719,29.97153],[-90.23873,29.97145],[-90.2405,29.96526],[-90.25006,29.96935],[-90.2578,29.96984],[-90.26586,29.96955],[-90.27602,29.96878],[-90.27953,29.96797],[-90.2803,29.97262],[-90.27986,29.99812],[-90.27949,30.0068]]]}},{"type":"Feature","properties":{"zcta":"70126","d":1127},"geometry":{"type":"Polygon","coordinates":[[[-90.05964,30.03774],[-90.04653,30.03835],[-90.03898,30.04509],[-90.03716,30.04813],[-90.03581,30.05488],[-90.02545,30.05649],[-90.01694,30.05206],[-90.0109,30.04597],[-90.00168,30.04843],[-89.98738,30.05384],[-89.98463,30.04967],[-89.99387,30.04532],[-89.99995,30.04292],[-90.00022,30.04204],[-89.99761,30.03797],[-89.99692,30.03563],[-89.9938,30.03],[-89.99809,30.02853],[-89.99631,30.02505],[-89.99203,30.02712],[-89.98947,30.02534],[-89.99013,30.01951],[-89.98922,30.0178],[-89.98792,30.01116],[-89.98884,30.00893],[-89.94989,30.01145],[-89.94921,30.00478],[-89.93898,30.00649],[-89.94018,30.00588],[-89.94837,30.00452],[-89.95465,30.00307],[-89.96362,30.00247],[-89.96929,30.00168],[-89.97387,30.00156],[-89.98712,30.0003],[-89.98929,30.00056],[-89.99659,29.99934],[-90.01142,29.9983],[-90.01388,29.99669],[-90.01979,29.99435],[-90.02215,29.99277],[-90.02027,29.9859],[-90.02168,29.98076],[-90.02285,29.98085],[-90.04319,29.98554],[-90.04479,29.98606],[-90.0444,29.98647],[-90.04794,30.02719],[-90.05225,30.02639],[-90.05289,30.03419],[-90.05669,30.03352],[-90.05782,30.03216],[-90.0607,30.03423],[-90.06199,30.03343],[-90.06484,30.03376],[-90.07298,30.03247],[-90.07423,30.03124],[-90.0759,30.03543],[-90.05964,30.03774]]]}},{"type":"Feature","properties":{"zcta":"70763","d":147},"geometry":{"type":"Polygon","coordinates":[[[-90.76603,30.05783],[-90.751,30.07888],[-90.74911,30.07632],[-90.74599,30.07853],[-90.74392,30.08295],[-90.74239,30.08293],[-90.74031,30.08536],[-90.73915,30.09038],[-90.74168,30.09473],[-90.73856,30.09918],[-90.73067,30.09337],[-90.72826,30.09099],[-90.72196,30.08631],[-90.71351,30.07813],[-90.71229,30.07569],[-90.71505,30.06665],[-90.7168,30.06508],[-90.71144,30.05687],[-90.71422,30.05551],[-90.70044,30.03381],[-90.69757,30.03019],[-90.70663,30.02345],[-90.71258,30.01982],[-90.7243,30.01403],[-90.73054,30.01278],[-90.75009,30.015],[-90.7539,30.01491],[-90.75356,30.02425],[-90.76219,30.02541],[-90.7597,30.0413],[-90.78458,30.04401],[-90.78808,30.04512],[-90.78511,30.05289],[-90.78181,30.05535],[-90.77974,30.05585],[-90.76603,30.05783]]]}},{"type":"Feature","properties":{"zcta":"70036","d":96},"geometry":{"type":"Polygon","coordinates":[[[-90.13834,29.7427],[-90.13652,29.74794],[-90.13428,29.74268],[-90.13291,29.74263],[-90.1323,29.73838],[-90.12923,29.73549],[-90.12495,29.72991],[-90.11973,29.7215],[-90.11082,29.71141],[-90.10471,29.70528],[-90.10058,29.69965],[-90.09889,29.69448],[-90.09853,29.69145],[-90.09913,29.68762],[-90.10034,29.68535],[-90.10623,29.67865],[-90.10871,29.67518],[-90.1113,29.66775],[-90.11202,29.66704],[-90.1159,29.66726],[-90.11497,29.66848],[-90.12005,29.67104],[-90.12326,29.67193],[-90.12813,29.67163],[-90.13096,29.66857],[-90.13258,29.66273],[-90.13313,29.6587],[-90.1356,29.65997],[-90.13531,29.66381],[-90.13685,29.66511],[-90.13771,29.66808],[-90.13484,29.66838],[-90.13187,29.67036],[-90.13794,29.67162],[-90.13254,29.67443],[-90.12975,29.67526],[-90.132,29.67723],[-90.13035,29.67917],[-90.12765,29.68016],[-90.1328,29.68084],[-90.13504,29.67945],[-90.1375,29.67928],[-90.14008,29.67791],[-90.14352,29.67738],[-90.14648,29.67136],[-90.14574,29.66825],[-90.14741,29.66927],[-90.14845,29.66764],[-90.14848,29.66335],[-90.15042,29.66255],[-90.1531,29.66669],[-90.15163,29.66988],[-90.14737,29.67651],[-90.146,29.68149],[-90.14249,29.68325],[-90.1487,29.68306],[-90.15057,29.68246],[-90.15481,29.68567],[-90.15298,29.68783],[-90.15316,29.68588],[-90.15053,29.68521],[-90.15398,29.68893],[-90.15707,29.68363],[-90.16063,29.6849],[-90.15544,29.68808],[-90.15371,29.69318],[-90.11725,29.70196],[-90.11865,29.70212],[-90.12017,29.70696],[-90.12532,29.71293],[-90.13042,29.71587],[-90.13448,29.71645],[-90.14178,29.72057],[-90.15296,29.72566],[-90.14156,29.73909],[-90.14105,29.74031],[-90.13834,29.7427]]]}},{"type":"Feature","properties":{"zcta":"70005","d":2735},"geometry":{"type":"Polygon","coordinates":[[[-90.1505,30.02136],[-90.1464,30.02135],[-90.14334,30.02368],[-90.13872,30.02373],[-90.13704,30.02117],[-90.12875,30.02132],[-90.12686,30.02441],[-90.12069,30.02517],[-90.12335,29.99578],[-90.12466,29.97925],[-90.1247,29.9761],[-90.12785,29.97243],[-90.13639,29.97308],[-90.13817,29.97482],[-90.13734,29.9768],[-90.13921,29.9784],[-90.1361,29.97781],[-90.13606,29.98356],[-90.14709,29.97858],[-90.14595,29.99695],[-90.14493,30.01722],[-90.14567,30.01992],[-90.15146,30.01973],[-90.15339,30.02027],[-90.15342,30.02426],[-90.1505,30.02136]]]}},{"type":"Feature","properties":{"zcta":"70123","d":1737},"geometry":{"type":"Polygon","coordinates":[[[-90.20591,29.97348],[-90.20333,29.97267],[-90.20135,29.96841],[-90.19669,29.96919],[-90.18329,29.96818],[-90.18532,29.96474],[-90.18181,29.95542],[-90.1782,29.95301],[-90.16906,29.94444],[-90.18195,29.93326],[-90.18416,29.93186],[-90.19734,29.92476],[-90.20642,29.92312],[-90.2148,29.92649],[-90.21904,29.93396],[-90.23104,29.95939],[-90.2405,29.96526],[-90.23873,29.97145],[-90.23719,29.97153],[-90.2356,29.97505],[-90.23762,29.97556],[-90.20591,29.97348]]]}},{"type":"Feature","properties":{"zcta":"70124","d":1444},"geometry":{"type":"Polygon","coordinates":[[[-90.11992,30.02869],[-90.11854,30.02985],[-90.11884,30.03229],[-90.11348,30.03161],[-90.10079,30.03223],[-90.0955,30.03361],[-90.09101,30.03404],[-90.08247,30.03154],[-90.0827,30.02146],[-90.08406,30.01877],[-90.0853,30.00665],[-90.08535,29.99817],[-90.08492,29.99661],[-90.08629,29.99268],[-90.08768,29.98745],[-90.0894,29.98371],[-90.09166,29.98303],[-90.10273,29.98412],[-90.10872,29.98282],[-90.11381,29.98104],[-90.12303,29.97947],[-90.1236,29.97619],[-90.1247,29.9761],[-90.12466,29.97925],[-90.12335,29.99578],[-90.12069,30.02517],[-90.11992,30.02869]]]}},{"type":"Feature","properties":{"zcta":"70128","d":1568},"geometry":{"type":"Polygon","coordinates":[[[-89.96379,30.06757],[-89.96011,30.06377],[-89.94466,30.07507],[-89.94226,30.0719],[-89.9407,30.07209],[-89.93948,30.05999],[-89.93873,30.04766],[-89.93926,30.04332],[-89.93962,30.027],[-89.95211,30.02264],[-89.95573,30.02165],[-89.95687,30.02844],[-89.95949,30.03343],[-89.96296,30.03475],[-89.96806,30.04142],[-89.96424,30.04441],[-89.96824,30.04213],[-89.97717,30.05238],[-89.97371,30.05549],[-89.97654,30.05895],[-89.96379,30.06757]]]}},{"type":"Feature","properties":{"zcta":"70125","d":2706},"geometry":{"type":"Polygon","coordinates":[[[-90.10752,29.9679],[-90.10496,29.9655],[-90.09011,29.95493],[-90.09164,29.95538],[-90.08635,29.94959],[-90.08364,29.94803],[-90.08486,29.94637],[-90.08774,29.94698],[-90.09093,29.9439],[-90.09446,29.94237],[-90.09384,29.94157],[-90.09854,29.94048],[-90.10814,29.93967],[-90.11124,29.94215],[-90.11291,29.94032],[-90.11204,29.94275],[-90.11322,29.94404],[-90.11686,29.95279],[-90.1205,29.95574],[-90.11646,29.95816],[-90.11725,29.95879],[-90.10895,29.96656],[-90.10752,29.9679]]]}},{"type":"Feature","properties":{"zcta":"70127","d":1317},"geometry":{"type":"Polygon","coordinates":[[[-89.97654,30.05895],[-89.97371,30.05549],[-89.97717,30.05238],[-89.96824,30.04213],[-89.96424,30.04441],[-89.96806,30.04142],[-89.96296,30.03475],[-89.95949,30.03343],[-89.95687,30.02844],[-89.95573,30.02165],[-89.95211,30.02264],[-89.93962,30.027],[-89.93962,30.02514],[-89.94894,30.02187],[-89.9555,30.01995],[-89.96783,30.01727],[-89.96753,30.01435],[-89.96092,30.01766],[-89.95713,30.01859],[-89.95034,30.01585],[-89.94989,30.01145],[-89.98884,30.00893],[-89.98792,30.01116],[-89.98922,30.0178],[-89.99013,30.01951],[-89.98947,30.02534],[-89.99203,30.02712],[-89.99631,30.02505],[-89.99809,30.02853],[-89.9938,30.03],[-89.99692,30.03563],[-89.99761,30.03797],[-90.00022,30.04204],[-89.99995,30.04292],[-89.99387,30.04532],[-89.98463,30.04967],[-89.98738,30.05384],[-89.97654,30.05895]]]}},{"type":"Feature","properties":{"zcta":"70119","d":3415},"geometry":{"type":"Polygon","coordinates":[[[-90.07794,29.99244],[-90.0732,29.99143],[-90.07197,29.99005],[-90.05956,29.98571],[-90.05943,29.98469],[-90.05811,29.98273],[-90.05813,29.98007],[-90.05996,29.97853],[-90.06723,29.97811],[-90.07083,29.9749],[-90.07754,29.96732],[-90.07727,29.96603],[-90.0786,29.96603],[-90.08494,29.95927],[-90.08392,29.95869],[-90.08831,29.95515],[-90.08639,29.9542],[-90.08782,29.95335],[-90.09011,29.95493],[-90.10496,29.9655],[-90.10752,29.9679],[-90.10895,29.96656],[-90.10939,29.9682],[-90.11383,29.97111],[-90.10936,29.97004],[-90.11075,29.97283],[-90.11381,29.98104],[-90.10872,29.98282],[-90.10273,29.98412],[-90.09166,29.98303],[-90.0894,29.98371],[-90.08768,29.98745],[-90.08629,29.99268],[-90.07794,29.99244]]]}},{"type":"Feature","properties":{"zcta":"70122","d":2083},"geometry":{"type":"Polygon","coordinates":[[[-90.08032,30.03335],[-90.0759,30.03543],[-90.07423,30.03124],[-90.07429,30.02769],[-90.07227,30.02636],[-90.07098,30.02336],[-90.06518,30.024],[-90.06152,30.02524],[-90.06199,30.03343],[-90.0607,30.03423],[-90.05782,30.03216],[-90.05669,30.03352],[-90.05289,30.03419],[-90.05225,30.02639],[-90.04794,30.02719],[-90.0444,29.98647],[-90.04479,29.98606],[-90.04551,29.98559],[-90.05943,29.98469],[-90.05956,29.98571],[-90.07197,29.99005],[-90.0732,29.99143],[-90.07794,29.99244],[-90.08629,29.99268],[-90.08492,29.99661],[-90.08535,29.99817],[-90.0853,30.00665],[-90.08406,30.01877],[-90.0827,30.02146],[-90.08247,30.03154],[-90.08032,30.03335]]]}},{"type":"Feature","properties":{"zcta":"70117","d":2126},"geometry":{"type":"Polygon","coordinates":[[[-90.04551,29.98559],[-90.04479,29.98606],[-90.04319,29.98554],[-90.02285,29.98085],[-90.02168,29.98076],[-90.00625,29.97745],[-89.99897,29.97507],[-89.99681,29.97319],[-89.99867,29.9737],[-90.00641,29.95829],[-90.0121,29.94598],[-90.01387,29.947],[-90.02667,29.9532],[-90.03807,29.9567],[-90.04537,29.9581],[-90.05233,29.95838],[-90.05626,29.96038],[-90.05728,29.97259],[-90.05826,29.9785],[-90.05996,29.97853],[-90.05813,29.98007],[-90.05811,29.98273],[-90.05943,29.98469],[-90.04551,29.98559]]]}},{"type":"Feature","properties":{"zcta":"70358","d":47},"geometry":{"type":"MultiPolygon","coordinates":[[[[-90.03885,29.20508],[-90.03442,29.21005],[-90.03003,29.21255],[-90.02944,29.21502],[-90.02393,29.21952],[-90.02102,29.2235],[-90.0188,29.2252],[-90.01531,29.22975],[-90.00801,29.23233],[-90.0075,29.23375],[-90.00529,29.23395],[-90.00518,29.23674],[-90.0013,29.23971],[-90.00154,29.24217],[-89.99739,29.24365],[-89.9962,29.24042],[-89.99376,29.24214],[-89.9883,29.24471],[-89.98471,29.24777],[-89.97984,29.2499],[-89.97511,29.25331],[-89.9688,29.25507],[-89.96732,29.2565],[-89.96502,29.25438],[-89.96417,29.25521],[-89.96649,29.25678],[-89.96458,29.25981],[-89.96169,29.26274],[-89.9574,29.26437],[-89.95865,29.26596],[-89.95692,29.26711],[-89.95428,29.26617],[-89.9521,29.26663],[-89.94968,29.26488],[-89.94907,29.26187],[-89.95564,29.25277],[-89.99824,29.23001],[-90.02103,29.21649],[-90.04002,29.20013],[-90.04322,29.2003],[-90.04266,29.20266],[-90.03885,29.20508]]],[[[-90.08655,29.18684],[-90.08372,29.18817],[-90.08283,29.19076],[-90.08007,29.19331],[-90.07532,29.19664],[-90.07233,29.19739],[-90.07054,29.20081],[-90.06607,29.20356],[-90.06302,29.20421],[-90.06355,29.20825],[-90.05517,29.2083],[-90.05262,29.21072],[-90.05275,29.21235],[-90.04912,29.21579],[-90.04788,29.21533],[-90.04987,29.21023],[-90.05516,29.20512],[-90.04755,29.19395],[-90.04785,29.18958],[-90.06636,29.18039],[-90.08878,29.16694],[-90.08615,29.17438],[-90.08777,29.17873],[-90.09047,29.18092],[-90.08485,29.18464],[-90.08655,29.18684]]]]}},{"type":"Feature","properties":{"zcta":"70129","d":46},"geometry":{"type":"Polygon","coordinates":[[[-89.95034,30.01585],[-89.95713,30.01859],[-89.96092,30.01766],[-89.96753,30.01435],[-89.96783,30.01727],[-89.9555,30.01995],[-89.94894,30.02187],[-89.93962,30.02514],[-89.93962,30.027],[-89.93926,30.04332],[-89.93873,30.04766],[-89.93948,30.05999],[-89.9407,30.07209],[-89.94226,30.0719],[-89.94466,30.07507],[-89.96011,30.06377],[-89.96379,30.06757],[-89.95371,30.07638],[-89.94752,30.07999],[-89.93278,30.09449],[-89.88796,30.14844],[-89.88315,30.15335],[-89.86406,30.15822],[-89.85406,30.16028],[-89.8505,30.15865],[-89.84925,30.15458],[-89.84929,30.14397],[-89.85026,30.13955],[-89.84616,30.12595],[-89.83291,30.11042],[-89.81765,30.10738],[-89.79986,30.11042],[-89.78493,30.12246],[-89.77369,30.13436],[-89.75742,30.14655],[-89.74987,30.15554],[-89.75289,30.16657],[-89.75532,30.16975],[-89.75232,30.17206],[-89.74802,30.17634],[-89.74544,30.17745],[-89.74103,30.1768],[-89.73677,30.17467],[-89.73343,30.17182],[-89.72616,30.16468],[-89.7237,30.1629],[-89.71934,30.16103],[-89.71569,30.16084],[-89.71172,30.16198],[-89.70022,30.16668],[-89.69761,30.16821],[-89.69412,30.17308],[-89.69043,30.17509],[-89.68529,30.17535],[-89.68014,30.17364],[-89.66477,30.16679],[-89.66293,30.16575],[-89.65877,30.16143],[-89.65541,30.1593],[-89.65044,30.15815],[-89.6405,30.15823],[-89.62913,30.15609],[-89.62552,30.15506],[-89.62866,30.14978],[-89.63127,30.14444],[-89.635,30.14316],[-89.64099,30.13861],[-89.64862,30.13056],[-89.65699,30.11838],[-89.66918,30.11067],[-89.67463,30.11041],[-89.67816,30.10829],[-89.68071,30.10456],[-89.68427,30.08461],[-89.68492,30.07523],[-89.69823,30.07071],[-89.70727,30.06996],[-89.72088,30.06836],[-89.73086,30.06075],[-89.733,30.05273],[-89.73086,30.04511],[-89.72638,30.04148],[-89.71721,30.02842],[-89.71768,30.02527],[-89.72465,30.02245],[-89.73332,30.02205],[-89.7465,30.0326],[-89.74859,30.0359],[-89.75344,30.03874],[-89.76794,30.04573],[-89.77459,30.04532],[-89.79361,30.04697],[-89.81833,30.04573],[-89.82105,30.04109],[-89.83347,30.0336],[-89.8459,30.02124],[-89.85399,30.01049],[-89.85855,30.00832],[-89.86027,30.00311],[-89.85988,30.00172],[-89.86193,29.99944],[-89.86535,29.99708],[-89.86336,29.99516],[-89.85924,29.99262],[-89.85906,29.99135],[-89.86305,29.98772],[-89.86681,29.98873],[-89.86836,29.99222],[-89.87166,29.99246],[-89.87602,29.98699],[-89.8797,29.98544],[-89.8816,29.9862],[-89.88515,29.99127],[-89.88448,29.99357],[-89.88521,29.99645],[-89.88814,29.99729],[-89.88992,30.00002],[-89.89454,30.00233],[-89.89741,30.00074],[-89.90439,30.00246],[-89.90688,30.00126],[-89.91417,29.9991],[-89.91899,29.99389],[-89.92381,29.99129],[-89.9282,29.98775],[-89.93124,29.98779],[-89.93441,29.98668],[-89.93768,29.98449],[-89.93901,29.98039],[-89.94007,29.98015],[-89.94521,29.98234],[-89.9496,29.98125],[-89.95304,29.98117],[-89.95502,29.98298],[-89.95655,29.98708],[-89.96013,29.98595],[-89.96509,29.98985],[-89.96681,29.98982],[-89.97103,29.99232],[-89.97238,29.99477],[-89.97429,29.99469],[-89.97959,29.99032],[-89.98078,29.98796],[-89.98346,29.98701],[-89.98988,29.98949],[-89.99238,29.98237],[-89.99204,29.98063],[-89.99654,29.97308],[-89.99681,29.97319],[-89.99897,29.97507],[-90.00625,29.97745],[-90.02168,29.98076],[-90.02027,29.9859],[-90.02215,29.99277],[-90.01979,29.99435],[-90.01388,29.99669],[-90.01142,29.9983],[-89.99659,29.99934],[-89.98929,30.00056],[-89.98712,30.0003],[-89.97387,30.00156],[-89.96929,30.00168],[-89.96362,30.00247],[-89.95465,30.00307],[-89.94837,30.00452],[-89.94018,30.00588],[-89.93898,30.00649],[-89.94921,30.00478],[-89.94989,30.01145],[-89.95034,30.01585]]]}},{"type":"Feature","properties":{"zcta":"70067","d":102},"geometry":{"type":"Polygon","coordinates":[[[-90.07899,29.76629],[-90.07926,29.7527],[-90.08893,29.74118],[-90.09427,29.74102],[-90.10694,29.73401],[-90.10419,29.72984],[-90.09865,29.72256],[-90.09729,29.72155],[-90.08977,29.7184],[-90.08409,29.71854],[-90.0801,29.71563],[-90.08024,29.71239],[-90.0829,29.7051],[-90.08382,29.69597],[-90.08455,29.69316],[-90.09404,29.68116],[-90.09587,29.67476],[-90.09592,29.6678],[-90.09484,29.66002],[-90.09219,29.65285],[-90.08794,29.64362],[-90.09411,29.64353],[-90.09653,29.64254],[-90.0975,29.64562],[-90.09904,29.64753],[-90.10456,29.65115],[-90.10902,29.655],[-90.11146,29.6609],[-90.1113,29.66775],[-90.10871,29.67518],[-90.10623,29.67865],[-90.10034,29.68535],[-90.09913,29.68762],[-90.09853,29.69145],[-90.09889,29.69448],[-90.10058,29.69965],[-90.10471,29.70528],[-90.11082,29.71141],[-90.11973,29.7215],[-90.12495,29.72991],[-90.12923,29.73549],[-90.1323,29.73838],[-90.13291,29.74263],[-90.13428,29.74268],[-90.13652,29.74794],[-90.13588,29.75227],[-90.13188,29.75673],[-90.12858,29.75854],[-90.12491,29.75966],[-90.11709,29.76116],[-90.10948,29.76195],[-90.10249,29.76191],[-90.09347,29.76258],[-90.08814,29.76402],[-90.08465,29.76586],[-90.08136,29.76847],[-90.07899,29.76629]]]}},{"type":"Feature","properties":{"zcta":"70068","d":257},"geometry":{"type":"Polygon","coordinates":[[[-90.46468,29.99828],[-90.46988,30.00018],[-90.47223,30.00297],[-90.47516,30.00888],[-90.47558,30.01117],[-90.47424,30.03135],[-90.47435,30.03622],[-90.47538,30.04012],[-90.47867,30.04588],[-90.48553,30.05098],[-90.4939,30.05325],[-90.50008,30.05327],[-90.50011,30.05151],[-90.5054,30.05108],[-90.50902,30.05849],[-90.5132,30.057],[-90.52064,30.05301],[-90.52459,30.06145],[-90.52269,30.06237],[-90.53573,30.091],[-90.53059,30.09307],[-90.53353,30.10053],[-90.54658,30.10125],[-90.54654,30.10468],[-90.54681,30.11152],[-90.50556,30.10771],[-90.49863,30.10601],[-90.48621,30.10198],[-90.48051,30.10128],[-90.47671,30.09889],[-90.47053,30.09692],[-90.4414,30.08861],[-90.43778,30.09314],[-90.43723,30.09522],[-90.43964,30.10181],[-90.45005,30.1371],[-90.45013,30.14044],[-90.44483,30.16138],[-90.44517,30.17345],[-90.44493,30.17539],[-90.44044,30.18751],[-90.43962,30.18884],[-90.41876,30.21181],[-90.4163,30.21527],[-90.41446,30.21955],[-90.39924,30.26006],[-90.39818,30.26486],[-90.3984,30.27093],[-90.40125,30.28553],[-90.39789,30.2861],[-90.39145,30.28546],[-90.38609,30.28688],[-90.38252,30.28647],[-90.3787,30.28469],[-90.37373,30.28339],[-90.36872,30.28593],[-90.36285,30.29038],[-90.35031,30.29683],[-90.34707,30.29735],[-90.34066,30.29565],[-90.33364,30.29523],[-90.32786,30.29627],[-90.32231,30.29872],[-90.32046,30.29899],[-90.31222,30.29532],[-90.3041,30.29487],[-90.30742,30.29119],[-90.31139,30.29046],[-90.31678,30.2873],[-90.32185,30.28269],[-90.32397,30.27911],[-90.32595,30.27757],[-90.33267,30.26887],[-90.33533,30.26332],[-90.33757,30.26129],[-90.33956,30.25566],[-90.34449,30.25304],[-90.34845,30.25],[-90.34903,30.24835],[-90.35578,30.24171],[-90.35788,30.24015],[-90.36296,30.24006],[-90.37029,30.23618],[-90.37615,30.23136],[-90.38309,30.22937],[-90.38758,30.22565],[-90.39154,30.22333],[-90.39891,30.2213],[-90.40729,30.21572],[-90.41008,30.21112],[-90.41769,30.20015],[-90.42282,30.19315],[-90.42761,30.17972],[-90.43076,30.1683],[-90.43307,30.15644],[-90.43373,30.14887],[-90.43237,30.13545],[-90.43121,30.12897],[-90.42967,30.12407],[-90.42862,30.11831],[-90.42636,30.11184],[-90.42424,30.11025],[-90.42255,30.1026],[-90.4213,30.10166],[-90.4196,30.09738],[-90.41628,30.09135],[-90.41333,30.08715],[-90.40845,30.08143],[-90.4421,30.04251],[-90.44005,30.04003],[-90.43509,30.03628],[-90.45096,30.01835],[-90.45352,30.00472],[-90.45448,29.99572],[-90.46468,29.99828]]]}},{"type":"Feature","properties":{"zcta":"70082","d":0},"geometry":{"type":"Polygon","coordinates":[[[-89.79419,29.59038],[-89.79154,29.59006],[-89.79112,29.59226],[-89.79237,29.59358],[-89.7907,29.59571],[-89.78766,29.59423],[-89.79135,29.58813],[-89.79127,29.58727],[-89.78667,29.59456],[-89.78217,29.59203],[-89.77839,29.59253],[-89.78138,29.58657],[-89.77734,29.58232],[-89.77677,29.58258],[-89.78044,29.58673],[-89.77806,29.59205],[-89.77365,29.59013],[-89.77008,29.59038],[-89.76956,29.58884],[-89.77504,29.58155],[-89.76913,29.58869],[-89.76762,29.58642],[-89.76607,29.58615],[-89.75883,29.58857],[-89.76584,29.59014],[-89.76745,29.58831],[-89.76789,29.5909],[-89.76578,29.59287],[-89.75972,29.59267],[-89.76376,29.59425],[-89.76883,29.59332],[-89.77003,29.59567],[-89.76804,29.59504],[-89.76387,29.59521],[-89.76203,29.5964],[-89.75906,29.59516],[-89.75824,29.59671],[-89.75498,29.59646],[-89.74741,29.5932],[-89.74301,29.59435],[-89.74132,29.59025],[-89.73868,29.58963],[-89.73646,29.59048],[-89.7329,29.59328],[-89.72835,29.59168],[-89.72465,29.58828],[-89.72714,29.58711],[-89.72831,29.58783],[-89.73514,29.58831],[-89.73776,29.58637],[-89.74195,29.5871],[-89.74231,29.58898],[-89.74616,29.58801],[-89.74443,29.58647],[-89.7464,29.58563],[-89.74498,29.58358],[-89.74589,29.58198],[-89.74957,29.58186],[-89.74754,29.58393],[-89.74971,29.58415],[-89.75091,29.58281],[-89.7558,29.58512],[-89.75984,29.58551],[-89.76158,29.58275],[-89.75759,29.58071],[-89.75939,29.58043],[-89.75454,29.57631],[-89.75182,29.57781],[-89.75199,29.57588],[-89.74952,29.57522],[-89.74656,29.57825],[-89.7445,29.57802],[-89.7486,29.57606],[-89.74629,29.57585],[-89.74484,29.57703],[-89.74311,29.57592],[-89.74196,29.57148],[-89.73854,29.57072],[-89.73615,29.5688],[-89.73367,29.56901],[-89.73241,29.56772],[-89.73905,29.56403],[-89.74248,29.56501],[-89.74449,29.56451],[-89.74812,29.56642],[-89.75003,29.5683],[-89.7528,29.56776],[-89.75643,29.56477],[-89.75586,29.56287],[-89.75296,29.56554],[-89.75057,29.56641],[-89.74926,29.56491],[-89.74487,29.56328],[-89.7442,29.56052],[-89.74234,29.56218],[-89.74097,29.56142],[-89.73907,29.56258],[-89.73785,29.56137],[-89.74086,29.56056],[-89.7372,29.55869],[-89.73439,29.55889],[-89.73422,29.55729],[-89.732,29.55424],[-89.73176,29.55681],[-89.73024,29.55801],[-89.72664,29.55829],[-89.7276,29.55969],[-89.72546,29.56077],[-89.72115,29.55952],[-89.7194,29.55646],[-89.7218,29.55748],[-89.7225,29.55466],[-89.71955,29.55198],[-89.71774,29.55213],[-89.7183,29.54801],[-89.71968,29.54698],[-89.72071,29.5441],[-89.7164,29.5445],[-89.71421,29.54312],[-89.71365,29.5412],[-89.71095,29.54097],[-89.70877,29.54252],[-89.70946,29.53947],[-89.71171,29.53518],[-89.71503,29.5324],[-89.71969,29.53601],[-89.72792,29.52882],[-89.72939,29.52839],[-89.73529,29.53034],[-89.74648,29.53522],[-89.75426,29.54111],[-89.75816,29.54591],[-89.76187,29.54876],[-89.76792,29.55577],[-89.77339,29.56157],[-89.77937,29.56697],[-89.78777,29.57262],[-89.80041,29.57986],[-89.80025,29.58041],[-89.80596,29.58509],[-89.81147,29.5879],[-89.82797,29.59892],[-89.82608,29.60253],[-89.81585,29.59623],[-89.80694,29.58947],[-89.80326,29.58749],[-89.7973,29.58511],[-89.79643,29.58685],[-89.79419,29.59038]]]}},{"type":"Feature","properties":{"zcta":"70058","d":1382},"geometry":{"type":"Polygon","coordinates":[[[-90.07257,29.919],[-90.07167,29.9193],[-90.06778,29.91362],[-90.06452,29.90788],[-90.06225,29.90575],[-90.05434,29.89361],[-90.04734,29.88328],[-90.04414,29.88301],[-90.04267,29.86866],[-90.03961,29.86122],[-90.03509,29.84831],[-90.03413,29.84785],[-90.03986,29.84605],[-90.04288,29.84371],[-90.04459,29.84137],[-90.05173,29.83785],[-90.05376,29.83826],[-90.05794,29.83687],[-90.06058,29.83455],[-90.06432,29.83305],[-90.06861,29.82883],[-90.0686,29.82677],[-90.07022,29.827],[-90.08357,29.82705],[-90.08554,29.84933],[-90.08741,29.86779],[-90.08809,29.86796],[-90.08893,29.8741],[-90.08276,29.87277],[-90.08717,29.87423],[-90.08803,29.87786],[-90.08272,29.88001],[-90.08306,29.88179],[-90.08613,29.88224],[-90.08787,29.88931],[-90.08912,29.89718],[-90.09057,29.90017],[-90.09128,29.90571],[-90.08926,29.90623],[-90.08995,29.9094],[-90.08496,29.91042],[-90.08557,29.91441],[-90.07257,29.919]]]}},{"type":"Feature","properties":{"zcta":"70065","d":2778},"geometry":{"type":"Polygon","coordinates":[[[-90.22246,30.02968],[-90.22434,30.0298],[-90.22327,30.02677],[-90.22871,30.00847],[-90.23048,30.00858],[-90.23045,30.00885],[-90.24207,30.00957],[-90.24522,30.00944],[-90.27949,30.0068],[-90.27974,30.01334],[-90.27943,30.04279],[-90.27922,30.05021],[-90.27702,30.05129],[-90.26851,30.05039],[-90.26598,30.04896],[-90.26234,30.04957],[-90.25842,30.04934],[-90.24982,30.04588],[-90.2445,30.04194],[-90.24076,30.04206],[-90.24012,30.04496],[-90.23412,30.04459],[-90.23273,30.03997],[-90.22133,30.03546],[-90.22071,30.03557],[-90.22246,30.02968]]]}},{"type":"Feature","properties":{"zcta":"70041","d":86},"geometry":{"type":"Polygon","coordinates":[[[-89.64021,29.45782],[-89.62169,29.45724],[-89.61505,29.45535],[-89.61003,29.45237],[-89.60647,29.44894],[-89.60372,29.44522],[-89.60213,29.44165],[-89.60182,29.43611],[-89.60586,29.42548],[-89.6064,29.41916],[-89.6059,29.4136],[-89.60446,29.40812],[-89.59912,29.39873],[-89.59279,29.39164],[-89.58829,29.38754],[-89.56671,29.37522],[-89.55738,29.37005],[-89.54679,29.3664],[-89.53388,29.36313],[-89.52662,29.36161],[-89.51927,29.35905],[-89.51053,29.35489],[-89.50319,29.35097],[-89.50005,29.34887],[-89.49013,29.34566],[-89.48839,29.34475],[-89.4815,29.3434],[-89.47873,29.34344],[-89.47387,29.34512],[-89.47123,29.34776],[-89.46237,29.35807],[-89.45898,29.36066],[-89.4547,29.3625],[-89.4501,29.3631],[-89.44563,29.36262],[-89.43462,29.35943],[-89.41862,29.35185],[-89.41054,29.34678],[-89.40736,29.34423],[-89.39929,29.33759],[-89.39253,29.3315],[-89.38146,29.31915],[-89.38468,29.31669],[-89.37823,29.30869],[-89.37388,29.30238],[-89.37648,29.30066],[-89.36986,29.29189],[-89.37172,29.29073],[-89.35876,29.27407],[-89.35609,29.27007],[-89.35569,29.26677],[-89.3623,29.26883],[-89.36063,29.2739],[-89.36423,29.27858],[-89.3703,29.27395],[-89.37427,29.26438],[-89.37042,29.26402],[-89.37218,29.26144],[-89.37249,29.25835],[-89.37626,29.25588],[-89.37781,29.25254],[-89.38017,29.24986],[-89.39022,29.25011],[-89.39225,29.24959],[-89.39304,29.25143],[-89.39713,29.25495],[-89.39578,29.25527],[-89.39022,29.25882],[-89.39201,29.25858],[-89.39596,29.25569],[-89.40123,29.25543],[-89.4036,29.25227],[-89.40685,29.25448],[-89.41214,29.25449],[-89.41629,29.25242],[-89.41729,29.25308],[-89.42081,29.24895],[-89.42269,29.25022],[-89.42184,29.25286],[-89.41788,29.25306],[-89.42263,29.25374],[-89.42436,29.25027],[-89.42678,29.24997],[-89.42835,29.25446],[-89.42668,29.25704],[-89.43208,29.25172],[-89.43411,29.24637],[-89.43675,29.24608],[-89.43766,29.25213],[-89.44027,29.26886],[-89.4485,29.33032],[-89.44869,29.33498],[-89.44272,29.34708],[-89.44282,29.34944],[-89.44721,29.34623],[-89.45143,29.34517],[-89.45806,29.34065],[-89.46582,29.33357],[-89.47133,29.33113],[-89.4739,29.32922],[-89.475,29.32682],[-89.47961,29.32577],[-89.49113,29.33244],[-89.4918,29.33179],[-89.49536,29.33498],[-89.51568,29.33915],[-89.52343,29.34584],[-89.52591,29.34493],[-89.52947,29.3415],[-89.53849,29.34902],[-89.544,29.34466],[-89.54158,29.35009],[-89.55259,29.35322],[-89.55631,29.35748],[-89.5637,29.35968],[-89.5625,29.36255],[-89.56917,29.36351],[-89.57377,29.36533],[-89.58302,29.37091],[-89.59807,29.37548],[-89.60168,29.38],[-89.60472,29.38169],[-89.60696,29.38717],[-89.60702,29.38359],[-89.60876,29.3875],[-89.61376,29.38895],[-89.62136,29.39371],[-89.6272,29.395],[-89.62935,29.39726],[-89.6336,29.39642],[-89.63296,29.39745],[-89.63518,29.40245],[-89.63256,29.40296],[-89.63133,29.40615],[-89.6329,29.40662],[-89.63435,29.40938],[-89.62797,29.40831],[-89.62506,29.40999],[-89.62476,29.40843],[-89.62284,29.40936],[-89.62559,29.41138],[-89.63038,29.41279],[-89.62862,29.41351],[-89.62881,29.41511],[-89.62636,29.41275],[-89.62473,29.41336],[-89.62239,29.41162],[-89.62096,29.41256],[-89.62169,29.41594],[-89.62569,29.41654],[-89.62649,29.41758],[-89.62678,29.4222],[-89.63257,29.42193],[-89.62734,29.42354],[-89.62538,29.42489],[-89.62541,29.43929],[-89.62723,29.44184],[-89.63184,29.44576],[-89.63536,29.44691],[-89.63513,29.44768],[-89.63893,29.44854],[-89.6365,29.45016],[-89.63446,29.45009],[-89.63371,29.45274],[-89.6471,29.45459],[-89.64487,29.45829],[-89.64021,29.45782]],[[-89.59725,29.38673],[-89.6016,29.38379],[-89.60013,29.38248],[-89.59454,29.38104],[-89.59091,29.37663],[-89.58928,29.37596],[-89.58639,29.37889],[-89.59779,29.38765],[-89.60116,29.39083],[-89.60472,29.38841],[-89.60257,29.38446],[-89.59725,29.38673]],[[-89.41047,29.33824],[-89.40808,29.33662],[-89.39284,29.32187],[-89.39117,29.32298],[-89.39564,29.32808],[-89.40642,29.33816],[-89.40939,29.34023],[-89.41047,29.33824]]]}},{"type":"Feature","properties":{"zcta":"70057","d":47},"geometry":{"type":"Polygon","coordinates":[[[-90.53798,30.01693],[-90.53555,30.01749],[-90.49451,30.02998],[-90.49261,30.03024],[-90.47577,30.03591],[-90.47424,30.03135],[-90.47558,30.01117],[-90.47516,30.00888],[-90.47223,30.00297],[-90.46988,30.00018],[-90.46468,29.99828],[-90.45448,29.99572],[-90.45035,29.99568],[-90.44175,29.99458],[-90.42326,29.99414],[-90.41512,29.99243],[-90.40769,29.98955],[-90.40131,29.98491],[-90.39941,29.98266],[-90.3974,29.97827],[-90.39683,29.97272],[-90.39639,29.9597],[-90.39434,29.95498],[-90.3916,29.95219],[-90.38304,29.94686],[-90.37438,29.94244],[-90.37637,29.93893],[-90.37905,29.93952],[-90.38476,29.94195],[-90.39341,29.94649],[-90.39533,29.94481],[-90.39876,29.94672],[-90.40293,29.94349],[-90.39739,29.93978],[-90.4009,29.93658],[-90.39898,29.93516],[-90.40591,29.92898],[-90.40417,29.92741],[-90.39598,29.92246],[-90.39611,29.92209],[-90.40436,29.91773],[-90.40765,29.91328],[-90.40747,29.90913],[-90.4085,29.90874],[-90.40983,29.9103],[-90.42125,29.91715],[-90.43269,29.88888],[-90.43529,29.88871],[-90.43548,29.88722],[-90.4481,29.88719],[-90.45386,29.88693],[-90.45407,29.88275],[-90.45809,29.88295],[-90.46165,29.88018],[-90.46825,29.88354],[-90.47999,29.88356],[-90.48129,29.88238],[-90.48168,29.95111],[-90.48208,29.95829],[-90.50022,29.96558],[-90.52153,29.97827],[-90.52444,29.98619],[-90.52514,29.98689],[-90.53655,30.00282],[-90.53808,30.00763],[-90.53875,30.00775],[-90.53851,30.01251],[-90.53798,30.01693]]]}},{"type":"Feature","properties":{"zcta":"70049","d":47},"geometry":{"type":"Polygon","coordinates":[[[-90.61288,30.03478],[-90.6017,30.04319],[-90.59521,30.04702],[-90.58845,30.0497],[-90.57931,30.05132],[-90.56864,30.05139],[-90.55865,30.05033],[-90.54553,30.04768],[-90.53784,30.04643],[-90.53319,30.04627],[-90.52614,30.04702],[-90.50858,30.05079],[-90.5054,30.05108],[-90.50011,30.05151],[-90.50008,30.05327],[-90.4939,30.05325],[-90.48553,30.05098],[-90.47867,30.04588],[-90.47538,30.04012],[-90.47435,30.03622],[-90.47424,30.03135],[-90.47577,30.03591],[-90.49261,30.03024],[-90.49451,30.02998],[-90.53555,30.01749],[-90.53798,30.01693],[-90.53851,30.01251],[-90.57228,30.01722],[-90.61174,30.00013],[-90.61423,29.99748],[-90.61845,29.99718],[-90.62228,29.99497],[-90.62504,29.99426],[-90.62851,29.99446],[-90.62852,29.99578],[-90.62277,29.99658],[-90.62238,29.99806],[-90.62382,30.02121],[-90.63463,30.01868],[-90.63357,30.02457],[-90.6265,30.02438],[-90.61801,30.02607],[-90.619,30.03231],[-90.61288,30.03478]]]}},{"type":"Feature","properties":{"zcta":"70050","d":0},"geometry":{"type":"Polygon","coordinates":[[[-89.60472,29.38841],[-89.60116,29.39083],[-89.59779,29.38765],[-89.58639,29.37889],[-89.58928,29.37596],[-89.59091,29.37663],[-89.59454,29.38104],[-89.60013,29.38248],[-89.6016,29.38379],[-89.59725,29.38673],[-89.60257,29.38446],[-89.60472,29.38841]]]}},{"type":"Feature","properties":{"zcta":"70037","d":111},"geometry":{"type":"Polygon","coordinates":[[[-90.06861,29.82883],[-90.06432,29.83305],[-90.06058,29.83455],[-90.05794,29.83687],[-90.05376,29.83826],[-90.05173,29.83785],[-90.04459,29.84137],[-90.04288,29.84371],[-90.03986,29.84605],[-90.03413,29.84785],[-90.02987,29.85049],[-90.02746,29.85285],[-90.02548,29.85648],[-90.0256,29.85921],[-90.02293,29.86248],[-90.02351,29.86552],[-90.02297,29.86821],[-90.01772,29.8785],[-90.00983,29.89151],[-90.00806,29.89553],[-90.00252,29.89235],[-90.00227,29.89781],[-89.98918,29.88939],[-89.98727,29.905],[-89.97923,29.90229],[-89.97727,29.90202],[-89.97271,29.90441],[-89.95885,29.9026],[-89.95081,29.89946],[-89.93507,29.89271],[-89.92047,29.87164],[-89.91759,29.86666],[-89.92815,29.86838],[-89.94169,29.87229],[-89.95811,29.8802],[-89.96116,29.88097],[-89.96584,29.88085],[-89.9717,29.87822],[-89.97314,29.87569],[-89.97584,29.86241],[-89.97745,29.85566],[-89.97888,29.85232],[-89.99276,29.83585],[-89.99768,29.82667],[-89.99966,29.82208],[-90.00702,29.80185],[-90.01851,29.78428],[-90.02255,29.77497],[-90.02374,29.7656],[-90.02332,29.75867],[-90.02215,29.75372],[-90.01848,29.75021],[-90.0116,29.74533],[-90.00007,29.73595],[-89.9945,29.73002],[-89.99049,29.72417],[-89.98717,29.71814],[-89.98227,29.70784],[-89.97466,29.69572],[-89.96754,29.68608],[-89.96249,29.67786],[-89.9607,29.67381],[-89.97736,29.66863],[-89.98926,29.66453],[-89.99065,29.67002],[-90.0052,29.66525],[-90.00451,29.66253],[-90.00905,29.66029],[-90.0114,29.66034],[-90.01267,29.66276],[-90.01557,29.67373],[-90.0199,29.67869],[-90.02952,29.68709],[-90.03797,29.69974],[-90.04063,29.70798],[-90.04758,29.71521],[-90.06218,29.73101],[-90.06733,29.73888],[-90.06573,29.75311],[-90.07568,29.77185],[-90.07281,29.77328],[-90.06278,29.7832],[-90.06079,29.78334],[-90.06026,29.78495],[-90.06349,29.78839],[-90.06556,29.79238],[-90.0685,29.80177],[-90.07037,29.80374],[-90.07185,29.80804],[-90.07156,29.81035],[-90.06754,29.82366],[-90.0686,29.82677],[-90.06861,29.82883]]]}},{"type":"Feature","properties":{"zcta":"70080","d":61},"geometry":{"type":"Polygon","coordinates":[[[-90.45809,29.88295],[-90.45407,29.88275],[-90.45386,29.88693],[-90.4481,29.88719],[-90.43548,29.88722],[-90.43529,29.88871],[-90.43269,29.88888],[-90.42125,29.91715],[-90.40983,29.9103],[-90.4085,29.90874],[-90.40131,29.89873],[-90.40037,29.89666],[-90.40668,29.8933],[-90.41209,29.89143],[-90.41185,29.89071],[-90.41566,29.88939],[-90.42894,29.88138],[-90.42829,29.8811],[-90.41397,29.88116],[-90.41348,29.88074],[-90.41313,29.86057],[-90.41298,29.8529],[-90.40584,29.85037],[-90.40597,29.84343],[-90.42969,29.84312],[-90.42982,29.85265],[-90.44076,29.85302],[-90.44335,29.85429],[-90.44776,29.8543],[-90.44955,29.85546],[-90.4501,29.85963],[-90.45359,29.85843],[-90.45307,29.85499],[-90.45528,29.85638],[-90.46442,29.85635],[-90.47132,29.85904],[-90.476,29.86089],[-90.47639,29.86516],[-90.46629,29.86529],[-90.46243,29.86397],[-90.46278,29.87144],[-90.4625,29.87893],[-90.46165,29.88018],[-90.45809,29.88295]]]}},{"type":"Feature","properties":{"zcta":"70094","d":366},"geometry":{"type":"Polygon","coordinates":[[[-90.27602,29.96878],[-90.26586,29.96955],[-90.2578,29.96984],[-90.25006,29.96935],[-90.2405,29.96526],[-90.23104,29.95939],[-90.21904,29.93396],[-90.2148,29.92649],[-90.20642,29.92312],[-90.19734,29.92476],[-90.18416,29.93186],[-90.18195,29.93326],[-90.16906,29.94444],[-90.16434,29.94888],[-90.15716,29.95395],[-90.15067,29.95607],[-90.14418,29.95395],[-90.14007,29.9479],[-90.13897,29.9384],[-90.13927,29.9249],[-90.13857,29.91881],[-90.13247,29.91301],[-90.12743,29.91086],[-90.13302,29.89568],[-90.13652,29.88695],[-90.13804,29.8869],[-90.15646,29.8904],[-90.15933,29.8901],[-90.1699,29.87207],[-90.17432,29.86973],[-90.20298,29.86975],[-90.20296,29.8588],[-90.20493,29.85383],[-90.21139,29.845],[-90.24017,29.86212],[-90.24165,29.8684],[-90.24032,29.8713],[-90.24315,29.87678],[-90.24334,29.88094],[-90.24912,29.8851],[-90.25127,29.88799],[-90.25476,29.88998],[-90.25649,29.89417],[-90.25976,29.89754],[-90.26401,29.89851],[-90.26461,29.90116],[-90.26592,29.90149],[-90.26671,29.90391],[-90.26828,29.90499],[-90.27349,29.92176],[-90.27553,29.94019],[-90.27816,29.96167],[-90.27953,29.96797],[-90.27602,29.96878]]]}},{"type":"Feature","properties":{"zcta":"70084","d":183},"geometry":{"type":"Polygon","coordinates":[[[-90.62478,30.05568],[-90.62355,30.04774],[-90.62218,30.04788],[-90.62178,30.04443],[-90.62068,30.04458],[-90.62026,30.03773],[-90.61608,30.04061],[-90.6131,30.04352],[-90.6105,30.04502],[-90.61538,30.05845],[-90.60754,30.05893],[-90.61238,30.07155],[-90.60432,30.07156],[-90.606,30.07623],[-90.62551,30.07582],[-90.62593,30.08275],[-90.62975,30.09631],[-90.61421,30.09588],[-90.59539,30.09614],[-90.5753,30.09945],[-90.54654,30.10468],[-90.54658,30.10125],[-90.53353,30.10053],[-90.53059,30.09307],[-90.53573,30.091],[-90.52269,30.06237],[-90.52459,30.06145],[-90.52064,30.05301],[-90.5132,30.057],[-90.50902,30.05849],[-90.5054,30.05108],[-90.50858,30.05079],[-90.52614,30.04702],[-90.53319,30.04627],[-90.53784,30.04643],[-90.54553,30.04768],[-90.55865,30.05033],[-90.56864,30.05139],[-90.57931,30.05132],[-90.58845,30.0497],[-90.59521,30.04702],[-90.6017,30.04319],[-90.61288,30.03478],[-90.61546,30.03672],[-90.61812,30.03552],[-90.62141,30.03598],[-90.62596,30.03835],[-90.62652,30.04008],[-90.63019,30.04113],[-90.63228,30.04411],[-90.63116,30.04489],[-90.62752,30.04289],[-90.62539,30.04711],[-90.6259,30.05564],[-90.62478,30.05568]]]}},{"type":"Feature","properties":{"zcta":"70114","d":1678},"geometry":{"type":"Polygon","coordinates":[[[-90.04537,29.9581],[-90.03807,29.9567],[-90.02667,29.9532],[-90.01387,29.947],[-90.01491,29.94298],[-90.01249,29.94139],[-90.01278,29.93621],[-90.01032,29.9346],[-90.01204,29.92932],[-90.01427,29.92974],[-90.01495,29.92185],[-90.01318,29.92],[-90.01438,29.90296],[-90.0183,29.90683],[-90.03967,29.927],[-90.05239,29.93915],[-90.05855,29.94533],[-90.05864,29.95315],[-90.05697,29.9566],[-90.05233,29.95838],[-90.04537,29.9581]]]}},{"type":"Feature","properties":{"zcta":"70087","d":263},"geometry":{"type":"Polygon","coordinates":[[[-90.33405,30.01093],[-90.33297,30.01948],[-90.33072,30.0261],[-90.28658,29.99613],[-90.28458,29.99945],[-90.27986,29.99812],[-90.2803,29.97262],[-90.27953,29.96797],[-90.28762,29.96469],[-90.29308,29.96194],[-90.29909,29.9568],[-90.307,29.94835],[-90.31198,29.94347],[-90.31995,29.93759],[-90.32231,29.93669],[-90.32673,29.94317],[-90.32968,29.95104],[-90.32899,29.95249],[-90.33684,29.94666],[-90.33822,29.95239],[-90.33845,29.96579],[-90.33523,29.9665],[-90.32882,29.96881],[-90.32439,29.97145],[-90.31926,29.97525],[-90.34179,29.98166],[-90.33405,30.01093]]]}},{"type":"Feature","properties":{"zcta":"70090","d":66},"geometry":{"type":"Polygon","coordinates":[[[-90.80761,29.98874],[-90.78751,30.00588],[-90.78454,30.0082],[-90.78192,30.00998],[-90.77182,30.01342],[-90.76322,30.01471],[-90.7539,30.01491],[-90.75009,30.015],[-90.73054,30.01278],[-90.7243,30.01403],[-90.71258,30.01982],[-90.70663,30.02345],[-90.69757,30.03019],[-90.68727,30.0372],[-90.6824,30.04059],[-90.66997,30.0476],[-90.66121,30.05081],[-90.65453,30.05146],[-90.6494,30.05019],[-90.6416,30.04508],[-90.63376,30.03889],[-90.62544,30.03312],[-90.62161,30.03151],[-90.619,30.03231],[-90.61801,30.02607],[-90.6265,30.02438],[-90.63357,30.02457],[-90.63463,30.01868],[-90.62382,30.02121],[-90.62238,29.99806],[-90.62277,29.99658],[-90.62852,29.99578],[-90.62851,29.99446],[-90.62838,29.98013],[-90.62553,29.97702],[-90.62273,29.97282],[-90.61865,29.96865],[-90.6195,29.96511],[-90.61935,29.96231],[-90.62028,29.95738],[-90.61859,29.95401],[-90.62224,29.95119],[-90.62425,29.9516],[-90.62694,29.94841],[-90.62822,29.94583],[-90.6282,29.93989],[-90.62735,29.9376],[-90.62893,29.93695],[-90.62401,29.93689],[-90.62545,29.93225],[-90.62514,29.92765],[-90.62347,29.92382],[-90.61783,29.91725],[-90.60831,29.91459],[-90.60637,29.91324],[-90.60254,29.91323],[-90.59193,29.91084],[-90.5895,29.90909],[-90.5933,29.90827],[-90.59581,29.90678],[-90.60377,29.9048],[-90.61107,29.90097],[-90.61211,29.8971],[-90.6113,29.89059],[-90.61209,29.8911],[-90.61705,29.89022],[-90.62183,29.89208],[-90.62378,29.89407],[-90.62913,29.89523],[-90.63161,29.89454],[-90.63529,29.89482],[-90.6394,29.89286],[-90.64181,29.89328],[-90.65061,29.89178],[-90.65631,29.88925],[-90.66068,29.89042],[-90.66817,29.88939],[-90.67257,29.89082],[-90.67555,29.89296],[-90.68069,29.89259],[-90.68208,29.89612],[-90.68383,29.89827],[-90.68823,29.89916],[-90.68801,29.90289],[-90.68996,29.90484],[-90.69294,29.90383],[-90.69783,29.90061],[-90.69887,29.90303],[-90.70081,29.90345],[-90.70704,29.90098],[-90.70876,29.90249],[-90.7099,29.90061],[-90.70913,29.89746],[-90.71176,29.89654],[-90.71734,29.8967],[-90.71784,29.90235],[-90.72319,29.90699],[-90.73185,29.90524],[-90.72941,29.91115],[-90.73226,29.91389],[-90.73552,29.91947],[-90.7346,29.92256],[-90.73684,29.92423],[-90.74036,29.92509],[-90.74274,29.9279],[-90.7481,29.93022],[-90.7613,29.93905],[-90.79054,29.95795],[-90.78854,29.95985],[-90.80211,29.98599],[-90.80931,29.97985],[-90.81225,29.97871],[-90.81379,29.98293],[-90.80761,29.98874]]]}},{"type":"Feature","properties":{"zcta":"70115","d":3432},"geometry":{"type":"Polygon","coordinates":[[[-90.11124,29.94215],[-90.10814,29.93967],[-90.09854,29.94048],[-90.09384,29.94157],[-90.09084,29.93753],[-90.091,29.93513],[-90.08906,29.93507],[-90.08706,29.93161],[-90.08426,29.92862],[-90.07987,29.9219],[-90.07834,29.92063],[-90.07463,29.92186],[-90.07257,29.919],[-90.08557,29.91441],[-90.10437,29.90883],[-90.10715,29.90849],[-90.11651,29.90871],[-90.12202,29.90964],[-90.12138,29.91229],[-90.1248,29.91315],[-90.12257,29.91949],[-90.12007,29.92399],[-90.1144,29.93977],[-90.11291,29.94032],[-90.11124,29.94215]]]}},{"type":"Feature","properties":{"zcta":"70086","d":34},"geometry":{"type":"Polygon","coordinates":[[[-90.91231,30.09791],[-90.90819,30.08244],[-90.9047,30.07595],[-90.89668,30.06589],[-90.89318,30.06352],[-90.88811,30.06209],[-90.88259,30.06182],[-90.86756,30.06384],[-90.858,30.0628],[-90.85035,30.05945],[-90.84276,30.05283],[-90.83873,30.04143],[-90.83694,30.02885],[-90.83283,30.00968],[-90.83191,30.0002],[-90.82888,29.99197],[-90.82456,29.98495],[-90.82004,29.98141],[-90.81794,29.98104],[-90.81379,29.98293],[-90.81225,29.97871],[-90.80931,29.97985],[-90.80211,29.98599],[-90.78854,29.95985],[-90.79054,29.95795],[-90.79542,29.95788],[-90.80689,29.95508],[-90.80949,29.9535],[-90.81112,29.95094],[-90.81585,29.95117],[-90.81882,29.95274],[-90.8238,29.95342],[-90.82809,29.96124],[-90.83452,29.96176],[-90.83668,29.95954],[-90.84121,29.96227],[-90.87016,29.97116],[-90.87614,29.9796],[-90.88615,29.98212],[-90.88631,29.99243],[-90.89089,29.99776],[-90.91543,30.02478],[-90.91677,30.02453],[-90.93951,30.03384],[-90.94637,30.02982],[-90.94637,30.03604],[-90.96336,30.03578],[-90.96374,30.06683],[-90.9427,30.08111],[-90.93559,30.08556],[-90.93684,30.08899],[-90.93446,30.09416],[-90.91466,30.10884],[-90.91231,30.09791]]]}},{"type":"Feature","properties":{"zcta":"70001","d":2873},"geometry":{"type":"Polygon","coordinates":[[[-90.19636,29.99972],[-90.17703,29.99846],[-90.16236,29.99759],[-90.14595,29.99695],[-90.14709,29.97858],[-90.13606,29.98356],[-90.1361,29.97781],[-90.13921,29.9784],[-90.13734,29.9768],[-90.13817,29.97482],[-90.13639,29.97308],[-90.12785,29.97243],[-90.1247,29.9761],[-90.12478,29.97415],[-90.12766,29.96834],[-90.17391,29.97141],[-90.1738,29.97075],[-90.17799,29.9689],[-90.18329,29.96818],[-90.19669,29.96919],[-90.20135,29.96841],[-90.20333,29.97267],[-90.20591,29.97348],[-90.20195,29.9738],[-90.20295,29.97715],[-90.18921,29.97626],[-90.19279,29.9863],[-90.19436,29.98947],[-90.19583,29.9946],[-90.19884,30.00019],[-90.19636,29.99972]]]}},{"type":"Feature","properties":{"zcta":"70072","d":1216},"geometry":{"type":"Polygon","coordinates":[[[-90.12202,29.90964],[-90.11651,29.90871],[-90.10715,29.90849],[-90.10437,29.90883],[-90.08557,29.91441],[-90.08496,29.91042],[-90.08995,29.9094],[-90.08926,29.90623],[-90.09128,29.90571],[-90.09057,29.90017],[-90.08912,29.89718],[-90.08787,29.88931],[-90.08613,29.88224],[-90.08306,29.88179],[-90.08272,29.88001],[-90.08803,29.87786],[-90.08717,29.87423],[-90.08276,29.87277],[-90.08893,29.8741],[-90.08809,29.86796],[-90.08741,29.86779],[-90.08554,29.84933],[-90.08357,29.82705],[-90.07022,29.827],[-90.0686,29.82677],[-90.06754,29.82366],[-90.07156,29.81035],[-90.07185,29.80804],[-90.07037,29.80374],[-90.0685,29.80177],[-90.06556,29.79238],[-90.06349,29.78839],[-90.06026,29.78495],[-90.06079,29.78334],[-90.06278,29.7832],[-90.07281,29.77328],[-90.07568,29.77185],[-90.08136,29.76847],[-90.08465,29.76586],[-90.08814,29.76402],[-90.09347,29.76258],[-90.10249,29.76191],[-90.10948,29.76195],[-90.11709,29.76116],[-90.12491,29.75966],[-90.12858,29.75854],[-90.13188,29.75673],[-90.13588,29.75227],[-90.13652,29.74794],[-90.13834,29.7427],[-90.14105,29.74031],[-90.14735,29.74369],[-90.15264,29.74545],[-90.15143,29.74886],[-90.1516,29.75122],[-90.15479,29.75482],[-90.15458,29.76263],[-90.15322,29.76802],[-90.15333,29.77148],[-90.15201,29.77707],[-90.15269,29.77982],[-90.15673,29.78971],[-90.16112,29.79485],[-90.16817,29.79869],[-90.17002,29.80222],[-90.16797,29.8061],[-90.16801,29.80829],[-90.16955,29.81287],[-90.1653,29.81289],[-90.16075,29.81471],[-90.16323,29.81647],[-90.16432,29.82023],[-90.16751,29.82382],[-90.16731,29.82801],[-90.1732,29.82752],[-90.18204,29.8276],[-90.21139,29.845],[-90.20493,29.85383],[-90.20296,29.8588],[-90.20298,29.86975],[-90.17432,29.86973],[-90.1699,29.87207],[-90.15933,29.8901],[-90.15646,29.8904],[-90.13804,29.8869],[-90.13652,29.88695],[-90.13302,29.89568],[-90.12743,29.91086],[-90.12202,29.90964]]]}},{"type":"Feature","properties":{"zcta":"70723","d":21},"geometry":{"type":"Polygon","coordinates":[[[-90.78181,30.05535],[-90.78511,30.05289],[-90.78808,30.04512],[-90.78458,30.04401],[-90.78693,30.02193],[-90.78822,30.01352],[-90.78454,30.0082],[-90.78751,30.00588],[-90.80761,29.98874],[-90.81379,29.98293],[-90.81794,29.98104],[-90.82004,29.98141],[-90.82456,29.98495],[-90.82888,29.99197],[-90.83191,30.0002],[-90.83283,30.00968],[-90.83694,30.02885],[-90.83873,30.04143],[-90.84276,30.05283],[-90.85035,30.05945],[-90.858,30.0628],[-90.86756,30.06384],[-90.88259,30.06182],[-90.88811,30.06209],[-90.89318,30.06352],[-90.89668,30.06589],[-90.9047,30.07595],[-90.90819,30.08244],[-90.91231,30.09791],[-90.91466,30.10884],[-90.91556,30.11329],[-90.90239,30.11568],[-90.85082,30.12553],[-90.85075,30.11079],[-90.83844,30.1067],[-90.82523,30.10043],[-90.81842,30.0948],[-90.80855,30.08759],[-90.80382,30.08064],[-90.78971,30.05773],[-90.78173,30.05548],[-90.77974,30.05585],[-90.78181,30.05535]]]}},{"type":"Feature","properties":{"zcta":"70003","d":2606},"geometry":{"type":"Polygon","coordinates":[[[-90.22871,30.00847],[-90.22327,30.02677],[-90.22434,30.0298],[-90.22246,30.02968],[-90.22071,30.03557],[-90.21861,30.03517],[-90.2089,30.03118],[-90.20298,30.02985],[-90.20344,30.02834],[-90.20927,30.02989],[-90.20375,30.01745],[-90.20414,30.01721],[-90.20145,30.00728],[-90.20051,30.00722],[-90.19884,30.00019],[-90.19583,29.9946],[-90.19436,29.98947],[-90.19279,29.9863],[-90.18921,29.97626],[-90.20295,29.97715],[-90.20195,29.9738],[-90.20591,29.97348],[-90.23762,29.97556],[-90.23615,29.97562],[-90.23434,29.97894],[-90.23807,29.97919],[-90.23581,29.97989],[-90.23605,29.98176],[-90.23407,29.98883],[-90.22939,29.988],[-90.22815,29.99131],[-90.22496,29.99649],[-90.23346,29.99728],[-90.23312,30.00097],[-90.23171,30.00088],[-90.23012,30.00292],[-90.22939,30.00581],[-90.23075,30.0059],[-90.23048,30.00858],[-90.22871,30.00847]]]}},{"type":"Feature","properties":{"zcta":"70116","d":3289},"geometry":{"type":"Polygon","coordinates":[[[-90.05826,29.9785],[-90.05728,29.97259],[-90.05626,29.96038],[-90.05233,29.95838],[-90.05697,29.9566],[-90.05864,29.95315],[-90.06332,29.95456],[-90.06216,29.95633],[-90.06581,29.95842],[-90.06921,29.95972],[-90.07042,29.9615],[-90.07502,29.96549],[-90.07727,29.96603],[-90.07754,29.96732],[-90.07083,29.9749],[-90.06723,29.97811],[-90.05996,29.97853],[-90.05826,29.9785]]]}},{"type":"Feature","properties":{"zcta":"70006","d":2805},"geometry":{"type":"Polygon","coordinates":[[[-90.19848,30.02884],[-90.18063,30.024],[-90.18031,30.01985],[-90.17703,29.99846],[-90.19636,29.99972],[-90.19884,30.00019],[-90.20051,30.00722],[-90.20145,30.00728],[-90.20414,30.01721],[-90.20375,30.01745],[-90.20927,30.02989],[-90.20344,30.02834],[-90.20298,30.02985],[-90.19848,30.02884]]]}},{"type":"Feature","properties":{"zcta":"70039","d":97},"geometry":{"type":"Polygon","coordinates":[[[-90.40747,29.90913],[-90.40765,29.91328],[-90.40436,29.91773],[-90.39611,29.92209],[-90.38487,29.91497],[-90.38023,29.91317],[-90.38843,29.90211],[-90.37621,29.90545],[-90.36974,29.9069],[-90.3726,29.9018],[-90.36711,29.89902],[-90.36426,29.89606],[-90.35688,29.89064],[-90.35339,29.89127],[-90.34902,29.88846],[-90.34756,29.88848],[-90.34444,29.88489],[-90.3426,29.88128],[-90.34069,29.88027],[-90.33695,29.87984],[-90.33055,29.8767],[-90.32727,29.87252],[-90.32861,29.86665],[-90.33047,29.8657],[-90.33269,29.86137],[-90.36059,29.86127],[-90.41313,29.86057],[-90.41348,29.88074],[-90.41397,29.88116],[-90.42829,29.8811],[-90.42894,29.88138],[-90.41566,29.88939],[-90.41185,29.89071],[-90.41209,29.89143],[-90.40668,29.8933],[-90.40037,29.89666],[-90.40131,29.89873],[-90.4085,29.90874],[-90.40747,29.90913]]]}}]}