{"type":"FeatureCollection","features":[{"type":"Feature","properties":{"id":"51107","name":"Loudoun Co., VA"},"geometry":{"type":"Polygon","coordinates":[[[-77.8222,39.14],[-77.8229,39.1478],[-77.8214,39.1524],[-77.8184,39.1553],[-77.8132,39.165],[-77.8091,39.1686],[-77.8051,39.1742],[-77.8047,39.1794],[-77.7979,39.1928],[-77.7985,39.1996],[-77.7946,39.2063],[-77.7936,39.2101],[-77.7888,39.2152],[-77.7836,39.2241],[-77.7781,39.2293],[-77.7714,39.2368],[-77.7673,39.2494],[-77.7709,39.2498],[-77.7707,39.2553],[-77.768,39.2577],[-77.7628,39.2584],[-77.7618,39.263],[-77.7557,39.2746],[-77.7531,39.2773],[-77.7527,39.2834],[-77.7473,39.295],[-77.7349,39.3124],[-77.73,39.3157],[-77.7216,39.3185],[-77.7195,39.3213],[-77.7159,39.3206],[-77.7077,39.3216],[-77.6975,39.3186],[-77.693,39.3185],[-77.6871,39.3199],[-77.6817,39.3237],[-77.6771,39.3241],[-77.6713,39.3217],[-77.6661,39.317],[-77.651,39.3108],[-77.6361,39.3078],[-77.6159,39.3027],[-77.6059,39.3037],[-77.5989,39.3019],[-77.5927,39.3013],[-77.5882,39.302],[-77.5785,39.3052],[-77.5666,39.3061],[-77.5618,39.3019],[-77.5628,39.2945],[-77.5609,39.2862],[-77.5531,39.2793],[-77.5511,39.2759],[-77.5458,39.2715],[-77.5432,39.2669],[-77.5345,39.2624],[-77.5225,39.2591],[-77.5196,39.2572],[-77.5084,39.2526],[-77.4966,39.251],[-77.4868,39.2476],[-77.4808,39.2417],[-77.4712,39.2345],[-77.4602,39.2284],[-77.4577,39.225],[-77.4589,39.2203],[-77.4599,39.2187],[-77.4701,39.2118],[-77.4736,39.2084],[-77.4759,39.202],[-77.475,39.1949],[-77.4786,39.1892],[-77.486,39.1857],[-77.5052,39.182],[-77.5106,39.1785],[-77.5164,39.1709],[-77.5212,39.1611],[-77.5249,39.1485],[-77.5273,39.1462],[-77.5267,39.1373],[-77.5246,39.1278],[-77.5199,39.1209],[-77.5153,39.1186],[-77.4997,39.114],[-77.495,39.113],[-77.4858,39.1093],[-77.4813,39.1057],[-77.477,39.1003],[-77.4694,39.0864],[-77.4626,39.0762],[-77.4582,39.0737],[-77.4528,39.0725],[-77.4374,39.0706],[-77.4232,39.0669],[-77.4154,39.0664],[-77.4046,39.0645],[-77.3992,39.0648],[-77.3857,39.062],[-77.3801,39.0628],[-77.3751,39.0613],[-77.3675,39.0611],[-77.3597,39.062],[-77.3503,39.0621],[-77.3403,39.063],[-77.334,39.061],[-77.3337,39.0595],[-77.3283,39.0578],[-77.4657,38.9188],[-77.536,38.8474],[-77.5441,38.8503],[-77.5488,38.8466],[-77.5504,38.8488],[-77.5474,38.8528],[-77.5525,38.8563],[-77.5482,38.863],[-77.5528,38.8648],[-77.5492,38.8679],[-77.552,38.8752],[-77.5499,38.8798],[-77.5522,38.8866],[-77.5557,38.8885],[-77.5639,38.8862],[-77.5742,38.8913],[-77.5806,38.891],[-77.5857,38.8952],[-77.5916,38.8967],[-77.5913,38.899],[-77.5982,38.9028],[-77.6032,38.9111],[-77.6076,38.912],[-77.6116,38.9175],[-77.6131,38.9245],[-77.617,38.9276],[-77.6176,38.9306],[-77.625,38.9318],[-77.6314,38.9349],[-77.6375,38.9417],[-77.6416,38.9427],[-77.6475,38.9415],[-77.6497,38.9427],[-77.6552,38.9427],[-77.729,38.9598],[-77.8664,38.9917],[-77.9622,39.0137],[-77.9564,39.0209],[-77.9412,39.0235],[-77.9299,39.0302],[-77.9268,39.0353],[-77.9176,39.0391],[-77.9068,39.0458],[-77.8991,39.0529],[-77.8933,39.0554],[-77.8879,39.0645],[-77.8776,39.078],[-77.8739,39.0801],[-77.8628,39.081],[-77.8558,39.0928],[-77.8537,39.101],[-77.8438,39.1197],[-77.8389,39.1218],[-77.8358,39.1257],[-77.8325,39.1275],[-77.8283,39.1324],[-77.8222,39.14]]]}},{"type":"Feature","properties":{"id":"54037","name":"Jefferson Co., WV"},"geometry":{"type":"Polygon","coordinates":[[[-77.7216,39.3185],[-77.73,39.3157],[-77.7349,39.3124],[-77.7473,39.295],[-77.7527,39.2834],[-77.7531,39.2773],[-77.7557,39.2746],[-77.7618,39.263],[-77.7628,39.2584],[-77.768,39.2577],[-77.7707,39.2553],[-77.7709,39.2498],[-77.7673,39.2494],[-77.7714,39.2368],[-77.7781,39.2293],[-77.7836,39.2241],[-77.7888,39.2152],[-77.7936,39.2101],[-77.7946,39.2063],[-77.7985,39.1996],[-77.7979,39.1928],[-77.8047,39.1794],[-77.8051,39.1742],[-77.8091,39.1686],[-77.8132,39.165],[-77.8184,39.1553],[-77.8214,39.1524],[-77.8229,39.1478],[-77.8222,39.14],[-77.8283,39.1324],[-78.0332,39.2646],[-78.0335,39.2681],[-78.028,39.2697],[-78.026,39.2726],[-78.0345,39.276],[-78.0333,39.28],[-78.0262,39.2802],[-78.0253,39.2848],[-78.0272,39.2884],[-78.0205,39.288],[-78.0181,39.2935],[-78.0129,39.2973],[-78.0059,39.3068],[-78.0009,39.3098],[-77.9974,39.3105],[-77.9961,39.3129],[-77.9885,39.3198],[-77.9902,39.3228],[-77.9948,39.3238],[-77.9942,39.3275],[-77.9881,39.3255],[-77.9882,39.3319],[-77.9846,39.3332],[-77.9802,39.3391],[-77.9768,39.3405],[-77.9769,39.3437],[-77.9825,39.3476],[-77.9782,39.3501],[-77.973,39.3495],[-77.9708,39.3465],[-77.9672,39.3456],[-77.9652,39.3524],[-77.9685,39.3571],[-77.9623,39.3593],[-77.9658,39.3676],[-77.9581,39.3671],[-77.9516,39.3722],[-77.9439,39.3727],[-77.9428,39.3748],[-77.9477,39.3772],[-77.9476,39.3801],[-77.9432,39.3809],[-77.9374,39.3796],[-77.9318,39.3796],[-77.9309,39.3812],[-77.8853,39.4169],[-77.8589,39.4373],[-77.857,39.4407],[-77.8475,39.4482],[-77.8436,39.4589],[-77.8395,39.4607],[-77.8408,39.4635],[-77.8374,39.4713],[-77.832,39.4797],[-77.8319,39.483],[-77.8287,39.4866],[-77.8252,39.4931],[-77.8208,39.4939],[-77.8078,39.4902],[-77.8018,39.4894],[-77.7956,39.4896],[-77.7898,39.4922],[-77.7865,39.4966],[-77.7816,39.4991],[-77.7709,39.4991],[-77.766,39.4957],[-77.7656,39.493],[-77.7717,39.4892],[-77.7818,39.4871],[-77.7885,39.485],[-77.7955,39.4818],[-77.7982,39.4757],[-77.7956,39.4713],[-77.7896,39.4678],[-77.7785,39.4637],[-77.7805,39.4599],[-77.7932,39.462],[-77.7985,39.4607],[-77.7981,39.456],[-77.7931,39.4514],[-77.7861,39.4472],[-77.7861,39.4442],[-77.7886,39.4428],[-77.8009,39.4408],[-77.8029,39.4393],[-77.8025,39.436],[-77.7928,39.4306],[-77.7873,39.4293],[-77.7748,39.4278],[-77.7633,39.4284],[-77.7587,39.4268],[-77.7531,39.4233],[-77.7527,39.4202],[-77.7475,39.4109],[-77.74,39.4017],[-77.7364,39.3927],[-77.7363,39.3877],[-77.7408,39.3854],[-77.7497,39.3842],[-77.7534,39.3821],[-77.7533,39.3783],[-77.7441,39.3651],[-77.7439,39.3599],[-77.7459,39.3532],[-77.7504,39.3495],[-77.7593,39.3453],[-77.7611,39.3398],[-77.7558,39.3339],[-77.735,39.327],[-77.7274,39.3217],[-77.7195,39.3213],[-77.7216,39.3185]]]}},{"type":"Feature","properties":{"id":"51187","name":"Warren Co., VA"},"geometry":{"type":"Polygon","coordinates":[[[-78.097,39.0129],[-78.056,39.0196],[-78.0563,39.016],[-78.0426,39.0089],[-78.0437,39.0079],[-78.0367,39.0024],[-78.0344,39.0016],[-78.0043,38.9794],[-78.0145,38.9716],[-78.017,38.9712],[-78.0171,38.9661],[-78.0199,38.9641],[-78.024,38.9568],[-78.0267,38.9557],[-78.029,38.9502],[-78.0324,38.9507],[-78.0369,38.9472],[-78.0396,38.9398],[-78.0416,38.9381],[-78.0515,38.9357],[-78.0532,38.934],[-78.0591,38.9326],[-78.0646,38.9271],[-78.0638,38.924],[-78.0753,38.9119],[-78.0753,38.9073],[-78.0721,38.9036],[-78.0639,38.9017],[-78.0618,38.9003],[-78.062,38.8919],[-78.0674,38.8924],[-78.0732,38.891],[-78.0737,38.8866],[-78.0775,38.8877],[-78.0796,38.8862],[-78.092,38.8856],[-78.0949,38.8798],[-78.1018,38.8791],[-78.1122,38.8803],[-78.1142,38.8769],[-78.1171,38.8765],[-78.1264,38.8729],[-78.1301,38.87],[-78.1306,38.8649],[-78.1299,38.8628],[-78.1383,38.8596],[-78.143,38.8591],[-78.142,38.8557],[-78.1526,38.8544],[-78.1514,38.8484],[-78.1569,38.845],[-78.161,38.8393],[-78.16,38.8365],[-78.163,38.8364],[-78.1686,38.8337],[-78.171,38.8293],[-78.1697,38.8267],[-78.1707,38.8194],[-78.1794,38.8185],[-78.1786,38.8158],[-78.1847,38.7928],[-78.1886,38.7893],[-78.1934,38.7873],[-78.1952,38.7815],[-78.2009,38.7767],[-78.2067,38.7742],[-78.2133,38.7748],[-78.2187,38.773],[-78.2247,38.7681],[-78.2302,38.7692],[-78.2346,38.7675],[-78.2394,38.7619],[-78.2443,38.7633],[-78.248,38.7598],[-78.2533,38.757],[-78.2572,38.7595],[-78.265,38.7586],[-78.271,38.7619],[-78.2793,38.7622],[-78.2848,38.7593],[-78.2911,38.7686],[-78.2916,38.7712],[-78.2892,38.776],[-78.2904,38.7804],[-78.2949,38.7842],[-78.302,38.784],[-78.3055,38.7857],[-78.3212,38.7895],[-78.324,38.7917],[-78.3272,38.7917],[-78.3366,38.7978],[-78.3399,38.8032],[-78.3445,38.806],[-78.3499,38.8067],[-78.3947,38.8228],[-78.3912,38.8268],[-78.3842,38.8327],[-78.3739,38.8447],[-78.3672,38.8506],[-78.3616,38.8569],[-78.3499,38.8664],[-78.3459,38.8679],[-78.3411,38.8727],[-78.3344,38.8814],[-78.3318,38.8872],[-78.3323,38.8889],[-78.3386,38.8886],[-78.3383,38.891],[-78.3274,38.9043],[-78.3214,38.9183],[-78.3106,38.9245],[-78.3085,38.9271],[-78.3072,38.9325],[-78.3043,38.9385],[-78.3004,38.9436],[-78.3072,38.9526],[-78.3124,38.9497],[-78.3181,38.9521],[-78.3289,38.9523],[-78.3352,38.9496],[-78.3309,38.9615],[-78.3363,38.9764],[-78.3389,38.9794],[-78.3353,38.9819],[-78.3312,38.9803],[-78.3237,38.9742],[-78.3215,38.9741],[-78.3191,38.9774],[-78.3192,38.9813],[-78.3164,38.9833],[-78.3253,38.99],[-78.3285,38.9913],[-78.3289,38.9954],[-78.3335,38.9996],[-78.3322,39.0011],[-78.3258,38.9998],[-78.3202,39.0056],[-78.3141,39.008],[-78.3021,39.0087],[-78.1859,39.0167],[-78.1856,39.0202],[-78.1769,39.0171],[-78.1642,39.0179],[-78.1624,39.0216],[-78.1561,39.0296],[-78.1536,39.0316],[-78.1516,39.0366],[-78.097,39.0129]]]}},{"type":"Feature","properties":{"id":"11001","name":"District of Columbia, DC"},"geometry":{"type":"Polygon","coordinates":[[[-77.0915,38.9565],[-77.0543,38.9851],[-77.041,38.9951],[-77.0156,38.9759],[-77.0026,38.9655],[-76.9351,38.9133],[-76.9094,38.8928],[-76.9497,38.8613],[-76.9537,38.8585],[-76.9795,38.8378],[-77.0014,38.8215],[-77.039,38.7916],[-77.0389,38.8008],[-77.0374,38.8142],[-77.0391,38.8214],[-77.0381,38.8286],[-77.0392,38.8322],[-77.0449,38.8347],[-77.0445,38.8396],[-77.0385,38.8393],[-77.0345,38.8405],[-77.0317,38.8505],[-77.034,38.8571],[-77.0393,38.8643],[-77.0391,38.8681],[-77.0433,38.874],[-77.0466,38.8749],[-77.0463,38.8713],[-77.0491,38.8707],[-77.0511,38.8752],[-77.0552,38.88],[-77.0583,38.8801],[-77.0635,38.8886],[-77.0673,38.8992],[-77.0701,38.9007],[-77.0822,38.9019],[-77.0937,38.9059],[-77.1034,38.9129],[-77.1063,38.9191],[-77.1134,38.9252],[-77.1198,38.9343],[-77.0915,38.9565]]]}},{"type":"Feature","properties":{"id":"24021","name":"Frederick Co., MD"},"geometry":{"type":"Polygon","coordinates":[[[-77.2175,39.3314],[-77.2617,39.3106],[-77.2676,39.3082],[-77.3013,39.2918],[-77.3138,39.2865],[-77.3964,39.248],[-77.4548,39.2217],[-77.4589,39.2203],[-77.4577,39.225],[-77.4602,39.2284],[-77.4712,39.2345],[-77.4808,39.2417],[-77.4868,39.2476],[-77.4966,39.251],[-77.5084,39.2526],[-77.5196,39.2572],[-77.5225,39.2591],[-77.5345,39.2624],[-77.5432,39.2669],[-77.5458,39.2715],[-77.5511,39.2759],[-77.5531,39.2793],[-77.5609,39.2862],[-77.5628,39.2945],[-77.5618,39.3019],[-77.5666,39.3061],[-77.5785,39.3052],[-77.5882,39.302],[-77.5927,39.3013],[-77.5989,39.3019],[-77.6059,39.3037],[-77.6159,39.3027],[-77.6361,39.3078],[-77.651,39.3108],[-77.6661,39.317],[-77.6713,39.3217],[-77.6771,39.3241],[-77.6753,39.338],[-77.6734,39.3442],[-77.6669,39.3507],[-77.6607,39.3631],[-77.6516,39.3751],[-77.6479,39.3832],[-77.6471,39.3872],[-77.6404,39.4025],[-77.6393,39.4074],[-77.6409,39.4147],[-77.6377,39.4248],[-77.6383,39.4303],[-77.637,39.4385],[-77.6338,39.4468],[-77.6269,39.4485],[-77.6286,39.4515],[-77.6268,39.4571],[-77.6219,39.4597],[-77.6217,39.464],[-77.6162,39.4684],[-77.618,39.4748],[-77.622,39.4818],[-77.6144,39.4916],[-77.6231,39.5004],[-77.6212,39.5043],[-77.6226,39.5076],[-77.6181,39.5186],[-77.6148,39.5222],[-77.6135,39.5287],[-77.6061,39.5367],[-77.6027,39.5393],[-77.5977,39.5408],[-77.5994,39.5497],[-77.5959,39.5511],[-77.5943,39.5557],[-77.594,39.5639],[-77.5893,39.5671],[-77.5868,39.5714],[-77.5845,39.5816],[-77.5853,39.5833],[-77.582,39.5888],[-77.5779,39.5988],[-77.5757,39.6097],[-77.5702,39.62],[-77.5508,39.6253],[-77.5484,39.6312],[-77.5454,39.6334],[-77.5407,39.6336],[-77.5355,39.6317],[-77.5304,39.6317],[-77.5263,39.635],[-77.5258,39.6375],[-77.5202,39.6407],[-77.5132,39.6499],[-77.5121,39.6542],[-77.5083,39.6589],[-77.5045,39.6617],[-77.5046,39.6643],[-77.4984,39.6675],[-77.4968,39.6717],[-77.4929,39.6764],[-77.4971,39.6831],[-77.4997,39.6841],[-77.5084,39.6841],[-77.5032,39.6892],[-77.4969,39.6904],[-77.4905,39.6956],[-77.4862,39.7046],[-77.474,39.7137],[-77.4691,39.72],[-77.217,39.72],[-77.2146,39.7169],[-77.2154,39.713],[-77.2185,39.7114],[-77.2257,39.7098],[-77.2266,39.7066],[-77.2243,39.7045],[-77.2186,39.703],[-77.2152,39.6992],[-77.2178,39.6963],[-77.226,39.6938],[-77.243,39.695],[-77.2444,39.6923],[-77.236,39.6852],[-77.2364,39.6812],[-77.2344,39.679],[-77.2368,39.6746],[-77.2432,39.6699],[-77.2493,39.6675],[-77.2542,39.6678],[-77.2558,39.6632],[-77.2622,39.6652],[-77.2666,39.6614],[-77.2652,39.6582],[-77.2661,39.6551],[-77.2725,39.6515],[-77.2756,39.6471],[-77.2713,39.642],[-77.2773,39.6389],[-77.2792,39.6363],[-77.2758,39.6327],[-77.28,39.6308],[-77.2915,39.6306],[-77.2975,39.6349],[-77.2984,39.6381],[-77.3072,39.6411],[-77.3112,39.6397],[-77.3098,39.6361],[-77.3096,39.6308],[-77.3054,39.6264],[-77.3006,39.6252],[-77.3018,39.6212],[-77.3074,39.6191],[-77.2998,39.6123],[-77.2957,39.6114],[-77.2877,39.6045],[-77.2858,39.6077],[-77.2762,39.6062],[-77.2716,39.6062],[-77.2698,39.6035],[-77.2709,39.6012],[-77.2664,39.5987],[-77.2628,39.5941],[-77.2601,39.594],[-77.262,39.5994],[-77.2602,39.6025],[-77.2565,39.6038],[-77.2508,39.6016],[-77.2484,39.5951],[-77.2388,39.589],[-77.238,39.5844],[-77.2344,39.5881],[-77.2307,39.589],[-77.2273,39.5878],[-77.2326,39.5855],[-77.23,39.5834],[-77.2225,39.5831],[-77.2191,39.58],[-77.2221,39.5764],[-77.2156,39.5745],[-77.2111,39.5789],[-77.207,39.5795],[-77.2001,39.5786],[-77.1996,39.5767],[-77.1945,39.5722],[-77.1911,39.571],[-77.1871,39.5664],[-77.1872,39.563],[-77.1827,39.5593],[-77.1778,39.5609],[-77.1746,39.5595],[-77.1715,39.5546],[-77.1694,39.5541],[-77.1696,39.5499],[-77.1718,39.5466],[-77.1716,39.5438],[-77.169,39.5423],[-77.1715,39.5392],[-77.1707,39.5348],[-77.1621,39.5324],[-77.156,39.5337],[-77.1523,39.5325],[-77.1503,39.5263],[-77.1509,39.5233],[-77.1385,39.5205],[-77.1381,39.516],[-77.1347,39.5119],[-77.1336,39.5086],[-77.1298,39.5096],[-77.1249,39.5054],[-77.1216,39.5044],[-77.1124,39.4975],[-77.11,39.4975],[-77.1068,39.4917],[-77.1102,39.486],[-77.1177,39.4786],[-77.12,39.4656],[-77.116,39.4603],[-77.1238,39.4515],[-77.1267,39.4438],[-77.1302,39.4392],[-77.1334,39.4324],[-77.1405,39.4241],[-77.1472,39.419],[-77.1481,39.4164],[-77.147,39.4124],[-77.1483,39.4053],[-77.1544,39.3913],[-77.1538,39.3885],[-77.1562,39.3829],[-77.1561,39.3789],[-77.1592,39.3741],[-77.1582,39.3735],[-77.1644,39.3681],[-77.1673,39.3591],[-77.1697,39.3551],[-77.1688,39.3535],[-77.2175,39.3314]]]}},{"type":"Feature","properties":{"id":"51153","name":"Prince William Co., VA"},"geometry":{"type":"MultiPolygon","coordinates":[[[[-77.4786,38.7549],[-77.4771,38.7505],[-77.4814,38.7513],[-77.4811,38.7561],[-77.4786,38.7549]]],[[[-77.6497,38.9427],[-77.6475,38.9415],[-77.6416,38.9427],[-77.6375,38.9417],[-77.6314,38.9349],[-77.625,38.9318],[-77.6176,38.9306],[-77.617,38.9276],[-77.6131,38.9245],[-77.6116,38.9175],[-77.6076,38.912],[-77.6032,38.9111],[-77.5982,38.9028],[-77.5913,38.899],[-77.5916,38.8967],[-77.5857,38.8952],[-77.5806,38.891],[-77.5742,38.8913],[-77.5639,38.8862],[-77.5557,38.8885],[-77.5522,38.8866],[-77.5499,38.8798],[-77.552,38.8752],[-77.5492,38.8679],[-77.5528,38.8648],[-77.5482,38.863],[-77.5525,38.8563],[-77.5474,38.8528],[-77.5504,38.8488],[-77.5488,38.8466],[-77.5441,38.8503],[-77.536,38.8474],[-77.537,38.8428],[-77.5349,38.8394],[-77.5296,38.837],[-77.522,38.8373],[-77.5112,38.8414],[-77.5088,38.8411],[-77.508,38.8368],[-77.5105,38.8365],[-77.5124,38.8304],[-77.5039,38.8256],[-77.5062,38.8215],[-77.5051,38.8162],[-77.5013,38.814],[-77.4912,38.8114],[-77.4892,38.8085],[-77.4897,38.8059],[-77.4942,38.8004],[-77.4928,38.7977],[-77.487,38.7965],[-77.4804,38.7966],[-77.4797,38.799],[-77.4765,38.7993],[-77.4744,38.7966],[-77.4668,38.7966],[-77.4624,38.7955],[-77.4597,38.7976],[-77.4566,38.7959],[-77.4523,38.7963],[-77.4506,38.8022],[-77.4473,38.8039],[-77.4431,38.8037],[-77.4394,38.799],[-77.4364,38.7926],[-77.4366,38.7909],[-77.433,38.787],[-77.4333,38.78],[-77.43,38.7812],[-77.4126,38.7717],[-77.4158,38.7676],[-77.4128,38.7653],[-77.4128,38.7627],[-77.4172,38.7613],[-77.4159,38.7582],[-77.4067,38.754],[-77.4116,38.7475],[-77.4118,38.745],[-77.4037,38.7466],[-77.4051,38.7494],[-77.4014,38.7522],[-77.3975,38.7492],[-77.3938,38.7497],[-77.3881,38.7487],[-77.3897,38.743],[-77.3858,38.7414],[-77.3806,38.7375],[-77.3781,38.7342],[-77.3774,38.7296],[-77.3804,38.7243],[-77.3791,38.7179],[-77.3743,38.7123],[-77.3699,38.7102],[-77.3671,38.7141],[-77.3635,38.7154],[-77.3591,38.7238],[-77.3559,38.7254],[-77.3523,38.7222],[-77.349,38.7212],[-77.3354,38.7195],[-77.3327,38.7184],[-77.333,38.7128],[-77.33,38.7112],[-77.3224,38.7125],[-77.3205,38.7094],[-77.3235,38.7081],[-77.3269,38.7041],[-77.3247,38.7015],[-77.3163,38.7012],[-77.3131,38.702],[-77.3102,38.7056],[-77.3069,38.7075],[-77.3021,38.7076],[-77.2988,38.7043],[-77.2942,38.7028],[-77.2811,38.6958],[-77.2742,38.6937],[-77.2651,38.6871],[-77.2582,38.6841],[-77.2521,38.6778],[-77.2504,38.6742],[-77.2441,38.6714],[-77.2339,38.6613],[-77.2359,38.6601],[-77.2333,38.6566],[-77.228,38.6526],[-77.2239,38.646],[-77.2283,38.6379],[-77.2342,38.6366],[-77.2385,38.6389],[-77.2442,38.6373],[-77.2467,38.6352],[-77.2489,38.6286],[-77.2451,38.6207],[-77.2478,38.6126],[-77.2497,38.6114],[-77.25,38.6061],[-77.2549,38.6033],[-77.2565,38.5991],[-77.2547,38.5958],[-77.2512,38.5935],[-77.2468,38.594],[-77.247,38.5906],[-77.2553,38.5869],[-77.2579,38.5834],[-77.2639,38.5851],[-77.2653,38.5803],[-77.2608,38.5653],[-77.257,38.5612],[-77.2616,38.5588],[-77.2616,38.5567],[-77.2726,38.5514],[-77.2766,38.5471],[-77.2763,38.5396],[-77.2791,38.534],[-77.2831,38.533],[-77.2864,38.528],[-77.2828,38.5263],[-77.2911,38.5157],[-77.2977,38.5148],[-77.2994,38.5115],[-77.3001,38.5103],[-77.2987,38.5053],[-77.3013,38.5046],[-77.3062,38.5065],[-77.3111,38.5045],[-77.3083,38.501],[-77.3115,38.5015],[-77.3198,38.5051],[-77.3275,38.5068],[-77.3339,38.511],[-77.3346,38.5142],[-77.34,38.5142],[-77.348,38.516],[-77.3591,38.5198],[-77.3644,38.5209],[-77.3683,38.519],[-77.371,38.5202],[-77.3759,38.5266],[-77.3825,38.5265],[-77.381,38.5298],[-77.3852,38.5312],[-77.3848,38.5334],[-77.388,38.5331],[-77.3914,38.5364],[-77.3927,38.5399],[-77.3961,38.5428],[-77.3944,38.544],[-77.3969,38.5472],[-77.407,38.554],[-77.4093,38.5535],[-77.4122,38.5566],[-77.4148,38.5562],[-77.4185,38.5587],[-77.421,38.5637],[-77.4303,38.566],[-77.4367,38.5728],[-77.445,38.5758],[-77.4488,38.5813],[-77.4587,38.5801],[-77.4641,38.5787],[-77.4716,38.5895],[-77.4768,38.5923],[-77.4851,38.5923],[-77.4918,38.5906],[-77.4969,38.5865],[-77.4996,38.5803],[-77.5313,38.5566],[-77.5328,38.5572],[-77.6196,38.6881],[-77.71,38.8238],[-77.7157,38.8321],[-77.7157,38.8432],[-77.7049,38.8432],[-77.7016,38.8516],[-77.7007,38.8605],[-77.698,38.8714],[-77.6979,38.8752],[-77.6926,38.887],[-77.6804,38.8932],[-77.6772,38.8989],[-77.6706,38.908],[-77.6685,38.9131],[-77.6652,38.9167],[-77.6625,38.9256],[-77.6637,38.9265],[-77.6599,38.9336],[-77.6575,38.935],[-77.6552,38.9427],[-77.6497,38.9427]],[[-77.4485,38.7661],[-77.4473,38.7677],[-77.4435,38.7637],[-77.4433,38.7581],[-77.4467,38.7565],[-77.4413,38.7497],[-77.4381,38.7506],[-77.436,38.7551],[-77.4412,38.757],[-77.438,38.7586],[-77.4305,38.7561],[-77.4273,38.7536],[-77.4206,38.7623],[-77.4236,38.7694],[-77.4194,38.7697],[-77.4225,38.7752],[-77.422,38.7766],[-77.4289,38.7793],[-77.4343,38.7783],[-77.4403,38.7835],[-77.4437,38.7796],[-77.4426,38.7756],[-77.4449,38.7705],[-77.4527,38.7742],[-77.4595,38.7784],[-77.4585,38.7874],[-77.473,38.7884],[-77.4788,38.7826],[-77.4756,38.7811],[-77.4834,38.7747],[-77.4878,38.7691],[-77.4956,38.7705],[-77.5013,38.7613],[-77.5127,38.7473],[-77.5129,38.7442],[-77.5226,38.7409],[-77.5199,38.7353],[-77.5254,38.7352],[-77.5267,38.7332],[-77.5245,38.7273],[-77.5244,38.7239],[-77.5212,38.722],[-77.5239,38.7181],[-77.5192,38.716],[-77.5133,38.7162],[-77.5062,38.7061],[-77.5024,38.7133],[-77.5025,38.7155],[-77.509,38.7213],[-77.5076,38.7231],[-77.5133,38.7311],[-77.515,38.7358],[-77.5069,38.7405],[-77.4994,38.7371],[-77.4995,38.7347],[-77.4939,38.7255],[-77.4907,38.729],[-77.4851,38.7329],[-77.4808,38.7323],[-77.4803,38.7307],[-77.4712,38.7277],[-77.454,38.736],[-77.4516,38.7383],[-77.4494,38.7489],[-77.4495,38.7535],[-77.4478,38.7609],[-77.4566,38.7659],[-77.4548,38.7679],[-77.4606,38.7701],[-77.4587,38.7723],[-77.4485,38.7661]]]]}},{"type":"Feature","properties":{"id":"51059","name":"Fairfax Co., VA"},"geometry":{"type":"MultiPolygon","coordinates":[[[[-77.3066,38.8463],[-77.3088,38.8428],[-77.3165,38.845],[-77.3118,38.8466],[-77.3066,38.8463]]],[[[-77.4657,38.9188],[-77.3283,39.0578],[-77.3149,39.0522],[-77.3107,39.052],[-77.301,39.0495],[-77.2931,39.0465],[-77.2747,39.0341],[-77.266,39.0319],[-77.2553,39.03],[-77.246,39.0249],[-77.2446,39.0201],[-77.2469,39.0148],[-77.2518,39.0114],[-77.2557,39.0024],[-77.253,38.9957],[-77.2492,38.9937],[-77.2446,38.9825],[-77.2411,38.9812],[-77.2348,38.9763],[-77.23,38.9799],[-77.225,38.9733],[-77.2215,38.9713],[-77.2115,38.9694],[-77.2093,38.9704],[-77.1975,38.9668],[-77.1883,38.9675],[-77.183,38.9688],[-77.1719,38.9675],[-77.1653,38.968],[-77.1511,38.9658],[-77.1466,38.9642],[-77.1377,38.9553],[-77.1319,38.9474],[-77.1276,38.94],[-77.1198,38.9344],[-77.1723,38.8932],[-77.1888,38.8963],[-77.1913,38.8997],[-77.1949,38.8982],[-77.1899,38.8944],[-77.1943,38.8861],[-77.1898,38.8781],[-77.1793,38.8792],[-77.1737,38.8787],[-77.1559,38.8726],[-77.1498,38.8734],[-77.1497,38.8757],[-77.1102,38.8448],[-77.1108,38.8434],[-77.1214,38.8405],[-77.1246,38.8414],[-77.1247,38.8376],[-77.1279,38.8369],[-77.1314,38.8333],[-77.1409,38.8269],[-77.1422,38.8238],[-77.1385,38.8239],[-77.1372,38.8215],[-77.1437,38.8142],[-77.1437,38.8078],[-77.14,38.8006],[-77.1376,38.7982],[-77.121,38.8005],[-77.1129,38.8028],[-77.1122,38.8021],[-77.1038,38.8035],[-77.0991,38.8034],[-77.0775,38.8008],[-77.0715,38.7996],[-77.063,38.7964],[-77.0601,38.7942],[-77.0414,38.7854],[-77.0404,38.7854],[-77.0411,38.7733],[-77.0423,38.7413],[-77.0435,38.7391],[-77.0416,38.7367],[-77.0415,38.7259],[-77.0433,38.719],[-77.0462,38.7144],[-77.0532,38.7099],[-77.0653,38.7096],[-77.0718,38.7101],[-77.0742,38.7126],[-77.0781,38.7134],[-77.0807,38.7113],[-77.0799,38.709],[-77.0863,38.706],[-77.0918,38.7034],[-77.099,38.6986],[-77.1059,38.6968],[-77.122,38.6858],[-77.1325,38.6738],[-77.1359,38.6498],[-77.1319,38.6442],[-77.1322,38.6412],[-77.1302,38.635],[-77.1441,38.6357],[-77.1476,38.6351],[-77.1581,38.6369],[-77.1689,38.6255],[-77.1802,38.6233],[-77.1916,38.6192],[-77.1979,38.6194],[-77.202,38.6177],[-77.2053,38.6207],[-77.2056,38.626],[-77.211,38.63],[-77.2149,38.6379],[-77.2087,38.6376],[-77.2034,38.6401],[-77.198,38.6468],[-77.1933,38.6509],[-77.1978,38.6562],[-77.2035,38.6585],[-77.2105,38.6565],[-77.2195,38.6578],[-77.2248,38.6577],[-77.2261,38.6603],[-77.2319,38.6626],[-77.2339,38.6613],[-77.2441,38.6714],[-77.2504,38.6742],[-77.2521,38.6778],[-77.2582,38.6841],[-77.2651,38.6871],[-77.2742,38.6937],[-77.2811,38.6958],[-77.2942,38.7028],[-77.2988,38.7043],[-77.3021,38.7076],[-77.3069,38.7075],[-77.3102,38.7056],[-77.3131,38.702],[-77.3163,38.7012],[-77.3247,38.7015],[-77.3269,38.7041],[-77.3235,38.7081],[-77.3205,38.7094],[-77.3224,38.7125],[-77.33,38.7112],[-77.333,38.7128],[-77.3327,38.7184],[-77.3354,38.7195],[-77.349,38.7212],[-77.3523,38.7222],[-77.3559,38.7254],[-77.3591,38.7238],[-77.3635,38.7154],[-77.3671,38.7141],[-77.3699,38.7102],[-77.3743,38.7123],[-77.3791,38.7179],[-77.3804,38.7243],[-77.3774,38.7296],[-77.3781,38.7342],[-77.3806,38.7375],[-77.3858,38.7414],[-77.3897,38.743],[-77.3881,38.7487],[-77.3938,38.7497],[-77.3975,38.7492],[-77.4014,38.7522],[-77.4051,38.7494],[-77.4037,38.7466],[-77.4118,38.745],[-77.4116,38.7475],[-77.4067,38.754],[-77.4159,38.7582],[-77.4172,38.7613],[-77.4128,38.7627],[-77.4128,38.7653],[-77.4158,38.7676],[-77.4126,38.7717],[-77.43,38.7812],[-77.4333,38.78],[-77.433,38.787],[-77.4366,38.7909],[-77.4364,38.7926],[-77.4394,38.799],[-77.4431,38.8037],[-77.4473,38.8039],[-77.4506,38.8022],[-77.4523,38.7963],[-77.4566,38.7959],[-77.4597,38.7976],[-77.4624,38.7955],[-77.4668,38.7966],[-77.4744,38.7966],[-77.4765,38.7993],[-77.4797,38.799],[-77.4804,38.7966],[-77.487,38.7965],[-77.4928,38.7977],[-77.4942,38.8004],[-77.4897,38.8059],[-77.4892,38.8085],[-77.4912,38.8114],[-77.5013,38.814],[-77.5051,38.8162],[-77.5062,38.8215],[-77.5039,38.8256],[-77.5124,38.8304],[-77.5105,38.8365],[-77.508,38.8368],[-77.5088,38.8411],[-77.5112,38.8414],[-77.522,38.8373],[-77.5296,38.837],[-77.5349,38.8394],[-77.537,38.8428],[-77.536,38.8474],[-77.4657,38.9188]],[[-77.3316,38.8517],[-77.3312,38.8473],[-77.3259,38.847],[-77.3227,38.8432],[-77.3188,38.8416],[-77.3187,38.8352],[-77.3162,38.8364],[-77.3119,38.8357],[-77.308,38.8369],[-77.2972,38.835],[-77.2967,38.8373],[-77.2873,38.8361],[-77.2861,38.8417],[-77.2785,38.8407],[-77.2786,38.842],[-77.2705,38.8409],[-77.27,38.8433],[-77.2717,38.8485],[-77.269,38.8523],[-77.2698,38.8556],[-77.2689,38.8628],[-77.2706,38.8661],[-77.2917,38.8675],[-77.2923,38.8716],[-77.3031,38.8692],[-77.3048,38.8634],[-77.3075,38.8632],[-77.3114,38.8666],[-77.3172,38.8669],[-77.3288,38.8648],[-77.3348,38.8538],[-77.3348,38.8515],[-77.3316,38.8517]]]]}},{"type":"Feature","properties":{"id":"51179","name":"Stafford Co., VA"},"geometry":{"type":"Polygon","coordinates":[[[-77.4996,38.5803],[-77.4969,38.5865],[-77.4918,38.5906],[-77.4851,38.5923],[-77.4768,38.5923],[-77.4716,38.5895],[-77.4641,38.5787],[-77.4587,38.5801],[-77.4488,38.5813],[-77.445,38.5758],[-77.4367,38.5728],[-77.4303,38.566],[-77.421,38.5637],[-77.4185,38.5587],[-77.4148,38.5562],[-77.4122,38.5566],[-77.4093,38.5535],[-77.407,38.554],[-77.3969,38.5472],[-77.3944,38.544],[-77.3961,38.5428],[-77.3927,38.5399],[-77.3914,38.5364],[-77.388,38.5331],[-77.3848,38.5334],[-77.3852,38.5312],[-77.381,38.5298],[-77.3825,38.5265],[-77.3759,38.5266],[-77.371,38.5202],[-77.3683,38.519],[-77.3644,38.5209],[-77.3591,38.5198],[-77.348,38.516],[-77.34,38.5142],[-77.3346,38.5142],[-77.3339,38.511],[-77.3275,38.5068],[-77.3198,38.5051],[-77.3115,38.5015],[-77.3083,38.501],[-77.3111,38.5045],[-77.3062,38.5065],[-77.3013,38.5046],[-77.2987,38.5053],[-77.3001,38.5103],[-77.2994,38.5115],[-77.2963,38.5071],[-77.3035,38.4993],[-77.3084,38.4966],[-77.3157,38.4809],[-77.3156,38.4789],[-77.3226,38.4671],[-77.3243,38.4587],[-77.3241,38.4543],[-77.3263,38.4436],[-77.3245,38.4418],[-77.3227,38.4355],[-77.3225,38.4297],[-77.3211,38.4278],[-77.319,38.4178],[-77.3124,38.4018],[-77.3112,38.397],[-77.317,38.3955],[-77.3169,38.3901],[-77.3154,38.389],[-77.3173,38.3836],[-77.3121,38.3796],[-77.2961,38.3698],[-77.2934,38.365],[-77.2881,38.3595],[-77.2871,38.3488],[-77.2936,38.3482],[-77.3007,38.3465],[-77.3043,38.3469],[-77.3094,38.3451],[-77.3215,38.3452],[-77.3216,38.3381],[-77.3279,38.3363],[-77.3301,38.334],[-77.3273,38.3287],[-77.3279,38.3262],[-77.3267,38.319],[-77.3343,38.3121],[-77.3331,38.3079],[-77.3361,38.3026],[-77.3393,38.3031],[-77.3403,38.2928],[-77.3389,38.2903],[-77.3408,38.2826],[-77.3435,38.2801],[-77.3435,38.2778],[-77.3474,38.2722],[-77.3433,38.2685],[-77.3451,38.2615],[-77.3413,38.2607],[-77.3395,38.2584],[-77.3327,38.2544],[-77.3282,38.2529],[-77.3269,38.2444],[-77.3327,38.2458],[-77.3373,38.2508],[-77.3406,38.2526],[-77.3459,38.2522],[-77.3604,38.2424],[-77.3654,38.2427],[-77.3703,38.2466],[-77.3769,38.25],[-77.3813,38.2488],[-77.3845,38.2453],[-77.3908,38.2456],[-77.3957,38.2479],[-77.4055,38.2541],[-77.4174,38.2563],[-77.4201,38.258],[-77.4242,38.2667],[-77.4287,38.2693],[-77.4328,38.2702],[-77.4369,38.2749],[-77.438,38.2803],[-77.4407,38.2825],[-77.4457,38.283],[-77.4471,38.2846],[-77.4496,38.2884],[-77.4557,38.3013],[-77.4633,38.3114],[-77.4649,38.3163],[-77.4671,38.3187],[-77.4747,38.321],[-77.479,38.3167],[-77.4838,38.3173],[-77.49,38.3216],[-77.4988,38.3254],[-77.5037,38.3264],[-77.5125,38.3254],[-77.518,38.3229],[-77.5229,38.3228],[-77.5272,38.3207],[-77.528,38.3177],[-77.5261,38.3158],[-77.5262,38.3095],[-77.5303,38.3092],[-77.5377,38.3117],[-77.543,38.3171],[-77.5455,38.3251],[-77.5583,38.3338],[-77.5671,38.3353],[-77.5698,38.3398],[-77.567,38.3439],[-77.5706,38.348],[-77.5847,38.3468],[-77.5948,38.336],[-77.5997,38.3328],[-77.6032,38.3331],[-77.6068,38.3367],[-77.6026,38.3487],[-77.6037,38.3511],[-77.6095,38.357],[-77.6123,38.3638],[-77.6187,38.3678],[-77.6197,38.3734],[-77.6192,38.3774],[-77.6212,38.3807],[-77.6207,38.385],[-77.6234,38.3905],[-77.6321,38.3928],[-77.6323,38.3967],[-77.6341,38.3993],[-77.6324,38.4074],[-77.6349,38.4102],[-77.6352,38.4152],[-77.6337,38.4198],[-77.6298,38.4228],[-77.6315,38.4286],[-77.629,38.4303],[-77.6282,38.4335],[-77.629,38.4388],[-77.6341,38.4422],[-77.6341,38.4452],[-77.6298,38.4463],[-77.6286,38.4521],[-77.632,38.4561],[-77.6314,38.4595],[-77.634,38.4613],[-77.6343,38.4642],[-77.6315,38.4703],[-77.6281,38.4695],[-77.6262,38.4754],[-77.6239,38.475],[-77.5609,38.5271],[-77.5313,38.5566],[-77.4996,38.5803]]]}},{"type":"Feature","properties":{"id":"51047","name":"Culpeper Co., VA"},"geometry":{"type":"Polygon","coordinates":[[[-77.9308,38.6957],[-77.9314,38.6984],[-77.9277,38.699],[-77.9245,38.6977],[-77.9142,38.6979],[-77.9061,38.6959],[-77.9021,38.6902],[-77.9042,38.6864],[-77.9029,38.6842],[-77.8919,38.6811],[-77.9009,38.6747],[-77.9035,38.67],[-77.9013,38.6655],[-77.8961,38.6621],[-77.8939,38.6637],[-77.8879,38.6635],[-77.8841,38.6666],[-77.8786,38.6578],[-77.8717,38.6485],[-77.8715,38.6455],[-77.8739,38.6436],[-77.8734,38.6397],[-77.8783,38.6388],[-77.8805,38.6365],[-77.8776,38.6342],[-77.8768,38.6309],[-77.8696,38.6321],[-77.8716,38.6299],[-77.8686,38.6234],[-77.8599,38.6208],[-77.8614,38.6141],[-77.8681,38.6137],[-77.873,38.611],[-77.874,38.6071],[-77.8705,38.6033],[-77.8624,38.5985],[-77.8663,38.5931],[-77.8684,38.5935],[-77.8742,38.5913],[-77.8772,38.5849],[-77.8714,38.579],[-77.8683,38.5778],[-77.8638,38.5724],[-77.8627,38.5653],[-77.8591,38.5604],[-77.8565,38.5604],[-77.8569,38.5577],[-77.8511,38.5565],[-77.8479,38.5514],[-77.8456,38.5499],[-77.8435,38.5447],[-77.8365,38.5383],[-77.8321,38.5389],[-77.827,38.5357],[-77.8202,38.5291],[-77.8142,38.5305],[-77.8114,38.5247],[-77.8009,38.5123],[-77.8011,38.5031],[-77.7969,38.4985],[-77.7878,38.493],[-77.7876,38.4881],[-77.7815,38.4881],[-77.7822,38.4851],[-77.7804,38.4775],[-77.7753,38.4736],[-77.7782,38.469],[-77.7748,38.4634],[-77.7618,38.4588],[-77.7618,38.4526],[-77.7605,38.4462],[-77.7619,38.4411],[-77.76,38.4358],[-77.7551,38.4294],[-77.7503,38.4267],[-77.7414,38.4257],[-77.739,38.4233],[-77.7385,38.4194],[-77.7355,38.4131],[-77.7307,38.413],[-77.7254,38.4189],[-77.7113,38.423],[-77.7038,38.4213],[-77.7012,38.4216],[-77.6987,38.4251],[-77.6904,38.427],[-77.6853,38.4262],[-77.6822,38.4245],[-77.675,38.4239],[-77.6673,38.42],[-77.6531,38.4163],[-77.6391,38.4097],[-77.6349,38.4102],[-77.6324,38.4074],[-77.6341,38.3993],[-77.6323,38.3967],[-77.6321,38.3928],[-77.6234,38.3905],[-77.6207,38.385],[-77.6212,38.3807],[-77.6192,38.3774],[-77.6197,38.3734],[-77.6187,38.3678],[-77.6266,38.3689],[-77.6284,38.3681],[-77.6334,38.3602],[-77.6395,38.359],[-77.6444,38.3624],[-77.6442,38.3667],[-77.6424,38.3694],[-77.6371,38.3719],[-77.6412,38.3772],[-77.6457,38.3781],[-77.653,38.3754],[-77.6569,38.3754],[-77.6656,38.3708],[-77.6724,38.3699],[-77.6771,38.3653],[-77.6795,38.3599],[-77.689,38.3592],[-77.6955,38.3564],[-77.703,38.3609],[-77.711,38.3666],[-77.7168,38.3693],[-77.7261,38.3716],[-77.7339,38.376],[-77.7394,38.3769],[-77.746,38.3754],[-77.751,38.3778],[-77.7455,38.38],[-77.7445,38.3822],[-77.7475,38.3847],[-77.7522,38.3843],[-77.7598,38.387],[-77.7632,38.3907],[-77.7712,38.393],[-77.7757,38.3911],[-77.7822,38.3859],[-77.7845,38.3799],[-77.7878,38.3766],[-77.7862,38.3747],[-77.7791,38.3704],[-77.7759,38.3703],[-77.7747,38.3654],[-77.7817,38.3641],[-77.7875,38.369],[-77.7945,38.3707],[-77.8026,38.3764],[-77.8119,38.3791],[-77.8156,38.3785],[-77.8277,38.3822],[-77.8355,38.3821],[-77.84,38.3775],[-77.8445,38.3785],[-77.8488,38.3819],[-77.8544,38.3823],[-77.867,38.3805],[-77.8708,38.3805],[-77.8755,38.3788],[-77.8847,38.3791],[-77.8852,38.3856],[-77.887,38.3882],[-77.8927,38.3887],[-77.9,38.3839],[-77.9061,38.3838],[-77.909,38.3815],[-77.9097,38.3758],[-77.9119,38.3707],[-77.9196,38.3656],[-77.9237,38.3641],[-77.9346,38.3627],[-77.9426,38.3625],[-77.9523,38.3595],[-77.9587,38.3537],[-77.966,38.3573],[-77.9729,38.3589],[-77.9758,38.3565],[-77.9763,38.3527],[-77.9743,38.35],[-77.9757,38.3471],[-77.9859,38.3469],[-77.9898,38.349],[-77.9939,38.3493],[-78.0002,38.3445],[-78.0048,38.3421],[-78.0144,38.3345],[-78.0164,38.3317],[-78.0234,38.3291],[-78.0308,38.3278],[-78.0311,38.3253],[-78.0359,38.3201],[-78.0334,38.3147],[-78.0343,38.3131],[-78.0399,38.3116],[-78.0487,38.3133],[-78.051,38.3166],[-78.0538,38.3177],[-78.0593,38.3138],[-78.0637,38.313],[-78.069,38.3084],[-78.0712,38.3119],[-78.0766,38.3161],[-78.0827,38.3159],[-78.0881,38.3114],[-78.0921,38.3104],[-78.0955,38.3123],[-78.0995,38.311],[-78.1052,38.3121],[-78.102,38.3152],[-78.1004,38.3188],[-78.098,38.32],[-78.0943,38.3257],[-78.0912,38.3274],[-78.0846,38.3269],[-78.0827,38.3278],[-78.0866,38.3313],[-78.0875,38.3344],[-78.0909,38.3366],[-78.0912,38.3388],[-78.0998,38.3434],[-78.1078,38.3438],[-78.1061,38.3479],[-78.1101,38.3499],[-78.1131,38.3534],[-78.1177,38.3632],[-78.118,38.3688],[-78.112,38.377],[-78.1113,38.3818],[-78.1018,38.3845],[-78.0992,38.3875],[-78.0965,38.386],[-78.0918,38.3905],[-78.0959,38.3931],[-78.0946,38.397],[-78.0961,38.4043],[-78.1074,38.4094],[-78.1039,38.4115],[-78.1074,38.4138],[-78.1124,38.4131],[-78.1167,38.4166],[-78.1177,38.4206],[-78.1155,38.4228],[-78.1202,38.4227],[-78.1236,38.426],[-78.1265,38.4257],[-78.1237,38.4313],[-78.119,38.4348],[-78.123,38.4403],[-78.1294,38.4406],[-78.1325,38.445],[-78.1398,38.4491],[-78.1395,38.453],[-78.1428,38.4536],[-78.1474,38.4584],[-78.1532,38.4617],[-78.1818,38.4874],[-78.2318,38.5325],[-78.2289,38.5341],[-78.2216,38.5344],[-78.2152,38.5384],[-78.2125,38.5373],[-78.2104,38.5323],[-78.2083,38.5306],[-78.204,38.5331],[-78.1999,38.531],[-78.199,38.5282],[-78.1911,38.5241],[-78.1874,38.5278],[-78.1831,38.5265],[-78.1782,38.5265],[-78.176,38.5208],[-78.1688,38.5238],[-78.1523,38.5389],[-78.0901,38.5968],[-78.0475,38.6241],[-78.0405,38.6284],[-77.9354,38.6958],[-77.9308,38.6957]]]}},{"type":"Feature","properties":{"id":"51610","name":"Falls Church city, VA"},"geometry":{"type":"Polygon","coordinates":[[[-77.1497,38.8757],[-77.1498,38.8734],[-77.1559,38.8726],[-77.1737,38.8787],[-77.1793,38.8792],[-77.1898,38.8781],[-77.1943,38.8861],[-77.1899,38.8944],[-77.1949,38.8982],[-77.1913,38.8997],[-77.1888,38.8963],[-77.1723,38.8932],[-77.1497,38.8757]]]}},{"type":"Feature","properties":{"id":"51061","name":"Fauquier Co., VA"},"geometry":{"type":"Polygon","coordinates":[[[-78.002,38.9833],[-77.9973,38.9865],[-77.9902,38.9933],[-77.9903,38.9965],[-77.9813,39.0024],[-77.9767,39.0026],[-77.9655,39.0087],[-77.9622,39.0137],[-77.8664,38.9917],[-77.729,38.9598],[-77.6552,38.9427],[-77.6575,38.935],[-77.6599,38.9336],[-77.6637,38.9265],[-77.6625,38.9256],[-77.6652,38.9167],[-77.6685,38.9131],[-77.6706,38.908],[-77.6772,38.8989],[-77.6804,38.8932],[-77.6926,38.887],[-77.6979,38.8752],[-77.698,38.8714],[-77.7007,38.8605],[-77.7016,38.8516],[-77.7049,38.8432],[-77.7157,38.8432],[-77.7157,38.8321],[-77.71,38.8238],[-77.6196,38.6881],[-77.5328,38.5572],[-77.5313,38.5566],[-77.5609,38.5271],[-77.6239,38.475],[-77.6262,38.4754],[-77.6281,38.4695],[-77.6315,38.4703],[-77.6343,38.4642],[-77.634,38.4613],[-77.6314,38.4595],[-77.632,38.4561],[-77.6286,38.4521],[-77.6298,38.4463],[-77.6341,38.4452],[-77.6341,38.4422],[-77.629,38.4388],[-77.6282,38.4335],[-77.629,38.4303],[-77.6315,38.4286],[-77.6298,38.4228],[-77.6337,38.4198],[-77.6352,38.4152],[-77.6349,38.4102],[-77.6391,38.4097],[-77.6531,38.4163],[-77.6673,38.42],[-77.675,38.4239],[-77.6822,38.4245],[-77.6853,38.4262],[-77.6904,38.427],[-77.6987,38.4251],[-77.7012,38.4216],[-77.7038,38.4213],[-77.7113,38.423],[-77.7254,38.4189],[-77.7307,38.413],[-77.7355,38.4131],[-77.7385,38.4194],[-77.739,38.4233],[-77.7414,38.4257],[-77.7503,38.4267],[-77.7551,38.4294],[-77.76,38.4358],[-77.7619,38.4411],[-77.7605,38.4462],[-77.7618,38.4526],[-77.7618,38.4588],[-77.7748,38.4634],[-77.7782,38.469],[-77.7753,38.4736],[-77.7804,38.4775],[-77.7822,38.4851],[-77.7815,38.4881],[-77.7876,38.4881],[-77.7878,38.493],[-77.7969,38.4985],[-77.8011,38.5031],[-77.8009,38.5123],[-77.8114,38.5247],[-77.8142,38.5305],[-77.8202,38.5291],[-77.827,38.5357],[-77.8321,38.5389],[-77.8365,38.5383],[-77.8435,38.5447],[-77.8456,38.5499],[-77.8479,38.5514],[-77.8511,38.5565],[-77.8569,38.5577],[-77.8565,38.5604],[-77.8591,38.5604],[-77.8627,38.5653],[-77.8638,38.5724],[-77.8683,38.5778],[-77.8714,38.579],[-77.8772,38.5849],[-77.8742,38.5913],[-77.8684,38.5935],[-77.8663,38.5931],[-77.8624,38.5985],[-77.8705,38.6033],[-77.874,38.6071],[-77.873,38.611],[-77.8681,38.6137],[-77.8614,38.6141],[-77.8599,38.6208],[-77.8686,38.6234],[-77.8716,38.6299],[-77.8696,38.6321],[-77.8768,38.6309],[-77.8776,38.6342],[-77.8805,38.6365],[-77.8783,38.6388],[-77.8734,38.6397],[-77.8739,38.6436],[-77.8715,38.6455],[-77.8717,38.6485],[-77.8786,38.6578],[-77.8841,38.6666],[-77.8879,38.6635],[-77.8939,38.6637],[-77.8961,38.6621],[-77.9013,38.6655],[-77.9035,38.67],[-77.9009,38.6747],[-77.8919,38.6811],[-77.9029,38.6842],[-77.9042,38.6864],[-77.9021,38.6902],[-77.9061,38.6959],[-77.9142,38.6979],[-77.9245,38.6977],[-77.9277,38.699],[-77.9314,38.6984],[-77.9308,38.6957],[-77.9354,38.6958],[-77.9421,38.6987],[-77.9467,38.6956],[-77.9481,38.6976],[-77.9517,38.6981],[-77.9529,38.6951],[-77.9571,38.6958],[-77.9621,38.6989],[-77.9643,38.6988],[-77.9715,38.7015],[-77.973,38.7035],[-77.9784,38.7039],[-77.9846,38.7076],[-77.9957,38.7104],[-77.9978,38.7149],[-78.0012,38.7176],[-78.0069,38.7194],[-78.0112,38.7244],[-78.0151,38.7251],[-78.0144,38.7271],[-78.0067,38.7272],[-78.0059,38.7289],[-78.0094,38.7295],[-78.0062,38.7322],[-78.0125,38.7328],[-78.0135,38.7355],[-78.0116,38.7371],[-78.0138,38.74],[-78.018,38.7393],[-78.0189,38.7421],[-78.0164,38.7434],[-78.0156,38.7471],[-78.0189,38.749],[-78.0164,38.754],[-78.0179,38.7555],[-78.0214,38.7541],[-78.0248,38.7545],[-78.0281,38.7575],[-78.0269,38.7645],[-78.0226,38.7701],[-78.0265,38.7746],[-78.0203,38.7773],[-78.0219,38.7814],[-78.0274,38.7818],[-78.0296,38.7867],[-78.0267,38.7884],[-78.0316,38.7938],[-78.0258,38.7958],[-78.0361,38.8003],[-78.0433,38.7974],[-78.0431,38.8002],[-78.0478,38.802],[-78.0478,38.7988],[-78.0514,38.7992],[-78.0501,38.8037],[-78.055,38.8085],[-78.0617,38.8127],[-78.0653,38.8127],[-78.0657,38.815],[-78.0697,38.8175],[-78.0738,38.8181],[-78.0786,38.8234],[-78.0821,38.8252],[-78.0841,38.8242],[-78.0899,38.8282],[-78.0944,38.8284],[-78.0997,38.8304],[-78.1058,38.8379],[-78.1075,38.8425],[-78.1143,38.8464],[-78.1174,38.8523],[-78.1222,38.8562],[-78.1238,38.8607],[-78.1235,38.8655],[-78.1306,38.8649],[-78.1301,38.87],[-78.1264,38.8729],[-78.1171,38.8765],[-78.1142,38.8769],[-78.1122,38.8803],[-78.1018,38.8791],[-78.0949,38.8798],[-78.092,38.8856],[-78.0796,38.8862],[-78.0775,38.8877],[-78.0737,38.8866],[-78.0732,38.891],[-78.0674,38.8924],[-78.062,38.8919],[-78.0618,38.9003],[-78.0639,38.9017],[-78.0721,38.9036],[-78.0753,38.9073],[-78.0753,38.9119],[-78.0638,38.924],[-78.0646,38.9271],[-78.0591,38.9326],[-78.0532,38.934],[-78.0515,38.9357],[-78.0416,38.9381],[-78.0396,38.9398],[-78.0369,38.9472],[-78.0324,38.9507],[-78.029,38.9502],[-78.0267,38.9557],[-78.024,38.9568],[-78.0199,38.9641],[-78.0171,38.9661],[-78.017,38.9712],[-78.0145,38.9716],[-78.0043,38.9794],[-78.002,38.9833]]]}},{"type":"Feature","properties":{"id":"51157","name":"Rappahannock Co., VA"},"geometry":{"type":"Polygon","coordinates":[[[-78.2793,38.7622],[-78.271,38.7619],[-78.265,38.7586],[-78.2572,38.7595],[-78.2533,38.757],[-78.248,38.7598],[-78.2443,38.7633],[-78.2394,38.7619],[-78.2346,38.7675],[-78.2302,38.7692],[-78.2247,38.7681],[-78.2187,38.773],[-78.2133,38.7748],[-78.2067,38.7742],[-78.2009,38.7767],[-78.1952,38.7815],[-78.1934,38.7873],[-78.1886,38.7893],[-78.1847,38.7928],[-78.1786,38.8158],[-78.1794,38.8185],[-78.1707,38.8194],[-78.1697,38.8267],[-78.171,38.8293],[-78.1686,38.8337],[-78.163,38.8364],[-78.16,38.8365],[-78.161,38.8393],[-78.1569,38.845],[-78.1514,38.8484],[-78.1526,38.8544],[-78.142,38.8557],[-78.143,38.8591],[-78.1383,38.8596],[-78.1299,38.8628],[-78.1306,38.8649],[-78.1235,38.8655],[-78.1238,38.8607],[-78.1222,38.8562],[-78.1174,38.8523],[-78.1143,38.8464],[-78.1075,38.8425],[-78.1058,38.8379],[-78.0997,38.8304],[-78.0944,38.8284],[-78.0899,38.8282],[-78.0841,38.8242],[-78.0821,38.8252],[-78.0786,38.8234],[-78.0738,38.8181],[-78.0697,38.8175],[-78.0657,38.815],[-78.0653,38.8127],[-78.0617,38.8127],[-78.055,38.8085],[-78.0501,38.8037],[-78.0514,38.7992],[-78.0478,38.7988],[-78.0478,38.802],[-78.0431,38.8002],[-78.0433,38.7974],[-78.0361,38.8003],[-78.0258,38.7958],[-78.0316,38.7938],[-78.0267,38.7884],[-78.0296,38.7867],[-78.0274,38.7818],[-78.0219,38.7814],[-78.0203,38.7773],[-78.0265,38.7746],[-78.0226,38.7701],[-78.0269,38.7645],[-78.0281,38.7575],[-78.0248,38.7545],[-78.0214,38.7541],[-78.0179,38.7555],[-78.0164,38.754],[-78.0189,38.749],[-78.0156,38.7471],[-78.0164,38.7434],[-78.0189,38.7421],[-78.018,38.7393],[-78.0138,38.74],[-78.0116,38.7371],[-78.0135,38.7355],[-78.0125,38.7328],[-78.0062,38.7322],[-78.0094,38.7295],[-78.0059,38.7289],[-78.0067,38.7272],[-78.0144,38.7271],[-78.0151,38.7251],[-78.0112,38.7244],[-78.0069,38.7194],[-78.0012,38.7176],[-77.9978,38.7149],[-77.9957,38.7104],[-77.9846,38.7076],[-77.9784,38.7039],[-77.973,38.7035],[-77.9715,38.7015],[-77.9643,38.6988],[-77.9621,38.6989],[-77.9571,38.6958],[-77.9529,38.6951],[-77.9517,38.6981],[-77.9481,38.6976],[-77.9467,38.6956],[-77.9421,38.6987],[-77.9354,38.6958],[-78.0405,38.6284],[-78.0475,38.6241],[-78.0901,38.5968],[-78.1523,38.5389],[-78.1688,38.5238],[-78.176,38.5208],[-78.1782,38.5265],[-78.1831,38.5265],[-78.1874,38.5278],[-78.1911,38.5241],[-78.199,38.5282],[-78.1999,38.531],[-78.204,38.5331],[-78.2083,38.5306],[-78.2104,38.5323],[-78.2125,38.5373],[-78.2152,38.5384],[-78.2216,38.5344],[-78.2289,38.5341],[-78.2318,38.5325],[-78.2527,38.5516],[-78.2634,38.5619],[-78.2665,38.5637],[-78.2884,38.583],[-78.3382,38.6273],[-78.3352,38.6288],[-78.3313,38.628],[-78.3259,38.6307],[-78.3197,38.6432],[-78.3196,38.6464],[-78.3156,38.6516],[-78.3199,38.6578],[-78.3175,38.6695],[-78.3238,38.6721],[-78.3208,38.6782],[-78.3144,38.6825],[-78.3164,38.6906],[-78.3199,38.6982],[-78.3288,38.7027],[-78.3317,38.7026],[-78.3297,38.7115],[-78.3237,38.7213],[-78.3215,38.7272],[-78.3219,38.7293],[-78.3188,38.7379],[-78.3137,38.7372],[-78.3049,38.7382],[-78.2998,38.7445],[-78.2995,38.7484],[-78.296,38.7511],[-78.2905,38.7504],[-78.2897,38.7532],[-78.2848,38.7593],[-78.2793,38.7622]]]}},{"type":"Feature","properties":{"id":"51177","name":"Spotsylvania Co., VA"},"geometry":{"type":"Polygon","coordinates":[[[-77.6955,38.3564],[-77.689,38.3592],[-77.6795,38.3599],[-77.6771,38.3653],[-77.6724,38.3699],[-77.6656,38.3708],[-77.6569,38.3754],[-77.653,38.3754],[-77.6457,38.3781],[-77.6412,38.3772],[-77.6371,38.3719],[-77.6424,38.3694],[-77.6442,38.3667],[-77.6444,38.3624],[-77.6395,38.359],[-77.6334,38.3602],[-77.6284,38.3681],[-77.6266,38.3689],[-77.6187,38.3678],[-77.6123,38.3638],[-77.6095,38.357],[-77.6037,38.3511],[-77.6026,38.3487],[-77.6068,38.3367],[-77.6032,38.3331],[-77.5997,38.3328],[-77.5948,38.336],[-77.5847,38.3468],[-77.5706,38.348],[-77.567,38.3439],[-77.5698,38.3398],[-77.5671,38.3353],[-77.5583,38.3338],[-77.5455,38.3251],[-77.543,38.3171],[-77.5377,38.3117],[-77.5303,38.3092],[-77.526,38.3071],[-77.5193,38.3067],[-77.5148,38.3053],[-77.5179,38.2976],[-77.5166,38.295],[-77.5138,38.2959],[-77.5078,38.2923],[-77.5117,38.28],[-77.5083,38.2806],[-77.5041,38.2792],[-77.4992,38.2797],[-77.4969,38.283],[-77.4945,38.2822],[-77.4929,38.2785],[-77.4946,38.2739],[-77.4825,38.2729],[-77.4738,38.2702],[-77.4665,38.28],[-77.4606,38.2778],[-77.4575,38.2714],[-77.4502,38.2748],[-77.4529,38.2785],[-77.4544,38.2836],[-77.4471,38.2846],[-77.4457,38.283],[-77.4407,38.2825],[-77.438,38.2803],[-77.4369,38.2749],[-77.4328,38.2702],[-77.4287,38.2693],[-77.4242,38.2667],[-77.4201,38.258],[-77.4174,38.2563],[-77.4055,38.2541],[-77.3957,38.2479],[-77.3908,38.2456],[-77.3845,38.2453],[-77.3813,38.2488],[-77.3769,38.25],[-77.3703,38.2466],[-77.3797,38.2384],[-77.4024,38.2153],[-77.4194,38.1991],[-77.4285,38.1892],[-77.48,38.1411],[-77.5314,38.0924],[-77.5516,38.0736],[-77.5707,38.0554],[-77.5908,38.0369],[-77.6109,38.0178],[-77.6202,38.0095],[-77.6262,38.0034],[-77.6425,37.9907],[-77.6429,37.9926],[-77.6472,37.9939],[-77.654,37.9935],[-77.658,37.9917],[-77.6605,37.993],[-77.661,37.9976],[-77.6654,37.9967],[-77.668,37.9977],[-77.6682,38.0006],[-77.6713,38.0039],[-77.6775,38.0066],[-77.6841,38.0082],[-77.696,38.0075],[-77.7,38.0125],[-77.7053,38.0135],[-77.7119,38.0127],[-77.7129,38.0146],[-77.7193,38.0166],[-77.7193,38.0206],[-77.7222,38.0232],[-77.7313,38.0212],[-77.731,38.0248],[-77.7283,38.0277],[-77.731,38.031],[-77.7395,38.033],[-77.7407,38.0296],[-77.7449,38.0237],[-77.7477,38.0243],[-77.7485,38.0287],[-77.7479,38.0376],[-77.7429,38.0407],[-77.7482,38.0421],[-77.7478,38.0479],[-77.7452,38.0508],[-77.7486,38.0528],[-77.7561,38.0482],[-77.7625,38.0505],[-77.764,38.0531],[-77.7685,38.0517],[-77.7714,38.0537],[-77.7719,38.0574],[-77.7785,38.0587],[-77.7849,38.0651],[-77.7825,38.0675],[-77.7866,38.076],[-77.7893,38.0759],[-77.7937,38.0785],[-77.8065,38.0785],[-77.8126,38.0812],[-77.8129,38.0853],[-77.8176,38.0856],[-77.8203,38.0892],[-77.8197,38.0924],[-77.8234,38.0935],[-77.8243,38.0959],[-77.8303,38.0977],[-77.8309,38.0992],[-77.8362,38.1011],[-77.8382,38.1062],[-77.8455,38.1043],[-77.8429,38.1014],[-77.847,38.0984],[-77.8484,38.1018],[-77.8545,38.1039],[-77.8561,38.0998],[-77.8588,38.1013],[-77.8598,38.1052],[-77.8742,38.1064],[-77.8823,38.1089],[-77.8884,38.1131],[-77.9018,38.1081],[-77.9035,38.1097],[-77.9103,38.1122],[-77.9125,38.1115],[-77.9141,38.1171],[-77.9167,38.1183],[-77.9237,38.1145],[-77.9342,38.1141],[-77.936,38.1159],[-77.9471,38.12],[-77.9439,38.1284],[-77.9412,38.129],[-77.9395,38.1323],[-77.9331,38.1378],[-77.9276,38.1385],[-77.9221,38.1518],[-77.9192,38.1516],[-77.9203,38.1547],[-77.916,38.1533],[-77.9076,38.161],[-77.9016,38.1586],[-77.9006,38.1616],[-77.9024,38.1657],[-77.8916,38.1757],[-77.889,38.1756],[-77.8813,38.1831],[-77.8799,38.1858],[-77.8748,38.1877],[-77.8715,38.191],[-77.8738,38.1927],[-77.871,38.1983],[-77.8775,38.2008],[-77.8774,38.2022],[-77.8726,38.2021],[-77.8599,38.2006],[-77.8566,38.2032],[-77.8577,38.2065],[-77.8515,38.209],[-77.85,38.2158],[-77.8456,38.2173],[-77.8446,38.2202],[-77.8378,38.224],[-77.8377,38.2285],[-77.8348,38.2313],[-77.8277,38.23],[-77.8198,38.2416],[-77.8145,38.2458],[-77.8114,38.2447],[-77.8112,38.249],[-77.8055,38.2535],[-77.7929,38.2596],[-77.7942,38.2619],[-77.7887,38.2639],[-77.7911,38.268],[-77.7811,38.2777],[-77.7779,38.2791],[-77.7708,38.2801],[-77.7714,38.2881],[-77.767,38.2875],[-77.7594,38.2953],[-77.7456,38.3068],[-77.7403,38.3131],[-77.7393,38.321],[-77.7271,38.3239],[-77.7198,38.3356],[-77.7144,38.3369],[-77.7191,38.3399],[-77.7186,38.3419],[-77.7121,38.3461],[-77.7149,38.3492],[-77.7111,38.3527],[-77.7092,38.3577],[-77.7052,38.3549],[-77.708,38.3587],[-77.7034,38.3585],[-77.703,38.3609],[-77.6955,38.3564]]]}},{"type":"Feature","properties":{"id":"24033","name":"Prince George's Co., MD"},"geometry":{"type":"Polygon","coordinates":[[[-77.039,38.7916],[-77.0014,38.8215],[-76.9795,38.8378],[-76.9537,38.8585],[-76.9497,38.8613],[-76.9094,38.8928],[-76.9351,38.9133],[-77.0026,38.9655],[-76.9942,38.9753],[-76.986,38.9776],[-76.9867,38.9792],[-76.9848,38.9872],[-76.9911,38.9924],[-76.9841,39.0014],[-76.9662,39.0262],[-76.9463,39.0524],[-76.9216,39.0862],[-76.9176,39.0913],[-76.9074,39.1062],[-76.9039,39.1146],[-76.9073,39.1179],[-76.8943,39.1239],[-76.8885,39.131],[-76.8857,39.1313],[-76.8844,39.127],[-76.8779,39.1205],[-76.8753,39.1168],[-76.869,39.1122],[-76.8622,39.1103],[-76.8567,39.1107],[-76.8491,39.1091],[-76.8416,39.1059],[-76.8378,39.1009],[-76.8376,39.0969],[-76.8285,39.095],[-76.8271,39.0898],[-76.8349,39.0829],[-76.8327,39.0759],[-76.8381,39.0736],[-76.8356,39.0679],[-76.8315,39.0692],[-76.829,39.0644],[-76.8265,39.0657],[-76.8173,39.0618],[-76.8132,39.0623],[-76.8105,39.0609],[-76.8039,39.0624],[-76.8007,39.0554],[-76.7957,39.0546],[-76.7939,39.0521],[-76.7926,39.0462],[-76.7876,39.0446],[-76.7837,39.0463],[-76.7765,39.0453],[-76.7738,39.0437],[-76.7732,39.0407],[-76.7692,39.039],[-76.7654,39.0404],[-76.7645,39.0376],[-76.7613,39.0354],[-76.757,39.0378],[-76.754,39.0371],[-76.7476,39.0334],[-76.7499,39.03],[-76.7459,39.0282],[-76.7431,39.0237],[-76.7428,39.0205],[-76.7445,39.0171],[-76.7381,39.0125],[-76.7333,39.0068],[-76.729,39.0071],[-76.724,39.0042],[-76.7255,38.9989],[-76.7213,38.9997],[-76.7128,38.9948],[-76.7089,38.9934],[-76.7058,38.989],[-76.6985,38.9838],[-76.6989,38.9812],[-76.7022,38.9798],[-76.7016,38.9738],[-76.704,38.9728],[-76.6994,38.9691],[-76.699,38.9627],[-76.6942,38.9568],[-76.6935,38.9514],[-76.6953,38.9478],[-76.691,38.9408],[-76.6922,38.9363],[-76.6889,38.9335],[-76.6814,38.9313],[-76.6831,38.9263],[-76.6905,38.9248],[-76.6906,38.9235],[-76.6851,38.918],[-76.6828,38.919],[-76.6781,38.9142],[-76.6785,38.9105],[-76.6729,38.9074],[-76.6706,38.9074],[-76.6695,38.9044],[-76.6715,38.8994],[-76.6763,38.8959],[-76.6763,38.8919],[-76.6721,38.8866],[-76.6752,38.8857],[-76.6766,38.876],[-76.6807,38.8723],[-76.6832,38.8667],[-76.6881,38.8646],[-76.6919,38.8592],[-76.6912,38.8544],[-76.6936,38.8497],[-76.6965,38.8472],[-76.6997,38.8368],[-76.6994,38.8328],[-76.6964,38.8227],[-76.697,38.8188],[-76.7018,38.8155],[-76.7094,38.8163],[-76.7123,38.8129],[-76.7115,38.809],[-76.7081,38.8049],[-76.7107,38.7984],[-76.7101,38.796],[-76.7025,38.7904],[-76.7021,38.7885],[-76.7061,38.7857],[-76.7123,38.7844],[-76.7144,38.7808],[-76.7125,38.7749],[-76.7082,38.7732],[-76.7009,38.7687],[-76.7001,38.7662],[-76.6993,38.7534],[-76.6973,38.7501],[-76.6944,38.7489],[-76.6865,38.7486],[-76.6849,38.7469],[-76.684,38.7383],[-76.687,38.7359],[-76.6938,38.7359],[-76.6956,38.7315],[-76.6936,38.7248],[-76.702,38.7109],[-76.6977,38.707],[-76.6949,38.7025],[-76.6979,38.6948],[-76.6984,38.6904],[-76.6955,38.6858],[-76.6871,38.6814],[-76.6874,38.6787],[-76.6905,38.6737],[-76.6993,38.6711],[-76.701,38.6684],[-76.6993,38.6658],[-76.6942,38.6638],[-76.6874,38.6638],[-76.6833,38.6612],[-76.6851,38.6548],[-76.6916,38.6485],[-76.6929,38.6364],[-76.6866,38.6305],[-76.6785,38.6273],[-76.6723,38.6175],[-76.6735,38.6072],[-76.6726,38.5993],[-76.6752,38.5921],[-76.6795,38.5852],[-76.6807,38.5805],[-76.6778,38.5724],[-76.6791,38.5667],[-76.6723,38.5528],[-76.6726,38.5468],[-76.6755,38.5359],[-76.6783,38.5354],[-76.6898,38.5376],[-76.6925,38.5412],[-76.6971,38.5432],[-76.7012,38.5425],[-76.7041,38.5471],[-76.7069,38.5434],[-76.7077,38.5464],[-76.7151,38.5498],[-76.7233,38.5514],[-76.7315,38.5554],[-76.7333,38.5574],[-76.737,38.5571],[-76.7405,38.5587],[-76.7397,38.5728],[-76.7423,38.5766],[-76.7411,38.5788],[-76.7423,38.5838],[-76.7427,38.5942],[-76.7465,38.5997],[-76.7458,38.6053],[-76.7476,38.6173],[-76.7552,38.6202],[-76.7584,38.6198],[-76.7972,38.6345],[-76.8634,38.6585],[-76.8689,38.6579],[-76.879,38.659],[-76.8823,38.657],[-76.886,38.6576],[-76.8904,38.655],[-76.8983,38.6546],[-76.9046,38.6516],[-76.9111,38.6529],[-76.9168,38.6525],[-76.9275,38.6549],[-76.9306,38.6541],[-76.9355,38.6552],[-76.9396,38.6546],[-76.9466,38.6589],[-76.9585,38.6589],[-76.9657,38.6613],[-76.9704,38.6605],[-76.9724,38.6585],[-76.9768,38.6587],[-76.9894,38.6564],[-76.9913,38.6571],[-77.0052,38.6527],[-77.011,38.652],[-77.0187,38.6485],[-77.0211,38.6464],[-77.0224,38.6421],[-77.0263,38.6386],[-77.0271,38.6348],[-77.0383,38.63],[-77.04,38.626],[-77.0462,38.6202],[-77.0478,38.6162],[-77.0502,38.6207],[-77.0557,38.6355],[-77.0579,38.6397],[-77.0717,38.6761],[-77.0734,38.6817],[-77.0786,38.6941],[-77.0863,38.706],[-77.0799,38.709],[-77.0807,38.7113],[-77.0781,38.7134],[-77.0742,38.7126],[-77.0718,38.7101],[-77.0653,38.7096],[-77.0532,38.7099],[-77.0462,38.7144],[-77.0433,38.719],[-77.0415,38.7259],[-77.0416,38.7367],[-77.0435,38.7391],[-77.0423,38.7413],[-77.0411,38.7733],[-77.0404,38.7854],[-77.039,38.7916]]]}},{"type":"Feature","properties":{"id":"24031","name":"Montgomery Co., MD"},"geometry":{"type":"Polygon","coordinates":[[[-77.4548,39.2217],[-77.3964,39.248],[-77.3138,39.2865],[-77.3013,39.2918],[-77.2676,39.3082],[-77.2617,39.3106],[-77.2175,39.3314],[-77.1688,39.3535],[-77.1802,39.3466],[-77.1838,39.3455],[-77.1871,39.3406],[-77.1868,39.3382],[-77.1786,39.3255],[-77.1729,39.3195],[-77.1703,39.3131],[-77.1668,39.3121],[-77.1646,39.3074],[-77.1624,39.3079],[-77.1598,39.3049],[-77.1534,39.302],[-77.1456,39.2961],[-77.1436,39.293],[-77.1401,39.2921],[-77.1402,39.2893],[-77.1379,39.2882],[-77.14,39.2834],[-77.134,39.2762],[-77.1346,39.2731],[-77.1306,39.2684],[-77.1262,39.2686],[-77.1214,39.2672],[-77.117,39.2675],[-77.115,39.2652],[-77.1108,39.2641],[-77.1052,39.2645],[-77.1036,39.266],[-77.0975,39.2648],[-77.0932,39.2625],[-77.0892,39.2623],[-77.0821,39.26],[-77.0778,39.2565],[-77.0701,39.2541],[-77.0622,39.2473],[-77.0615,39.2413],[-77.0559,39.2383],[-77.0448,39.2377],[-77.0359,39.2297],[-77.0321,39.2244],[-77.0323,39.2203],[-77.0223,39.214],[-77.0193,39.2129],[-77.0176,39.2098],[-77.0094,39.2067],[-77.0122,39.1952],[-77.0049,39.1933],[-77.0043,39.1893],[-77.0075,39.1849],[-77.0084,39.1816],[-77.0045,39.1791],[-76.9999,39.1786],[-76.9996,39.1771],[-77.0054,39.1763],[-77.0044,39.1743],[-76.9983,39.1751],[-76.9974,39.1741],[-77.0014,39.1709],[-76.9973,39.1665],[-76.9871,39.1663],[-76.9821,39.1643],[-76.9756,39.1632],[-76.973,39.1614],[-76.9767,39.1542],[-76.9756,39.1497],[-76.9641,39.1482],[-76.963,39.1458],[-76.9555,39.1449],[-76.9517,39.1462],[-76.95,39.1444],[-76.9526,39.143],[-76.9531,39.139],[-76.9555,39.1381],[-76.9585,39.134],[-76.9486,39.1296],[-76.9437,39.1321],[-76.9383,39.1328],[-76.9334,39.1366],[-76.9291,39.1384],[-76.9264,39.1353],[-76.919,39.1321],[-76.9156,39.127],[-76.9073,39.1255],[-76.9028,39.1256],[-76.8937,39.1284],[-76.8885,39.131],[-76.8943,39.1239],[-76.9073,39.1179],[-76.9039,39.1146],[-76.9074,39.1062],[-76.9176,39.0913],[-76.9216,39.0862],[-76.9463,39.0524],[-76.9662,39.0262],[-76.9841,39.0014],[-76.9911,38.9924],[-76.9848,38.9872],[-76.9867,38.9792],[-76.986,38.9776],[-76.9942,38.9753],[-77.0026,38.9655],[-77.0156,38.9759],[-77.041,38.9951],[-77.0543,38.9851],[-77.0915,38.9565],[-77.1198,38.9344],[-77.1276,38.94],[-77.1319,38.9474],[-77.1377,38.9553],[-77.1466,38.9642],[-77.1511,38.9658],[-77.1653,38.968],[-77.1719,38.9675],[-77.183,38.9688],[-77.1883,38.9675],[-77.1975,38.9668],[-77.2093,38.9704],[-77.2115,38.9694],[-77.2215,38.9713],[-77.225,38.9733],[-77.23,38.9799],[-77.2348,38.9763],[-77.2411,38.9812],[-77.2446,38.9825],[-77.2492,38.9937],[-77.253,38.9957],[-77.2557,39.0024],[-77.2518,39.0114],[-77.2469,39.0148],[-77.2446,39.0201],[-77.246,39.0249],[-77.2553,39.03],[-77.266,39.0319],[-77.2747,39.0341],[-77.2931,39.0465],[-77.301,39.0495],[-77.3107,39.052],[-77.3149,39.0522],[-77.3283,39.0578],[-77.3337,39.0595],[-77.334,39.061],[-77.3403,39.063],[-77.3503,39.0621],[-77.3597,39.062],[-77.3675,39.0611],[-77.3751,39.0613],[-77.3801,39.0628],[-77.3857,39.062],[-77.3992,39.0648],[-77.4046,39.0645],[-77.4154,39.0664],[-77.4232,39.0669],[-77.4374,39.0706],[-77.4528,39.0725],[-77.4582,39.0737],[-77.4626,39.0762],[-77.4694,39.0864],[-77.477,39.1003],[-77.4813,39.1057],[-77.4858,39.1093],[-77.495,39.113],[-77.4997,39.114],[-77.5153,39.1186],[-77.5199,39.1209],[-77.5246,39.1278],[-77.5267,39.1373],[-77.5273,39.1462],[-77.5249,39.1485],[-77.5212,39.1611],[-77.5164,39.1709],[-77.5106,39.1785],[-77.5052,39.182],[-77.486,39.1857],[-77.4786,39.1892],[-77.475,39.1949],[-77.4759,39.202],[-77.4736,39.2084],[-77.4701,39.2118],[-77.4599,39.2187],[-77.4589,39.2203],[-77.4548,39.2217]]]}},{"type":"Feature","properties":{"id":"24017","name":"Charles Co., MD"},"geometry":{"type":"Polygon","coordinates":[[[-77.1322,38.6412],[-77.1319,38.6442],[-77.1359,38.6498],[-77.1325,38.6738],[-77.122,38.6858],[-77.1059,38.6968],[-77.099,38.6986],[-77.0918,38.7034],[-77.0863,38.706],[-77.0786,38.6941],[-77.0734,38.6817],[-77.0717,38.6761],[-77.0579,38.6397],[-77.0557,38.6355],[-77.0502,38.6207],[-77.0478,38.6162],[-77.0462,38.6202],[-77.04,38.626],[-77.0383,38.63],[-77.0271,38.6348],[-77.0263,38.6386],[-77.0224,38.6421],[-77.0211,38.6464],[-77.0187,38.6485],[-77.011,38.652],[-77.0052,38.6527],[-76.9913,38.6571],[-76.9894,38.6564],[-76.9768,38.6587],[-76.9724,38.6585],[-76.9704,38.6605],[-76.9657,38.6613],[-76.9585,38.6589],[-76.9466,38.6589],[-76.9396,38.6546],[-76.9355,38.6552],[-76.9306,38.6541],[-76.9275,38.6549],[-76.9168,38.6525],[-76.9111,38.6529],[-76.9046,38.6516],[-76.8983,38.6546],[-76.8904,38.655],[-76.886,38.6576],[-76.8823,38.657],[-76.879,38.659],[-76.8689,38.6579],[-76.8634,38.6585],[-76.7972,38.6345],[-76.7584,38.6198],[-76.7552,38.6202],[-76.7476,38.6173],[-76.7458,38.6053],[-76.7465,38.5997],[-76.7427,38.5942],[-76.7423,38.5838],[-76.7411,38.5788],[-76.7423,38.5766],[-76.7397,38.5728],[-76.7405,38.5587],[-76.737,38.5571],[-76.7333,38.5574],[-76.7315,38.5554],[-76.7233,38.5514],[-76.7151,38.5498],[-76.7077,38.5464],[-76.7069,38.5434],[-76.7041,38.5471],[-76.7012,38.5425],[-76.6971,38.5432],[-76.6925,38.5412],[-76.6898,38.5376],[-76.6783,38.5354],[-76.6755,38.5359],[-76.6699,38.5327],[-76.663,38.5266],[-76.6626,38.5242],[-76.6666,38.5185],[-76.6672,38.5155],[-76.6706,38.5097],[-76.6741,38.4996],[-76.6802,38.4977],[-76.6846,38.495],[-76.6993,38.4971],[-76.7022,38.5017],[-76.7053,38.5017],[-76.7084,38.5048],[-76.7108,38.5094],[-76.7159,38.5095],[-76.7266,38.5118],[-76.74,38.5126],[-76.7481,38.5125],[-76.7521,38.5137],[-76.7683,38.5129],[-76.771,38.5099],[-76.7746,38.509],[-76.7844,38.4925],[-76.7965,38.4744],[-76.7977,38.4719],[-76.8202,38.4351],[-76.8224,38.4321],[-76.8227,38.4284],[-76.8273,38.4252],[-76.8296,38.4211],[-76.8349,38.4179],[-76.8398,38.4111],[-76.8447,38.4093],[-76.8481,38.4061],[-76.8483,38.402],[-76.8503,38.3983],[-76.8565,38.3947],[-76.8643,38.3916],[-76.8665,38.3928],[-76.8687,38.3899],[-76.8715,38.3899],[-76.8744,38.3826],[-76.8713,38.3776],[-76.8583,38.3717],[-76.8499,38.3658],[-76.8474,38.3598],[-76.8479,38.3554],[-76.8561,38.3586],[-76.859,38.3576],[-76.8585,38.3526],[-76.8638,38.3438],[-76.8693,38.3387],[-76.8699,38.3318],[-76.8661,38.3274],[-76.8587,38.3248],[-76.8554,38.3193],[-76.8516,38.316],[-76.8544,38.313],[-76.853,38.3048],[-76.8467,38.3003],[-76.8462,38.2918],[-76.8404,38.2892],[-76.8374,38.2771],[-76.8337,38.2733],[-76.8357,38.2721],[-76.8405,38.2643],[-76.8378,38.2616],[-76.8421,38.2545],[-76.8471,38.2562],[-76.8531,38.2615],[-76.8643,38.2689],[-76.8888,38.2785],[-76.894,38.2817],[-76.9074,38.2885],[-76.9181,38.2915],[-76.923,38.2912],[-76.9239,38.2897],[-76.9261,38.2944],[-76.9244,38.2988],[-76.9237,38.3067],[-76.9222,38.3113],[-76.9236,38.3149],[-76.9296,38.3211],[-76.9303,38.3231],[-76.9355,38.3265],[-76.946,38.3319],[-76.9525,38.3332],[-76.961,38.3385],[-76.9672,38.3416],[-76.9725,38.3428],[-76.9783,38.3423],[-76.9751,38.3487],[-76.977,38.3537],[-76.9761,38.3559],[-76.9836,38.363],[-76.9843,38.3747],[-76.9868,38.3859],[-76.9881,38.3886],[-76.9883,38.395],[-76.9921,38.3989],[-76.9986,38.4093],[-77.0016,38.422],[-77.0075,38.4313],[-77.0125,38.4367],[-77.0164,38.4456],[-77.0406,38.4446],[-77.0506,38.4398],[-77.0518,38.4386],[-77.0647,38.431],[-77.0699,38.4261],[-77.0755,38.4247],[-77.0864,38.4148],[-77.0911,38.4075],[-77.0999,38.4078],[-77.1066,38.4062],[-77.1106,38.4092],[-77.1233,38.4106],[-77.1277,38.4008],[-77.1329,38.3966],[-77.1367,38.3918],[-77.1473,38.3862],[-77.1565,38.383],[-77.166,38.376],[-77.1716,38.3746],[-77.1795,38.3685],[-77.1867,38.3656],[-77.2073,38.3599],[-77.2167,38.3632],[-77.224,38.3686],[-77.2338,38.3741],[-77.2364,38.3742],[-77.2469,38.3802],[-77.2502,38.3828],[-77.253,38.3881],[-77.2536,38.3935],[-77.2573,38.3974],[-77.2576,38.4023],[-77.2651,38.4135],[-77.2656,38.4158],[-77.2634,38.4208],[-77.2567,38.4304],[-77.2575,38.434],[-77.2659,38.4438],[-77.2629,38.4494],[-77.2627,38.4527],[-77.2647,38.456],[-77.2694,38.4603],[-77.2709,38.4641],[-77.2673,38.4675],[-77.2662,38.4739],[-77.2718,38.4777],[-77.2742,38.4818],[-77.2724,38.4899],[-77.2699,38.4924],[-77.267,38.4986],[-77.2674,38.5014],[-77.2636,38.5123],[-77.2567,38.519],[-77.2576,38.5218],[-77.2377,38.5519],[-77.2299,38.5544],[-77.2211,38.5552],[-77.2103,38.5677],[-77.2066,38.5736],[-77.1995,38.5783],[-77.1917,38.5854],[-77.1914,38.5881],[-77.1867,38.5963],[-77.1832,38.6004],[-77.1697,38.6069],[-77.1487,38.6056],[-77.1408,38.6105],[-77.1291,38.6144],[-77.1246,38.6198],[-77.1156,38.6235],[-77.1105,38.6268],[-77.1071,38.6307],[-77.1061,38.6342],[-77.1101,38.6334],[-77.1302,38.635],[-77.1322,38.6412]]]}},{"type":"Feature","properties":{"id":"51630","name":"Fredericksburg city, VA"},"geometry":{"type":"Polygon","coordinates":[[[-77.4544,38.2836],[-77.4529,38.2785],[-77.4502,38.2748],[-77.4575,38.2714],[-77.4606,38.2778],[-77.4665,38.28],[-77.4738,38.2702],[-77.4825,38.2729],[-77.4946,38.2739],[-77.4929,38.2785],[-77.4945,38.2822],[-77.4969,38.283],[-77.4992,38.2797],[-77.5041,38.2792],[-77.5083,38.2806],[-77.5117,38.28],[-77.5078,38.2923],[-77.5138,38.2959],[-77.5166,38.295],[-77.5179,38.2976],[-77.5148,38.3053],[-77.5193,38.3067],[-77.526,38.3071],[-77.5303,38.3092],[-77.5262,38.3095],[-77.5261,38.3158],[-77.528,38.3177],[-77.5272,38.3207],[-77.5229,38.3228],[-77.518,38.3229],[-77.5125,38.3254],[-77.5037,38.3264],[-77.4988,38.3254],[-77.49,38.3216],[-77.4838,38.3173],[-77.479,38.3167],[-77.4747,38.321],[-77.4671,38.3187],[-77.4649,38.3163],[-77.4633,38.3114],[-77.4557,38.3013],[-77.4496,38.2884],[-77.4471,38.2846],[-77.4544,38.2836]]]}},{"type":"Feature","properties":{"id":"51600","name":"Fairfax city, VA"},"geometry":{"type":"Polygon","coordinates":[[[-77.3348,38.8538],[-77.3288,38.8648],[-77.3172,38.8669],[-77.3114,38.8666],[-77.3075,38.8632],[-77.3048,38.8634],[-77.3031,38.8692],[-77.2923,38.8716],[-77.2917,38.8675],[-77.2706,38.8661],[-77.2689,38.8628],[-77.2698,38.8556],[-77.269,38.8523],[-77.2717,38.8485],[-77.27,38.8433],[-77.2705,38.8409],[-77.2786,38.842],[-77.2785,38.8407],[-77.2861,38.8417],[-77.2873,38.8361],[-77.2967,38.8373],[-77.2972,38.835],[-77.308,38.8369],[-77.3119,38.8357],[-77.3162,38.8364],[-77.3187,38.8352],[-77.3188,38.8416],[-77.3227,38.8432],[-77.3259,38.847],[-77.3312,38.8473],[-77.3316,38.8517],[-77.3348,38.8515],[-77.3348,38.8538]],[[-77.3165,38.845],[-77.3088,38.8428],[-77.3066,38.8463],[-77.3118,38.8466],[-77.3165,38.845]]]}},{"type":"Feature","properties":{"id":"51013","name":"Arlington Co., VA"},"geometry":{"type":"Polygon","coordinates":[[[-77.1198,38.9343],[-77.1134,38.9252],[-77.1063,38.9191],[-77.1034,38.9129],[-77.0937,38.9059],[-77.0822,38.9019],[-77.0701,38.9007],[-77.0673,38.8992],[-77.0635,38.8886],[-77.0583,38.8801],[-77.0552,38.88],[-77.0511,38.8752],[-77.0491,38.8707],[-77.0463,38.8713],[-77.0466,38.8749],[-77.0433,38.874],[-77.0391,38.8681],[-77.0393,38.8643],[-77.034,38.8571],[-77.0317,38.8505],[-77.0345,38.8405],[-77.0385,38.8393],[-77.0445,38.8396],[-77.0482,38.8413],[-77.053,38.8404],[-77.0638,38.8449],[-77.0668,38.8439],[-77.0857,38.844],[-77.0846,38.8385],[-77.0855,38.8303],[-77.0878,38.8274],[-77.0977,38.8348],[-77.1069,38.8424],[-77.1108,38.8434],[-77.1102,38.8448],[-77.1497,38.8757],[-77.1723,38.8932],[-77.1198,38.9343]]]}},{"type":"Feature","properties":{"id":"51510","name":"Alexandria city, VA"},"geometry":{"type":"Polygon","coordinates":[[[-77.1069,38.8424],[-77.0977,38.8348],[-77.0878,38.8274],[-77.0855,38.8303],[-77.0846,38.8385],[-77.0857,38.844],[-77.0668,38.8439],[-77.0638,38.8449],[-77.053,38.8404],[-77.0482,38.8413],[-77.0445,38.8396],[-77.0449,38.8347],[-77.0392,38.8322],[-77.0381,38.8286],[-77.0391,38.8214],[-77.0374,38.8142],[-77.0389,38.8008],[-77.039,38.7916],[-77.0404,38.7854],[-77.0414,38.7854],[-77.0601,38.7942],[-77.063,38.7964],[-77.0715,38.7996],[-77.0775,38.8008],[-77.0991,38.8034],[-77.1038,38.8035],[-77.1122,38.8021],[-77.1129,38.8028],[-77.121,38.8005],[-77.1376,38.7982],[-77.14,38.8006],[-77.1437,38.8078],[-77.1437,38.8142],[-77.1372,38.8215],[-77.1385,38.8239],[-77.1422,38.8238],[-77.1409,38.8269],[-77.1314,38.8333],[-77.1279,38.8369],[-77.1247,38.8376],[-77.1246,38.8414],[-77.1214,38.8405],[-77.1108,38.8434],[-77.1069,38.8424]]]}},{"type":"Feature","properties":{"id":"51683","name":"Manassas city, VA"},"geometry":{"type":"Polygon","coordinates":[[[-77.4746,38.7812],[-77.4587,38.7723],[-77.4606,38.7701],[-77.4548,38.7679],[-77.4566,38.7659],[-77.4478,38.7609],[-77.4495,38.7535],[-77.4494,38.7489],[-77.4516,38.7383],[-77.454,38.736],[-77.4712,38.7277],[-77.4803,38.7307],[-77.4808,38.7323],[-77.4851,38.7329],[-77.4907,38.729],[-77.4939,38.7255],[-77.4995,38.7347],[-77.4994,38.7371],[-77.5069,38.7405],[-77.515,38.7358],[-77.5133,38.7311],[-77.5076,38.7231],[-77.509,38.7213],[-77.5025,38.7155],[-77.5024,38.7133],[-77.5062,38.7061],[-77.5133,38.7162],[-77.5192,38.716],[-77.5239,38.7181],[-77.5212,38.722],[-77.5244,38.7239],[-77.5245,38.7273],[-77.5267,38.7332],[-77.5254,38.7352],[-77.5199,38.7353],[-77.5226,38.7409],[-77.5129,38.7442],[-77.5127,38.7473],[-77.5013,38.7613],[-77.4956,38.7705],[-77.4878,38.7691],[-77.4834,38.7747],[-77.4756,38.7811],[-77.4746,38.7812]],[[-77.4814,38.7513],[-77.4771,38.7505],[-77.4786,38.7549],[-77.4811,38.7561],[-77.4814,38.7513]]]}},{"type":"Feature","properties":{"id":"51685","name":"Manassas Park city, VA"},"geometry":{"type":"Polygon","coordinates":[[[-77.4788,38.7826],[-77.473,38.7884],[-77.4585,38.7874],[-77.4595,38.7784],[-77.4527,38.7742],[-77.4449,38.7705],[-77.4426,38.7756],[-77.4437,38.7796],[-77.4403,38.7835],[-77.4343,38.7783],[-77.4289,38.7793],[-77.422,38.7766],[-77.4225,38.7752],[-77.4194,38.7697],[-77.4236,38.7694],[-77.4206,38.7623],[-77.4273,38.7536],[-77.4305,38.7561],[-77.438,38.7586],[-77.4412,38.757],[-77.436,38.7551],[-77.4381,38.7506],[-77.4413,38.7497],[-77.4467,38.7565],[-77.4433,38.7581],[-77.4435,38.7637],[-77.4473,38.7677],[-77.4485,38.7661],[-77.4587,38.7723],[-77.4746,38.7812],[-77.4756,38.7811],[-77.4788,38.7826]]]}},{"type":"Feature","properties":{"id":"51043","name":"Clarke Co., VA"},"geometry":{"type":"Polygon","coordinates":[[[-77.8283,39.1324],[-77.8325,39.1275],[-77.8358,39.1257],[-77.8389,39.1218],[-77.8438,39.1197],[-77.8537,39.101],[-77.8558,39.0928],[-77.8628,39.081],[-77.8739,39.0801],[-77.8776,39.078],[-77.8879,39.0645],[-77.8933,39.0554],[-77.8991,39.0529],[-77.9068,39.0458],[-77.9176,39.0391],[-77.9268,39.0353],[-77.9299,39.0302],[-77.9412,39.0235],[-77.9564,39.0209],[-77.9622,39.0137],[-77.9655,39.0087],[-77.9767,39.0026],[-77.9813,39.0024],[-77.9903,38.9965],[-77.9902,38.9933],[-77.9973,38.9865],[-78.002,38.9833],[-78.0043,38.9794],[-78.0344,39.0016],[-78.0367,39.0024],[-78.0437,39.0079],[-78.0426,39.0089],[-78.0563,39.016],[-78.056,39.0196],[-78.097,39.0129],[-78.1516,39.0366],[-78.1424,39.0611],[-78.137,39.0744],[-78.1315,39.0778],[-78.1297,39.083],[-78.1253,39.0892],[-78.1187,39.0933],[-78.1129,39.0919],[-78.1071,39.1004],[-78.1114,39.1027],[-78.1108,39.1041],[-78.1037,39.1047],[-78.102,39.1063],[-78.105,39.1104],[-78.1035,39.1122],[-78.1042,39.1161],[-78.1075,39.1173],[-78.107,39.1208],[-78.1023,39.1203],[-78.1031,39.1241],[-78.0972,39.1309],[-78.0949,39.131],[-78.095,39.1349],[-78.0927,39.1387],[-78.0954,39.1405],[-78.0899,39.1435],[-78.0908,39.1462],[-78.0885,39.1489],[-78.0886,39.1517],[-78.0851,39.1527],[-78.0888,39.1561],[-78.0869,39.1591],[-78.0827,39.1582],[-78.087,39.1639],[-78.0787,39.1679],[-78.0819,39.1715],[-78.0794,39.1744],[-78.076,39.175],[-78.073,39.1783],[-78.076,39.1876],[-78.076,39.1934],[-78.0712,39.1934],[-78.0752,39.1973],[-78.0744,39.1994],[-78.0708,39.1986],[-78.0698,39.2008],[-78.0746,39.2046],[-78.0681,39.205],[-78.0671,39.2069],[-78.0701,39.2111],[-78.0679,39.2118],[-78.0621,39.2101],[-78.0615,39.2127],[-78.0647,39.2151],[-78.0593,39.2189],[-78.0603,39.2244],[-78.0579,39.2277],[-78.0505,39.2283],[-78.0482,39.2349],[-78.0423,39.2367],[-78.0428,39.2399],[-78.0454,39.2418],[-78.0411,39.2443],[-78.0375,39.2577],[-78.0377,39.2604],[-78.0332,39.2646],[-77.8283,39.1324]]]}}]}