{"type":"FeatureCollection","features":[{"type":"Feature","properties":{"id":"42041","name":"Cumberland Co."},"geometry":{"type":"Polygon","coordinates":[[[-77.6089,40.1912],[-77.6054,40.1854],[-77.5935,40.192],[-77.59,40.1965],[-77.5804,40.2039],[-77.5783,40.2066],[-77.5637,40.2156],[-77.5567,40.2191],[-77.5432,40.2194],[-77.5369,40.2191],[-77.529,40.223],[-77.5268,40.2256],[-77.5155,40.2305],[-77.5101,40.2344],[-77.4973,40.2402],[-77.4736,40.2542],[-77.4609,40.2639],[-77.4266,40.2866],[-77.4138,40.2939],[-77.3944,40.3035],[-77.3822,40.3085],[-77.366,40.3136],[-77.3601,40.3141],[-77.3576,40.3125],[-77.3599,40.3067],[-77.3648,40.3025],[-77.3729,40.2984],[-77.387,40.2904],[-77.3957,40.2843],[-77.4029,40.2801],[-77.4093,40.2746],[-77.411,40.2693],[-77.4168,40.2667],[-77.4198,40.2641],[-77.4233,40.2585],[-77.4208,40.2554],[-77.4139,40.2552],[-77.4025,40.257],[-77.3851,40.2627],[-77.3721,40.2688],[-77.3607,40.2747],[-77.3543,40.2793],[-77.3406,40.2869],[-77.3286,40.2923],[-77.3232,40.2925],[-77.3239,40.2886],[-77.3307,40.2806],[-77.3305,40.2756],[-77.3195,40.2687],[-77.3165,40.2675],[-77.3055,40.2692],[-77.27,40.2787],[-77.2417,40.2828],[-77.2392,40.2841],[-77.2292,40.2837],[-77.2108,40.2859],[-77.2045,40.2871],[-77.1746,40.2885],[-77.1504,40.2913],[-77.1348,40.2949],[-77.1296,40.295],[-77.1248,40.2967],[-77.1119,40.2974],[-77.1017,40.2986],[-77.0964,40.3004],[-77.0747,40.3022],[-77.0639,40.302],[-77.0597,40.3033],[-77.0418,40.3044],[-77.0221,40.304],[-77.0051,40.3056],[-76.9769,40.3099],[-76.9493,40.3169],[-76.915,40.3285],[-76.9121,40.3255],[-76.9118,40.3226],[-76.9135,40.3175],[-76.917,40.3124],[-76.9232,40.3002],[-76.9243,40.2896],[-76.9202,40.283],[-76.9163,40.2802],[-76.9138,40.2711],[-76.9046,40.2606],[-76.8989,40.2556],[-76.8901,40.2495],[-76.8787,40.2439],[-76.8665,40.2312],[-76.859,40.2263],[-76.862,40.2227],[-76.8609,40.2193],[-76.8667,40.2161],[-76.8727,40.2156],[-76.8798,40.2178],[-76.8856,40.214],[-76.8886,40.2137],[-76.8918,40.2159],[-76.897,40.2247],[-76.9001,40.2235],[-76.9029,40.2246],[-76.9033,40.2211],[-76.8996,40.2174],[-76.8987,40.2146],[-76.9009,40.2118],[-76.9041,40.2171],[-76.9075,40.2147],[-76.9065,40.2096],[-76.9101,40.2083],[-76.9124,40.2046],[-76.9149,40.2059],[-76.9166,40.2101],[-76.9213,40.2092],[-76.9272,40.2],[-76.9315,40.1994],[-76.9295,40.1969],[-76.9186,40.1983],[-76.9133,40.1932],[-76.9084,40.1902],[-76.9136,40.1886],[-76.9119,40.1849],[-76.9167,40.1832],[-76.9203,40.1865],[-76.9265,40.1885],[-76.9283,40.1838],[-76.9233,40.1771],[-76.9076,40.1694],[-76.9057,40.1659],[-76.922,40.1623],[-76.9291,40.1613],[-76.9393,40.1643],[-76.9427,40.1641],[-76.9513,40.1658],[-76.9606,40.1638],[-76.9646,40.1649],[-76.9669,40.1627],[-76.9731,40.163],[-76.978,40.1648],[-76.9816,40.1631],[-76.9807,40.1606],[-76.9722,40.1587],[-76.9716,40.1567],[-76.9748,40.1532],[-76.979,40.152],[-76.9868,40.1551],[-76.993,40.1549],[-76.9998,40.1529],[-77.0031,40.1533],[-77.0099,40.149],[-77.0197,40.1483],[-77.0227,40.1458],[-77.0289,40.1477],[-77.0358,40.143],[-77.0767,40.1136],[-77.1374,40.0699],[-77.1621,40.0517],[-77.1856,40.0295],[-77.2289,40.0251],[-77.2766,40.0172],[-77.3537,40.0033],[-77.4035,39.9945],[-77.4214,39.9813],[-77.4711,39.9441],[-77.4541,39.9724],[-77.4617,39.9768],[-77.4658,39.9844],[-77.471,39.9868],[-77.4744,39.9919],[-77.479,39.9918],[-77.4816,39.9934],[-77.4892,40.0013],[-77.4954,40.0051],[-77.4996,40.0102],[-77.5001,40.0134],[-77.5049,40.0188],[-77.5091,40.0249],[-77.5078,40.029],[-77.5123,40.0336],[-77.5149,40.0344],[-77.5187,40.0382],[-77.5191,40.0424],[-77.5171,40.0444],[-77.522,40.0466],[-77.5263,40.0457],[-77.5325,40.0487],[-77.5305,40.0592],[-77.533,40.0628],[-77.5323,40.0672],[-77.5349,40.0703],[-77.5419,40.0698],[-77.5399,40.0739],[-77.5403,40.0768],[-77.5456,40.0784],[-77.541,40.0797],[-77.5437,40.0822],[-77.5426,40.0839],[-77.5467,40.0859],[-77.5431,40.0872],[-77.543,40.0896],[-77.5481,40.0901],[-77.5539,40.0959],[-77.5604,40.0943],[-77.5617,40.0973],[-77.5579,40.1031],[-77.561,40.1084],[-77.5626,40.1142],[-77.5629,40.1193],[-77.5684,40.1259],[-77.5747,40.1277],[-77.5817,40.1341],[-77.5903,40.1339],[-77.593,40.1354],[-77.5932,40.1422],[-77.6042,40.1514],[-77.6083,40.1527],[-77.6104,40.1582],[-77.6129,40.1612],[-77.6143,40.1669],[-77.6136,40.1702],[-77.6164,40.1725],[-77.6275,40.1886],[-77.625,40.19],[-77.6147,40.1985],[-77.6089,40.1912]]]}},{"type":"Feature","properties":{"id":"42043","name":"Dauphin Co."},"geometry":{"type":"Polygon","coordinates":[[[-76.937,40.6128],[-76.9255,40.6089],[-76.9204,40.604],[-76.9178,40.6048],[-76.9208,40.6083],[-76.9199,40.6101],[-76.9033,40.6119],[-76.8989,40.6105],[-76.89,40.6103],[-76.8915,40.6143],[-76.8864,40.6178],[-76.8727,40.6163],[-76.8695,40.6184],[-76.8695,40.6235],[-76.8643,40.6276],[-76.8557,40.6259],[-76.8401,40.6254],[-76.8332,40.6276],[-76.8274,40.6339],[-76.8132,40.6333],[-76.8101,40.6349],[-76.8091,40.6434],[-76.8034,40.6472],[-76.7982,40.6448],[-76.7939,40.6405],[-76.7859,40.6417],[-76.7783,40.646],[-76.7562,40.6481],[-76.7497,40.6531],[-76.7459,40.6545],[-76.7328,40.6547],[-76.7248,40.6531],[-76.721,40.6541],[-76.7183,40.6584],[-76.7136,40.6596],[-76.7039,40.6554],[-76.7016,40.6581],[-76.6899,40.651],[-76.6397,40.6198],[-76.5771,40.5807],[-76.5354,40.5552],[-76.678,40.4747],[-76.6569,40.4196],[-76.6363,40.3664],[-76.6255,40.3393],[-76.6126,40.3082],[-76.5922,40.2543],[-76.5885,40.2454],[-76.5814,40.2263],[-76.5694,40.1955],[-76.5712,40.1944],[-76.5807,40.1947],[-76.5827,40.191],[-76.5879,40.1906],[-76.5999,40.1883],[-76.6065,40.19],[-76.613,40.1854],[-76.6122,40.1839],[-76.6159,40.1806],[-76.6212,40.1798],[-76.6277,40.1767],[-76.6321,40.1706],[-76.636,40.1701],[-76.6384,40.1667],[-76.6406,40.1673],[-76.6441,40.1649],[-76.6531,40.1661],[-76.6547,40.164],[-76.661,40.1651],[-76.662,40.1635],[-76.6664,40.163],[-76.6668,40.1613],[-76.6728,40.1575],[-76.6706,40.1545],[-76.6764,40.1531],[-76.6772,40.1489],[-76.6806,40.1491],[-76.6832,40.1518],[-76.6905,40.1484],[-76.6899,40.1522],[-76.6923,40.1574],[-76.6977,40.1563],[-76.6956,40.1541],[-76.6962,40.1501],[-76.6989,40.1484],[-76.6999,40.1451],[-76.7057,40.143],[-76.7101,40.1371],[-76.7064,40.1353],[-76.7159,40.1315],[-76.7216,40.1201],[-76.7269,40.122],[-76.7327,40.1227],[-76.7406,40.1279],[-76.7446,40.1332],[-76.7459,40.1461],[-76.7483,40.1558],[-76.7497,40.1702],[-76.7521,40.1752],[-76.7626,40.1788],[-76.774,40.1841],[-76.7877,40.1916],[-76.7954,40.1973],[-76.8006,40.2001],[-76.8216,40.2013],[-76.8289,40.205],[-76.8348,40.218],[-76.8395,40.2216],[-76.859,40.2263],[-76.8665,40.2312],[-76.8787,40.2439],[-76.8901,40.2495],[-76.8989,40.2556],[-76.9046,40.2606],[-76.9138,40.2711],[-76.9163,40.2802],[-76.9202,40.283],[-76.9243,40.2896],[-76.9232,40.3002],[-76.917,40.3124],[-76.9135,40.3175],[-76.9118,40.3226],[-76.9121,40.3255],[-76.915,40.3285],[-76.9173,40.3327],[-76.9267,40.342],[-76.9285,40.348],[-76.9321,40.3546],[-76.9375,40.3575],[-76.9517,40.3582],[-76.9611,40.358],[-76.9706,40.3563],[-76.982,40.3573],[-76.9864,40.3566],[-76.998,40.3567],[-77.0082,40.3584],[-77.013,40.3621],[-77.0192,40.3648],[-77.0216,40.3684],[-77.0231,40.3764],[-77.027,40.3809],[-77.0292,40.3869],[-77.0282,40.392],[-77.0217,40.3978],[-77.016,40.3999],[-77.0131,40.4023],[-77.0117,40.4074],[-77.0158,40.4157],[-77.017,40.4207],[-77.0163,40.4252],[-77.0032,40.4268],[-76.9979,40.4337],[-76.9894,40.4382],[-76.9868,40.4418],[-76.9805,40.4471],[-76.9712,40.452],[-76.9611,40.4558],[-76.9528,40.4625],[-76.9496,40.4686],[-76.9488,40.4734],[-76.9495,40.4845],[-76.953,40.4906],[-76.9663,40.4958],[-76.9691,40.4976],[-76.9784,40.5071],[-76.9851,40.5163],[-76.9857,40.525],[-76.9815,40.5319],[-76.9805,40.5383],[-76.982,40.5434],[-76.9872,40.5534],[-76.9868,40.5548],[-76.9919,40.5615],[-76.9924,40.5679],[-76.99,40.5724],[-76.9837,40.5783],[-76.9653,40.587],[-76.9588,40.5929],[-76.9539,40.6014],[-76.9531,40.6045],[-76.9536,40.6148],[-76.9508,40.627],[-76.9491,40.6282],[-76.937,40.6128]]]}},{"type":"Feature","properties":{"id":"42099","name":"Perry Co."},"geometry":{"type":"Polygon","coordinates":[[[-76.9508,40.627],[-76.9536,40.6148],[-76.9531,40.6045],[-76.9539,40.6014],[-76.9588,40.5929],[-76.9653,40.587],[-76.9837,40.5783],[-76.99,40.5724],[-76.9924,40.5679],[-76.9919,40.5615],[-76.9868,40.5548],[-76.9872,40.5534],[-76.982,40.5434],[-76.9805,40.5383],[-76.9815,40.5319],[-76.9857,40.525],[-76.9851,40.5163],[-76.9784,40.5071],[-76.9691,40.4976],[-76.9663,40.4958],[-76.953,40.4906],[-76.9495,40.4845],[-76.9488,40.4734],[-76.9496,40.4686],[-76.9528,40.4625],[-76.9611,40.4558],[-76.9712,40.452],[-76.9805,40.4471],[-76.9868,40.4418],[-76.9894,40.4382],[-76.9979,40.4337],[-77.0032,40.4268],[-77.0163,40.4252],[-77.017,40.4207],[-77.0158,40.4157],[-77.0117,40.4074],[-77.0131,40.4023],[-77.016,40.3999],[-77.0217,40.3978],[-77.0282,40.392],[-77.0292,40.3869],[-77.027,40.3809],[-77.0231,40.3764],[-77.0216,40.3684],[-77.0192,40.3648],[-77.013,40.3621],[-77.0082,40.3584],[-76.998,40.3567],[-76.9864,40.3566],[-76.982,40.3573],[-76.9706,40.3563],[-76.9611,40.358],[-76.9517,40.3582],[-76.9375,40.3575],[-76.9321,40.3546],[-76.9285,40.348],[-76.9267,40.342],[-76.9173,40.3327],[-76.915,40.3285],[-76.9493,40.3169],[-76.9769,40.3099],[-77.0051,40.3056],[-77.0221,40.304],[-77.0418,40.3044],[-77.0597,40.3033],[-77.0639,40.302],[-77.0747,40.3022],[-77.0964,40.3004],[-77.1017,40.2986],[-77.1119,40.2974],[-77.1248,40.2967],[-77.1296,40.295],[-77.1348,40.2949],[-77.1504,40.2913],[-77.1746,40.2885],[-77.2045,40.2871],[-77.2108,40.2859],[-77.2292,40.2837],[-77.2392,40.2841],[-77.2417,40.2828],[-77.27,40.2787],[-77.3055,40.2692],[-77.3165,40.2675],[-77.3195,40.2687],[-77.3305,40.2756],[-77.3307,40.2806],[-77.3239,40.2886],[-77.3232,40.2925],[-77.3286,40.2923],[-77.3406,40.2869],[-77.3543,40.2793],[-77.3607,40.2747],[-77.3721,40.2688],[-77.3851,40.2627],[-77.4025,40.257],[-77.4139,40.2552],[-77.4208,40.2554],[-77.4233,40.2585],[-77.4198,40.2641],[-77.4168,40.2667],[-77.411,40.2693],[-77.4093,40.2746],[-77.4029,40.2801],[-77.3957,40.2843],[-77.387,40.2904],[-77.3729,40.2984],[-77.3648,40.3025],[-77.3599,40.3067],[-77.3576,40.3125],[-77.3601,40.3141],[-77.366,40.3136],[-77.3822,40.3085],[-77.3944,40.3035],[-77.4138,40.2939],[-77.4266,40.2866],[-77.4609,40.2639],[-77.4736,40.2542],[-77.4973,40.2402],[-77.5101,40.2344],[-77.5155,40.2305],[-77.5268,40.2256],[-77.529,40.223],[-77.5369,40.2191],[-77.5432,40.2194],[-77.5567,40.2191],[-77.5637,40.2156],[-77.5783,40.2066],[-77.5804,40.2039],[-77.59,40.1965],[-77.5935,40.192],[-77.6054,40.1854],[-77.6089,40.1912],[-77.6147,40.1985],[-77.605,40.2055],[-77.6049,40.2249],[-77.6027,40.2282],[-77.6066,40.2297],[-77.6092,40.2328],[-77.6162,40.2326],[-77.6399,40.2177],[-77.6428,40.2181],[-77.6434,40.2232],[-77.6476,40.2225],[-77.65,40.2263],[-77.6489,40.2333],[-77.6454,40.2389],[-77.65,40.248],[-77.645,40.2539],[-77.6457,40.256],[-77.6495,40.2576],[-77.6534,40.2574],[-77.6655,40.252],[-77.6677,40.252],[-77.6712,40.2576],[-77.669,40.2601],[-77.6564,40.2704],[-77.6597,40.2745],[-77.6643,40.2782],[-77.6642,40.2805],[-77.6718,40.2898],[-77.6649,40.2973],[-77.6543,40.3074],[-77.6326,40.325],[-77.6137,40.3377],[-77.6067,40.3432],[-77.6037,40.3441],[-77.5994,40.3481],[-77.5828,40.357],[-77.5657,40.3674],[-77.5591,40.3698],[-77.5406,40.3756],[-77.5323,40.376],[-77.5401,40.3992],[-77.5301,40.4042],[-77.5171,40.4116],[-77.509,40.4151],[-77.5002,40.4205],[-77.4817,40.4299],[-77.4784,40.432],[-77.4459,40.4472],[-77.4365,40.4506],[-77.429,40.4545],[-77.4134,40.4606],[-77.3906,40.471],[-77.3381,40.4953],[-77.3096,40.5088],[-77.2896,40.5185],[-77.2806,40.5201],[-77.2767,40.5228],[-77.2688,40.5258],[-77.2317,40.5385],[-77.2165,40.5444],[-77.1985,40.5523],[-77.1829,40.5567],[-77.1728,40.5577],[-77.1676,40.5595],[-77.1829,40.5821],[-77.1763,40.5833],[-77.1659,40.5864],[-77.1516,40.5873],[-77.1496,40.588],[-77.1281,40.5908],[-77.1203,40.5913],[-77.1189,40.5927],[-77.1068,40.5928],[-77.1033,40.5959],[-77.096,40.5963],[-77.0873,40.5981],[-77.078,40.5977],[-77.07,40.5985],[-77.0473,40.6025],[-77.042,40.6042],[-77.033,40.6034],[-77.0233,40.6043],[-77.0001,40.6109],[-76.9876,40.6162],[-76.9561,40.6279],[-76.9491,40.6282],[-76.9508,40.627]]]}}]}