{"type":"FeatureCollection","features":[{"type":"Feature","properties":{"id":"53065","name":"Stevens Co."},"geometry":{"type":"Polygon","coordinates":[[[-117.5371,48.0479],[-117.5366,47.9873],[-117.5359,47.9392],[-117.5361,47.9317],[-117.5353,47.9209],[-117.5357,47.9155],[-117.535,47.8894],[-117.5346,47.8489],[-117.5347,47.8306],[-117.5338,47.7952],[-117.5374,47.7971],[-117.5516,47.8015],[-117.5653,47.8013],[-117.5678,47.8007],[-117.5719,47.7961],[-117.5715,47.7946],[-117.5789,47.7934],[-117.5865,47.7949],[-117.5949,47.7991],[-117.6001,47.803],[-117.6022,47.8059],[-117.6076,47.8105],[-117.61,47.8138],[-117.6164,47.8195],[-117.6181,47.8262],[-117.62,47.8283],[-117.6235,47.8286],[-117.6301,47.8342],[-117.6408,47.836],[-117.6511,47.8347],[-117.6609,47.8436],[-117.6642,47.8502],[-117.6639,47.8569],[-117.6676,47.8638],[-117.6675,47.8702],[-117.666,47.8746],[-117.6665,47.8804],[-117.6728,47.8887],[-117.6782,47.8888],[-117.6922,47.8834],[-117.6975,47.8748],[-117.6994,47.8691],[-117.7018,47.8651],[-117.7015,47.8624],[-117.6985,47.8603],[-117.6978,47.8563],[-117.7037,47.8551],[-117.7075,47.8524],[-117.71,47.8489],[-117.715,47.8459],[-117.72,47.8449],[-117.7362,47.8375],[-117.7389,47.8335],[-117.7427,47.8305],[-117.753,47.8268],[-117.7585,47.8295],[-117.7671,47.8318],[-117.7812,47.8265],[-117.7858,47.8174],[-117.7905,47.8114],[-117.806,47.8122],[-117.8116,47.8175],[-117.818,47.8213],[-117.8209,47.8258],[-117.8283,47.8333],[-117.8415,47.8368],[-117.8523,47.8388],[-117.8591,47.843],[-117.8805,47.8477],[-117.8832,47.8461],[-117.8838,47.8422],[-117.8863,47.8383],[-117.8952,47.8363],[-117.9016,47.8359],[-117.9052,47.8369],[-117.9072,47.8353],[-117.9129,47.8352],[-117.9172,47.8324],[-117.9187,47.829],[-117.9262,47.8253],[-117.9353,47.8232],[-117.9387,47.8252],[-117.9483,47.8271],[-117.9569,47.8281],[-117.9661,47.8322],[-117.9797,47.8344],[-117.9891,47.8347],[-117.9947,47.8322],[-118.0042,47.8232],[-118.0081,47.8173],[-118.0103,47.8097],[-118.0134,47.8056],[-118.0243,47.8021],[-118.0315,47.8038],[-118.036,47.8027],[-118.0462,47.7952],[-118.0482,47.7923],[-118.0526,47.7979],[-118.0562,47.7993],[-118.0635,47.7973],[-118.0698,47.8002],[-118.0782,47.8001],[-118.0811,47.8037],[-118.0836,47.8096],[-118.0901,47.8149],[-118.0993,47.8236],[-118.0971,47.8284],[-118.1055,47.8304],[-118.1078,47.8325],[-118.1178,47.8326],[-118.1196,47.8346],[-118.12,47.8397],[-118.1186,47.8435],[-118.1206,47.8519],[-118.1229,47.8573],[-118.1261,47.8619],[-118.1304,47.8656],[-118.138,47.8754],[-118.1438,47.8847],[-118.1486,47.8867],[-118.1544,47.8866],[-118.1562,47.8843],[-118.1606,47.8851],[-118.1625,47.8898],[-118.1596,47.8952],[-118.1602,47.8972],[-118.1668,47.9028],[-118.1774,47.9014],[-118.1787,47.9043],[-118.1766,47.9105],[-118.1773,47.9118],[-118.1848,47.9163],[-118.1884,47.9198],[-118.1902,47.9263],[-118.1937,47.9278],[-118.2,47.9284],[-118.2022,47.9354],[-118.2062,47.9422],[-118.2106,47.9452],[-118.218,47.9447],[-118.2239,47.9417],[-118.2296,47.9402],[-118.2378,47.9401],[-118.2429,47.9432],[-118.2511,47.9429],[-118.2554,47.941],[-118.2592,47.9376],[-118.26,47.9348],[-118.2719,47.9327],[-118.2741,47.9289],[-118.2899,47.9213],[-118.2938,47.919],[-118.3033,47.9155],[-118.3058,47.9137],[-118.3172,47.9088],[-118.3211,47.9008],[-118.32,47.8973],[-118.3267,47.8963],[-118.3345,47.8938],[-118.3409,47.8943],[-118.34,47.9002],[-118.3502,47.9163],[-118.3561,47.9293],[-118.3524,47.9536],[-118.3487,47.9718],[-118.3521,47.9748],[-118.3706,47.9856],[-118.3754,47.9999],[-118.3815,48.0062],[-118.3887,48.0117],[-118.4011,48.0229],[-118.4024,48.0264],[-118.3966,48.0317],[-118.3797,48.0394],[-118.3695,48.0426],[-118.3589,48.0494],[-118.3471,48.0505],[-118.3395,48.0498],[-118.3161,48.0416],[-118.3107,48.0412],[-118.2998,48.0415],[-118.2755,48.0406],[-118.2704,48.0429],[-118.2672,48.0471],[-118.2656,48.0513],[-118.2667,48.0567],[-118.2645,48.0583],[-118.2579,48.0598],[-118.2501,48.0551],[-118.2452,48.0547],[-118.2382,48.0582],[-118.2344,48.0618],[-118.2332,48.0653],[-118.2336,48.0704],[-118.2353,48.0755],[-118.2341,48.0812],[-118.2313,48.0848],[-118.2311,48.0883],[-118.2375,48.1048],[-118.2432,48.1083],[-118.2511,48.1108],[-118.2536,48.113],[-118.2547,48.1174],[-118.2536,48.1228],[-118.2544,48.1285],[-118.2511,48.1327],[-118.2476,48.1347],[-118.2426,48.1355],[-118.2333,48.1347],[-118.2212,48.1381],[-118.2075,48.1383],[-118.2005,48.1412],[-118.194,48.1492],[-118.1913,48.1586],[-118.1923,48.1671],[-118.196,48.1791],[-118.1966,48.1906],[-118.1932,48.1948],[-118.1879,48.1971],[-118.1895,48.2076],[-118.1949,48.2125],[-118.1907,48.2159],[-118.1803,48.2215],[-118.1653,48.2304],[-118.1545,48.2379],[-118.148,48.2454],[-118.1441,48.2554],[-118.1415,48.2602],[-118.14,48.2683],[-118.1441,48.2751],[-118.1485,48.278],[-118.1508,48.2823],[-118.1523,48.2899],[-118.1545,48.2959],[-118.1587,48.301],[-118.1649,48.3045],[-118.1689,48.3124],[-118.1756,48.3195],[-118.176,48.3264],[-118.1802,48.3357],[-118.1794,48.3426],[-118.1802,48.3637],[-118.1819,48.3729],[-118.1858,48.3782],[-118.1876,48.3874],[-118.1897,48.3915],[-118.2005,48.4034],[-118.2035,48.4097],[-118.2031,48.4154],[-118.2004,48.4263],[-118.2035,48.4339],[-118.2029,48.4422],[-118.2048,48.4449],[-118.212,48.45],[-118.2122,48.4577],[-118.2105,48.464],[-118.2065,48.4703],[-118.2033,48.4728],[-118.1892,48.4816],[-118.1817,48.4999],[-118.1813,48.5064],[-118.1787,48.5149],[-118.1791,48.5168],[-118.1749,48.5213],[-118.1707,48.5231],[-118.1634,48.5224],[-118.1567,48.5206],[-118.1497,48.5206],[-118.147,48.5217],[-118.1419,48.5267],[-118.1399,48.5314],[-118.1423,48.5369],[-118.1431,48.5482],[-118.1402,48.5513],[-118.1385,48.5586],[-118.1379,48.5655],[-118.1335,48.5747],[-118.1254,48.5845],[-118.1275,48.5905],[-118.1272,48.6007],[-118.1284,48.6048],[-118.1272,48.6118],[-118.1254,48.616],[-118.1205,48.6198],[-118.1179,48.6234],[-118.1198,48.6307],[-118.1164,48.6315],[-118.1161,48.6366],[-118.1145,48.6387],[-118.1071,48.6409],[-118.1045,48.646],[-118.105,48.6535],[-118.1087,48.6623],[-118.1102,48.6713],[-118.1118,48.674],[-118.1164,48.674],[-118.1185,48.6793],[-118.1155,48.6804],[-118.1143,48.6839],[-118.1169,48.6926],[-118.1194,48.6962],[-118.121,48.7023],[-118.1182,48.7083],[-118.1207,48.713],[-118.1193,48.7189],[-118.1258,48.7247],[-118.1261,48.7278],[-118.1179,48.7345],[-118.1184,48.7376],[-118.1248,48.7367],[-118.1288,48.7399],[-118.13,48.7447],[-118.1227,48.7458],[-118.1223,48.7499],[-118.1261,48.7537],[-118.1336,48.7574],[-118.133,48.7597],[-118.1254,48.7616],[-118.127,48.7651],[-118.1332,48.7664],[-118.1346,48.7741],[-118.131,48.7777],[-118.1236,48.7745],[-118.122,48.7793],[-118.1268,48.7862],[-118.1358,48.783],[-118.1385,48.7798],[-118.1419,48.7791],[-118.1453,48.7809],[-118.1462,48.786],[-118.1481,48.7881],[-118.1574,48.791],[-118.1609,48.7949],[-118.1588,48.8],[-118.1609,48.809],[-118.1663,48.8146],[-118.1711,48.828],[-118.1765,48.8317],[-118.1793,48.8376],[-118.1866,48.8381],[-118.1955,48.8407],[-118.1961,48.8425],[-118.1938,48.8488],[-118.1942,48.8515],[-118.2014,48.8576],[-118.1985,48.8673],[-118.2101,48.8723],[-118.2127,48.8761],[-118.2138,48.8802],[-118.2125,48.8856],[-118.2145,48.8882],[-118.2093,48.8952],[-118.2095,48.8998],[-118.2032,48.9015],[-118.2001,48.9076],[-118.196,48.9133],[-118.2012,48.9148],[-118.2057,48.9187],[-118.2118,48.9224],[-118.2178,48.9288],[-118.2217,48.9371],[-118.2146,48.9533],[-118.2105,48.9576],[-118.2113,48.9593],[-118.2072,48.9631],[-118.2142,48.9684],[-118.2199,48.9683],[-118.2217,48.9705],[-118.2178,48.9735],[-118.2159,48.9775],[-118.2167,48.9811],[-118.2146,48.986],[-118.21,48.9856],[-118.2059,48.9874],[-118.207,48.9897],[-118.2111,48.9903],[-118.219,48.995],[-118.22,48.9974],[-118.2077,48.997],[-118.2038,48.9947],[-118.1975,48.9938],[-118.1948,48.9969],[-118.1974,49.0004],[-118.002,49.0004],[-118.0011,48.9999],[-117.8844,48.9999],[-117.8761,49.0005],[-117.6073,49.0008],[-117.43,49.0004],[-117.4304,48.9232],[-117.499,48.9232],[-117.4985,48.8369],[-117.5639,48.8367],[-117.564,48.7582],[-117.5638,48.743],[-117.5959,48.7429],[-117.6294,48.7426],[-117.6292,48.6559],[-117.6072,48.6561],[-117.5676,48.656],[-117.5639,48.6562],[-117.5,48.6562],[-117.5008,48.5717],[-117.501,48.5717],[-117.5012,48.484],[-117.5006,48.484],[-117.5004,48.443],[-117.5005,48.3948],[-117.5,48.3948],[-117.5004,48.3089],[-117.5,48.2885],[-117.5001,48.2381],[-117.5009,48.2234],[-117.5022,48.2234],[-117.5025,48.1947],[-117.5021,48.1732],[-117.5024,48.1347],[-117.4376,48.1347],[-117.4374,48.1045],[-117.4368,48.0765],[-117.437,48.0472],[-117.5371,48.0479]]]}},{"type":"Feature","properties":{"id":"53063","name":"Spokane Co."},"geometry":{"type":"Polygon","coordinates":[[[-117.3066,48.0463],[-117.2401,48.046],[-117.1972,48.046],[-117.1737,48.0458],[-117.0417,48.0455],[-117.0424,47.9663],[-117.0425,47.839],[-117.042,47.8224],[-117.0421,47.7786],[-117.0427,47.7609],[-117.0416,47.7353],[-117.0417,47.7227],[-117.0408,47.5741],[-117.0413,47.5582],[-117.0405,47.5224],[-117.0399,47.4778],[-117.0399,47.3991],[-117.0402,47.3749],[-117.0398,47.3472],[-117.04,47.2593],[-117.0677,47.2599],[-117.0886,47.2595],[-117.2193,47.2596],[-117.3267,47.2598],[-117.4733,47.2595],[-117.4994,47.2595],[-117.5634,47.2599],[-117.686,47.26],[-117.7492,47.2602],[-117.8236,47.2602],[-117.823,47.4094],[-117.8228,47.4206],[-117.8218,47.6146],[-117.8194,47.6146],[-117.8201,47.7016],[-117.8204,47.7887],[-117.8209,47.8258],[-117.818,47.8213],[-117.8116,47.8175],[-117.806,47.8122],[-117.7905,47.8114],[-117.7858,47.8174],[-117.7812,47.8265],[-117.7671,47.8318],[-117.7585,47.8295],[-117.753,47.8268],[-117.7427,47.8305],[-117.7389,47.8335],[-117.7362,47.8375],[-117.72,47.8449],[-117.715,47.8459],[-117.71,47.8489],[-117.7075,47.8524],[-117.7037,47.8551],[-117.6978,47.8563],[-117.6985,47.8603],[-117.7015,47.8624],[-117.7018,47.8651],[-117.6994,47.8691],[-117.6975,47.8748],[-117.6922,47.8834],[-117.6782,47.8888],[-117.6728,47.8887],[-117.6665,47.8804],[-117.666,47.8746],[-117.6675,47.8702],[-117.6676,47.8638],[-117.6639,47.8569],[-117.6642,47.8502],[-117.6609,47.8436],[-117.6511,47.8347],[-117.6408,47.836],[-117.6301,47.8342],[-117.6235,47.8286],[-117.62,47.8283],[-117.6181,47.8262],[-117.6164,47.8195],[-117.61,47.8138],[-117.6076,47.8105],[-117.6022,47.8059],[-117.6001,47.803],[-117.5949,47.7991],[-117.5865,47.7949],[-117.5789,47.7934],[-117.5715,47.7946],[-117.5719,47.7961],[-117.5678,47.8007],[-117.5653,47.8013],[-117.5516,47.8015],[-117.5374,47.7971],[-117.5338,47.7952],[-117.5347,47.8306],[-117.5346,47.8489],[-117.535,47.8894],[-117.5357,47.9155],[-117.5353,47.9209],[-117.5361,47.9317],[-117.5359,47.9392],[-117.5366,47.9873],[-117.5371,48.0479],[-117.437,48.0472],[-117.3066,48.0463]]]}}]}