{"type":"FeatureCollection","features":[{"type":"Feature","properties":{"id":"26015","name":"Barry Co."},"geometry":{"type":"Polygon","coordinates":[[[-85.477,42.7688],[-85.3849,42.7693],[-85.3096,42.7699],[-85.2713,42.7697],[-85.1928,42.7698],[-85.1538,42.7702],[-85.0742,42.7708],[-85.0746,42.7414],[-85.0756,42.6836],[-85.0754,42.6397],[-85.0749,42.5819],[-85.0742,42.529],[-85.0732,42.4795],[-85.0716,42.4214],[-85.1264,42.421],[-85.2117,42.4205],[-85.2989,42.4198],[-85.3384,42.4197],[-85.4252,42.4202],[-85.4549,42.4207],[-85.5253,42.4215],[-85.5432,42.4214],[-85.5434,42.4284],[-85.5434,42.4653],[-85.543,42.5365],[-85.5432,42.5909],[-85.5439,42.6094],[-85.5445,42.6528],[-85.5451,42.6814],[-85.5455,42.7467],[-85.5456,42.7681],[-85.477,42.7688]]]}},{"type":"Feature","properties":{"id":"26139","name":"Ottawa Co."},"geometry":{"type":"Polygon","coordinates":[[[-85.7892,43.118],[-85.7888,43.1022],[-85.788,43.0517],[-85.7885,43.0309],[-85.7853,42.9869],[-85.7843,42.9559],[-85.7822,42.9117],[-85.7823,42.8774],[-85.7821,42.8563],[-85.7827,42.8268],[-85.7828,42.7974],[-85.7825,42.7682],[-85.8219,42.7678],[-85.8739,42.7675],[-85.9014,42.7677],[-85.9605,42.7687],[-85.9907,42.7689],[-86.0373,42.7689],[-86.1619,42.7682],[-86.2089,42.7675],[-86.2122,42.773],[-86.2111,42.7765],[-86.2104,42.7912],[-86.2112,42.8313],[-86.2102,42.8556],[-86.2111,42.8691],[-86.2141,42.8836],[-86.2145,42.8976],[-86.2157,42.9002],[-86.2154,42.9058],[-86.2162,42.919],[-86.2198,42.9466],[-86.2231,42.9697],[-86.2263,42.9883],[-86.2327,43.0158],[-86.2443,43.0497],[-86.2513,43.0601],[-86.2505,43.067],[-86.2546,43.0834],[-86.272,43.1184],[-86.2053,43.1178],[-86.1462,43.1174],[-86.0668,43.1181],[-86.027,43.1183],[-86.0171,43.1185],[-85.9074,43.1189],[-85.9078,43.1624],[-85.9084,43.2059],[-85.8796,43.206],[-85.7907,43.2052],[-85.7892,43.118]]]}},{"type":"Feature","properties":{"id":"26067","name":"Ionia Co."},"geometry":{"type":"Polygon","coordinates":[[[-85.2242,43.1197],[-85.1831,43.1195],[-85.1151,43.12],[-85.075,43.1202],[-84.9855,43.1198],[-84.8369,43.1189],[-84.8372,43.0684],[-84.8376,43.0326],[-84.8375,42.989],[-84.8376,42.9438],[-84.8373,42.8787],[-84.8371,42.8211],[-84.8371,42.7705],[-84.9558,42.7705],[-85.0742,42.7708],[-85.1538,42.7702],[-85.1928,42.7698],[-85.2713,42.7697],[-85.3096,42.7699],[-85.3103,42.8016],[-85.3102,42.8133],[-85.3112,42.8423],[-85.3116,42.8776],[-85.3119,42.9859],[-85.3124,43.0297],[-85.3125,43.1188],[-85.2242,43.1197]]]}},{"type":"Feature","properties":{"id":"26081","name":"Kent Co."},"geometry":{"type":"Polygon","coordinates":[[[-85.5069,43.2942],[-85.4925,43.2943],[-85.4223,43.2943],[-85.3626,43.2944],[-85.3124,43.2942],[-85.3123,43.279],[-85.3123,43.1768],[-85.3125,43.1188],[-85.3124,43.0297],[-85.3119,42.9859],[-85.3116,42.8776],[-85.3112,42.8423],[-85.3102,42.8133],[-85.3103,42.8016],[-85.3096,42.7699],[-85.3849,42.7693],[-85.477,42.7688],[-85.5456,42.7681],[-85.605,42.7683],[-85.6633,42.7681],[-85.7415,42.7683],[-85.7825,42.7682],[-85.7828,42.7974],[-85.7827,42.8268],[-85.7821,42.8563],[-85.7823,42.8774],[-85.7822,42.9117],[-85.7843,42.9559],[-85.7853,42.9869],[-85.7885,43.0309],[-85.788,43.0517],[-85.7888,43.1022],[-85.7892,43.118],[-85.7907,43.2052],[-85.7904,43.293],[-85.741,43.2933],[-85.7125,43.2933],[-85.6818,43.2938],[-85.6116,43.2942],[-85.5625,43.2943],[-85.5069,43.2942]]]}},{"type":"Feature","properties":{"id":"26117","name":"Montcalm Co."},"geometry":{"type":"Polygon","coordinates":[[[-84.9855,43.1198],[-85.075,43.1202],[-85.1151,43.12],[-85.1831,43.1195],[-85.2242,43.1197],[-85.3125,43.1188],[-85.3123,43.1768],[-85.3123,43.279],[-85.3124,43.2942],[-85.3626,43.2944],[-85.4223,43.2943],[-85.4925,43.2943],[-85.5069,43.2942],[-85.5625,43.2943],[-85.5627,43.316],[-85.5626,43.4252],[-85.5623,43.4681],[-85.4626,43.4681],[-85.4427,43.4682],[-85.3591,43.4682],[-85.3234,43.4678],[-85.2043,43.4674],[-85.1802,43.467],[-85.1242,43.4664],[-85.085,43.4662],[-85.0052,43.4661],[-84.9657,43.4662],[-84.846,43.4662],[-84.845,43.3792],[-84.8452,43.3284],[-84.8456,43.2922],[-84.8353,43.2922],[-84.8364,43.2057],[-84.8367,43.1717],[-84.8369,43.1189],[-84.9855,43.1198]]]}}]}