{"type":"FeatureCollection","features":[{"type":"Feature","properties":{"id":"36063","name":"Niagara Co."},"geometry":{"type":"Polygon","coordinates":[[[-78.468,43.0877],[-78.4652,43.086],[-78.4725,43.0817],[-78.4719,43.0842],[-78.4816,43.0838],[-78.4847,43.0862],[-78.4889,43.0827],[-78.4927,43.084],[-78.4965,43.0818],[-78.4996,43.0835],[-78.4969,43.0864],[-78.5028,43.0866],[-78.5007,43.0891],[-78.505,43.0901],[-78.5061,43.0931],[-78.5093,43.094],[-78.5104,43.098],[-78.5116,43.0956],[-78.5148,43.0949],[-78.514,43.0914],[-78.5223,43.0882],[-78.5262,43.0876],[-78.532,43.0886],[-78.5363,43.0855],[-78.5383,43.0874],[-78.5403,43.0859],[-78.5404,43.0901],[-78.5426,43.0888],[-78.5475,43.0918],[-78.5464,43.0933],[-78.5413,43.0933],[-78.5419,43.0965],[-78.5456,43.0987],[-78.5502,43.0966],[-78.5507,43.0929],[-78.5609,43.0904],[-78.5574,43.0938],[-78.5603,43.0973],[-78.5641,43.0946],[-78.5645,43.0889],[-78.5679,43.088],[-78.5762,43.0888],[-78.5742,43.0824],[-78.5761,43.0798],[-78.5792,43.0852],[-78.5782,43.0875],[-78.5818,43.0889],[-78.5851,43.0846],[-78.5802,43.0802],[-78.5841,43.0769],[-78.5827,43.0752],[-78.5861,43.0731],[-78.5909,43.0762],[-78.5919,43.0714],[-78.5953,43.0696],[-78.5956,43.0725],[-78.604,43.072],[-78.6018,43.0766],[-78.6059,43.0756],[-78.6119,43.0779],[-78.6142,43.0743],[-78.6163,43.0745],[-78.6172,43.0779],[-78.6125,43.0836],[-78.6166,43.085],[-78.6189,43.0874],[-78.6233,43.085],[-78.6267,43.0851],[-78.6327,43.091],[-78.6301,43.0935],[-78.6361,43.0933],[-78.6418,43.0974],[-78.6408,43.0907],[-78.6433,43.0882],[-78.6474,43.0896],[-78.649,43.0873],[-78.6466,43.0856],[-78.646,43.0816],[-78.6484,43.0806],[-78.6549,43.0829],[-78.6585,43.0852],[-78.6647,43.0864],[-78.6752,43.0839],[-78.6797,43.0846],[-78.6806,43.081],[-78.6837,43.0806],[-78.6873,43.0845],[-78.6874,43.0865],[-78.6913,43.0887],[-78.6969,43.0863],[-78.7075,43.0869],[-78.7096,43.0825],[-78.7142,43.0832],[-78.719,43.0811],[-78.724,43.0855],[-78.7272,43.0862],[-78.7336,43.0842],[-78.7377,43.0783],[-78.7412,43.0749],[-78.7432,43.071],[-78.7513,43.0693],[-78.7591,43.0709],[-78.769,43.07],[-78.7786,43.0654],[-78.7869,43.0666],[-78.8021,43.0658],[-78.8071,43.0611],[-78.8046,43.0552],[-78.8138,43.0517],[-78.8291,43.0514],[-78.8323,43.048],[-78.8314,43.0454],[-78.8267,43.0395],[-78.8254,43.0337],[-78.8302,43.0297],[-78.8333,43.0242],[-78.8393,43.0195],[-78.8417,43.0189],[-78.8512,43.0193],[-78.8566,43.0221],[-78.8688,43.0233],[-78.8762,43.0216],[-78.8799,43.0219],[-78.882,43.0242],[-78.8902,43.022],[-78.89,43.0246],[-78.893,43.0378],[-78.8963,43.0442],[-78.9059,43.0516],[-78.9115,43.0547],[-78.9453,43.067],[-78.95,43.0679],[-78.9858,43.0686],[-79.0097,43.0696],[-79.0192,43.0679],[-79.0745,43.0779],[-79.0754,43.0814],[-79.0648,43.0932],[-79.058,43.107],[-79.0597,43.1128],[-79.062,43.1154],[-79.0691,43.12],[-79.0611,43.1254],[-79.0568,43.1269],[-79.0495,43.1351],[-79.0441,43.1381],[-79.0424,43.1437],[-79.0429,43.1492],[-79.0446,43.1533],[-79.0466,43.1624],[-79.0485,43.1647],[-79.0531,43.1737],[-79.0526,43.1837],[-79.0487,43.1997],[-79.0571,43.2107],[-79.0529,43.2221],[-79.0559,43.2386],[-79.0561,43.2542],[-79.0705,43.2625],[-79.0632,43.2637],[-79.0198,43.2737],[-78.9986,43.277],[-78.988,43.2778],[-78.9719,43.2813],[-78.9556,43.2853],[-78.9308,43.2933],[-78.908,43.2989],[-78.9019,43.2999],[-78.8833,43.3043],[-78.8597,43.3105],[-78.8514,43.3122],[-78.8363,43.3185],[-78.8341,43.3176],[-78.8157,43.3206],[-78.8081,43.3231],[-78.774,43.3275],[-78.7472,43.3346],[-78.729,43.339],[-78.7191,43.3395],[-78.7152,43.339],[-78.6969,43.3413],[-78.6867,43.3434],[-78.6498,43.3534],[-78.6436,43.3558],[-78.6343,43.3576],[-78.5991,43.3614],[-78.5474,43.3695],[-78.5199,43.3724],[-78.5113,43.3718],[-78.4889,43.3748],[-78.4825,43.3744],[-78.4778,43.3717],[-78.4731,43.3708],[-78.4655,43.3712],[-78.4664,43.3028],[-78.4619,43.242],[-78.4604,43.2162],[-78.463,43.1831],[-78.4656,43.1436],[-78.4658,43.1363],[-78.465,43.1173],[-78.4644,43.0887],[-78.468,43.0877]]]}},{"type":"Feature","properties":{"id":"36029","name":"Erie Co."},"geometry":{"type":"Polygon","coordinates":[[[-78.4638,43.0419],[-78.4631,43.0134],[-78.4643,42.9655],[-78.4639,42.9245],[-78.4639,42.8999],[-78.4644,42.8674],[-78.4863,42.8675],[-78.4862,42.8573],[-78.488,42.7805],[-78.4633,42.7805],[-78.4634,42.7539],[-78.464,42.6939],[-78.4635,42.6664],[-78.4619,42.6133],[-78.462,42.6065],[-78.4639,42.5364],[-78.4686,42.5334],[-78.4753,42.5344],[-78.4833,42.533],[-78.4838,42.5351],[-78.4885,42.5348],[-78.4914,42.53],[-78.4974,42.5299],[-78.499,42.5278],[-78.5077,42.5265],[-78.5116,42.5278],[-78.5117,42.5251],[-78.5191,42.5192],[-78.5276,42.522],[-78.5315,42.5211],[-78.5331,42.5171],[-78.5379,42.5177],[-78.5388,42.5142],[-78.547,42.5178],[-78.5472,42.5156],[-78.5526,42.5144],[-78.5543,42.5118],[-78.5575,42.5133],[-78.561,42.5127],[-78.5637,42.5088],[-78.5676,42.51],[-78.5686,42.5127],[-78.5733,42.5106],[-78.5824,42.5143],[-78.5856,42.513],[-78.5878,42.509],[-78.5969,42.5127],[-78.6081,42.5064],[-78.6127,42.5028],[-78.6148,42.5044],[-78.622,42.5042],[-78.6263,42.5001],[-78.6273,42.4973],[-78.6313,42.4981],[-78.6341,42.4966],[-78.6387,42.4981],[-78.6457,42.4909],[-78.6496,42.4926],[-78.654,42.4903],[-78.6553,42.4921],[-78.6624,42.4924],[-78.6637,42.4894],[-78.6683,42.4873],[-78.6713,42.4885],[-78.6742,42.4868],[-78.6758,42.4836],[-78.6803,42.4846],[-78.6823,42.4831],[-78.6826,42.4781],[-78.6861,42.4756],[-78.6914,42.4766],[-78.6923,42.4724],[-78.6952,42.4718],[-78.7005,42.4758],[-78.6995,42.4796],[-78.7004,42.4848],[-78.7033,42.4867],[-78.7061,42.4846],[-78.7105,42.485],[-78.7121,42.4836],[-78.7141,42.4867],[-78.7178,42.484],[-78.7288,42.4825],[-78.7306,42.4792],[-78.7345,42.4788],[-78.7383,42.4805],[-78.7392,42.4784],[-78.7372,42.4754],[-78.7398,42.4728],[-78.7477,42.4741],[-78.7506,42.4727],[-78.7507,42.4692],[-78.7581,42.4691],[-78.7636,42.4705],[-78.7644,42.4688],[-78.7596,42.4671],[-78.7585,42.4636],[-78.7656,42.4617],[-78.7686,42.4643],[-78.7724,42.4651],[-78.7767,42.4638],[-78.7768,42.4609],[-78.77,42.459],[-78.7716,42.4571],[-78.7808,42.4552],[-78.7868,42.4575],[-78.7872,42.4589],[-78.7946,42.4627],[-78.7995,42.4621],[-78.8059,42.4585],[-78.8097,42.4589],[-78.8218,42.4507],[-78.8259,42.4519],[-78.8276,42.4482],[-78.8321,42.4489],[-78.8355,42.4463],[-78.8365,42.4437],[-78.8403,42.4427],[-78.8437,42.4448],[-78.8507,42.4427],[-78.8542,42.4435],[-78.8585,42.4421],[-78.8681,42.442],[-78.8716,42.4395],[-78.8777,42.4417],[-78.883,42.4383],[-78.8871,42.4421],[-78.8922,42.4393],[-78.896,42.4408],[-78.8987,42.448],[-78.9005,42.4491],[-78.9055,42.4462],[-78.9117,42.4479],[-78.915,42.4442],[-78.9204,42.4426],[-78.922,42.4444],[-78.9212,42.4484],[-78.9185,42.4494],[-78.9185,42.4532],[-78.9257,42.4586],[-78.93,42.46],[-78.9351,42.4636],[-78.9384,42.4678],[-78.9512,42.4686],[-78.9521,42.4711],[-78.957,42.4724],[-78.9634,42.4866],[-78.9612,42.494],[-78.9666,42.4937],[-78.9698,42.4981],[-78.9751,42.5025],[-78.9781,42.5028],[-78.9802,42.5062],[-78.9862,42.5053],[-78.9828,42.5116],[-78.9875,42.5131],[-78.9864,42.5191],[-78.9899,42.5234],[-78.9917,42.5292],[-78.9953,42.5318],[-79.0034,42.5328],[-79.0081,42.5358],[-79.0134,42.5347],[-79.0272,42.5406],[-79.0311,42.5407],[-79.0331,42.5433],[-79.0398,42.5377],[-79.0512,42.5391],[-79.0538,42.5362],[-79.0608,42.5379],[-79.072,42.5427],[-79.0775,42.5457],[-79.0831,42.5464],[-79.0865,42.5495],[-79.091,42.5516],[-79.0812,42.5539],[-79.0833,42.5566],[-79.0897,42.556],[-79.0924,42.5571],[-79.0958,42.5645],[-79.1013,42.5624],[-79.1062,42.5641],[-79.1042,42.5682],[-79.1086,42.5702],[-79.1149,42.57],[-79.1223,42.5655],[-79.1258,42.5651],[-79.1369,42.5698],[-79.1305,42.5902],[-79.1263,42.5909],[-79.1219,42.5942],[-79.1197,42.6026],[-79.1147,42.6037],[-79.1114,42.6134],[-79.1013,42.6207],[-79.0982,42.622],[-79.0933,42.6298],[-79.0893,42.6295],[-79.0849,42.6317],[-79.0788,42.6401],[-79.0733,42.64],[-79.0638,42.6448],[-79.063,42.6647],[-79.0604,42.6712],[-79.0541,42.6757],[-79.052,42.683],[-79.0468,42.6913],[-79.0429,42.6914],[-79.0306,42.6966],[-79.0271,42.696],[-79.0216,42.6982],[-79.0197,42.7006],[-79.015,42.7006],[-79.0062,42.7046],[-79.0013,42.7037],[-78.9912,42.7054],[-78.9778,42.7118],[-78.9695,42.7171],[-78.9677,42.7205],[-78.9603,42.7223],[-78.9442,42.732],[-78.9355,42.7326],[-78.9182,42.7373],[-78.9082,42.7453],[-78.9023,42.7478],[-78.8805,42.7623],[-78.8776,42.7656],[-78.8743,42.7661],[-78.8657,42.7717],[-78.8597,42.7796],[-78.8535,42.784],[-78.8536,42.7942],[-78.8565,42.8003],[-78.8594,42.8007],[-78.8684,42.816],[-78.8718,42.8227],[-78.8719,42.8262],[-78.8682,42.8297],[-78.8684,42.8329],[-78.8637,42.8302],[-78.8599,42.832],[-78.8608,42.8374],[-78.8579,42.8388],[-78.8658,42.8529],[-78.872,42.8521],[-78.8826,42.8673],[-78.8901,42.8767],[-78.8879,42.8789],[-78.8917,42.8848],[-78.9061,42.8993],[-78.9057,42.9234],[-78.9092,42.9333],[-78.9189,42.9469],[-78.9324,42.9559],[-78.9618,42.9578],[-78.9751,42.9688],[-79.0116,42.9853],[-79.02,42.9948],[-79.0233,43.0164],[-79.0118,43.029],[-79.0052,43.0471],[-78.9994,43.0561],[-79.0071,43.0658],[-79.0192,43.0679],[-79.0097,43.0696],[-78.9858,43.0686],[-78.95,43.0679],[-78.9453,43.067],[-78.9115,43.0547],[-78.9059,43.0516],[-78.8963,43.0442],[-78.893,43.0378],[-78.89,43.0246],[-78.8902,43.022],[-78.882,43.0242],[-78.8799,43.0219],[-78.8762,43.0216],[-78.8688,43.0233],[-78.8566,43.0221],[-78.8512,43.0193],[-78.8417,43.0189],[-78.8393,43.0195],[-78.8333,43.0242],[-78.8302,43.0297],[-78.8254,43.0337],[-78.8267,43.0395],[-78.8314,43.0454],[-78.8323,43.048],[-78.8291,43.0514],[-78.8138,43.0517],[-78.8046,43.0552],[-78.8071,43.0611],[-78.8021,43.0658],[-78.7869,43.0666],[-78.7786,43.0654],[-78.769,43.07],[-78.7591,43.0709],[-78.7513,43.0693],[-78.7432,43.071],[-78.7412,43.0749],[-78.7377,43.0783],[-78.7336,43.0842],[-78.7272,43.0862],[-78.724,43.0855],[-78.719,43.0811],[-78.7142,43.0832],[-78.7096,43.0825],[-78.7075,43.0869],[-78.6969,43.0863],[-78.6913,43.0887],[-78.6874,43.0865],[-78.6873,43.0845],[-78.6837,43.0806],[-78.6806,43.081],[-78.6797,43.0846],[-78.6752,43.0839],[-78.6647,43.0864],[-78.6585,43.0852],[-78.6549,43.0829],[-78.6484,43.0806],[-78.646,43.0816],[-78.6466,43.0856],[-78.649,43.0873],[-78.6474,43.0896],[-78.6433,43.0882],[-78.6408,43.0907],[-78.6418,43.0974],[-78.6361,43.0933],[-78.6301,43.0935],[-78.6327,43.091],[-78.6267,43.0851],[-78.6233,43.085],[-78.6189,43.0874],[-78.6166,43.085],[-78.6125,43.0836],[-78.6172,43.0779],[-78.6163,43.0745],[-78.6142,43.0743],[-78.6119,43.0779],[-78.6059,43.0756],[-78.6018,43.0766],[-78.604,43.072],[-78.5956,43.0725],[-78.5953,43.0696],[-78.5919,43.0714],[-78.5909,43.0762],[-78.5861,43.0731],[-78.5827,43.0752],[-78.5841,43.0769],[-78.5802,43.0802],[-78.5851,43.0846],[-78.5818,43.0889],[-78.5782,43.0875],[-78.5792,43.0852],[-78.5761,43.0798],[-78.5742,43.0824],[-78.5762,43.0888],[-78.5679,43.088],[-78.5645,43.0889],[-78.5641,43.0946],[-78.5603,43.0973],[-78.5574,43.0938],[-78.5609,43.0904],[-78.5507,43.0929],[-78.5502,43.0966],[-78.5456,43.0987],[-78.5419,43.0965],[-78.5413,43.0933],[-78.5464,43.0933],[-78.5475,43.0918],[-78.5426,43.0888],[-78.5404,43.0901],[-78.5403,43.0859],[-78.5383,43.0874],[-78.5363,43.0855],[-78.532,43.0886],[-78.5262,43.0876],[-78.5223,43.0882],[-78.514,43.0914],[-78.5148,43.0949],[-78.5116,43.0956],[-78.5104,43.098],[-78.5093,43.094],[-78.5061,43.0931],[-78.505,43.0901],[-78.5007,43.0891],[-78.5028,43.0866],[-78.4969,43.0864],[-78.4996,43.0835],[-78.4965,43.0818],[-78.4927,43.084],[-78.4889,43.0827],[-78.4847,43.0862],[-78.4816,43.0838],[-78.4719,43.0842],[-78.4725,43.0817],[-78.4652,43.086],[-78.468,43.0877],[-78.4644,43.0887],[-78.4638,43.0419]]]}}]}