{"type":"FeatureCollection","features":[{"type":"Feature","properties":{"id":"35043","name":"Sandoval Co."},"geometry":{"type":"MultiPolygon","coordinates":[[[[-106.2483,35.8392],[-106.2493,35.8428],[-106.261,35.8467],[-106.2632,35.8505],[-106.2709,35.8526],[-106.277,35.8555],[-106.2483,35.8557],[-106.2483,35.8392]]],[[[-106.3672,35.2174],[-106.4187,35.2174],[-106.4594,35.2179],[-106.5026,35.2179],[-106.574,35.2179],[-106.6045,35.2179],[-106.6105,35.2137],[-106.6114,35.2146],[-106.6186,35.2118],[-106.6214,35.2093],[-106.6397,35.2029],[-106.6434,35.1978],[-106.6455,35.2016],[-106.6446,35.2062],[-106.6425,35.2073],[-106.651,35.2108],[-106.6487,35.2145],[-106.6581,35.2179],[-106.6966,35.218],[-106.8531,35.218],[-106.962,35.2184],[-107.0984,35.2185],[-107.1348,35.2194],[-107.1972,35.2195],[-107.2389,35.3055],[-107.3094,35.3057],[-107.3103,35.4195],[-107.3061,35.4191],[-107.3078,35.5257],[-107.3083,35.5835],[-107.3084,35.6828],[-107.3087,35.74],[-107.3085,35.869],[-107.3086,35.8854],[-107.3087,35.9986],[-107.5374,36.0002],[-107.6265,36.0003],[-107.6262,36.0885],[-107.6247,36.1324],[-107.6243,36.1907],[-107.6243,36.2198],[-107.5714,36.2199],[-107.5538,36.2189],[-107.5306,36.2184],[-107.4759,36.2176],[-107.4111,36.218],[-107.3046,36.2146],[-107.254,36.2166],[-106.8851,36.2166],[-106.8859,36.1176],[-106.8859,36.0962],[-106.8853,35.999],[-106.8756,35.9986],[-106.8082,35.9988],[-106.4473,36.0012],[-106.3908,36.0014],[-106.3816,36.0004],[-106.3291,36.0012],[-106.2472,36.0014],[-106.2472,35.9803],[-106.2466,35.9732],[-106.2482,35.9663],[-106.2642,35.9655],[-106.2642,35.9728],[-106.2824,35.9728],[-106.3004,35.9734],[-106.3002,35.9584],[-106.3168,35.9585],[-106.3154,35.9524],[-106.3339,35.9518],[-106.35,35.9526],[-106.3861,35.9527],[-106.3858,35.9599],[-106.3995,35.9601],[-106.3997,35.9491],[-106.3996,35.8278],[-106.4173,35.8278],[-106.4185,35.8256],[-106.4173,35.822],[-106.418,35.8184],[-106.4137,35.8172],[-106.4146,35.8146],[-106.4111,35.8109],[-106.4007,35.8076],[-106.3967,35.8085],[-106.3898,35.8079],[-106.3861,35.8089],[-106.3824,35.808],[-106.377,35.8097],[-106.3741,35.8124],[-106.3704,35.8131],[-106.3652,35.8109],[-106.3622,35.8114],[-106.357,35.807],[-106.357,35.8164],[-106.3513,35.8138],[-106.3452,35.8122],[-106.3387,35.808],[-106.3327,35.807],[-106.3249,35.8071],[-106.2994,35.7973],[-106.2826,35.7919],[-106.266,35.7795],[-106.2599,35.7698],[-106.2578,35.7697],[-106.2541,35.7543],[-106.2505,35.7555],[-106.2502,35.6995],[-106.2503,35.6529],[-106.2487,35.6529],[-106.2487,35.506],[-106.2486,35.4457],[-106.2488,35.4433],[-106.2489,35.3046],[-106.2456,35.3043],[-106.2457,35.2507],[-106.2442,35.2157],[-106.3672,35.2174]]]]}},{"type":"Feature","properties":{"id":"35001","name":"Bernalillo Co."},"geometry":{"type":"Polygon","coordinates":[[[-106.2435,35.1714],[-106.2437,35.1702],[-106.2436,35.1344],[-106.2438,35.0821],[-106.2439,35.04],[-106.2438,34.9534],[-106.2014,34.9533],[-106.1498,34.9535],[-106.1499,34.9196],[-106.1497,34.8701],[-106.1882,34.8702],[-106.1882,34.8693],[-106.2217,34.8694],[-106.3732,34.8703],[-106.4118,34.8703],[-106.4116,34.8897],[-106.4152,34.893],[-106.4181,34.8923],[-106.4229,34.898],[-106.424,34.9019],[-106.4295,34.9034],[-106.6862,34.9062],[-106.6964,34.897],[-106.7029,34.8853],[-106.7108,34.8806],[-106.7144,34.8796],[-106.7185,34.875],[-106.7208,34.8701],[-106.7662,34.87],[-107.0245,34.87],[-107.0666,34.9572],[-107.0842,34.9929],[-107.1101,35.0446],[-107.1785,35.1822],[-107.1972,35.2195],[-107.1348,35.2194],[-107.0984,35.2185],[-106.962,35.2184],[-106.8531,35.218],[-106.6966,35.218],[-106.6581,35.2179],[-106.6487,35.2145],[-106.651,35.2108],[-106.6425,35.2073],[-106.6446,35.2062],[-106.6455,35.2016],[-106.6434,35.1978],[-106.6397,35.2029],[-106.6214,35.2093],[-106.6186,35.2118],[-106.6114,35.2146],[-106.6105,35.2137],[-106.6045,35.2179],[-106.574,35.2179],[-106.5026,35.2179],[-106.4594,35.2179],[-106.4187,35.2174],[-106.3672,35.2174],[-106.2442,35.2157],[-106.2435,35.1714]]]}},{"type":"Feature","properties":{"id":"35057","name":"Torrance Co."},"geometry":{"type":"Polygon","coordinates":[[[-106.3732,34.8703],[-106.2217,34.8694],[-106.1882,34.8693],[-106.1882,34.8702],[-106.1497,34.8701],[-106.1499,34.9196],[-106.1498,34.9535],[-106.2014,34.9533],[-106.2438,34.9534],[-106.2439,35.04],[-106.1399,35.0405],[-106.0295,35.0407],[-105.7144,35.0416],[-105.4403,35.0419],[-105.2908,35.042],[-105.2908,34.9551],[-105.2904,34.7966],[-105.2904,34.6068],[-105.3128,34.607],[-105.313,34.3618],[-105.313,34.3029],[-105.3132,34.26],[-105.3492,34.2602],[-105.4581,34.26],[-105.4881,34.2601],[-105.4918,34.2598],[-105.5905,34.2601],[-105.8399,34.2601],[-105.9813,34.2599],[-106.064,34.26],[-106.416,34.2598],[-106.4163,34.3468],[-106.4165,34.3475],[-106.4168,34.4277],[-106.4169,34.4397],[-106.4175,34.4996],[-106.4179,34.5072],[-106.4169,34.5217],[-106.4698,34.5212],[-106.4712,34.6084],[-106.4649,34.6084],[-106.4662,34.671],[-106.4666,34.7064],[-106.4668,34.7453],[-106.4648,34.7832],[-106.4639,34.8702],[-106.4118,34.8703],[-106.3732,34.8703]]]}},{"type":"Feature","properties":{"id":"35061","name":"Valencia Co."},"geometry":{"type":"Polygon","coordinates":[[[-107.0245,34.87],[-106.7662,34.87],[-106.7208,34.8701],[-106.7185,34.875],[-106.7144,34.8796],[-106.7108,34.8806],[-106.7029,34.8853],[-106.6964,34.897],[-106.6862,34.9062],[-106.4295,34.9034],[-106.424,34.9019],[-106.4229,34.898],[-106.4181,34.8923],[-106.4152,34.893],[-106.4116,34.8897],[-106.4118,34.8703],[-106.4639,34.8702],[-106.4648,34.7832],[-106.4668,34.7453],[-106.4666,34.7064],[-106.4662,34.671],[-106.4649,34.6084],[-106.4712,34.6084],[-106.4698,34.5212],[-106.4169,34.5217],[-106.4179,34.5072],[-106.4175,34.4996],[-106.4169,34.4397],[-106.4388,34.4375],[-106.4563,34.4371],[-106.5046,34.457],[-106.5069,34.4576],[-106.7628,34.5297],[-106.7683,34.5313],[-106.7981,34.5439],[-106.8826,34.5795],[-106.9044,34.5805],[-107.02,34.5796],[-107.2017,34.5788],[-107.202,34.6088],[-107.2044,34.6088],[-107.2033,34.783],[-107.203,34.8115],[-107.203,34.8696],[-107.2027,34.8988],[-107.2029,34.9576],[-107.0666,34.9572],[-107.0245,34.87]]]}}]}