{"type":"FeatureCollection","features":[{"type":"Feature","properties":{"id":"48187","name":"Guadalupe Co."},"geometry":{"type":"Polygon","coordinates":[[[-98.2806,29.6062],[-98.2681,29.6115],[-98.2381,29.6231],[-98.2021,29.6362],[-98.1194,29.6707],[-98.0899,29.6835],[-98.0478,29.716],[-98.012,29.7433],[-97.9993,29.7524],[-97.9436,29.8069],[-97.9305,29.8166],[-97.8753,29.8582],[-97.8722,29.8525],[-97.8675,29.8517],[-97.8672,29.8545],[-97.8637,29.8563],[-97.8562,29.8489],[-97.8555,29.8439],[-97.8486,29.8433],[-97.8448,29.8391],[-97.8439,29.8328],[-97.8376,29.8285],[-97.8371,29.825],[-97.8415,29.8249],[-97.8422,29.8217],[-97.8397,29.8204],[-97.8407,29.8158],[-97.8464,29.8086],[-97.8424,29.8083],[-97.8424,29.7992],[-97.8344,29.7946],[-97.8303,29.7955],[-97.83,29.79],[-97.8324,29.7845],[-97.8293,29.7796],[-97.8285,29.7814],[-97.8241,29.7817],[-97.8262,29.7845],[-97.8233,29.7855],[-97.8218,29.7827],[-97.8196,29.7894],[-97.8171,29.7904],[-97.8143,29.7847],[-97.812,29.7835],[-97.8151,29.7807],[-97.8129,29.7783],[-97.8114,29.7803],[-97.8056,29.7771],[-97.8059,29.7731],[-97.8112,29.7745],[-97.8049,29.7672],[-97.8002,29.7659],[-97.8009,29.7592],[-97.803,29.7587],[-97.8034,29.7537],[-97.7959,29.7523],[-97.7929,29.7542],[-97.7927,29.7594],[-97.7864,29.761],[-97.7816,29.7597],[-97.7802,29.7548],[-97.7812,29.7527],[-97.7795,29.7482],[-97.774,29.7439],[-97.7744,29.7422],[-97.7688,29.7417],[-97.7707,29.7378],[-97.7713,29.7328],[-97.7637,29.7279],[-97.7607,29.7278],[-97.7586,29.725],[-97.7635,29.7218],[-97.7665,29.7218],[-97.7685,29.7191],[-97.7657,29.7171],[-97.7634,29.713],[-97.7587,29.7149],[-97.7565,29.7178],[-97.7466,29.7126],[-97.7461,29.7113],[-97.7384,29.7129],[-97.7368,29.711],[-97.7359,29.7056],[-97.737,29.702],[-97.7433,29.6988],[-97.7427,29.6967],[-97.738,29.6963],[-97.7354,29.6936],[-97.7357,29.6912],[-97.7276,29.6879],[-97.7256,29.6857],[-97.7221,29.6855],[-97.7219,29.6821],[-97.7176,29.6841],[-97.7172,29.6818],[-97.7117,29.6815],[-97.7085,29.6837],[-97.7039,29.6813],[-97.7061,29.6746],[-97.7038,29.6742],[-97.7022,29.6686],[-97.6985,29.667],[-97.6983,29.6692],[-97.6907,29.6731],[-97.6883,29.6726],[-97.6838,29.6643],[-97.6785,29.6645],[-97.6776,29.6688],[-97.6739,29.6682],[-97.6751,29.6661],[-97.6735,29.6632],[-97.6712,29.6641],[-97.6709,29.6671],[-97.6634,29.667],[-97.661,29.6685],[-97.6586,29.6632],[-97.6526,29.6678],[-97.6478,29.6621],[-97.6479,29.6581],[-97.6522,29.6618],[-97.6543,29.658],[-97.6517,29.654],[-97.6429,29.6546],[-97.6405,29.6519],[-97.6356,29.6552],[-97.631,29.6535],[-97.6332,29.6499],[-97.6618,29.6119],[-97.7276,29.525],[-97.733,29.5185],[-97.7466,29.5003],[-97.7539,29.4886],[-97.8404,29.3768],[-97.8869,29.3772],[-97.9561,29.3784],[-98.002,29.3789],[-98.0684,29.3793],[-98.0847,29.3796],[-98.1132,29.3657],[-98.1156,29.3689],[-98.115,29.3707],[-98.1225,29.3784],[-98.1195,29.3834],[-98.1219,29.3879],[-98.1262,29.3907],[-98.1265,29.3947],[-98.1283,29.3978],[-98.127,29.4011],[-98.1302,29.4053],[-98.1282,29.4109],[-98.1319,29.412],[-98.1337,29.4144],[-98.1303,29.4181],[-98.1359,29.4317],[-98.1317,29.433],[-98.135,29.4383],[-98.1342,29.4418],[-98.1287,29.4454],[-98.1207,29.447],[-98.1205,29.4497],[-98.1268,29.4547],[-98.1256,29.4582],[-98.1201,29.4576],[-98.1169,29.4639],[-98.1207,29.4734],[-98.1249,29.4756],[-98.1223,29.4775],[-98.1282,29.4826],[-98.132,29.48],[-98.136,29.4791],[-98.1355,29.484],[-98.1394,29.4825],[-98.1394,29.4854],[-98.1428,29.4865],[-98.1425,29.4816],[-98.1442,29.4781],[-98.15,29.4757],[-98.1502,29.4798],[-98.1558,29.4778],[-98.1591,29.4787],[-98.1646,29.4781],[-98.1668,29.4799],[-98.1688,29.4871],[-98.1683,29.4962],[-98.1702,29.4979],[-98.1722,29.4946],[-98.1738,29.4966],[-98.1781,29.4976],[-98.1838,29.496],[-98.1843,29.4927],[-98.1805,29.4928],[-98.1771,29.4848],[-98.1829,29.4848],[-98.1876,29.4882],[-98.19,29.4928],[-98.1897,29.4967],[-98.1864,29.5018],[-98.1899,29.5057],[-98.1909,29.5095],[-98.1951,29.5107],[-98.1986,29.5094],[-98.1997,29.5136],[-98.1968,29.5153],[-98.1986,29.5173],[-98.2019,29.5169],[-98.2013,29.519],[-98.2048,29.5222],[-98.2105,29.5234],[-98.2188,29.5235],[-98.2187,29.527],[-98.2214,29.5317],[-98.2223,29.5385],[-98.2294,29.542],[-98.2291,29.5434],[-98.2219,29.5439],[-98.2216,29.5479],[-98.2264,29.5496],[-98.2299,29.5468],[-98.2325,29.554],[-98.2392,29.5566],[-98.2432,29.5571],[-98.2484,29.5554],[-98.2489,29.5515],[-98.2538,29.5503],[-98.2553,29.5548],[-98.2588,29.5546],[-98.2601,29.5502],[-98.2578,29.5457],[-98.253,29.5432],[-98.2554,29.5405],[-98.2597,29.5413],[-98.2704,29.5457],[-98.2708,29.5488],[-98.2738,29.5513],[-98.2791,29.5511],[-98.2842,29.5533],[-98.2857,29.5573],[-98.2885,29.5597],[-98.2946,29.5616],[-98.298,29.5611],[-98.2999,29.5669],[-98.3029,29.5716],[-98.3029,29.5747],[-98.3061,29.5786],[-98.3041,29.5847],[-98.3121,29.5909],[-98.3109,29.5945],[-98.2806,29.6062]]]}},{"type":"Feature","properties":{"id":"48091","name":"Comal Co."},"geometry":{"type":"Polygon","coordinates":[[[-98.5484,29.8246],[-98.4859,29.876],[-98.414,29.9376],[-98.3249,30.0142],[-98.2976,30.038],[-98.2545,30.0076],[-98.1516,29.9343],[-98.0715,29.8777],[-98.0305,29.8485],[-98.0129,29.7947],[-97.9993,29.7524],[-98.012,29.7433],[-98.0478,29.716],[-98.0899,29.6835],[-98.1194,29.6707],[-98.2021,29.6362],[-98.2381,29.6231],[-98.2681,29.6115],[-98.2806,29.6062],[-98.3109,29.5945],[-98.3122,29.6018],[-98.3193,29.602],[-98.3255,29.6034],[-98.3278,29.6058],[-98.3286,29.6104],[-98.3353,29.6113],[-98.3392,29.6131],[-98.3455,29.62],[-98.3427,29.622],[-98.3409,29.6275],[-98.3413,29.632],[-98.3454,29.638],[-98.3476,29.6451],[-98.3427,29.6534],[-98.3451,29.6551],[-98.3566,29.6586],[-98.3608,29.6652],[-98.3638,29.6667],[-98.3771,29.6627],[-98.3789,29.6629],[-98.3816,29.6741],[-98.3841,29.6786],[-98.3775,29.6826],[-98.3767,29.689],[-98.3808,29.6963],[-98.3805,29.7035],[-98.3751,29.7064],[-98.3713,29.705],[-98.3623,29.706],[-98.3546,29.7039],[-98.3447,29.7072],[-98.3413,29.7097],[-98.3404,29.7158],[-98.3387,29.7171],[-98.3386,29.7218],[-98.3456,29.7265],[-98.3496,29.728],[-98.3526,29.7344],[-98.3558,29.7341],[-98.3594,29.729],[-98.3644,29.7243],[-98.3698,29.7207],[-98.3752,29.72],[-98.3756,29.7227],[-98.3735,29.726],[-98.3737,29.7306],[-98.377,29.7326],[-98.3844,29.7351],[-98.3883,29.7339],[-98.391,29.7365],[-98.3992,29.7381],[-98.3987,29.7435],[-98.4039,29.749],[-98.4153,29.7468],[-98.4207,29.7435],[-98.4218,29.7387],[-98.4205,29.7338],[-98.4169,29.7317],[-98.4186,29.7295],[-98.4259,29.727],[-98.43,29.7233],[-98.427,29.7188],[-98.4309,29.7158],[-98.4383,29.7156],[-98.4439,29.7197],[-98.4446,29.7261],[-98.4427,29.7323],[-98.446,29.7359],[-98.4575,29.7316],[-98.4621,29.7335],[-98.465,29.7381],[-98.4685,29.7379],[-98.477,29.7334],[-98.4798,29.7351],[-98.4897,29.7353],[-98.497,29.7385],[-98.504,29.7386],[-98.5097,29.7413],[-98.5234,29.7452],[-98.5261,29.7434],[-98.5268,29.7404],[-98.5283,29.7437],[-98.534,29.7468],[-98.534,29.7524],[-98.5437,29.7521],[-98.5479,29.7544],[-98.5469,29.7573],[-98.5505,29.7607],[-98.555,29.7586],[-98.5551,29.7553],[-98.5593,29.7515],[-98.5655,29.7527],[-98.5686,29.7483],[-98.5746,29.7504],[-98.5789,29.7436],[-98.5828,29.7411],[-98.5867,29.7425],[-98.5885,29.7476],[-98.5931,29.7457],[-98.6004,29.75],[-98.6047,29.7473],[-98.6013,29.7449],[-98.6005,29.7413],[-98.6034,29.7399],[-98.6116,29.7401],[-98.6143,29.7376],[-98.6174,29.7396],[-98.6178,29.7439],[-98.6288,29.7441],[-98.634,29.7416],[-98.6435,29.7404],[-98.6461,29.7452],[-98.5484,29.8246]]]}},{"type":"Feature","properties":{"id":"48029","name":"Bexar Co."},"geometry":{"type":"Polygon","coordinates":[[[-98.7788,29.7202],[-98.7751,29.7197],[-98.7708,29.7214],[-98.7667,29.7196],[-98.7623,29.722],[-98.7571,29.722],[-98.7481,29.7206],[-98.744,29.7165],[-98.7382,29.7166],[-98.7342,29.7214],[-98.729,29.7223],[-98.7305,29.7257],[-98.7337,29.7279],[-98.7325,29.7295],[-98.7261,29.7277],[-98.7232,29.7296],[-98.7177,29.7253],[-98.7156,29.7258],[-98.7107,29.7309],[-98.7053,29.7331],[-98.6999,29.7327],[-98.7004,29.7374],[-98.6927,29.7352],[-98.6875,29.7387],[-98.6829,29.7394],[-98.6766,29.7373],[-98.6738,29.7421],[-98.6696,29.7435],[-98.6632,29.741],[-98.6597,29.742],[-98.6637,29.7463],[-98.6614,29.7491],[-98.656,29.7478],[-98.6531,29.7488],[-98.6525,29.7535],[-98.6498,29.7535],[-98.6455,29.7479],[-98.6461,29.7452],[-98.6435,29.7404],[-98.634,29.7416],[-98.6288,29.7441],[-98.6178,29.7439],[-98.6174,29.7396],[-98.6143,29.7376],[-98.6116,29.7401],[-98.6034,29.7399],[-98.6005,29.7413],[-98.6013,29.7449],[-98.6047,29.7473],[-98.6004,29.75],[-98.5931,29.7457],[-98.5885,29.7476],[-98.5867,29.7425],[-98.5828,29.7411],[-98.5789,29.7436],[-98.5746,29.7504],[-98.5686,29.7483],[-98.5655,29.7527],[-98.5593,29.7515],[-98.5551,29.7553],[-98.555,29.7586],[-98.5505,29.7607],[-98.5469,29.7573],[-98.5479,29.7544],[-98.5437,29.7521],[-98.534,29.7524],[-98.534,29.7468],[-98.5283,29.7437],[-98.5268,29.7404],[-98.5261,29.7434],[-98.5234,29.7452],[-98.5097,29.7413],[-98.504,29.7386],[-98.497,29.7385],[-98.4897,29.7353],[-98.4798,29.7351],[-98.477,29.7334],[-98.4685,29.7379],[-98.465,29.7381],[-98.4621,29.7335],[-98.4575,29.7316],[-98.446,29.7359],[-98.4427,29.7323],[-98.4446,29.7261],[-98.4439,29.7197],[-98.4383,29.7156],[-98.4309,29.7158],[-98.427,29.7188],[-98.43,29.7233],[-98.4259,29.727],[-98.4186,29.7295],[-98.4169,29.7317],[-98.4205,29.7338],[-98.4218,29.7387],[-98.4207,29.7435],[-98.4153,29.7468],[-98.4039,29.749],[-98.3987,29.7435],[-98.3992,29.7381],[-98.391,29.7365],[-98.3883,29.7339],[-98.3844,29.7351],[-98.377,29.7326],[-98.3737,29.7306],[-98.3735,29.726],[-98.3756,29.7227],[-98.3752,29.72],[-98.3698,29.7207],[-98.3644,29.7243],[-98.3594,29.729],[-98.3558,29.7341],[-98.3526,29.7344],[-98.3496,29.728],[-98.3456,29.7265],[-98.3386,29.7218],[-98.3387,29.7171],[-98.3404,29.7158],[-98.3413,29.7097],[-98.3447,29.7072],[-98.3546,29.7039],[-98.3623,29.706],[-98.3713,29.705],[-98.3751,29.7064],[-98.3805,29.7035],[-98.3808,29.6963],[-98.3767,29.689],[-98.3775,29.6826],[-98.3841,29.6786],[-98.3816,29.6741],[-98.3789,29.6629],[-98.3771,29.6627],[-98.3638,29.6667],[-98.3608,29.6652],[-98.3566,29.6586],[-98.3451,29.6551],[-98.3427,29.6534],[-98.3476,29.6451],[-98.3454,29.638],[-98.3413,29.632],[-98.3409,29.6275],[-98.3427,29.622],[-98.3455,29.62],[-98.3392,29.6131],[-98.3353,29.6113],[-98.3286,29.6104],[-98.3278,29.6058],[-98.3255,29.6034],[-98.3193,29.602],[-98.3122,29.6018],[-98.3109,29.5945],[-98.3121,29.5909],[-98.3041,29.5847],[-98.3061,29.5786],[-98.3029,29.5747],[-98.3029,29.5716],[-98.2999,29.5669],[-98.298,29.5611],[-98.2946,29.5616],[-98.2885,29.5597],[-98.2857,29.5573],[-98.2842,29.5533],[-98.2791,29.5511],[-98.2738,29.5513],[-98.2708,29.5488],[-98.2704,29.5457],[-98.2597,29.5413],[-98.2554,29.5405],[-98.253,29.5432],[-98.2578,29.5457],[-98.2601,29.5502],[-98.2588,29.5546],[-98.2553,29.5548],[-98.2538,29.5503],[-98.2489,29.5515],[-98.2484,29.5554],[-98.2432,29.5571],[-98.2392,29.5566],[-98.2325,29.554],[-98.2299,29.5468],[-98.2264,29.5496],[-98.2216,29.5479],[-98.2219,29.5439],[-98.2291,29.5434],[-98.2294,29.542],[-98.2223,29.5385],[-98.2214,29.5317],[-98.2187,29.527],[-98.2188,29.5235],[-98.2105,29.5234],[-98.2048,29.5222],[-98.2013,29.519],[-98.2019,29.5169],[-98.1986,29.5173],[-98.1968,29.5153],[-98.1997,29.5136],[-98.1986,29.5094],[-98.1951,29.5107],[-98.1909,29.5095],[-98.1899,29.5057],[-98.1864,29.5018],[-98.1897,29.4967],[-98.19,29.4928],[-98.1876,29.4882],[-98.1829,29.4848],[-98.1771,29.4848],[-98.1805,29.4928],[-98.1843,29.4927],[-98.1838,29.496],[-98.1781,29.4976],[-98.1738,29.4966],[-98.1722,29.4946],[-98.1702,29.4979],[-98.1683,29.4962],[-98.1688,29.4871],[-98.1668,29.4799],[-98.1646,29.4781],[-98.1591,29.4787],[-98.1558,29.4778],[-98.1502,29.4798],[-98.15,29.4757],[-98.1442,29.4781],[-98.1425,29.4816],[-98.1428,29.4865],[-98.1394,29.4854],[-98.1394,29.4825],[-98.1355,29.484],[-98.136,29.4791],[-98.132,29.48],[-98.1282,29.4826],[-98.1223,29.4775],[-98.1249,29.4756],[-98.1207,29.4734],[-98.1169,29.4639],[-98.1201,29.4576],[-98.1256,29.4582],[-98.1268,29.4547],[-98.1205,29.4497],[-98.1207,29.447],[-98.1287,29.4454],[-98.1342,29.4418],[-98.1372,29.4404],[-98.1877,29.379],[-98.2046,29.3582],[-98.238,29.3177],[-98.287,29.2576],[-98.2959,29.2474],[-98.3302,29.2063],[-98.3976,29.1252],[-98.4073,29.1144],[-98.4975,29.1454],[-98.6005,29.1807],[-98.6385,29.1938],[-98.7995,29.2487],[-98.8048,29.2507],[-98.8049,29.3132],[-98.8046,29.3233],[-98.8052,29.4631],[-98.8056,29.5227],[-98.8058,29.5799],[-98.8059,29.6333],[-98.8066,29.6907],[-98.7788,29.7202]]]}},{"type":"Feature","properties":{"id":"48325","name":"Medina Co."},"geometry":{"type":"Polygon","coordinates":[[[-99.3528,29.6272],[-99.3085,29.6267],[-99.2627,29.6257],[-99.1923,29.6254],[-99.1915,29.6252],[-99.0668,29.6238],[-99.0003,29.6232],[-98.9838,29.6235],[-98.9805,29.6203],[-98.9761,29.6133],[-98.9765,29.6049],[-98.9787,29.5988],[-98.9849,29.5909],[-98.9871,29.5847],[-98.9858,29.5819],[-98.9798,29.5792],[-98.9793,29.5755],[-98.9858,29.5701],[-98.9852,29.5641],[-98.9793,29.5554],[-98.9742,29.5519],[-98.9685,29.5539],[-98.9647,29.5589],[-98.9579,29.5602],[-98.9497,29.5583],[-98.9411,29.5585],[-98.9355,29.5624],[-98.9317,29.5635],[-98.9272,29.5623],[-98.8627,29.6307],[-98.861,29.6323],[-98.8066,29.6907],[-98.8059,29.6333],[-98.8058,29.5799],[-98.8056,29.5227],[-98.8052,29.4631],[-98.8046,29.3233],[-98.8049,29.3132],[-98.8048,29.2507],[-98.8047,29.2193],[-98.8049,29.0904],[-98.8721,29.0902],[-98.8753,29.0906],[-98.9056,29.0906],[-98.9554,29.0909],[-99.1208,29.091],[-99.1253,29.0906],[-99.1913,29.091],[-99.2004,29.0908],[-99.248,29.091],[-99.2532,29.0915],[-99.4139,29.0913],[-99.4134,29.1206],[-99.4131,29.1252],[-99.4124,29.3137],[-99.4123,29.3449],[-99.4126,29.4604],[-99.4124,29.4841],[-99.4129,29.5002],[-99.4126,29.5035],[-99.4118,29.6275],[-99.3528,29.6272]]]}},{"type":"Feature","properties":{"id":"48493","name":"Wilson Co."},"geometry":{"type":"Polygon","coordinates":[[[-98.3976,29.1252],[-98.3302,29.2063],[-98.2959,29.2474],[-98.287,29.2576],[-98.238,29.3177],[-98.2046,29.3582],[-98.1877,29.379],[-98.1372,29.4404],[-98.1342,29.4418],[-98.135,29.4383],[-98.1317,29.433],[-98.1359,29.4317],[-98.1303,29.4181],[-98.1337,29.4144],[-98.1319,29.412],[-98.1282,29.4109],[-98.1302,29.4053],[-98.127,29.4011],[-98.1283,29.3978],[-98.1265,29.3947],[-98.1262,29.3907],[-98.1219,29.3879],[-98.1195,29.3834],[-98.1225,29.3784],[-98.115,29.3707],[-98.1156,29.3689],[-98.1132,29.3657],[-98.0847,29.3796],[-98.0684,29.3793],[-98.002,29.3789],[-97.9561,29.3784],[-97.8869,29.3772],[-97.8404,29.3768],[-97.8588,29.3529],[-97.7876,29.2814],[-97.7577,29.2502],[-97.7284,29.2217],[-97.9367,29.069],[-97.9456,29.0626],[-97.9953,29.0261],[-98.0749,28.9673],[-98.0873,28.9583],[-98.1158,28.9367],[-98.1253,28.929],[-98.191,28.8823],[-98.2477,28.9431],[-98.2548,28.9503],[-98.2702,28.9689],[-98.2999,29.0002],[-98.3033,29.0042],[-98.3308,29.0335],[-98.4073,29.1144],[-98.3976,29.1252]]]}},{"type":"Feature","properties":{"id":"48019","name":"Bandera Co."},"geometry":{"type":"Polygon","coordinates":[[[-98.8312,29.7432],[-98.781,29.7209],[-98.7788,29.7202],[-98.8066,29.6907],[-98.861,29.6323],[-98.8627,29.6307],[-98.9272,29.5623],[-98.9317,29.5635],[-98.9355,29.5624],[-98.9411,29.5585],[-98.9497,29.5583],[-98.9579,29.5602],[-98.9647,29.5589],[-98.9685,29.5539],[-98.9742,29.5519],[-98.9793,29.5554],[-98.9852,29.5641],[-98.9858,29.5701],[-98.9793,29.5755],[-98.9798,29.5792],[-98.9858,29.5819],[-98.9871,29.5847],[-98.9849,29.5909],[-98.9787,29.5988],[-98.9765,29.6049],[-98.9761,29.6133],[-98.9805,29.6203],[-98.9838,29.6235],[-99.0003,29.6232],[-99.0668,29.6238],[-99.1915,29.6252],[-99.1923,29.6254],[-99.2627,29.6257],[-99.3085,29.6267],[-99.3528,29.6272],[-99.4118,29.6275],[-99.4905,29.6277],[-99.6031,29.6272],[-99.6033,29.7403],[-99.603,29.756],[-99.6028,29.9077],[-99.3606,29.9054],[-99.3244,29.905],[-99.2786,29.9042],[-99.177,29.8951],[-99.1749,29.8944],[-99.1072,29.8658],[-99.05,29.8404],[-98.9177,29.7814],[-98.8312,29.7432]]]}},{"type":"Feature","properties":{"id":"48013","name":"Atascosa Co."},"geometry":{"type":"Polygon","coordinates":[[[-98.7995,29.2487],[-98.6385,29.1938],[-98.6005,29.1807],[-98.4975,29.1454],[-98.4073,29.1144],[-98.3308,29.0335],[-98.3033,29.0042],[-98.2999,29.0002],[-98.2702,28.9689],[-98.2548,28.9503],[-98.2477,28.9431],[-98.191,28.8823],[-98.1844,28.8753],[-98.1689,28.862],[-98.1573,28.8491],[-98.1251,28.8141],[-98.0983,28.7869],[-98.1121,28.7769],[-98.1253,28.7665],[-98.1489,28.7496],[-98.2018,28.7107],[-98.335,28.6127],[-98.335,28.6483],[-98.3922,28.6482],[-98.6209,28.6484],[-98.7764,28.6476],[-98.8008,28.6473],[-98.8028,28.8465],[-98.8043,28.9845],[-98.8046,29.0014],[-98.8049,29.0904],[-98.8047,29.2193],[-98.8048,29.2507],[-98.7995,29.2487]]]}},{"type":"Feature","properties":{"id":"48259","name":"Kendall Co."},"geometry":{"type":"Polygon","coordinates":[[[-98.4859,29.876],[-98.5484,29.8246],[-98.6461,29.7452],[-98.6455,29.7479],[-98.6498,29.7535],[-98.6525,29.7535],[-98.6531,29.7488],[-98.656,29.7478],[-98.6614,29.7491],[-98.6637,29.7463],[-98.6597,29.742],[-98.6632,29.741],[-98.6696,29.7435],[-98.6738,29.7421],[-98.6766,29.7373],[-98.6829,29.7394],[-98.6875,29.7387],[-98.6927,29.7352],[-98.7004,29.7374],[-98.6999,29.7327],[-98.7053,29.7331],[-98.7107,29.7309],[-98.7156,29.7258],[-98.7177,29.7253],[-98.7232,29.7296],[-98.7261,29.7277],[-98.7325,29.7295],[-98.7337,29.7279],[-98.7305,29.7257],[-98.729,29.7223],[-98.7342,29.7214],[-98.7382,29.7166],[-98.744,29.7165],[-98.7481,29.7206],[-98.7571,29.722],[-98.7623,29.722],[-98.7667,29.7196],[-98.7708,29.7214],[-98.7751,29.7197],[-98.7788,29.7202],[-98.781,29.7209],[-98.8312,29.7432],[-98.9177,29.7814],[-98.9193,29.851],[-98.9204,29.9529],[-98.9206,29.9891],[-98.9201,30.1383],[-98.9068,30.1383],[-98.772,30.138],[-98.7503,30.1382],[-98.7497,30.1385],[-98.6253,30.1389],[-98.5879,30.139],[-98.5538,30.0991],[-98.5449,30.089],[-98.5324,30.0738],[-98.5296,30.0713],[-98.4386,29.9662],[-98.414,29.9376],[-98.4859,29.876]]]}}]}