{"type":"FeatureCollection","features":[{"type":"Feature","properties":{"id":"06069","name":"San Benito Co."},"geometry":{"type":"Polygon","coordinates":[[[-121.5754,36.893],[-121.5714,36.8971],[-121.5629,36.8963],[-121.5603,36.8971],[-121.5602,36.9031],[-121.5585,36.9105],[-121.5535,36.9152],[-121.54,36.9208],[-121.5408,36.9246],[-121.5392,36.9273],[-121.5345,36.9309],[-121.5236,36.9371],[-121.5222,36.9397],[-121.5138,36.9452],[-121.5117,36.9493],[-121.512,36.9527],[-121.5102,36.956],[-121.5123,36.959],[-121.5094,36.96],[-121.5081,36.9636],[-121.5053,36.9642],[-121.5046,36.9678],[-121.5015,36.9719],[-121.4889,36.9831],[-121.4679,36.9768],[-121.4636,36.9783],[-121.4659,36.9821],[-121.4637,36.9849],[-121.4566,36.9866],[-121.452,36.9888],[-121.4473,36.983],[-121.4377,36.9785],[-121.4346,36.974],[-121.4182,36.9605],[-121.4161,36.9607],[-121.3703,36.9605],[-121.3528,36.9602],[-121.2154,36.9612],[-121.2118,36.9571],[-121.2185,36.9479],[-121.2219,36.9453],[-121.226,36.9445],[-121.2306,36.9385],[-121.2305,36.9359],[-121.2334,36.932],[-121.2347,36.9269],[-121.2302,36.9212],[-121.2246,36.9203],[-121.2214,36.9103],[-121.2171,36.9135],[-121.2084,36.9115],[-121.1983,36.9143],[-121.1931,36.9127],[-121.1888,36.9132],[-121.1839,36.9081],[-121.1829,36.9019],[-121.1843,36.8964],[-121.1796,36.8904],[-121.1764,36.8894],[-121.1741,36.8857],[-121.1695,36.8853],[-121.1661,36.8798],[-121.167,36.878],[-121.1636,36.8692],[-121.1526,36.8654],[-121.1529,36.8619],[-121.1458,36.8496],[-121.143,36.8463],[-121.1415,36.8367],[-121.126,36.8304],[-121.1195,36.8273],[-121.001,36.7794],[-120.9928,36.7757],[-120.9334,36.7517],[-120.9216,36.7427],[-120.876,36.7056],[-120.873,36.7033],[-120.751,36.6062],[-120.7494,36.6053],[-120.617,36.4988],[-120.6037,36.4882],[-120.5972,36.4882],[-120.5971,36.4345],[-120.5974,36.4152],[-120.5971,36.3913],[-120.597,36.3555],[-120.5966,36.3285],[-120.6002,36.3283],[-120.6054,36.3243],[-120.6125,36.3244],[-120.612,36.3216],[-120.6179,36.3188],[-120.6199,36.3199],[-120.63,36.3169],[-120.6327,36.3182],[-120.6427,36.319],[-120.6458,36.3173],[-120.6588,36.3162],[-120.6631,36.3144],[-120.6664,36.3114],[-120.6701,36.3058],[-120.6756,36.3029],[-120.6781,36.2985],[-120.6827,36.2944],[-120.6804,36.2907],[-120.6829,36.2868],[-120.6738,36.2824],[-120.6726,36.2805],[-120.6762,36.2755],[-120.6742,36.2727],[-120.6786,36.2673],[-120.6817,36.2715],[-120.6872,36.2714],[-120.6931,36.2779],[-120.6949,36.278],[-120.6977,36.2829],[-120.7037,36.2871],[-120.7077,36.2858],[-120.7162,36.2904],[-120.7169,36.2924],[-120.7226,36.2927],[-120.7256,36.2973],[-120.7313,36.3013],[-120.741,36.3058],[-120.7467,36.3102],[-120.7506,36.3099],[-120.7529,36.3078],[-120.7583,36.3086],[-120.7557,36.3053],[-120.7504,36.3039],[-120.7431,36.2981],[-120.7383,36.2883],[-120.7338,36.2842],[-120.732,36.2754],[-120.7248,36.2703],[-120.7243,36.2669],[-120.7177,36.26],[-120.716,36.2519],[-120.7142,36.2496],[-120.7117,36.2424],[-120.7118,36.2395],[-120.7094,36.2367],[-120.7064,36.2277],[-120.7069,36.2204],[-120.706,36.2185],[-120.7061,36.2037],[-120.7128,36.1986],[-120.7184,36.1968],[-120.7204,36.1996],[-120.7314,36.2035],[-120.7358,36.2032],[-120.7408,36.2001],[-120.7486,36.1988],[-120.7531,36.1997],[-120.7563,36.2033],[-120.7587,36.2021],[-120.7624,36.205],[-120.7638,36.2091],[-120.7666,36.2097],[-120.7652,36.213],[-120.7686,36.2141],[-120.7723,36.2202],[-120.7748,36.2199],[-120.7807,36.2248],[-120.7831,36.229],[-120.789,36.2305],[-120.7893,36.235],[-120.7943,36.2346],[-120.7949,36.2364],[-120.7989,36.2355],[-120.8019,36.2374],[-120.8017,36.2407],[-120.8055,36.2402],[-120.8069,36.2432],[-120.8122,36.2452],[-120.8104,36.2485],[-120.8108,36.2517],[-120.813,36.2503],[-120.8143,36.2531],[-120.8211,36.2542],[-120.8237,36.2573],[-120.8295,36.2572],[-120.8294,36.2596],[-120.8329,36.2592],[-120.8331,36.262],[-120.8371,36.2627],[-120.8362,36.2656],[-120.8394,36.2706],[-120.8403,36.2766],[-120.845,36.2809],[-120.8496,36.2817],[-120.852,36.286],[-120.8563,36.2847],[-120.8651,36.2926],[-120.8715,36.2934],[-120.8739,36.2952],[-120.8787,36.2954],[-120.8817,36.2934],[-120.8869,36.2928],[-120.8892,36.2904],[-120.8924,36.2925],[-120.899,36.3008],[-120.9047,36.3023],[-120.9104,36.3056],[-120.9117,36.3083],[-120.9161,36.3088],[-120.9198,36.311],[-120.9238,36.3099],[-120.9262,36.3064],[-120.9257,36.3021],[-120.9331,36.2998],[-120.9342,36.2959],[-120.9365,36.2942],[-120.9346,36.2893],[-120.9412,36.2866],[-120.9392,36.2835],[-120.9426,36.2805],[-120.9487,36.2779],[-120.9534,36.2747],[-120.9567,36.276],[-120.9591,36.2807],[-120.9642,36.2805],[-120.9645,36.2827],[-120.9736,36.2902],[-120.9788,36.29],[-120.9858,36.2929],[-120.9851,36.2902],[-120.9881,36.2852],[-120.9875,36.2751],[-120.9924,36.2699],[-121.0002,36.2708],[-121.0045,36.2671],[-121.0105,36.2688],[-121.0109,36.2652],[-121.0155,36.2679],[-121.0162,36.2638],[-121.0189,36.2596],[-121.0223,36.2615],[-121.0272,36.2599],[-121.0286,36.2698],[-121.0259,36.2705],[-121.0277,36.2755],[-121.0364,36.2753],[-121.0357,36.2737],[-121.0402,36.2712],[-121.0408,36.324],[-121.1166,36.3849],[-121.1935,36.4458],[-121.1979,36.4517],[-121.1977,36.4551],[-121.202,36.4579],[-121.2056,36.4624],[-121.2098,36.4648],[-121.2168,36.474],[-121.2194,36.4725],[-121.2224,36.4738],[-121.2255,36.472],[-121.2295,36.4753],[-121.2305,36.4786],[-121.228,36.4807],[-121.2281,36.4846],[-121.2325,36.4894],[-121.231,36.492],[-121.2369,36.4976],[-121.2393,36.5048],[-121.2441,36.5069],[-121.2472,36.5069],[-121.2498,36.5047],[-121.2522,36.5056],[-121.2549,36.5035],[-121.2579,36.5045],[-121.2665,36.5024],[-121.2756,36.5033],[-121.282,36.5027],[-121.285,36.5057],[-121.2945,36.5061],[-121.2971,36.5039],[-121.2998,36.5056],[-121.309,36.4996],[-121.3118,36.5027],[-121.3098,36.5062],[-121.3107,36.5087],[-121.3068,36.5122],[-121.3072,36.5168],[-121.3031,36.5184],[-121.3032,36.5201],[-121.2978,36.5238],[-121.2954,36.5271],[-121.2968,36.5323],[-121.3016,36.5392],[-121.3051,36.5407],[-121.3135,36.5499],[-121.3161,36.5495],[-121.3214,36.5528],[-121.326,36.5535],[-121.3291,36.5554],[-121.3289,36.5615],[-121.3317,36.5619],[-121.3312,36.5705],[-121.3339,36.5744],[-121.3314,36.5762],[-121.3259,36.5765],[-121.3235,36.5779],[-121.3263,36.5808],[-121.3249,36.5825],[-121.3273,36.5859],[-121.3244,36.5882],[-121.325,36.5984],[-121.3238,36.6024],[-121.3187,36.6049],[-121.3184,36.61],[-121.3231,36.6125],[-121.3245,36.6146],[-121.3322,36.6204],[-121.3384,36.6284],[-121.3421,36.6314],[-121.3435,36.6354],[-121.3416,36.638],[-121.3466,36.6432],[-121.349,36.6429],[-121.3532,36.6495],[-121.368,36.6567],[-121.3734,36.6555],[-121.3783,36.6529],[-121.3836,36.6533],[-121.3861,36.6549],[-121.3959,36.6554],[-121.3989,36.657],[-121.4019,36.6554],[-121.4083,36.6567],[-121.4092,36.6612],[-121.4155,36.6731],[-121.4199,36.6731],[-121.4254,36.6752],[-121.4316,36.6787],[-121.4443,36.6731],[-121.4461,36.6738],[-121.4495,36.6788],[-121.4568,36.682],[-121.461,36.6867],[-121.4654,36.6847],[-121.469,36.6854],[-121.4694,36.6908],[-121.4728,36.6969],[-121.4754,36.6978],[-121.4775,36.703],[-121.4817,36.7046],[-121.4805,36.7065],[-121.4845,36.7131],[-121.4834,36.7155],[-121.4768,36.7153],[-121.4744,36.7167],[-121.4616,36.7176],[-121.4559,36.7214],[-121.4531,36.7212],[-121.4513,36.7248],[-121.4526,36.7292],[-121.4589,36.7338],[-121.46,36.7409],[-121.4624,36.7439],[-121.4655,36.7435],[-121.4666,36.7456],[-121.4714,36.7454],[-121.4767,36.7534],[-121.4744,36.7567],[-121.4772,36.7607],[-121.4793,36.7611],[-121.4819,36.7655],[-121.4843,36.7642],[-121.4926,36.7633],[-121.4974,36.7604],[-121.5024,36.7602],[-121.504,36.7572],[-121.5057,36.7589],[-121.5481,36.7945],[-121.5747,36.8181],[-121.5977,36.8374],[-121.6221,36.8462],[-121.6426,36.8737],[-121.6413,36.8798],[-121.644,36.894],[-121.6381,36.8983],[-121.6295,36.9117],[-121.6198,36.9089],[-121.6157,36.905],[-121.6074,36.8995],[-121.5948,36.9011],[-121.586,36.901],[-121.5814,36.8992],[-121.5754,36.893]]]}},{"type":"Feature","properties":{"id":"06085","name":"Santa Clara Co."},"geometry":{"type":"Polygon","coordinates":[[[-121.5812,36.9193],[-121.5902,36.9193],[-121.5904,36.9262],[-121.6072,36.9261],[-121.6247,36.9401],[-121.6305,36.9405],[-121.6371,36.9391],[-121.6423,36.9364],[-121.6414,36.9322],[-121.6458,36.9323],[-121.6489,36.9373],[-121.6531,36.9418],[-121.6541,36.9448],[-121.6523,36.9476],[-121.654,36.9506],[-121.6633,36.9519],[-121.6643,36.9551],[-121.6629,36.9592],[-121.6648,36.9637],[-121.6699,36.9636],[-121.6783,36.9679],[-121.6878,36.967],[-121.6933,36.9682],[-121.6981,36.9726],[-121.6977,36.9777],[-121.6954,36.9852],[-121.7052,36.9862],[-121.7055,36.9894],[-121.7114,36.9906],[-121.7109,36.9931],[-121.7147,36.9931],[-121.7179,36.9956],[-121.7323,36.9897],[-121.7387,36.99],[-121.7342,36.9928],[-121.7298,36.9936],[-121.7296,36.9979],[-121.7188,37.0076],[-121.7226,37.0089],[-121.7266,37.0121],[-121.7278,37.0099],[-121.7362,37.0153],[-121.7304,37.0222],[-121.7308,37.0203],[-121.7258,37.0207],[-121.7278,37.0228],[-121.7391,37.0272],[-121.754,37.046],[-121.7576,37.0496],[-121.7607,37.0476],[-121.7647,37.0492],[-121.7632,37.0518],[-121.767,37.0533],[-121.7729,37.0526],[-121.7815,37.057],[-121.7865,37.0622],[-121.7935,37.0643],[-121.7958,37.0636],[-121.8015,37.0675],[-121.8091,37.0693],[-121.8125,37.0752],[-121.8172,37.0779],[-121.8165,37.0804],[-121.8184,37.0838],[-121.8237,37.0861],[-121.824,37.0876],[-121.8315,37.0886],[-121.8343,37.0912],[-121.8441,37.0947],[-121.8445,37.0965],[-121.8491,37.099],[-121.8537,37.0984],[-121.8619,37.0993],[-121.86,37.1042],[-121.8701,37.1022],[-121.8848,37.1078],[-121.8872,37.1049],[-121.8907,37.1052],[-121.8923,37.1084],[-121.8982,37.1107],[-121.9046,37.1113],[-121.9057,37.1132],[-121.9107,37.1133],[-121.9243,37.1213],[-121.93,37.1233],[-121.932,37.122],[-121.9407,37.126],[-121.9542,37.1292],[-121.9632,37.1332],[-121.9723,37.1415],[-121.9808,37.1423],[-121.9872,37.1448],[-121.9911,37.1443],[-121.9942,37.1499],[-122.0,37.1545],[-122.0029,37.1585],[-122.0058,37.1583],[-122.0168,37.1651],[-122.0214,37.1668],[-122.0262,37.1669],[-122.0277,37.1708],[-122.0257,37.1726],[-122.0265,37.1761],[-122.0289,37.1769],[-122.0319,37.1823],[-122.0326,37.1861],[-122.0307,37.19],[-122.0408,37.1952],[-122.0475,37.2049],[-122.0548,37.2103],[-122.0551,37.2125],[-122.0601,37.2127],[-122.0628,37.2104],[-122.0659,37.2104],[-122.07,37.2167],[-122.0766,37.2202],[-122.0806,37.2234],[-122.0843,37.2225],[-122.0898,37.2233],[-122.0927,37.2254],[-122.0934,37.2292],[-122.1005,37.2336],[-122.1042,37.2343],[-122.1056,37.2407],[-122.1104,37.2455],[-122.1129,37.2496],[-122.1164,37.2524],[-122.1216,37.2586],[-122.1282,37.2592],[-122.1345,37.2631],[-122.1355,37.2654],[-122.1408,37.2692],[-122.1441,37.2702],[-122.1481,37.2752],[-122.1506,37.2762],[-122.1487,37.281],[-122.1511,37.2835],[-122.1534,37.2897],[-122.1562,37.2918],[-122.1668,37.2952],[-122.1627,37.3009],[-122.1623,37.3044],[-122.1666,37.3056],[-122.1708,37.312],[-122.1758,37.3127],[-122.1823,37.3095],[-122.1856,37.3117],[-122.1869,37.3157],[-122.1931,37.3183],[-122.1865,37.322],[-122.1832,37.3262],[-122.1751,37.3257],[-122.1827,37.3329],[-122.186,37.3387],[-122.1935,37.345],[-122.1958,37.3506],[-122.2025,37.3603],[-122.2027,37.363],[-122.2007,37.372],[-122.1931,37.3827],[-122.191,37.3844],[-122.19,37.3949],[-122.1926,37.4042],[-122.1944,37.4076],[-122.1924,37.4139],[-122.1876,37.4148],[-122.1903,37.4185],[-122.1879,37.42],[-122.1913,37.4253],[-122.1896,37.4271],[-122.1905,37.431],[-122.1846,37.4341],[-122.1822,37.4395],[-122.1757,37.4419],[-122.1741,37.4448],[-122.1689,37.4474],[-122.1653,37.4528],[-122.1595,37.4547],[-122.1577,37.4535],[-122.1535,37.4567],[-122.1468,37.4566],[-122.1419,37.4578],[-122.1388,37.4548],[-122.1339,37.4544],[-122.1283,37.4519],[-122.1218,37.4542],[-122.1238,37.4612],[-122.1152,37.4663],[-122.1091,37.463],[-122.1018,37.4627],[-122.0887,37.4523],[-122.0685,37.4503],[-122.0583,37.4468],[-122.0459,37.4491],[-122.0386,37.4546],[-122.0386,37.462],[-122.0409,37.4629],[-122.0362,37.465],[-122.0254,37.4656],[-122.0209,37.4651],[-121.9965,37.467],[-121.9927,37.4646],[-121.98,37.4609],[-121.9747,37.4607],[-121.9642,37.4632],[-121.9593,37.4635],[-121.9519,37.4615],[-121.9481,37.4618],[-121.9462,37.4639],[-121.9471,37.4674],[-121.9449,37.4692],[-121.9438,37.4655],[-121.9389,37.4624],[-121.936,37.4629],[-121.9341,37.4603],[-121.9315,37.4609],[-121.9321,37.4553],[-121.9284,37.4574],[-121.925,37.4542],[-121.9127,37.4607],[-121.9113,37.4622],[-121.8908,37.468],[-121.886,37.4714],[-121.8803,37.4715],[-121.8772,37.4752],[-121.8746,37.4758],[-121.8699,37.4817],[-121.8653,37.4846],[-121.7368,37.4839],[-121.6704,37.4827],[-121.5644,37.4824],[-121.473,37.4823],[-121.4745,37.4793],[-121.4789,37.4797],[-121.4834,37.4754],[-121.4868,37.4757],[-121.4843,37.466],[-121.4772,37.4632],[-121.4735,37.4602],[-121.4731,37.4568],[-121.4672,37.4533],[-121.4653,37.4545],[-121.4629,37.4515],[-121.4635,37.4457],[-121.4619,37.4388],[-121.4641,37.4376],[-121.4699,37.4309],[-121.4688,37.4253],[-121.4726,37.4233],[-121.4663,37.415],[-121.4636,37.4159],[-121.4564,37.4067],[-121.4557,37.401],[-121.4583,37.3981],[-121.4567,37.3955],[-121.4515,37.3946],[-121.4482,37.3917],[-121.4427,37.3928],[-121.4361,37.3961],[-121.4315,37.3942],[-121.424,37.3936],[-121.4194,37.3907],[-121.4125,37.3894],[-121.4091,37.3807],[-121.4158,37.3759],[-121.4193,37.3644],[-121.4225,37.3631],[-121.4236,37.3588],[-121.4198,37.3528],[-121.4207,37.3447],[-121.4091,37.3306],[-121.4119,37.3244],[-121.4094,37.3215],[-121.4075,37.3131],[-121.4058,37.311],[-121.4143,37.3065],[-121.4227,37.2991],[-121.4235,37.2953],[-121.4314,37.295],[-121.4368,37.292],[-121.4411,37.2939],[-121.4436,37.2966],[-121.4496,37.2939],[-121.4487,37.2903],[-121.453,37.2867],[-121.454,37.2841],[-121.4591,37.2827],[-121.454,37.2772],[-121.4548,37.2631],[-121.4573,37.2609],[-121.455,37.2556],[-121.4557,37.2494],[-121.4481,37.2395],[-121.4487,37.2373],[-121.4461,37.236],[-121.4417,37.2311],[-121.4361,37.2294],[-121.4341,37.2264],[-121.4316,37.2278],[-121.4264,37.2235],[-121.4222,37.2219],[-121.4211,37.2148],[-121.4169,37.2113],[-121.4169,37.206],[-121.4153,37.199],[-121.4117,37.1949],[-121.4102,37.1896],[-121.4115,37.1854],[-121.4089,37.1808],[-121.4111,37.1779],[-121.4101,37.1758],[-121.4122,37.1713],[-121.4077,37.169],[-121.4076,37.1632],[-121.4046,37.156],[-121.4011,37.1549],[-121.4,37.1509],[-121.3934,37.1481],[-121.3911,37.1507],[-121.3836,37.1515],[-121.3817,37.1576],[-121.384,37.1602],[-121.3846,37.1655],[-121.3829,37.1679],[-121.3797,37.168],[-121.3771,37.1717],[-121.3733,37.174],[-121.3722,37.177],[-121.3645,37.1803],[-121.3632,37.1835],[-121.3596,37.1845],[-121.3546,37.1839],[-121.3467,37.1799],[-121.3424,37.1742],[-121.3383,37.1735],[-121.3343,37.1708],[-121.3325,37.1713],[-121.3284,37.166],[-121.314,37.1679],[-121.3116,37.17],[-121.306,37.1666],[-121.3026,37.1682],[-121.2986,37.166],[-121.2907,37.1721],[-121.291,37.1754],[-121.2877,37.1774],[-121.2861,37.1811],[-121.2823,37.1837],[-121.2754,37.1787],[-121.2731,37.1733],[-121.2695,37.1712],[-121.2623,37.1595],[-121.2488,37.1577],[-121.2438,37.1586],[-121.2371,37.1572],[-121.2355,37.1529],[-121.2361,37.1497],[-121.2313,37.1385],[-121.2227,37.1308],[-121.2218,37.1259],[-121.2173,37.123],[-121.2217,37.1161],[-121.2238,37.1151],[-121.2263,37.1097],[-121.2255,37.1068],[-121.2304,37.105],[-121.2304,37.0969],[-121.2384,37.0934],[-121.243,37.0927],[-121.2455,37.0891],[-121.242,37.0851],[-121.2355,37.0862],[-121.2246,37.0789],[-121.2229,37.0738],[-121.2158,37.0692],[-121.2096,37.0682],[-121.2103,37.066],[-121.2082,37.062],[-121.209,37.0587],[-121.2131,37.0551],[-121.2187,37.0571],[-121.2234,37.0575],[-121.2232,37.0552],[-121.2258,37.0521],[-121.2245,37.0397],[-121.2361,37.0369],[-121.2411,37.0317],[-121.2485,37.0335],[-121.246,37.0256],[-121.2333,37.0117],[-121.2378,37.01],[-121.2363,37.0083],[-121.2352,37.0026],[-121.2331,36.9993],[-121.2415,36.9974],[-121.2451,36.9929],[-121.2466,36.987],[-121.2459,36.983],[-121.2374,36.9731],[-121.2321,36.9689],[-121.2248,36.9674],[-121.2197,36.963],[-121.2154,36.9612],[-121.3528,36.9602],[-121.3703,36.9605],[-121.4161,36.9607],[-121.4182,36.9605],[-121.4346,36.974],[-121.4377,36.9785],[-121.4473,36.983],[-121.452,36.9888],[-121.4566,36.9866],[-121.4637,36.9849],[-121.4659,36.9821],[-121.4636,36.9783],[-121.4679,36.9768],[-121.4889,36.9831],[-121.5015,36.9719],[-121.5046,36.9678],[-121.5053,36.9642],[-121.5081,36.9636],[-121.5094,36.96],[-121.5123,36.959],[-121.5102,36.956],[-121.512,36.9527],[-121.5117,36.9493],[-121.5138,36.9452],[-121.5222,36.9397],[-121.5236,36.9371],[-121.5345,36.9309],[-121.5392,36.9273],[-121.5408,36.9246],[-121.54,36.9208],[-121.5535,36.9152],[-121.5585,36.9105],[-121.5602,36.9031],[-121.5603,36.8971],[-121.5629,36.8963],[-121.5714,36.8971],[-121.5754,36.893],[-121.5814,36.8992],[-121.5812,36.9193]]]}}]}