{"type":"FeatureCollection","features":[{"type":"Feature","properties":{"id":"45063","name":"Lexington Co."},"geometry":{"type":"Polygon","coordinates":[[[-81.4694,34.0792],[-81.4684,34.0844],[-81.4657,34.0876],[-81.4599,34.0843],[-81.4447,34.0779],[-81.441,34.0784],[-81.4348,34.082],[-81.4302,34.0835],[-81.4247,34.0832],[-81.42,34.0799],[-81.4147,34.0742],[-81.4044,34.0725],[-81.4028,34.0708],[-81.3941,34.0715],[-81.3901,34.0753],[-81.3882,34.0793],[-81.3944,34.0851],[-81.397,34.086],[-81.4005,34.0919],[-81.4037,34.0942],[-81.4033,34.0979],[-81.4083,34.0983],[-81.4132,34.1042],[-81.413,34.1064],[-81.4165,34.1071],[-81.4171,34.1098],[-81.4222,34.11],[-81.4209,34.1155],[-81.4269,34.1174],[-81.4322,34.1213],[-81.4355,34.1289],[-81.4372,34.13],[-81.4037,34.1779],[-81.3871,34.1768],[-81.3748,34.179],[-81.3717,34.1806],[-81.3602,34.1891],[-81.3523,34.1967],[-81.339,34.1976],[-81.3372,34.1953],[-81.3297,34.1933],[-81.3294,34.1904],[-81.3213,34.1887],[-81.319,34.1856],[-81.3145,34.1869],[-81.3023,34.1624],[-81.3116,34.1545],[-81.315,34.1461],[-81.3117,34.1434],[-81.3119,34.1412],[-81.291,34.1172],[-81.2883,34.1175],[-81.2758,34.0974],[-81.269,34.0997],[-81.2581,34.1019],[-81.2437,34.1022],[-81.2233,34.1008],[-81.206,34.0981],[-81.1981,34.0963],[-81.1806,34.0905],[-81.1729,34.0905],[-81.1728,34.0876],[-81.1643,34.0837],[-81.1529,34.0776],[-81.1393,34.0683],[-81.132,34.0623],[-81.1253,34.0557],[-81.1163,34.0452],[-81.1082,34.0328],[-81.1038,34.0233],[-81.0994,34.0231],[-81.0976,34.018],[-81.0896,34.0134],[-81.0861,34.0139],[-81.08,34.0119],[-81.0736,34.0066],[-81.0669,34.009],[-81.0547,34.0008],[-81.0509,33.9958],[-81.0464,33.988],[-81.0458,33.9766],[-81.0385,33.9681],[-81.0358,33.9626],[-81.0236,33.9416],[-81.019,33.9353],[-81.017,33.9309],[-81.0172,33.9259],[-81.0194,33.9212],[-81.0292,33.9165],[-81.029,33.912],[-81.0227,33.9092],[-81.0143,33.9081],[-81.0088,33.9041],[-81.011,33.8981],[-81.0174,33.8965],[-81.0201,33.8933],[-81.0214,33.8881],[-81.0183,33.8822],[-81.0123,33.8801],[-81.0379,33.8709],[-81.0416,33.8588],[-81.0382,33.8462],[-81.0384,33.8443],[-81.0462,33.8043],[-81.0462,33.7974],[-81.0475,33.7894],[-81.0592,33.7708],[-81.0605,33.7625],[-81.0584,33.7502],[-81.0585,33.7471],[-81.0361,33.7452],[-81.0357,33.7502],[-81.0329,33.7641],[-81.0235,33.7635],[-81.0226,33.7732],[-81.0144,33.775],[-81.014,33.7812],[-80.967,33.7772],[-80.962,33.779],[-80.9549,33.776],[-80.9504,33.7721],[-80.94,33.7691],[-80.9382,33.7669],[-80.9336,33.7648],[-80.9328,33.7626],[-80.9265,33.7569],[-80.9263,33.7556],[-80.9346,33.7531],[-80.9403,33.7524],[-80.9456,33.7493],[-80.9516,33.7417],[-80.9557,33.7378],[-80.9592,33.7365],[-80.9644,33.7368],[-80.9743,33.7332],[-80.9785,33.7305],[-80.9889,33.731],[-80.992,33.7322],[-80.9998,33.7266],[-81.0194,33.7199],[-81.0429,33.7071],[-81.0847,33.696],[-81.1087,33.6856],[-81.1869,33.6529],[-81.1897,33.6554],[-81.1996,33.6592],[-81.2074,33.6589],[-81.2121,33.6631],[-81.2127,33.6618],[-81.2176,33.6641],[-81.2216,33.6681],[-81.2309,33.6701],[-81.2334,33.6736],[-81.2379,33.6751],[-81.244,33.6795],[-81.2517,33.6816],[-81.2569,33.6848],[-81.2655,33.6871],[-81.2692,33.6902],[-81.2697,33.6931],[-81.2749,33.6962],[-81.2793,33.6941],[-81.2859,33.6931],[-81.2904,33.6941],[-81.2926,33.6967],[-81.2986,33.6989],[-81.3027,33.7038],[-81.3065,33.7042],[-81.3115,33.7087],[-81.3229,33.7113],[-81.328,33.7152],[-81.3328,33.7158],[-81.3443,33.7211],[-81.3496,33.7205],[-81.3544,33.7229],[-81.3574,33.7229],[-81.3667,33.7285],[-81.3741,33.7253],[-81.3791,33.7251],[-81.3855,33.7269],[-81.3932,33.7269],[-81.4036,33.7323],[-81.4108,33.731],[-81.4153,33.7322],[-81.418,33.7345],[-81.427,33.7448],[-81.4256,33.7467],[-81.4285,33.7535],[-81.4316,33.7576],[-81.4323,33.7621],[-81.4317,33.769],[-81.4357,33.7752],[-81.4423,33.779],[-81.4531,33.791],[-81.4606,33.7972],[-81.4641,33.7972],[-81.4712,33.7995],[-81.4747,33.7984],[-81.4789,33.8023],[-81.4834,33.8019],[-81.4867,33.8046],[-81.4901,33.8047],[-81.4929,33.8095],[-81.5027,33.808],[-81.5055,33.8115],[-81.512,33.8128],[-81.5139,33.8161],[-81.5182,33.8178],[-81.5203,33.824],[-81.5271,33.8298],[-81.5335,33.8321],[-81.5344,33.8375],[-81.5383,33.8415],[-81.5387,33.8445],[-81.5423,33.8484],[-81.5409,33.8519],[-81.5469,33.8587],[-81.5615,33.863],[-81.5691,33.8718],[-81.5715,33.8773],[-81.5719,33.8795],[-81.5697,33.8869],[-81.5657,33.8923],[-81.5477,33.9269],[-81.5291,33.9656],[-81.4959,34.0275],[-81.4806,34.0569],[-81.472,34.0766],[-81.4694,34.0792]]]}},{"type":"Feature","properties":{"id":"45055","name":"Kershaw Co."},"geometry":{"type":"Polygon","coordinates":[[[-80.8734,34.4604],[-80.8533,34.473],[-80.7433,34.5399],[-80.7377,34.5395],[-80.7387,34.536],[-80.7397,34.5239],[-80.7424,34.5175],[-80.7456,34.5126],[-80.7448,34.5101],[-80.7401,34.5074],[-80.7402,34.5001],[-80.7456,34.4912],[-80.7452,34.4887],[-80.7417,34.485],[-80.74,34.48],[-80.7378,34.4826],[-80.735,34.4813],[-80.7206,34.4848],[-80.7136,34.4873],[-80.7098,34.5004],[-80.7092,34.5051],[-80.7063,34.5098],[-80.7006,34.5128],[-80.7,34.5153],[-80.6975,34.5146],[-80.6891,34.5153],[-80.6854,34.5091],[-80.6828,34.507],[-80.6822,34.501],[-80.6781,34.4976],[-80.6761,34.4931],[-80.6702,34.4895],[-80.6619,34.4833],[-80.6584,34.4786],[-80.6535,34.4793],[-80.6452,34.4837],[-80.6468,34.4889],[-80.6456,34.4915],[-80.6322,34.4914],[-80.6321,34.4806],[-80.6269,34.4838],[-80.6253,34.4884],[-80.6227,34.4915],[-80.6296,34.4912],[-80.6296,34.4987],[-80.6256,34.4952],[-80.618,34.4989],[-80.6136,34.4999],[-80.6102,34.4977],[-80.6144,34.4952],[-80.6143,34.4888],[-80.6104,34.4888],[-80.6041,34.4952],[-80.598,34.4952],[-80.5958,34.5021],[-80.586,34.4968],[-80.5825,34.4929],[-80.5794,34.4846],[-80.5758,34.4854],[-80.5761,34.4894],[-80.5671,34.4895],[-80.5595,34.4936],[-80.5489,34.4933],[-80.5452,34.5002],[-80.5456,34.5042],[-80.544,34.5075],[-80.541,34.5056],[-80.5337,34.504],[-80.5278,34.504],[-80.5273,34.5065],[-80.5239,34.5098],[-80.5244,34.5131],[-80.5269,34.5147],[-80.5276,34.5211],[-80.5348,34.5273],[-80.536,34.5339],[-80.5384,34.5353],[-80.5415,34.5339],[-80.5435,34.5374],[-80.5426,34.5402],[-80.5446,34.5431],[-80.5435,34.5458],[-80.5446,34.5493],[-80.5476,34.5519],[-80.5475,34.5554],[-80.5507,34.56],[-80.5428,34.5633],[-80.5043,34.5782],[-80.4084,34.6148],[-80.4057,34.613],[-80.4073,34.6086],[-80.4046,34.6085],[-80.3985,34.6056],[-80.3981,34.6017],[-80.3959,34.5991],[-80.3899,34.5994],[-80.3862,34.5966],[-80.3834,34.5922],[-80.3823,34.5864],[-80.3793,34.5845],[-80.3818,34.5827],[-80.3827,34.5792],[-80.3814,34.5738],[-80.3762,34.5721],[-80.3758,34.5661],[-80.3727,34.5633],[-80.3726,34.5595],[-80.3772,34.5632],[-80.3779,34.5611],[-80.375,34.5576],[-80.3723,34.5468],[-80.3685,34.5446],[-80.3671,34.5456],[-80.3654,34.5411],[-80.362,34.5375],[-80.3603,34.5387],[-80.3548,34.5311],[-80.3536,34.5209],[-80.348,34.5177],[-80.3428,34.5128],[-80.3394,34.5142],[-80.3358,34.5106],[-80.3335,34.5121],[-80.3303,34.5095],[-80.3331,34.5063],[-80.3276,34.4978],[-80.3276,34.4906],[-80.3263,34.4885],[-80.3295,34.4853],[-80.3276,34.4809],[-80.3301,34.473],[-80.3274,34.4732],[-80.3278,34.4683],[-80.3261,34.4674],[-80.328,34.4635],[-80.3268,34.4604],[-80.329,34.4591],[-80.3254,34.457],[-80.3253,34.4539],[-80.3285,34.4524],[-80.3271,34.45],[-80.3227,34.4489],[-80.3266,34.4465],[-80.3243,34.4445],[-80.3263,34.4421],[-80.3263,34.4374],[-80.3234,34.433],[-80.3211,34.4262],[-80.3186,34.4291],[-80.3154,34.4241],[-80.3137,34.426],[-80.3114,34.4243],[-80.3104,34.4149],[-80.3081,34.4125],[-80.303,34.4109],[-80.3014,34.408],[-80.3022,34.3998],[-80.2987,34.4001],[-80.2958,34.3949],[-80.2925,34.395],[-80.2914,34.3927],[-80.2897,34.3959],[-80.2855,34.3937],[-80.2848,34.3842],[-80.2878,34.3828],[-80.284,34.3777],[-80.289,34.3704],[-80.2887,34.3641],[-80.3261,34.3442],[-80.3251,34.3393],[-80.3321,34.3383],[-80.3437,34.3395],[-80.3638,34.3395],[-80.3658,34.3282],[-80.3621,34.3215],[-80.3542,34.3121],[-80.353,34.3033],[-80.3629,34.3043],[-80.3741,34.3038],[-80.382,34.3052],[-80.3863,34.3026],[-80.3923,34.301],[-80.3975,34.2965],[-80.4009,34.2952],[-80.4205,34.2931],[-80.4217,34.2943],[-80.4374,34.2845],[-80.431,34.2766],[-80.4293,34.2572],[-80.4264,34.2548],[-80.4241,34.2507],[-80.433,34.2489],[-80.4326,34.239],[-80.4308,34.227],[-80.4375,34.2167],[-80.4452,34.206],[-80.4545,34.208],[-80.4557,34.204],[-80.4524,34.199],[-80.4584,34.1887],[-80.4609,34.1833],[-80.4646,34.1786],[-80.4799,34.1687],[-80.5068,34.1502],[-80.5763,34.103],[-80.5801,34.0999],[-80.6044,34.1017],[-80.6185,34.1092],[-80.6203,34.1074],[-80.6208,34.1024],[-80.6162,34.0996],[-80.6356,34.0977],[-80.6395,34.0956],[-80.6467,34.094],[-80.6583,34.0888],[-80.6588,34.0859],[-80.6638,34.0857],[-80.6691,34.0839],[-80.6764,34.0846],[-80.6837,34.0816],[-80.7036,34.081],[-80.71,34.0771],[-80.7109,34.0747],[-80.7172,34.0727],[-80.7193,34.069],[-80.8514,34.1741],[-80.8685,34.1817],[-80.868,34.1848],[-80.8479,34.2257],[-80.841,34.2389],[-80.8259,34.2688],[-80.7911,34.3362],[-80.7773,34.3626],[-80.7699,34.3771],[-80.7814,34.3859],[-80.7836,34.3888],[-80.7844,34.3947],[-80.7819,34.4025],[-80.7832,34.4065],[-80.7935,34.4133],[-80.8056,34.4138],[-80.8107,34.4146],[-80.821,34.4122],[-80.8257,34.4119],[-80.8332,34.4148],[-80.8386,34.419],[-80.849,34.4301],[-80.8562,34.4353],[-80.8623,34.4412],[-80.8673,34.4446],[-80.8702,34.4496],[-80.8792,34.4578],[-80.8734,34.4604]]]}},{"type":"Feature","properties":{"id":"45079","name":"Richland Co."},"geometry":{"type":"Polygon","coordinates":[[[-81.3103,34.237],[-81.3025,34.2381],[-81.2966,34.2374],[-81.2841,34.233],[-81.2796,34.2306],[-81.2731,34.2228],[-81.2695,34.2218],[-81.2622,34.2138],[-81.2593,34.2089],[-81.2513,34.2029],[-81.2459,34.2039],[-81.2264,34.2057],[-81.2219,34.203],[-81.2187,34.1968],[-81.2084,34.1943],[-81.2017,34.1888],[-81.1921,34.1834],[-81.1849,34.178],[-81.1783,34.1746],[-81.1795,34.1866],[-81.1739,34.1891],[-81.1719,34.1925],[-81.1689,34.1944],[-81.1684,34.1977],[-81.1699,34.2032],[-81.1731,34.2043],[-81.1735,34.2107],[-81.1805,34.2157],[-81.1812,34.2203],[-81.1248,34.2157],[-81.1205,34.2161],[-81.0959,34.2139],[-81.0932,34.2176],[-81.0884,34.2193],[-81.0833,34.2248],[-81.0778,34.2249],[-81.0768,34.2209],[-81.0708,34.2251],[-81.0712,34.2305],[-81.0699,34.2322],[-81.0612,34.228],[-81.0575,34.2337],[-81.0466,34.2352],[-81.0427,34.2367],[-81.0392,34.2325],[-81.0122,34.2395],[-80.982,34.2468],[-80.9619,34.252],[-80.8748,34.2627],[-80.8739,34.263],[-80.8259,34.2688],[-80.841,34.2389],[-80.8479,34.2257],[-80.868,34.1848],[-80.8685,34.1817],[-80.8514,34.1741],[-80.7193,34.069],[-80.7172,34.0727],[-80.7109,34.0747],[-80.71,34.0771],[-80.7036,34.081],[-80.6837,34.0816],[-80.6764,34.0846],[-80.6691,34.0839],[-80.6638,34.0857],[-80.6588,34.0859],[-80.6583,34.0888],[-80.6467,34.094],[-80.6395,34.0956],[-80.6356,34.0977],[-80.6162,34.0996],[-80.6157,34.0968],[-80.6186,34.092],[-80.6244,34.0893],[-80.6324,34.0894],[-80.6365,34.083],[-80.6337,34.0783],[-80.6266,34.0774],[-80.6242,34.0819],[-80.6213,34.0832],[-80.6193,34.0798],[-80.6248,34.0731],[-80.6312,34.0682],[-80.6248,34.0661],[-80.6197,34.0633],[-80.6142,34.0636],[-80.6123,34.0613],[-80.6145,34.0592],[-80.6127,34.0562],[-80.6075,34.0584],[-80.6067,34.0564],[-80.6126,34.0518],[-80.6121,34.0492],[-80.6079,34.0462],[-80.607,34.0426],[-80.601,34.0394],[-80.601,34.0359],[-80.6043,34.0343],[-80.608,34.0293],[-80.6067,34.0268],[-80.6038,34.0275],[-80.6021,34.0254],[-80.6045,34.0236],[-80.6146,34.0251],[-80.6187,34.0167],[-80.6222,34.0138],[-80.6261,34.0138],[-80.628,34.0119],[-80.6253,34.0037],[-80.6272,34.003],[-80.6349,34.008],[-80.6373,34.0076],[-80.6354,34.0014],[-80.641,33.9994],[-80.6466,33.999],[-80.6449,33.996],[-80.6412,33.9964],[-80.6394,33.9907],[-80.644,33.9891],[-80.6411,33.9833],[-80.6304,33.9758],[-80.6313,33.9696],[-80.6331,33.9665],[-80.6289,33.9647],[-80.6233,33.9683],[-80.6158,33.9655],[-80.6153,33.9624],[-80.6196,33.9632],[-80.6211,33.9606],[-80.6177,33.9572],[-80.623,33.9575],[-80.6236,33.956],[-80.6201,33.9538],[-80.6248,33.9522],[-80.6283,33.9488],[-80.6291,33.9418],[-80.6202,33.9424],[-80.6228,33.9366],[-80.6207,33.9359],[-80.6182,33.9387],[-80.6166,33.9374],[-80.6215,33.9338],[-80.6248,33.9349],[-80.6301,33.9324],[-80.6262,33.9299],[-80.6325,33.9236],[-80.6308,33.9217],[-80.6341,33.9173],[-80.6292,33.9121],[-80.6245,33.9055],[-80.6259,33.8996],[-80.6215,33.8951],[-80.617,33.8955],[-80.6155,33.8907],[-80.6191,33.8887],[-80.6233,33.8901],[-80.6256,33.8935],[-80.6259,33.8888],[-80.6236,33.8842],[-80.6208,33.8825],[-80.621,33.8772],[-80.6235,33.8772],[-80.6229,33.8725],[-80.6253,33.8696],[-80.6253,33.8668],[-80.623,33.8612],[-80.6248,33.8595],[-80.6276,33.8611],[-80.6308,33.8572],[-80.6304,33.8541],[-80.6335,33.8527],[-80.631,33.8474],[-80.6275,33.8447],[-80.6267,33.8416],[-80.6191,33.8393],[-80.619,33.8365],[-80.6164,33.8349],[-80.617,33.8322],[-80.6203,33.831],[-80.6168,33.8269],[-80.6161,33.8228],[-80.6174,33.8211],[-80.6151,33.816],[-80.6157,33.8145],[-80.6064,33.8087],[-80.6031,33.8109],[-80.6021,33.8072],[-80.5988,33.8034],[-80.6054,33.8047],[-80.6042,33.8004],[-80.6003,33.7992],[-80.6017,33.7946],[-80.6038,33.7931],[-80.6005,33.7918],[-80.6013,33.7884],[-80.5975,33.7885],[-80.5962,33.7864],[-80.5998,33.7846],[-80.603,33.7853],[-80.5977,33.7775],[-80.6057,33.7718],[-80.6016,33.7687],[-80.6063,33.7674],[-80.6037,33.7627],[-80.6088,33.7619],[-80.6056,33.7575],[-80.6118,33.7554],[-80.609,33.7541],[-80.6111,33.7515],[-80.6162,33.751],[-80.6146,33.7476],[-80.6201,33.7479],[-80.6187,33.7436],[-80.6201,33.7432],[-80.6228,33.7456],[-80.6328,33.7437],[-80.6404,33.7475],[-80.6417,33.7523],[-80.6473,33.7542],[-80.6495,33.7577],[-80.6564,33.7614],[-80.6563,33.7657],[-80.6517,33.77],[-80.6547,33.7735],[-80.6591,33.773],[-80.6663,33.7684],[-80.6718,33.7665],[-80.6751,33.762],[-80.6775,33.763],[-80.6866,33.756],[-80.686,33.7606],[-80.6884,33.7605],[-80.69,33.7572],[-80.6997,33.757],[-80.7054,33.7598],[-80.7044,33.7665],[-80.7107,33.771],[-80.7137,33.7703],[-80.7144,33.7616],[-80.7176,33.7608],[-80.7214,33.764],[-80.7225,33.7673],[-80.7277,33.7674],[-80.728,33.7618],[-80.7339,33.76],[-80.7374,33.7566],[-80.7405,33.7591],[-80.7359,33.7655],[-80.7363,33.7674],[-80.7407,33.7688],[-80.7416,33.7739],[-80.745,33.7764],[-80.748,33.7758],[-80.7516,33.7706],[-80.7486,33.769],[-80.7478,33.766],[-80.7449,33.764],[-80.7473,33.7617],[-80.7498,33.7646],[-80.7562,33.7648],[-80.7575,33.7731],[-80.7597,33.774],[-80.7663,33.7668],[-80.7679,33.7714],[-80.7718,33.7719],[-80.7793,33.7617],[-80.7849,33.761],[-80.7861,33.7627],[-80.783,33.7652],[-80.783,33.7689],[-80.7934,33.7695],[-80.7979,33.7707],[-80.8014,33.7731],[-80.8076,33.7742],[-80.8095,33.7785],[-80.8157,33.7811],[-80.8192,33.7763],[-80.8219,33.7744],[-80.828,33.7762],[-80.8293,33.7782],[-80.8261,33.7802],[-80.8226,33.7846],[-80.8225,33.787],[-80.8296,33.7849],[-80.8335,33.7855],[-80.835,33.7906],[-80.8375,33.7939],[-80.8452,33.796],[-80.8578,33.8016],[-80.8658,33.8027],[-80.8665,33.8074],[-80.8697,33.8124],[-80.8748,33.8155],[-80.8798,33.8156],[-80.8932,33.8099],[-80.8985,33.8088],[-80.9156,33.8114],[-80.9173,33.8137],[-80.916,33.8249],[-80.9117,33.8299],[-80.9131,33.8329],[-80.9205,33.8349],[-80.9231,33.833],[-80.9243,33.8274],[-80.9292,33.8264],[-80.9362,33.8264],[-80.9406,33.8285],[-80.944,33.8339],[-80.9508,33.8409],[-80.9659,33.8478],[-80.973,33.847],[-80.9778,33.8485],[-80.9857,33.8487],[-80.9896,33.8527],[-80.9859,33.8556],[-80.9862,33.8575],[-80.9998,33.8606],[-81.0021,33.8631],[-80.9983,33.867],[-80.9966,33.8738],[-81.0002,33.8784],[-81.0123,33.8801],[-81.0183,33.8822],[-81.0214,33.8881],[-81.0201,33.8933],[-81.0174,33.8965],[-81.011,33.8981],[-81.0088,33.9041],[-81.0143,33.9081],[-81.0227,33.9092],[-81.029,33.912],[-81.0292,33.9165],[-81.0194,33.9212],[-81.0172,33.9259],[-81.017,33.9309],[-81.019,33.9353],[-81.0236,33.9416],[-81.0358,33.9626],[-81.0385,33.9681],[-81.0458,33.9766],[-81.0464,33.988],[-81.0509,33.9958],[-81.0547,34.0008],[-81.0669,34.009],[-81.0736,34.0066],[-81.08,34.0119],[-81.0861,34.0139],[-81.0896,34.0134],[-81.0976,34.018],[-81.0994,34.0231],[-81.1038,34.0233],[-81.1082,34.0328],[-81.1163,34.0452],[-81.1253,34.0557],[-81.132,34.0623],[-81.1393,34.0683],[-81.1529,34.0776],[-81.1643,34.0837],[-81.1728,34.0876],[-81.1729,34.0905],[-81.1806,34.0905],[-81.1981,34.0963],[-81.206,34.0981],[-81.2233,34.1008],[-81.2437,34.1022],[-81.2581,34.1019],[-81.269,34.0997],[-81.2758,34.0974],[-81.2883,34.1175],[-81.291,34.1172],[-81.3119,34.1412],[-81.3117,34.1434],[-81.315,34.1461],[-81.3116,34.1545],[-81.3023,34.1624],[-81.3145,34.1869],[-81.319,34.1856],[-81.3213,34.1887],[-81.3294,34.1904],[-81.3297,34.1933],[-81.3372,34.1953],[-81.339,34.1976],[-81.3453,34.205],[-81.3288,34.2273],[-81.3169,34.2395],[-81.3103,34.237]]]}},{"type":"Feature","properties":{"id":"45017","name":"Calhoun Co."},"geometry":{"type":"Polygon","coordinates":[[[-81.0002,33.8784],[-80.9966,33.8738],[-80.9983,33.867],[-81.0021,33.8631],[-80.9998,33.8606],[-80.9862,33.8575],[-80.9859,33.8556],[-80.9896,33.8527],[-80.9857,33.8487],[-80.9778,33.8485],[-80.973,33.847],[-80.9659,33.8478],[-80.9508,33.8409],[-80.944,33.8339],[-80.9406,33.8285],[-80.9362,33.8264],[-80.9292,33.8264],[-80.9243,33.8274],[-80.9231,33.833],[-80.9205,33.8349],[-80.9131,33.8329],[-80.9117,33.8299],[-80.916,33.8249],[-80.9173,33.8137],[-80.9156,33.8114],[-80.8985,33.8088],[-80.8932,33.8099],[-80.8798,33.8156],[-80.8748,33.8155],[-80.8697,33.8124],[-80.8665,33.8074],[-80.8658,33.8027],[-80.8578,33.8016],[-80.8452,33.796],[-80.8375,33.7939],[-80.835,33.7906],[-80.8335,33.7855],[-80.8296,33.7849],[-80.8225,33.787],[-80.8226,33.7846],[-80.8261,33.7802],[-80.8293,33.7782],[-80.828,33.7762],[-80.8219,33.7744],[-80.8192,33.7763],[-80.8157,33.7811],[-80.8095,33.7785],[-80.8076,33.7742],[-80.8014,33.7731],[-80.7979,33.7707],[-80.7934,33.7695],[-80.783,33.7689],[-80.783,33.7652],[-80.7861,33.7627],[-80.7849,33.761],[-80.7793,33.7617],[-80.7718,33.7719],[-80.7679,33.7714],[-80.7663,33.7668],[-80.7597,33.774],[-80.7575,33.7731],[-80.7562,33.7648],[-80.7498,33.7646],[-80.7473,33.7617],[-80.7449,33.764],[-80.7478,33.766],[-80.7486,33.769],[-80.7516,33.7706],[-80.748,33.7758],[-80.745,33.7764],[-80.7416,33.7739],[-80.7407,33.7688],[-80.7363,33.7674],[-80.7359,33.7655],[-80.7405,33.7591],[-80.7374,33.7566],[-80.7339,33.76],[-80.728,33.7618],[-80.7277,33.7674],[-80.7225,33.7673],[-80.7214,33.764],[-80.7176,33.7608],[-80.7144,33.7616],[-80.7137,33.7703],[-80.7107,33.771],[-80.7044,33.7665],[-80.7054,33.7598],[-80.6997,33.757],[-80.69,33.7572],[-80.6884,33.7605],[-80.686,33.7606],[-80.6866,33.756],[-80.6775,33.763],[-80.6751,33.762],[-80.6718,33.7665],[-80.6663,33.7684],[-80.6591,33.773],[-80.6547,33.7735],[-80.6517,33.77],[-80.6563,33.7657],[-80.6564,33.7614],[-80.6495,33.7577],[-80.6473,33.7542],[-80.6417,33.7523],[-80.6404,33.7475],[-80.6328,33.7437],[-80.6228,33.7456],[-80.6201,33.7432],[-80.6211,33.742],[-80.6288,33.7402],[-80.6297,33.7374],[-80.6245,33.7346],[-80.6276,33.731],[-80.6165,33.7195],[-80.6167,33.7141],[-80.6153,33.7118],[-80.6076,33.7091],[-80.6044,33.7043],[-80.6016,33.7027],[-80.5941,33.7024],[-80.5926,33.699],[-80.5966,33.695],[-80.5934,33.6922],[-80.5903,33.6848],[-80.5851,33.6817],[-80.5788,33.6795],[-80.5741,33.679],[-80.5652,33.6797],[-80.5624,33.6784],[-80.5602,33.6741],[-80.5605,33.6715],[-80.5654,33.6661],[-80.5625,33.663],[-80.5559,33.6624],[-80.5539,33.6612],[-80.5537,33.6565],[-80.5512,33.653],[-80.546,33.6488],[-80.5314,33.6424],[-80.5288,33.6391],[-80.5292,33.6347],[-80.5398,33.6319],[-80.5404,33.628],[-80.5323,33.6216],[-80.5216,33.6165],[-80.5193,33.6116],[-80.5216,33.6034],[-80.5198,33.5974],[-80.5142,33.5941],[-80.5033,33.5916],[-80.5014,33.5881],[-80.5061,33.5835],[-80.5149,33.5812],[-80.5162,33.5769],[-80.5152,33.5747],[-80.504,33.57],[-80.506,33.5642],[-80.5045,33.5627],[-80.4978,33.5615],[-80.4963,33.5585],[-80.4971,33.5536],[-80.5004,33.5523],[-80.5056,33.5526],[-80.5044,33.5464],[-80.506,33.5397],[-80.5033,33.5358],[-80.5112,33.5384],[-80.5383,33.5597],[-80.5401,33.5618],[-80.5482,33.5585],[-80.5514,33.5587],[-80.5523,33.5654],[-80.5646,33.5618],[-80.5741,33.5604],[-80.58,33.5611],[-80.6015,33.5562],[-80.6103,33.5507],[-80.5882,33.5386],[-80.6247,33.4989],[-80.6197,33.4932],[-80.625,33.4888],[-80.6193,33.4822],[-80.6113,33.4704],[-80.6166,33.466],[-80.6273,33.4738],[-80.6345,33.4695],[-80.6393,33.4749],[-80.6458,33.4728],[-80.6525,33.4729],[-80.659,33.471],[-80.6604,33.473],[-80.6661,33.4752],[-80.6681,33.4804],[-80.6725,33.4824],[-80.6739,33.4848],[-80.678,33.4867],[-80.6837,33.4994],[-80.691,33.5033],[-80.694,33.506],[-80.6961,33.5105],[-80.696,33.5146],[-80.6941,33.5219],[-80.7316,33.5495],[-80.8076,33.6041],[-80.8814,33.6197],[-80.9197,33.6055],[-80.9398,33.6088],[-80.9387,33.612],[-80.9395,33.6178],[-80.9382,33.6245],[-80.9407,33.6298],[-80.9398,33.637],[-80.944,33.6436],[-80.9655,33.6253],[-80.9998,33.6608],[-81.0152,33.6779],[-81.0229,33.6856],[-81.0429,33.7071],[-81.0194,33.7199],[-80.9998,33.7266],[-80.992,33.7322],[-80.9889,33.731],[-80.9785,33.7305],[-80.9743,33.7332],[-80.9644,33.7368],[-80.9592,33.7365],[-80.9557,33.7378],[-80.9516,33.7417],[-80.9456,33.7493],[-80.9403,33.7524],[-80.9346,33.7531],[-80.9263,33.7556],[-80.9265,33.7569],[-80.9328,33.7626],[-80.9336,33.7648],[-80.9382,33.7669],[-80.94,33.7691],[-80.9504,33.7721],[-80.9549,33.776],[-80.962,33.779],[-80.967,33.7772],[-81.014,33.7812],[-81.0144,33.775],[-81.0226,33.7732],[-81.0235,33.7635],[-81.0329,33.7641],[-81.0357,33.7502],[-81.0361,33.7452],[-81.0585,33.7471],[-81.0584,33.7502],[-81.0605,33.7625],[-81.0592,33.7708],[-81.0475,33.7894],[-81.0462,33.7974],[-81.0462,33.8043],[-81.0384,33.8443],[-81.0382,33.8462],[-81.0416,33.8588],[-81.0379,33.8709],[-81.0123,33.8801],[-81.0002,33.8784]]]}},{"type":"Feature","properties":{"id":"45081","name":"Saluda Co."},"geometry":{"type":"Polygon","coordinates":[[[-81.6518,33.8145],[-81.7766,33.846],[-81.808,33.8587],[-81.8141,33.8634],[-81.8246,33.8673],[-81.8301,33.8649],[-81.8368,33.8665],[-81.8468,33.8747],[-81.8566,33.8797],[-81.8621,33.8836],[-81.8669,33.8899],[-81.8704,33.892],[-81.8731,33.9018],[-81.8946,33.9754],[-81.932,33.9769],[-81.9987,33.9642],[-82.0083,33.9616],[-82.0103,33.964],[-82.0078,33.9664],[-82.0061,33.9712],[-81.9994,33.9771],[-82.0011,33.978],[-81.997,33.9828],[-81.9963,33.9864],[-81.9913,33.9919],[-81.9888,33.9984],[-81.9839,34.0001],[-81.9831,34.002],[-81.9535,34.0302],[-81.9461,34.0389],[-81.9307,34.0698],[-81.9233,34.073],[-81.9244,34.0763],[-81.9183,34.0791],[-81.9183,34.0835],[-81.9158,34.091],[-81.9048,34.0946],[-81.9003,34.095],[-81.899,34.098],[-81.8957,34.0997],[-81.897,34.1069],[-81.8907,34.1101],[-81.8875,34.1179],[-81.8809,34.1203],[-81.8782,34.1256],[-81.8705,34.1299],[-81.8685,34.1324],[-81.8701,34.1354],[-81.8672,34.1369],[-81.8667,34.1409],[-81.8728,34.1458],[-81.871,34.15],[-81.8759,34.1558],[-81.8788,34.1567],[-81.8761,34.1618],[-81.8764,34.1678],[-81.8665,34.1721],[-81.8606,34.1794],[-81.8534,34.1801],[-81.8425,34.1731],[-81.8389,34.1722],[-81.8342,34.178],[-81.8273,34.1822],[-81.8257,34.1807],[-81.8298,34.1767],[-81.8288,34.1736],[-81.8238,34.1724],[-81.8184,34.1731],[-81.8108,34.1754],[-81.8,34.1724],[-81.7936,34.1693],[-81.7903,34.1696],[-81.7887,34.172],[-81.7842,34.1727],[-81.7814,34.1713],[-81.7856,34.1659],[-81.7802,34.1664],[-81.7788,34.1647],[-81.7736,34.1666],[-81.771,34.1739],[-81.7689,34.1749],[-81.7633,34.174],[-81.7539,34.1777],[-81.7492,34.1771],[-81.7439,34.1792],[-81.7379,34.1857],[-81.7316,34.1876],[-81.7263,34.1843],[-81.7241,34.1813],[-81.7186,34.1766],[-81.709,34.1732],[-81.7003,34.173],[-81.6967,34.174],[-81.6915,34.1729],[-81.6841,34.1667],[-81.6767,34.1632],[-81.6727,34.156],[-81.6601,34.1523],[-81.6549,34.1484],[-81.6474,34.146],[-81.637,34.1462],[-81.6313,34.1416],[-81.63,34.1376],[-81.6248,34.1287],[-81.6199,34.1247],[-81.6089,34.1235],[-81.6043,34.1203],[-81.6025,34.1148],[-81.599,34.1131],[-81.5953,34.1185],[-81.5896,34.1172],[-81.5855,34.1116],[-81.5713,34.0997],[-81.5634,34.0993],[-81.5542,34.0941],[-81.5485,34.0939],[-81.5456,34.091],[-81.5424,34.0842],[-81.5389,34.0817],[-81.5302,34.0829],[-81.5188,34.0814],[-81.5138,34.0823],[-81.5096,34.077],[-81.5025,34.0739],[-81.4958,34.0768],[-81.4925,34.0768],[-81.488,34.0791],[-81.4851,34.0823],[-81.4821,34.0819],[-81.4773,34.078],[-81.472,34.0766],[-81.4806,34.0569],[-81.4959,34.0275],[-81.5291,33.9656],[-81.5477,33.9269],[-81.5657,33.8923],[-81.5697,33.8869],[-81.5719,33.8795],[-81.5715,33.8773],[-81.6518,33.8145]]]}},{"type":"Feature","properties":{"id":"45039","name":"Fairfield Co."},"geometry":{"type":"Polygon","coordinates":[[[-80.8702,34.4496],[-80.8673,34.4446],[-80.8623,34.4412],[-80.8562,34.4353],[-80.849,34.4301],[-80.8386,34.419],[-80.8332,34.4148],[-80.8257,34.4119],[-80.821,34.4122],[-80.8107,34.4146],[-80.8056,34.4138],[-80.7935,34.4133],[-80.7832,34.4065],[-80.7819,34.4025],[-80.7844,34.3947],[-80.7836,34.3888],[-80.7814,34.3859],[-80.7699,34.3771],[-80.7773,34.3626],[-80.7911,34.3362],[-80.8259,34.2688],[-80.8739,34.263],[-80.8748,34.2627],[-80.9619,34.252],[-80.982,34.2468],[-81.0122,34.2395],[-81.0392,34.2325],[-81.0427,34.2367],[-81.0466,34.2352],[-81.0575,34.2337],[-81.0612,34.228],[-81.0699,34.2322],[-81.0712,34.2305],[-81.0708,34.2251],[-81.0768,34.2209],[-81.0778,34.2249],[-81.0833,34.2248],[-81.0884,34.2193],[-81.0932,34.2176],[-81.0959,34.2139],[-81.1205,34.2161],[-81.1248,34.2157],[-81.1812,34.2203],[-81.1805,34.2157],[-81.1735,34.2107],[-81.1731,34.2043],[-81.1699,34.2032],[-81.1684,34.1977],[-81.1689,34.1944],[-81.1719,34.1925],[-81.1739,34.1891],[-81.1795,34.1866],[-81.1783,34.1746],[-81.1849,34.178],[-81.1921,34.1834],[-81.2017,34.1888],[-81.2084,34.1943],[-81.2187,34.1968],[-81.2219,34.203],[-81.2264,34.2057],[-81.2459,34.2039],[-81.2513,34.2029],[-81.2593,34.2089],[-81.2622,34.2138],[-81.2695,34.2218],[-81.2731,34.2228],[-81.2796,34.2306],[-81.2841,34.233],[-81.2966,34.2374],[-81.3025,34.2381],[-81.3103,34.237],[-81.3169,34.2395],[-81.323,34.246],[-81.3284,34.257],[-81.335,34.2624],[-81.3423,34.2669],[-81.3453,34.2759],[-81.3443,34.2827],[-81.3397,34.29],[-81.3396,34.2922],[-81.3435,34.2982],[-81.354,34.3029],[-81.359,34.3105],[-81.3617,34.3178],[-81.3665,34.3258],[-81.3658,34.3304],[-81.3715,34.3407],[-81.3704,34.3458],[-81.3715,34.3504],[-81.3745,34.3546],[-81.3782,34.3621],[-81.3827,34.3672],[-81.3847,34.3751],[-81.3873,34.3803],[-81.3948,34.3871],[-81.3973,34.3926],[-81.3979,34.4009],[-81.4062,34.4145],[-81.4066,34.4217],[-81.41,34.4274],[-81.4103,34.4318],[-81.4144,34.4391],[-81.4161,34.4452],[-81.4212,34.4538],[-81.4206,34.4565],[-81.4158,34.4621],[-81.4129,34.4679],[-81.413,34.473],[-81.416,34.4795],[-81.4224,34.4822],[-81.4234,34.4923],[-81.4211,34.5015],[-81.4235,34.5129],[-81.4249,34.5241],[-81.4275,34.5295],[-81.4262,34.5368],[-81.427,34.539],[-81.4246,34.5456],[-81.4251,34.5523],[-81.4243,34.556],[-81.421,34.5599],[-81.4198,34.5666],[-81.4227,34.572],[-81.3116,34.5668],[-81.276,34.5652],[-81.1711,34.5594],[-81.1248,34.5566],[-81.1202,34.5565],[-81.0709,34.5536],[-81.06,34.5532],[-81.0049,34.548],[-80.9709,34.5464],[-80.964,34.5464],[-80.9509,34.5454],[-80.8775,34.5431],[-80.8755,34.5359],[-80.8762,34.525],[-80.8786,34.5175],[-80.8813,34.5063],[-80.8817,34.5001],[-80.8875,34.4954],[-80.892,34.4954],[-80.8972,34.4917],[-80.8987,34.4867],[-80.8961,34.4838],[-80.8882,34.4679],[-80.8829,34.4634],[-80.8792,34.4578],[-80.8702,34.4496]]]}}]}