{"type":"FeatureCollection","features":[{"type":"Feature","properties":{"id":"39127","name":"Perry Co."},"geometry":{"type":"Polygon","coordinates":[[[-82.4182,39.9279],[-82.4187,39.9224],[-82.3369,39.918],[-82.234,39.9133],[-82.1624,39.9094],[-82.1675,39.8487],[-82.17,39.8207],[-82.1324,39.8188],[-82.0729,39.8162],[-82.0802,39.7277],[-82.0242,39.7247],[-82.0288,39.6725],[-82.0321,39.6367],[-82.033,39.6241],[-82.0359,39.5928],[-82.0376,39.5794],[-82.0396,39.5502],[-82.0475,39.5508],[-82.12,39.5546],[-82.1289,39.5548],[-82.1592,39.5566],[-82.1683,39.5568],[-82.2636,39.5621],[-82.262,39.5906],[-82.2912,39.592],[-82.2996,39.5921],[-82.3497,39.5951],[-82.3799,39.5967],[-82.3762,39.6334],[-82.3745,39.655],[-82.3661,39.7425],[-82.4042,39.7446],[-82.4033,39.7522],[-82.3972,39.8185],[-82.3966,39.8331],[-82.4248,39.8345],[-82.4724,39.8372],[-82.4717,39.8486],[-82.4701,39.8599],[-82.4664,39.8947],[-82.4628,39.9304],[-82.4182,39.9279]]]}},{"type":"Feature","properties":{"id":"39089","name":"Licking Co."},"geometry":{"type":"Polygon","coordinates":[[[-82.759,40.1635],[-82.7535,40.2421],[-82.7507,40.277],[-82.6442,40.2727],[-82.5804,40.2698],[-82.5168,40.2666],[-82.4761,40.2647],[-82.4773,40.2458],[-82.4345,40.2438],[-82.3749,40.2413],[-82.3175,40.2396],[-82.2809,40.2393],[-82.2809,40.2402],[-82.2399,40.2399],[-82.1959,40.2391],[-82.1828,40.2386],[-82.1867,40.183],[-82.1864,40.1823],[-82.1908,40.094],[-82.1947,40.0223],[-82.1953,40.006],[-82.1986,39.955],[-82.1987,39.9502],[-82.2179,39.9511],[-82.2317,39.9511],[-82.2317,39.9476],[-82.2337,39.9206],[-82.234,39.9133],[-82.3369,39.918],[-82.4187,39.9224],[-82.4182,39.9279],[-82.4628,39.9304],[-82.4734,39.9251],[-82.5056,39.9267],[-82.5818,39.9302],[-82.6104,39.9312],[-82.6812,39.9345],[-82.7729,39.9393],[-82.7825,39.9397],[-82.7795,39.9763],[-82.7738,39.9761],[-82.7675,40.051],[-82.7638,40.0977],[-82.7618,40.1259],[-82.759,40.1635]]]}},{"type":"Feature","properties":{"id":"39129","name":"Pickaway Co."},"geometry":{"type":"Polygon","coordinates":[[[-83.2485,39.7453],[-83.2466,39.7766],[-83.2458,39.7829],[-83.2437,39.8125],[-83.1936,39.8103],[-83.1851,39.8093],[-83.1679,39.8087],[-83.1204,39.8078],[-83.0747,39.8061],[-83.0445,39.8053],[-83.0376,39.8056],[-82.9377,39.801],[-82.8947,39.7987],[-82.8243,39.795],[-82.8353,39.6762],[-82.8376,39.6496],[-82.8344,39.6494],[-82.843,39.5615],[-82.8243,39.5604],[-82.7785,39.5574],[-82.7315,39.5544],[-82.7407,39.4684],[-82.7499,39.4689],[-82.75,39.4681],[-82.851,39.4734],[-82.9167,39.4767],[-82.9982,39.4801],[-82.9951,39.4882],[-82.9895,39.4911],[-82.9823,39.4894],[-82.9804,39.4903],[-82.9787,39.5009],[-82.984,39.504],[-82.9846,39.5068],[-82.9926,39.5064],[-83.1119,39.5103],[-83.1555,39.5118],[-83.2667,39.5162],[-83.2636,39.5527],[-83.2584,39.617],[-83.2556,39.6587],[-83.2551,39.6617],[-83.2524,39.6954],[-83.2485,39.7453]]]}},{"type":"Feature","properties":{"id":"39041","name":"Delaware Co."},"geometry":{"type":"Polygon","coordinates":[[[-83.1918,40.4405],[-83.1604,40.4389],[-83.1137,40.437],[-83.0208,40.4338],[-83.0221,40.4189],[-82.9733,40.4165],[-82.9731,40.4172],[-82.9248,40.415],[-82.9296,40.3581],[-82.8686,40.3552],[-82.7449,40.3496],[-82.7507,40.277],[-82.7535,40.2421],[-82.759,40.1635],[-82.7618,40.1259],[-82.8582,40.13],[-82.9028,40.1321],[-83.0052,40.1363],[-83.1199,40.1402],[-83.1699,40.1431],[-83.1713,40.1981],[-83.1723,40.2443],[-83.1923,40.2444],[-83.2484,40.2445],[-83.2493,40.2823],[-83.2496,40.3393],[-83.2495,40.3817],[-83.2492,40.4187],[-83.2486,40.444],[-83.1918,40.4405]]]}},{"type":"Feature","properties":{"id":"39117","name":"Morrow Co."},"geometry":{"type":"Polygon","coordinates":[[[-83.0168,40.4845],[-83.0053,40.4859],[-82.9584,40.4907],[-82.9578,40.6161],[-82.9578,40.6451],[-82.907,40.646],[-82.8598,40.6464],[-82.8586,40.6861],[-82.8582,40.7124],[-82.8134,40.7125],[-82.765,40.7119],[-82.7272,40.7112],[-82.6891,40.711],[-82.6891,40.7106],[-82.6272,40.7094],[-82.6262,40.6661],[-82.645,40.6664],[-82.6441,40.6372],[-82.6248,40.6373],[-82.6252,40.6243],[-82.6236,40.5499],[-82.6428,40.55],[-82.6431,40.5245],[-82.6428,40.5221],[-82.6332,40.5231],[-82.6381,40.4634],[-82.6408,40.4176],[-82.6465,40.3451],[-82.7449,40.3496],[-82.8686,40.3552],[-82.9296,40.3581],[-82.9248,40.415],[-82.9731,40.4172],[-82.9733,40.4165],[-83.0221,40.4189],[-83.0208,40.4338],[-83.0168,40.4845]]]}},{"type":"Feature","properties":{"id":"39049","name":"Franklin Co."},"geometry":{"type":"Polygon","coordinates":[[[-83.1702,40.1071],[-83.1699,40.1431],[-83.1199,40.1402],[-83.0052,40.1363],[-82.9028,40.1321],[-82.8582,40.13],[-82.7618,40.1259],[-82.7638,40.0977],[-82.7675,40.051],[-82.7738,39.9761],[-82.7795,39.9763],[-82.7825,39.9397],[-82.8108,39.9412],[-82.8131,39.9117],[-82.7944,39.9108],[-82.7975,39.8845],[-82.7976,39.8755],[-82.8009,39.845],[-82.8025,39.823],[-82.8215,39.8243],[-82.8243,39.795],[-82.8947,39.7987],[-82.9377,39.801],[-83.0376,39.8056],[-83.0445,39.8053],[-83.0747,39.8061],[-83.1204,39.8078],[-83.1679,39.8087],[-83.1851,39.8093],[-83.1936,39.8103],[-83.2437,39.8125],[-83.244,39.8223],[-83.245,39.829],[-83.2473,39.8608],[-83.2507,39.9035],[-83.252,39.9174],[-83.2306,39.9286],[-83.2256,39.9323],[-83.2286,39.9393],[-83.2319,39.9449],[-83.2362,39.9477],[-83.2374,39.95],[-83.2417,39.9526],[-83.2417,39.9571],[-83.2402,39.9601],[-83.2454,39.9633],[-83.2469,39.9711],[-83.2502,39.9703],[-83.2494,39.9734],[-83.2501,39.9832],[-83.2461,39.9873],[-83.2511,39.9913],[-83.2561,39.9987],[-83.2609,40.0028],[-83.2586,40.0048],[-83.2541,40.005],[-83.2517,40.0084],[-83.2533,40.0143],[-83.2518,40.0196],[-83.2528,40.0284],[-83.2555,40.0288],[-83.2561,40.0328],[-83.2525,40.0406],[-83.2556,40.0455],[-83.2538,40.0492],[-83.2208,40.0479],[-83.2122,40.0481],[-83.2095,40.0751],[-83.2068,40.1058],[-83.2063,40.1077],[-83.1702,40.1071]]]}},{"type":"Feature","properties":{"id":"39159","name":"Union Co."},"geometry":{"type":"Polygon","coordinates":[[[-83.2492,40.4187],[-83.2495,40.3817],[-83.2496,40.3393],[-83.2493,40.2823],[-83.2484,40.2445],[-83.1923,40.2444],[-83.1723,40.2443],[-83.1713,40.1981],[-83.1699,40.1431],[-83.1702,40.1071],[-83.2063,40.1077],[-83.2393,40.1083],[-83.2783,40.1092],[-83.3506,40.11],[-83.5037,40.1115],[-83.5027,40.1261],[-83.4959,40.2093],[-83.4945,40.2255],[-83.5053,40.226],[-83.5513,40.2294],[-83.5456,40.2805],[-83.535,40.3781],[-83.525,40.4653],[-83.5202,40.5041],[-83.4062,40.5054],[-83.3101,40.5065],[-83.2483,40.5071],[-83.2483,40.4632],[-83.2486,40.444],[-83.2492,40.4187]]]}},{"type":"Feature","properties":{"id":"39073","name":"Hocking Co."},"geometry":{"type":"Polygon","coordinates":[[[-82.7315,39.5544],[-82.7303,39.5691],[-82.6499,39.5652],[-82.6201,39.564],[-82.6175,39.6086],[-82.5489,39.6056],[-82.4961,39.6028],[-82.4903,39.6617],[-82.4489,39.6591],[-82.3745,39.655],[-82.3762,39.6334],[-82.3799,39.5967],[-82.3497,39.5951],[-82.2996,39.5921],[-82.2912,39.592],[-82.262,39.5906],[-82.2636,39.5621],[-82.1683,39.5568],[-82.1592,39.5566],[-82.1674,39.4663],[-82.1702,39.4664],[-82.2804,39.4729],[-82.2897,39.3842],[-82.3513,39.3874],[-82.3612,39.3881],[-82.4053,39.3904],[-82.5145,39.3958],[-82.5162,39.3751],[-82.5176,39.3695],[-82.609,39.3743],[-82.6344,39.376],[-82.6357,39.3616],[-82.6736,39.3632],[-82.7486,39.3682],[-82.7434,39.4358],[-82.7407,39.4684],[-82.7315,39.5544]]]}},{"type":"Feature","properties":{"id":"39045","name":"Fairfield Co."},"geometry":{"type":"Polygon","coordinates":[[[-82.8215,39.8243],[-82.8025,39.823],[-82.8009,39.845],[-82.7976,39.8755],[-82.7975,39.8845],[-82.7944,39.9108],[-82.8131,39.9117],[-82.8108,39.9412],[-82.7825,39.9397],[-82.7729,39.9393],[-82.6812,39.9345],[-82.6104,39.9312],[-82.5818,39.9302],[-82.5056,39.9267],[-82.4734,39.9251],[-82.4628,39.9304],[-82.4664,39.8947],[-82.4701,39.8599],[-82.4717,39.8486],[-82.4724,39.8372],[-82.4248,39.8345],[-82.3966,39.8331],[-82.3972,39.8185],[-82.4033,39.7522],[-82.4042,39.7446],[-82.3661,39.7425],[-82.3745,39.655],[-82.4489,39.6591],[-82.4903,39.6617],[-82.4961,39.6028],[-82.5489,39.6056],[-82.6175,39.6086],[-82.6201,39.564],[-82.6499,39.5652],[-82.7303,39.5691],[-82.7315,39.5544],[-82.7785,39.5574],[-82.8243,39.5604],[-82.843,39.5615],[-82.8344,39.6494],[-82.8376,39.6496],[-82.8353,39.6762],[-82.8243,39.795],[-82.8215,39.8243]]]}},{"type":"Feature","properties":{"id":"39097","name":"Madison Co."},"geometry":{"type":"Polygon","coordinates":[[[-83.3506,40.11],[-83.2783,40.1092],[-83.2393,40.1083],[-83.2063,40.1077],[-83.2068,40.1058],[-83.2095,40.0751],[-83.2122,40.0481],[-83.2208,40.0479],[-83.2538,40.0492],[-83.2556,40.0455],[-83.2525,40.0406],[-83.2561,40.0328],[-83.2555,40.0288],[-83.2528,40.0284],[-83.2518,40.0196],[-83.2533,40.0143],[-83.2517,40.0084],[-83.2541,40.005],[-83.2586,40.0048],[-83.2609,40.0028],[-83.2561,39.9987],[-83.2511,39.9913],[-83.2461,39.9873],[-83.2501,39.9832],[-83.2494,39.9734],[-83.2502,39.9703],[-83.2469,39.9711],[-83.2454,39.9633],[-83.2402,39.9601],[-83.2417,39.9571],[-83.2417,39.9526],[-83.2374,39.95],[-83.2362,39.9477],[-83.2319,39.9449],[-83.2286,39.9393],[-83.2256,39.9323],[-83.2306,39.9286],[-83.252,39.9174],[-83.2507,39.9035],[-83.2473,39.8608],[-83.245,39.829],[-83.244,39.8223],[-83.2437,39.8125],[-83.2458,39.7829],[-83.2466,39.7766],[-83.2485,39.7453],[-83.2524,39.6954],[-83.2859,39.6974],[-83.3367,39.6997],[-83.3878,39.7017],[-83.4606,39.705],[-83.4672,39.7061],[-83.478,39.7062],[-83.5422,39.7103],[-83.6513,39.7169],[-83.6533,39.7169],[-83.6489,39.7611],[-83.6486,39.7685],[-83.6472,39.773],[-83.6108,39.7702],[-83.5899,39.7688],[-83.5816,39.792],[-83.5641,39.8485],[-83.5534,39.8809],[-83.5462,39.9077],[-83.5375,39.9345],[-83.5154,40.0013],[-83.5126,40.01],[-83.5161,40.0108],[-83.5113,40.0474],[-83.5037,40.1115],[-83.3506,40.11]]]}}]}