{"type":"FeatureCollection","features":[{"type":"Feature","properties":{"id":"09190","name":"Western Connecticut Region"},"geometry":{"type":"MultiPolygon","coordinates":[[[[-73.3603,41.0857],[-73.3538,41.0875],[-73.3551,41.0835],[-73.3577,41.082],[-73.3638,41.0836],[-73.3698,41.0888],[-73.3642,41.0889],[-73.3603,41.0857]]],[[[-73.3882,41.0733],[-73.3819,41.0722],[-73.3813,41.0707],[-73.39,41.0643],[-73.3858,41.0598],[-73.3872,41.0582],[-73.3952,41.0644],[-73.3923,41.0708],[-73.3882,41.0733]]],[[[-73.4048,41.0621],[-73.3998,41.0624],[-73.4015,41.0537],[-73.4061,41.0524],[-73.4095,41.053],[-73.4222,41.0476],[-73.4169,41.0539],[-73.4048,41.0621]]],[[[-73.6076,40.9904],[-73.6125,40.9875],[-73.6134,40.9889],[-73.6076,40.9904]]],[[[-73.6238,40.9847],[-73.6219,40.9825],[-73.6268,40.9819],[-73.6301,40.9801],[-73.6295,40.9836],[-73.6238,40.9847]]],[[[-73.6375,40.9922],[-73.6408,40.9892],[-73.6447,40.9956],[-73.6443,40.9983],[-73.6375,40.9922]]],[[[-73.1877,41.3889],[-73.1949,41.3885],[-73.198,41.3827],[-73.2036,41.3792],[-73.2013,41.3739],[-73.2021,41.3722],[-73.2112,41.3677],[-73.2133,41.3679],[-73.219,41.3645],[-73.2278,41.3651],[-73.2291,41.3703],[-73.2613,41.355],[-73.3253,41.3225],[-73.3179,41.3119],[-73.3048,41.2978],[-73.3276,41.2902],[-73.3688,41.275],[-73.3414,41.2456],[-73.3327,41.2345],[-73.3258,41.2272],[-73.3236,41.2219],[-73.3257,41.2162],[-73.3303,41.2112],[-73.3333,41.2029],[-73.3334,41.1991],[-73.3377,41.1968],[-73.3385,41.1945],[-73.3286,41.181],[-73.3069,41.1523],[-73.3046,41.1519],[-73.3034,41.1459],[-73.2988,41.1448],[-73.2989,41.1406],[-73.2961,41.1337],[-73.2973,41.126],[-73.2987,41.1248],[-73.2986,41.1202],[-73.3091,41.1148],[-73.3136,41.1168],[-73.3209,41.1153],[-73.3307,41.11],[-73.3364,41.1118],[-73.3504,41.1064],[-73.3527,41.1016],[-73.3571,41.1038],[-73.3682,41.1072],[-73.368,41.1016],[-73.3654,41.0973],[-73.3692,41.0956],[-73.3828,41.0954],[-73.3797,41.0905],[-73.381,41.0888],[-73.3877,41.0913],[-73.3922,41.0877],[-73.393,41.0821],[-73.3982,41.0819],[-73.4025,41.0861],[-73.4078,41.0811],[-73.4072,41.0755],[-73.4084,41.071],[-73.4129,41.071],[-73.4332,41.0558],[-73.4351,41.0567],[-73.4408,41.0559],[-73.4458,41.0583],[-73.4536,41.0571],[-73.4542,41.0544],[-73.4596,41.0525],[-73.4617,41.0536],[-73.4578,41.059],[-73.4632,41.0583],[-73.4667,41.0611],[-73.469,41.0601],[-73.4705,41.0541],[-73.4673,41.0548],[-73.4696,41.0507],[-73.474,41.0508],[-73.4744,41.0493],[-73.4702,41.0472],[-73.476,41.0439],[-73.4774,41.0364],[-73.4791,41.0366],[-73.4828,41.0462],[-73.4861,41.0461],[-73.4886,41.0408],[-73.4939,41.048],[-73.5006,41.0467],[-73.5011,41.0449],[-73.506,41.0428],[-73.508,41.0385],[-73.5173,41.0399],[-73.5233,41.0367],[-73.5211,41.0318],[-73.517,41.0301],[-73.5192,41.0243],[-73.5231,41.02],[-73.527,41.0197],[-73.5304,41.0173],[-73.5312,41.0225],[-73.5302,41.0288],[-73.5328,41.0317],[-73.5353,41.0319],[-73.5448,41.0258],[-73.5474,41.0229],[-73.5515,41.0243],[-73.5564,41.0208],[-73.5572,41.0172],[-73.562,41.0168],[-73.5677,41.0109],[-73.5701,41.0016],[-73.584,41.0009],[-73.5851,41.0055],[-73.5932,41.0124],[-73.5957,41.016],[-73.604,41.0151],[-73.6147,41.0088],[-73.6249,41.0065],[-73.6271,41.0018],[-73.6399,41.0031],[-73.6512,40.9952],[-73.6568,40.9877],[-73.659,40.9889],[-73.6572,40.9909],[-73.6596,40.9943],[-73.6603,41.0005],[-73.6552,41.0119],[-73.6627,41.0205],[-73.6943,41.0593],[-73.7169,41.0876],[-73.7226,41.0936],[-73.7278,41.1007],[-73.6397,41.1415],[-73.5649,41.1752],[-73.5095,41.2008],[-73.4827,41.2128],[-73.5184,41.2567],[-73.551,41.2954],[-73.5489,41.3076],[-73.5496,41.3159],[-73.549,41.3263],[-73.5447,41.3664],[-73.5434,41.3766],[-73.5412,41.406],[-73.5377,41.4339],[-73.5301,41.5272],[-73.521,41.6198],[-73.52,41.6412],[-73.5182,41.6667],[-73.5069,41.6658],[-73.5041,41.6691],[-73.4695,41.6732],[-73.4532,41.675],[-73.3821,41.6833],[-73.3805,41.6716],[-73.3779,41.659],[-73.3704,41.6553],[-73.3591,41.6465],[-73.3564,41.63],[-73.3486,41.5952],[-73.3431,41.5659],[-73.341,41.5496],[-73.3364,41.5338],[-73.333,41.5135],[-73.3303,41.5044],[-73.3189,41.5052],[-73.3212,41.5007],[-73.3268,41.4927],[-73.3249,41.4896],[-73.3265,41.4838],[-73.3227,41.4808],[-73.3209,41.477],[-73.3128,41.4699],[-73.3105,41.4688],[-73.3028,41.4714],[-73.2996,41.4701],[-73.2983,41.4648],[-73.3008,41.4559],[-73.2984,41.4489],[-73.2939,41.4474],[-73.2878,41.4503],[-73.2783,41.4526],[-73.2737,41.4516],[-73.2675,41.4436],[-73.2659,41.4371],[-73.2637,41.4345],[-73.2569,41.4339],[-73.2512,41.4378],[-73.2453,41.4399],[-73.2423,41.4361],[-73.2423,41.4298],[-73.2384,41.4263],[-73.2359,41.4262],[-73.2265,41.4303],[-73.2182,41.4291],[-73.2118,41.4228],[-73.2077,41.4205],[-73.1968,41.4114],[-73.1903,41.4103],[-73.1849,41.4063],[-73.1854,41.4022],[-73.188,41.3973],[-73.1833,41.3917],[-73.1877,41.3889]]]]}},{"type":"Feature","properties":{"id":"09120","name":"Greater Bridgeport Region"},"geometry":{"type":"MultiPolygon","coordinates":[[[[-73.2153,41.1426],[-73.2176,41.1424],[-73.215,41.1445],[-73.2153,41.1426]]],[[[-73.1734,41.3836],[-73.1587,41.3834],[-73.1588,41.3797],[-73.1571,41.3767],[-73.1594,41.3729],[-73.1707,41.3579],[-73.1768,41.3376],[-73.1847,41.3265],[-73.2048,41.2994],[-73.179,41.2737],[-73.1736,41.2686],[-73.1553,41.2691],[-73.1469,41.2554],[-73.1439,41.2572],[-73.1083,41.2686],[-73.106,41.2671],[-73.1071,41.2641],[-73.1046,41.2636],[-73.1031,41.2596],[-73.0953,41.2581],[-73.0946,41.2562],[-73.0909,41.2571],[-73.0868,41.2546],[-73.0873,41.2518],[-73.0912,41.2464],[-73.1016,41.2401],[-73.105,41.2366],[-73.11,41.2294],[-73.1105,41.2253],[-73.1084,41.2183],[-73.1103,41.214],[-73.1107,41.2078],[-73.1093,41.2041],[-73.1106,41.2003],[-73.1154,41.1935],[-73.1208,41.1885],[-73.1225,41.1829],[-73.122,41.1789],[-73.1199,41.1757],[-73.108,41.1688],[-73.1104,41.1597],[-73.107,41.1555],[-73.1011,41.1541],[-73.103,41.1514],[-73.1111,41.1508],[-73.1303,41.1468],[-73.1722,41.1591],[-73.1707,41.1649],[-73.1778,41.1667],[-73.1844,41.1644],[-73.1862,41.1593],[-73.2027,41.1581],[-73.2094,41.1548],[-73.2155,41.1484],[-73.2171,41.1528],[-73.2197,41.1533],[-73.2238,41.1501],[-73.2227,41.1483],[-73.2276,41.143],[-73.2351,41.144],[-73.2426,41.1282],[-73.2526,41.125],[-73.2624,41.1182],[-73.2751,41.1211],[-73.2788,41.1257],[-73.2868,41.1279],[-73.2987,41.1248],[-73.2973,41.126],[-73.2961,41.1337],[-73.2989,41.1406],[-73.2988,41.1448],[-73.3034,41.1459],[-73.3046,41.1519],[-73.3069,41.1523],[-73.3286,41.181],[-73.3385,41.1945],[-73.3377,41.1968],[-73.3334,41.1991],[-73.3333,41.2029],[-73.3303,41.2112],[-73.3257,41.2162],[-73.3236,41.2219],[-73.3258,41.2272],[-73.3327,41.2345],[-73.3414,41.2456],[-73.3688,41.275],[-73.3276,41.2902],[-73.3048,41.2978],[-73.3179,41.3119],[-73.3253,41.3225],[-73.2613,41.355],[-73.2291,41.3703],[-73.2278,41.3651],[-73.219,41.3645],[-73.2133,41.3679],[-73.2112,41.3677],[-73.2021,41.3722],[-73.2013,41.3739],[-73.2036,41.3792],[-73.198,41.3827],[-73.1949,41.3885],[-73.1877,41.3889],[-73.1833,41.3917],[-73.1734,41.3836]]]]}}]}