{"type":"FeatureCollection","features":[{"type":"Feature","properties":{"zcta":"06883","d":226},"geometry":{"type":"Polygon","coordinates":[[[-73.41608,41.25899],[-73.38026,41.27123],[-73.36881,41.27498],[-73.34753,41.25197],[-73.34143,41.24562],[-73.33679,41.24016],[-73.33389,41.23582],[-73.32594,41.22744],[-73.32692,41.2265],[-73.32483,41.22447],[-73.32363,41.22192],[-73.3249,41.22052],[-73.32567,41.21621],[-73.32901,41.21343],[-73.33031,41.21123],[-73.32894,41.21018],[-73.33242,41.20507],[-73.3333,41.20286],[-73.33343,41.1991],[-73.33718,41.19738],[-73.33846,41.19454],[-73.37045,41.17572],[-73.3716,41.17468],[-73.37957,41.18578],[-73.38249,41.18947],[-73.38916,41.19925],[-73.39239,41.20299],[-73.41086,41.22848],[-73.41589,41.23563],[-73.4252,41.24818],[-73.4301,41.25433],[-73.41608,41.25899]]]}},{"type":"Feature","properties":{"zcta":"06607","d":3216},"geometry":{"type":"Polygon","coordinates":[[[-73.1766,41.17673],[-73.17107,41.1857],[-73.15473,41.18482],[-73.15423,41.18303],[-73.15562,41.17773],[-73.15878,41.17433],[-73.15783,41.17321],[-73.15992,41.17069],[-73.1648,41.15691],[-73.1722,41.15907],[-73.1707,41.16495],[-73.17585,41.16622],[-73.17736,41.1691],[-73.18045,41.1713],[-73.1766,41.17673]]]}},{"type":"Feature","properties":{"zcta":"06901","d":12882},"geometry":{"type":"Polygon","coordinates":[[[-73.5398,41.05923],[-73.53764,41.06123],[-73.53741,41.05961],[-73.53528,41.05914],[-73.53367,41.06028],[-73.53413,41.05795],[-73.53116,41.05716],[-73.52911,41.05316],[-73.53367,41.0506],[-73.54503,41.04664],[-73.5467,41.0505],[-73.54557,41.0537],[-73.54359,41.05559],[-73.54138,41.0555],[-73.54197,41.05886],[-73.5398,41.05923]]]}},{"type":"Feature","properties":{"zcta":"06784","d":79},"geometry":{"type":"Polygon","coordinates":[[[-73.50693,41.66403],[-73.50395,41.66177],[-73.49795,41.65889],[-73.49397,41.66112],[-73.49032,41.65328],[-73.48469,41.64743],[-73.48807,41.64565],[-73.49003,41.64641],[-73.49411,41.64449],[-73.49629,41.6425],[-73.49598,41.6404],[-73.49781,41.63815],[-73.48872,41.61789],[-73.47979,41.6008],[-73.46727,41.57359],[-73.46513,41.57205],[-73.46046,41.56271],[-73.46133,41.56072],[-73.45516,41.5472],[-73.45402,41.54269],[-73.45037,41.53468],[-73.48594,41.52793],[-73.53066,41.51997],[-73.53007,41.52719],[-73.52104,41.61977],[-73.52002,41.6412],[-73.51824,41.66673],[-73.51602,41.66596],[-73.51038,41.6665],[-73.50692,41.6658],[-73.50693,41.66403]]]}},{"type":"Feature","properties":{"zcta":"06854","d":3098},"geometry":{"type":"Polygon","coordinates":[[[-73.41048,41.10575],[-73.41436,41.10431],[-73.41538,41.10311],[-73.41447,41.09895],[-73.41136,41.09498],[-73.40617,41.09051],[-73.4026,41.08591],[-73.40563,41.08226],[-73.40785,41.08111],[-73.40723,41.07549],[-73.40842,41.07101],[-73.41188,41.07101],[-73.41306,41.07526],[-73.41447,41.07614],[-73.41966,41.0754],[-73.42026,41.0743],[-73.42036,41.0684],[-73.422,41.06423],[-73.43313,41.0559],[-73.43393,41.05864],[-73.42879,41.06342],[-73.43056,41.0673],[-73.42988,41.07054],[-73.42845,41.07198],[-73.42793,41.07602],[-73.42933,41.08004],[-73.42879,41.08302],[-73.42707,41.08691],[-73.42841,41.08702],[-73.43168,41.08107],[-73.43641,41.07875],[-73.44533,41.0774],[-73.44488,41.07877],[-73.44059,41.07892],[-73.44055,41.08133],[-73.44352,41.08206],[-73.44309,41.08318],[-73.44685,41.08248],[-73.44747,41.08501],[-73.45012,41.08645],[-73.45067,41.08815],[-73.45384,41.08774],[-73.45398,41.09167],[-73.45276,41.09436],[-73.4544,41.10055],[-73.45122,41.1009],[-73.45176,41.10463],[-73.44838,41.10481],[-73.44603,41.10368],[-73.44814,41.10645],[-73.44955,41.10645],[-73.45057,41.11011],[-73.44699,41.11293],[-73.44129,41.11286],[-73.44439,41.11499],[-73.44381,41.11914],[-73.43949,41.11926],[-73.43818,41.11586],[-73.43573,41.11567],[-73.43493,41.11292],[-73.43574,41.11163],[-73.43386,41.11011],[-73.42969,41.11274],[-73.42831,41.11249],[-73.42565,41.10557],[-73.42127,41.1066],[-73.41577,41.10642],[-73.41057,41.10744],[-73.41048,41.10575]]]}},{"type":"Feature","properties":{"zcta":"06905","d":2295},"geometry":{"type":"Polygon","coordinates":[[[-73.55563,41.10834],[-73.54382,41.11303],[-73.53511,41.11624],[-73.53326,41.1146],[-73.53204,41.11531],[-73.53039,41.1137],[-73.52756,41.11396],[-73.52386,41.10783],[-73.52518,41.10574],[-73.5311,41.10539],[-73.53053,41.10157],[-73.53166,41.09663],[-73.52744,41.09685],[-73.5269,41.09394],[-73.52809,41.08625],[-73.52601,41.08346],[-73.52934,41.07909],[-73.53082,41.07883],[-73.53122,41.07593],[-73.53356,41.07523],[-73.5348,41.07708],[-73.53685,41.07688],[-73.53924,41.07132],[-73.53397,41.06792],[-73.538,41.06685],[-73.53704,41.06397],[-73.53545,41.06371],[-73.53367,41.06028],[-73.53528,41.05914],[-73.53741,41.05961],[-73.53764,41.06123],[-73.5398,41.05923],[-73.54197,41.05886],[-73.54277,41.06345],[-73.54805,41.05884],[-73.54842,41.06065],[-73.55233,41.05908],[-73.5518,41.05613],[-73.55505,41.05592],[-73.55991,41.05767],[-73.55764,41.06611],[-73.55671,41.07268],[-73.55572,41.0762],[-73.5569,41.07849],[-73.5555,41.08342],[-73.55429,41.08277],[-73.55324,41.08814],[-73.55542,41.08935],[-73.55706,41.09646],[-73.56013,41.09644],[-73.56128,41.10007],[-73.55979,41.10089],[-73.55975,41.10418],[-73.55861,41.10561],[-73.55563,41.10834]]]}},{"type":"Feature","properties":{"zcta":"06804","d":463},"geometry":{"type":"Polygon","coordinates":[[[-73.43089,41.49792],[-73.41908,41.50144],[-73.40267,41.509],[-73.38696,41.51479],[-73.38496,41.51099],[-73.38746,41.50909],[-73.38856,41.50649],[-73.38706,41.50519],[-73.38196,41.50359],[-73.37896,41.50189],[-73.37676,41.49899],[-73.37526,41.48919],[-73.3641,41.48528],[-73.35886,41.48209],[-73.35065,41.47979],[-73.34766,41.4781],[-73.33666,41.4757],[-73.33166,41.47273],[-73.33653,41.4674],[-73.33488,41.4654],[-73.32946,41.46102],[-73.32902,41.45988],[-73.33288,41.46329],[-73.33603,41.4628],[-73.3376,41.46361],[-73.34065,41.46308],[-73.36438,41.43777],[-73.37862,41.41999],[-73.38014,41.42293],[-73.40596,41.42819],[-73.41192,41.42953],[-73.41579,41.43034],[-73.42154,41.44794],[-73.42467,41.44729],[-73.42654,41.4531],[-73.42841,41.45653],[-73.42499,41.45452],[-73.42807,41.46096],[-73.42694,41.46383],[-73.42972,41.46974],[-73.43153,41.46901],[-73.43338,41.47211],[-73.43493,41.4719],[-73.43829,41.47406],[-73.43543,41.47086],[-73.43485,41.46794],[-73.43706,41.4654],[-73.44016,41.46983],[-73.44214,41.47059],[-73.44334,41.47259],[-73.44441,41.47756],[-73.44342,41.47853],[-73.44262,41.48545],[-73.43703,41.48361],[-73.44147,41.49129],[-73.43089,41.49792]]]}},{"type":"Feature","properties":{"zcta":"06897","d":316},"geometry":{"type":"Polygon","coordinates":[[[-73.43402,41.26014],[-73.4301,41.25433],[-73.4252,41.24818],[-73.41589,41.23563],[-73.41086,41.22848],[-73.39239,41.20299],[-73.38916,41.19925],[-73.38249,41.18947],[-73.37957,41.18578],[-73.38147,41.18257],[-73.38487,41.17443],[-73.38707,41.1705],[-73.39484,41.17177],[-73.4154,41.16289],[-73.41898,41.1608],[-73.42223,41.16003],[-73.43746,41.15617],[-73.44891,41.15375],[-73.4504,41.158],[-73.45297,41.15978],[-73.45489,41.15916],[-73.45704,41.16011],[-73.46429,41.16152],[-73.46407,41.16279],[-73.46683,41.1655],[-73.46543,41.17023],[-73.4654,41.176],[-73.46847,41.17739],[-73.47322,41.181],[-73.47221,41.18268],[-73.47282,41.18499],[-73.47014,41.18959],[-73.47285,41.19141],[-73.47203,41.19438],[-73.47569,41.19905],[-73.48026,41.20791],[-73.48378,41.20821],[-73.48491,41.21178],[-73.48271,41.21276],[-73.50255,41.23721],[-73.50202,41.23718],[-73.48493,41.24509],[-73.46923,41.25196],[-73.46393,41.25282],[-73.46341,41.25438],[-73.43819,41.26519],[-73.43402,41.26014]]]}},{"type":"Feature","properties":{"zcta":"06811","d":733},"geometry":{"type":"Polygon","coordinates":[[[-73.53633,41.44053],[-73.51428,41.44564],[-73.50252,41.44785],[-73.49436,41.44968],[-73.48536,41.45126],[-73.46899,41.45551],[-73.46198,41.45667],[-73.45058,41.459],[-73.43937,41.46099],[-73.42694,41.46383],[-73.42807,41.46096],[-73.42499,41.45452],[-73.42841,41.45653],[-73.42654,41.4531],[-73.42467,41.44729],[-73.42154,41.44794],[-73.41579,41.43034],[-73.41192,41.42953],[-73.41568,41.42431],[-73.4198,41.42124],[-73.42712,41.41736],[-73.43738,41.41474],[-73.45069,41.4118],[-73.45539,41.40972],[-73.45816,41.40778],[-73.46278,41.40345],[-73.46613,41.40172],[-73.47311,41.39958],[-73.47773,41.39549],[-73.47796,41.39317],[-73.47586,41.38832],[-73.47668,41.38558],[-73.4837,41.38348],[-73.48539,41.38351],[-73.49143,41.38578],[-73.50676,41.3895],[-73.52068,41.39048],[-73.5272,41.39255],[-73.53345,41.39217],[-73.54247,41.38906],[-73.54117,41.40599],[-73.53767,41.43391],[-73.5371,41.43971],[-73.53633,41.44053]]]}},{"type":"Feature","properties":{"zcta":"06878","d":1572},"geometry":{"type":"Polygon","coordinates":[[[-73.58956,41.04088],[-73.58826,41.04594],[-73.58555,41.04893],[-73.58553,41.05339],[-73.581,41.0591],[-73.58076,41.05763],[-73.5779,41.05795],[-73.57817,41.05931],[-73.57585,41.05943],[-73.57691,41.05783],[-73.57308,41.0569],[-73.57462,41.05057],[-73.57227,41.05038],[-73.5719,41.04876],[-73.57319,41.04482],[-73.57481,41.04291],[-73.57427,41.04099],[-73.57024,41.03826],[-73.57315,41.03343],[-73.57216,41.03133],[-73.57392,41.02642],[-73.57533,41.02539],[-73.57197,41.0176],[-73.58765,41.00764],[-73.59319,41.01241],[-73.5957,41.01599],[-73.59674,41.01588],[-73.59455,41.0231],[-73.59463,41.03081],[-73.58956,41.04088]]]}},{"type":"Feature","properties":{"zcta":"06615","d":1557},"geometry":{"type":"Polygon","coordinates":[[[-73.15481,41.19165],[-73.15382,41.19253],[-73.14769,41.1927],[-73.14377,41.19408],[-73.1412,41.19377],[-73.14126,41.19518],[-73.13269,41.19889],[-73.12909,41.19892],[-73.12716,41.19719],[-73.13164,41.19418],[-73.12307,41.19618],[-73.11326,41.2006],[-73.11057,41.20027],[-73.11535,41.1935],[-73.12075,41.1885],[-73.12245,41.1829],[-73.122,41.17893],[-73.11985,41.1757],[-73.10801,41.16875],[-73.11035,41.1597],[-73.10704,41.15553],[-73.10109,41.15414],[-73.10302,41.15141],[-73.11105,41.1508],[-73.13025,41.1468],[-73.1648,41.15691],[-73.15992,41.17069],[-73.15783,41.17321],[-73.15878,41.17433],[-73.15562,41.17773],[-73.15423,41.18303],[-73.15473,41.18482],[-73.15481,41.19165]]]}},{"type":"Feature","properties":{"zcta":"06877","d":338},"geometry":{"type":"Polygon","coordinates":[[[-73.51073,41.37725],[-73.50644,41.37741],[-73.50481,41.37328],[-73.50161,41.36214],[-73.4854,41.35662],[-73.47586,41.33744],[-73.4701,41.32642],[-73.46605,41.31221],[-73.46197,41.31127],[-73.45797,41.30901],[-73.45115,41.30601],[-73.4516,41.30423],[-73.45027,41.3004],[-73.44854,41.28723],[-73.44577,41.28738],[-73.44612,41.28602],[-73.44479,41.2761],[-73.44411,41.27415],[-73.43819,41.26519],[-73.46341,41.25438],[-73.46393,41.25282],[-73.46923,41.25196],[-73.48493,41.24509],[-73.50202,41.23718],[-73.50255,41.23721],[-73.51838,41.25672],[-73.55096,41.29542],[-73.54893,41.3076],[-73.54957,41.31593],[-73.54897,41.3263],[-73.54473,41.36638],[-73.54362,41.37509],[-73.51073,41.37725]]]}},{"type":"Feature","properties":{"zcta":"06906","d":4433},"geometry":{"type":"Polygon","coordinates":[[[-73.53122,41.07593],[-73.53082,41.07883],[-73.52934,41.07909],[-73.52601,41.08346],[-73.52362,41.08298],[-73.52368,41.07806],[-73.52253,41.07762],[-73.52052,41.07989],[-73.51741,41.08979],[-73.51459,41.0927],[-73.51523,41.08897],[-73.5145,41.08828],[-73.51697,41.08117],[-73.51801,41.07998],[-73.51539,41.07434],[-73.51094,41.07217],[-73.51001,41.07041],[-73.50995,41.0668],[-73.5091,41.06573],[-73.51134,41.06392],[-73.51577,41.06385],[-73.52355,41.06279],[-73.52648,41.0609],[-73.52816,41.06195],[-73.52784,41.06426],[-73.53306,41.06478],[-73.53341,41.06699],[-73.53176,41.0695],[-73.53411,41.06941],[-73.53454,41.07154],[-73.53356,41.07523],[-73.53122,41.07593]]]}},{"type":"Feature","properties":{"zcta":"06752","d":54},"geometry":{"type":"Polygon","coordinates":[[[-73.34104,41.54957],[-73.33925,41.54451],[-73.33867,41.54108],[-73.33644,41.53378],[-73.33533,41.52646],[-73.33149,41.52591],[-73.32688,41.51787],[-73.32552,41.51385],[-73.33246,41.51181],[-73.33031,41.50441],[-73.31889,41.50519],[-73.32052,41.50398],[-73.3212,41.50073],[-73.32551,41.49531],[-73.32684,41.4927],[-73.32487,41.48957],[-73.32684,41.48597],[-73.32646,41.48384],[-73.32267,41.48077],[-73.32091,41.47701],[-73.31278,41.46994],[-73.31047,41.46882],[-73.31287,41.46742],[-73.32677,41.46952],[-73.33166,41.47273],[-73.33666,41.4757],[-73.34766,41.4781],[-73.35065,41.47979],[-73.35886,41.48209],[-73.3641,41.48528],[-73.37526,41.48919],[-73.37676,41.49899],[-73.37896,41.50189],[-73.38196,41.50359],[-73.38706,41.50519],[-73.38856,41.50649],[-73.38746,41.50909],[-73.38496,41.51099],[-73.38696,41.51479],[-73.39741,41.51827],[-73.39978,41.5201],[-73.4026,41.52511],[-73.40452,41.53121],[-73.40474,41.53702],[-73.40354,41.54058],[-73.39946,41.54402],[-73.39576,41.54385],[-73.39175,41.54501],[-73.38897,41.54788],[-73.39078,41.54967],[-73.39031,41.55429],[-73.39117,41.55603],[-73.37907,41.56214],[-73.37205,41.56511],[-73.36464,41.56489],[-73.34307,41.56586],[-73.34104,41.54957]]]}},{"type":"Feature","properties":{"zcta":"06608","d":5911},"geometry":{"type":"Polygon","coordinates":[[[-73.18608,41.19609],[-73.18605,41.20009],[-73.18876,41.20316],[-73.18403,41.2007],[-73.18135,41.19864],[-73.17396,41.1941],[-73.17453,41.18897],[-73.17163,41.18895],[-73.17107,41.1857],[-73.1766,41.17673],[-73.18045,41.1713],[-73.18426,41.1744],[-73.18567,41.17739],[-73.18575,41.18243],[-73.18888,41.1848],[-73.18931,41.19199],[-73.18683,41.19436],[-73.18608,41.19609]]]}},{"type":"Feature","properties":{"zcta":"06855","d":1891},"geometry":{"type":"MultiPolygon","coordinates":[[[[-73.36033,41.08571],[-73.35881,41.08664],[-73.35375,41.08751],[-73.35509,41.08348],[-73.35766,41.08197],[-73.36014,41.08202],[-73.36377,41.08363],[-73.36977,41.0888],[-73.36424,41.08895],[-73.36033,41.08571]]],[[[-73.38818,41.07328],[-73.38189,41.0722],[-73.38131,41.07069],[-73.38389,41.06925],[-73.38665,41.0663],[-73.38999,41.06429],[-73.38799,41.06105],[-73.3858,41.05976],[-73.38723,41.05825],[-73.39181,41.06141],[-73.39524,41.06443],[-73.39228,41.07083],[-73.38818,41.07328]]],[[[-73.40614,41.10846],[-73.4013,41.11039],[-73.39068,41.11347],[-73.3814,41.11831],[-73.38431,41.10731],[-73.38343,41.10462],[-73.38444,41.10289],[-73.38307,41.09884],[-73.38039,41.09665],[-73.37977,41.09742],[-73.37221,41.09552],[-73.38279,41.0954],[-73.37969,41.09046],[-73.38103,41.0888],[-73.38773,41.09134],[-73.39216,41.0877],[-73.39297,41.08212],[-73.3982,41.08194],[-73.4026,41.08591],[-73.40617,41.09051],[-73.41136,41.09498],[-73.41447,41.09895],[-73.41538,41.10311],[-73.41436,41.10431],[-73.41048,41.10575],[-73.41057,41.10744],[-73.40614,41.10846]]],[[[-73.41293,41.07101],[-73.422,41.06423],[-73.42036,41.0684],[-73.42026,41.0743],[-73.41966,41.0754],[-73.41447,41.07614],[-73.41306,41.07526],[-73.41188,41.07101],[-73.41293,41.07101]]],[[[-73.40477,41.06213],[-73.39981,41.06242],[-73.39915,41.06098],[-73.40105,41.0576],[-73.40153,41.05372],[-73.40608,41.05236],[-73.40954,41.053],[-73.42217,41.04756],[-73.41689,41.05393],[-73.40477,41.06213]]]]}},{"type":"Feature","properties":{"zcta":"06614","d":1673},"geometry":{"type":"Polygon","coordinates":[[[-73.15047,41.2324],[-73.14622,41.23704],[-73.14006,41.23719],[-73.14318,41.24122],[-73.14333,41.24503],[-73.14523,41.24985],[-73.1455,41.25438],[-73.14688,41.25537],[-73.1439,41.25716],[-73.10829,41.26858],[-73.10605,41.26705],[-73.10708,41.26407],[-73.10462,41.26356],[-73.10295,41.26164],[-73.10308,41.25961],[-73.09836,41.25928],[-73.09526,41.25805],[-73.09456,41.25621],[-73.09087,41.25708],[-73.08675,41.2546],[-73.08735,41.25179],[-73.09122,41.24641],[-73.0934,41.24462],[-73.10157,41.24009],[-73.10495,41.2366],[-73.10995,41.2294],[-73.11045,41.2253],[-73.10835,41.2183],[-73.11025,41.214],[-73.11065,41.2078],[-73.10925,41.2041],[-73.11057,41.20027],[-73.11326,41.2006],[-73.12307,41.19618],[-73.13164,41.19418],[-73.12716,41.19719],[-73.12909,41.19892],[-73.13269,41.19889],[-73.14126,41.19518],[-73.1412,41.19377],[-73.14377,41.19408],[-73.14769,41.1927],[-73.15382,41.19253],[-73.16283,41.22023],[-73.16109,41.22457],[-73.15908,41.22593],[-73.15764,41.22838],[-73.15047,41.2324]]]}},{"type":"Feature","properties":{"zcta":"06605","d":4554},"geometry":{"type":"Polygon","coordinates":[[[-73.22743,41.1641],[-73.22442,41.1663],[-73.22227,41.16893],[-73.2237,41.17016],[-73.22763,41.16943],[-73.22549,41.17391],[-73.22386,41.174],[-73.22307,41.17639],[-73.21759,41.17771],[-73.21264,41.17613],[-73.21014,41.17759],[-73.20671,41.18168],[-73.20322,41.17964],[-73.19936,41.17593],[-73.20238,41.17564],[-73.20078,41.17177],[-73.19702,41.17281],[-73.1961,41.17158],[-73.20048,41.16821],[-73.19945,41.16713],[-73.21126,41.1578],[-73.21416,41.156],[-73.21751,41.15287],[-73.21974,41.15332],[-73.22134,41.15131],[-73.22378,41.15014],[-73.22265,41.14831],[-73.22757,41.14301],[-73.23485,41.14397],[-73.23286,41.1476],[-73.2337,41.1521],[-73.23609,41.15239],[-73.23723,41.15513],[-73.23388,41.15718],[-73.22999,41.16073],[-73.22743,41.1641]]]}},{"type":"Feature","properties":{"zcta":"06468","d":369},"geometry":{"type":"Polygon","coordinates":[[[-73.22901,41.3703],[-73.22812,41.36881],[-73.22949,41.36721],[-73.22778,41.36505],[-73.22534,41.36534],[-73.22333,41.36422],[-73.21903,41.3645],[-73.21329,41.36792],[-73.2112,41.36772],[-73.20214,41.37224],[-73.20131,41.37394],[-73.20229,41.37801],[-73.20358,41.37916],[-73.19801,41.38273],[-73.1949,41.38853],[-73.18773,41.38893],[-73.18327,41.39171],[-73.18117,41.38961],[-73.17336,41.3836],[-73.16656,41.3832],[-73.16125,41.38385],[-73.15866,41.3834],[-73.15883,41.37968],[-73.15705,41.3767],[-73.15965,41.37491],[-73.15944,41.37291],[-73.17058,41.3579],[-73.17681,41.33759],[-73.18061,41.33297],[-73.18472,41.3265],[-73.2048,41.29936],[-73.22737,41.2976],[-73.24375,41.29583],[-73.25783,41.2954],[-73.27437,41.29381],[-73.27809,41.29815],[-73.27615,41.30155],[-73.27309,41.30296],[-73.27118,41.3062],[-73.27072,41.30997],[-73.27309,41.31622],[-73.2734,41.31879],[-73.29775,41.3287],[-73.306,41.33236],[-73.26129,41.35501],[-73.25617,41.35744],[-73.22901,41.3703]]]}},{"type":"Feature","properties":{"zcta":"06470","d":221},"geometry":{"type":"Polygon","coordinates":[[[-73.36438,41.43777],[-73.34065,41.46308],[-73.3376,41.46361],[-73.33603,41.4628],[-73.33288,41.46329],[-73.32902,41.45988],[-73.32946,41.46102],[-73.33488,41.4654],[-73.33653,41.4674],[-73.33166,41.47273],[-73.32677,41.46952],[-73.31287,41.46742],[-73.31047,41.46882],[-73.30503,41.47115],[-73.30276,41.47144],[-73.29959,41.47011],[-73.29826,41.46763],[-73.29831,41.46477],[-73.29983,41.46078],[-73.30079,41.4559],[-73.30007,41.45248],[-73.2984,41.44892],[-73.30263,41.44762],[-73.30408,41.4427],[-73.30973,41.44202],[-73.31199,41.44307],[-73.31394,41.43908],[-73.31147,41.44013],[-73.30932,41.43779],[-73.30833,41.43308],[-73.3068,41.43147],[-73.31006,41.43141],[-73.31155,41.43393],[-73.31365,41.43056],[-73.31331,41.42926],[-73.30405,41.42536],[-73.28954,41.41716],[-73.28264,41.41581],[-73.28179,41.412],[-73.2789,41.41003],[-73.27793,41.40831],[-73.26964,41.40623],[-73.26713,41.40408],[-73.26636,41.40017],[-73.26717,41.39912],[-73.26599,41.39528],[-73.26881,41.39314],[-73.26834,41.3901],[-73.26514,41.38927],[-73.26506,41.38351],[-73.26678,41.37963],[-73.26511,41.37696],[-73.25843,41.37677],[-73.25924,41.37145],[-73.25796,41.36775],[-73.24956,41.36748],[-73.25173,41.36483],[-73.2549,41.36354],[-73.25617,41.35744],[-73.26129,41.35501],[-73.306,41.33236],[-73.32529,41.32247],[-73.33334,41.31834],[-73.34705,41.35043],[-73.35486,41.36774],[-73.37862,41.41999],[-73.36438,41.43777]]]}},{"type":"Feature","properties":{"zcta":"06604","d":3874},"geometry":{"type":"MultiPolygon","coordinates":[[[[-73.21499,41.14447],[-73.21527,41.14264],[-73.21763,41.14235],[-73.21717,41.14391],[-73.21499,41.14447]]],[[[-73.2205,41.20345],[-73.21867,41.1996],[-73.21569,41.20008],[-73.2138,41.19796],[-73.21844,41.19684],[-73.21692,41.19651],[-73.21358,41.19286],[-73.21275,41.19026],[-73.20964,41.19188],[-73.21154,41.18932],[-73.20859,41.19069],[-73.20715,41.18961],[-73.20036,41.19159],[-73.19853,41.19038],[-73.19477,41.19474],[-73.19342,41.19419],[-73.19054,41.19665],[-73.18683,41.19436],[-73.18931,41.19199],[-73.18888,41.1848],[-73.18575,41.18243],[-73.18567,41.17739],[-73.18426,41.1744],[-73.18045,41.1713],[-73.17736,41.1691],[-73.17585,41.16622],[-73.17777,41.1667],[-73.18436,41.16442],[-73.18619,41.15929],[-73.20266,41.1581],[-73.2094,41.15475],[-73.21551,41.14845],[-73.21651,41.14869],[-73.21751,41.15287],[-73.21416,41.156],[-73.21126,41.1578],[-73.19945,41.16713],[-73.20048,41.16821],[-73.1961,41.17158],[-73.19702,41.17281],[-73.20078,41.17177],[-73.20238,41.17564],[-73.19936,41.17593],[-73.20322,41.17964],[-73.20671,41.18168],[-73.21014,41.17759],[-73.21264,41.17613],[-73.21759,41.17771],[-73.22307,41.17639],[-73.21927,41.17937],[-73.21965,41.18148],[-73.21801,41.18328],[-73.22037,41.18795],[-73.21914,41.19776],[-73.22313,41.20244],[-73.2205,41.20345]]],[[[-73.22963,41.21303],[-73.23025,41.21217],[-73.22631,41.20846],[-73.2275,41.20751],[-73.23317,41.21392],[-73.22963,41.21303]]]]}},{"type":"Feature","properties":{"zcta":"06606","d":4353},"geometry":{"type":"Polygon","coordinates":[[[-73.23218,41.22729],[-73.21913,41.2278],[-73.21244,41.22847],[-73.20729,41.22775],[-73.20141,41.22947],[-73.20107,41.2283],[-73.1964,41.22772],[-73.19086,41.22503],[-73.18926,41.22197],[-73.18727,41.22053],[-73.18328,41.2207],[-73.17884,41.22198],[-73.17942,41.21799],[-73.18336,41.21274],[-73.18876,41.20316],[-73.18605,41.20009],[-73.18608,41.19609],[-73.18683,41.19436],[-73.19054,41.19665],[-73.19342,41.19419],[-73.19477,41.19474],[-73.19853,41.19038],[-73.20036,41.19159],[-73.20715,41.18961],[-73.20859,41.19069],[-73.21154,41.18932],[-73.20964,41.19188],[-73.21275,41.19026],[-73.21358,41.19286],[-73.21692,41.19651],[-73.21844,41.19684],[-73.2138,41.19796],[-73.21569,41.20008],[-73.21867,41.1996],[-73.2205,41.20345],[-73.22313,41.20244],[-73.2275,41.20751],[-73.22631,41.20846],[-73.23025,41.21217],[-73.22963,41.21303],[-73.23317,41.21392],[-73.24417,41.22659],[-73.23218,41.22729]]]}},{"type":"Feature","properties":{"zcta":"06610","d":3666},"geometry":{"type":"Polygon","coordinates":[[[-73.18336,41.21274],[-73.17942,41.21799],[-73.17884,41.22198],[-73.16954,41.22276],[-73.16468,41.22565],[-73.15764,41.22838],[-73.15908,41.22593],[-73.16109,41.22457],[-73.16283,41.22023],[-73.15382,41.19253],[-73.15481,41.19165],[-73.15473,41.18482],[-73.17107,41.1857],[-73.17163,41.18895],[-73.17453,41.18897],[-73.17396,41.1941],[-73.18135,41.19864],[-73.18403,41.2007],[-73.18876,41.20316],[-73.18336,41.21274]]]}},{"type":"Feature","properties":{"zcta":"06611","d":767},"geometry":{"type":"Polygon","coordinates":[[[-73.25783,41.2954],[-73.24375,41.29583],[-73.22737,41.2976],[-73.2048,41.29936],[-73.20081,41.29494],[-73.1983,41.29309],[-73.17903,41.27373],[-73.17864,41.27264],[-73.1736,41.26861],[-73.15527,41.26909],[-73.14688,41.25537],[-73.1455,41.25438],[-73.14523,41.24985],[-73.14333,41.24503],[-73.14318,41.24122],[-73.14006,41.23719],[-73.14622,41.23704],[-73.15047,41.2324],[-73.15764,41.22838],[-73.16468,41.22565],[-73.16954,41.22276],[-73.17884,41.22198],[-73.18328,41.2207],[-73.18727,41.22053],[-73.18926,41.22197],[-73.19086,41.22503],[-73.1964,41.22772],[-73.20107,41.2283],[-73.20141,41.22947],[-73.20729,41.22775],[-73.21244,41.22847],[-73.21913,41.2278],[-73.23218,41.22729],[-73.24417,41.22659],[-73.24856,41.23198],[-73.24539,41.23292],[-73.2361,41.23843],[-73.24103,41.24482],[-73.24383,41.24749],[-73.24854,41.25341],[-73.25371,41.25914],[-73.27449,41.28389],[-73.27525,41.29163],[-73.27437,41.29381],[-73.25783,41.2954]]]}},{"type":"Feature","properties":{"zcta":"06801","d":612},"geometry":{"type":"Polygon","coordinates":[[[-73.38014,41.42293],[-73.37862,41.41999],[-73.35486,41.36774],[-73.34705,41.35043],[-73.35971,41.34701],[-73.38075,41.3432],[-73.3943,41.34041],[-73.41745,41.33625],[-73.42433,41.33529],[-73.4254,41.33785],[-73.43058,41.35573],[-73.43502,41.3724],[-73.43265,41.37848],[-73.42788,41.38062],[-73.42529,41.38023],[-73.42472,41.38216],[-73.42097,41.38467],[-73.41669,41.38626],[-73.41467,41.38961],[-73.40729,41.39574],[-73.40481,41.40242],[-73.40118,41.40285],[-73.40611,41.41606],[-73.40596,41.42819],[-73.38014,41.42293]]]}},{"type":"Feature","properties":{"zcta":"06812","d":338},"geometry":{"type":"Polygon","coordinates":[[[-73.48594,41.52793],[-73.45037,41.53468],[-73.44593,41.52525],[-73.44277,41.51409],[-73.44527,41.50949],[-73.44362,41.50368],[-73.44407,41.50179],[-73.44288,41.49898],[-73.44147,41.49129],[-73.43703,41.48361],[-73.44262,41.48545],[-73.44342,41.47853],[-73.44441,41.47756],[-73.44334,41.47259],[-73.44214,41.47059],[-73.44016,41.46983],[-73.43706,41.4654],[-73.43485,41.46794],[-73.43543,41.47086],[-73.43829,41.47406],[-73.43493,41.4719],[-73.43338,41.47211],[-73.43153,41.46901],[-73.42972,41.46974],[-73.42694,41.46383],[-73.43937,41.46099],[-73.45058,41.459],[-73.46198,41.45667],[-73.46899,41.45551],[-73.48536,41.45126],[-73.49436,41.44968],[-73.50252,41.44785],[-73.51428,41.44564],[-73.53633,41.44053],[-73.5371,41.43971],[-73.53577,41.45716],[-73.53066,41.51997],[-73.48594,41.52793]]]}},{"type":"Feature","properties":{"zcta":"06824","d":758},"geometry":{"type":"Polygon","coordinates":[[[-73.33718,41.19738],[-73.33343,41.1991],[-73.3333,41.20286],[-73.33242,41.20507],[-73.32894,41.21018],[-73.33031,41.21123],[-73.32901,41.21343],[-73.31831,41.21274],[-73.30186,41.21273],[-73.29543,41.21747],[-73.29077,41.22009],[-73.28826,41.22386],[-73.2843,41.2253],[-73.28235,41.2291],[-73.27896,41.2309],[-73.2648,41.21446],[-73.2689,41.20859],[-73.271,41.2033],[-73.2669,41.20047],[-73.26598,41.19783],[-73.26343,41.19451],[-73.25927,41.19174],[-73.25741,41.18979],[-73.25589,41.18397],[-73.25805,41.18201],[-73.25709,41.17904],[-73.25527,41.17739],[-73.25387,41.17816],[-73.25174,41.18164],[-73.24603,41.17979],[-73.24221,41.17772],[-73.23571,41.17259],[-73.23619,41.16579],[-73.23584,41.16242],[-73.23741,41.15898],[-73.23211,41.16266],[-73.22999,41.16073],[-73.23388,41.15718],[-73.23723,41.15513],[-73.23609,41.15239],[-73.2337,41.1521],[-73.23286,41.1476],[-73.23485,41.14397],[-73.23506,41.144],[-73.24256,41.12819],[-73.25262,41.12499],[-73.26239,41.11819],[-73.27512,41.12109],[-73.27875,41.12566],[-73.28626,41.12776],[-73.28282,41.13185],[-73.27769,41.13441],[-73.27408,41.13889],[-73.27528,41.14096],[-73.27171,41.14656],[-73.27311,41.14905],[-73.27267,41.15053],[-73.27496,41.14966],[-73.27858,41.15237],[-73.2786,41.15544],[-73.27616,41.1579],[-73.2783,41.15954],[-73.28163,41.16061],[-73.28401,41.15949],[-73.29056,41.15823],[-73.29113,41.16008],[-73.28776,41.16106],[-73.28808,41.16237],[-73.2931,41.16206],[-73.29682,41.16697],[-73.30048,41.16532],[-73.29984,41.16327],[-73.30284,41.15901],[-73.30559,41.15687],[-73.30671,41.15416],[-73.30936,41.15599],[-73.30922,41.15884],[-73.314,41.16447],[-73.31331,41.16679],[-73.31833,41.16726],[-73.32329,41.17372],[-73.33846,41.19454],[-73.33718,41.19738]]]}},{"type":"Feature","properties":{"zcta":"06831","d":264},"geometry":{"type":"Polygon","coordinates":[[[-73.61319,41.13828],[-73.61551,41.13575],[-73.61263,41.13412],[-73.61327,41.12961],[-73.61213,41.12965],[-73.61144,41.12507],[-73.61421,41.12423],[-73.61552,41.12494],[-73.61759,41.12275],[-73.61378,41.11765],[-73.60705,41.10961],[-73.60398,41.10661],[-73.60016,41.10495],[-73.59854,41.10142],[-73.59673,41.10183],[-73.59196,41.10092],[-73.59456,41.10071],[-73.59916,41.09902],[-73.60545,41.09656],[-73.61098,41.09314],[-73.62387,41.08963],[-73.6272,41.09028],[-73.63496,41.09652],[-73.63922,41.09762],[-73.64877,41.09565],[-73.64754,41.09067],[-73.64797,41.08614],[-73.65095,41.08559],[-73.65282,41.08251],[-73.64879,41.07528],[-73.64203,41.07811],[-73.64141,41.07452],[-73.64264,41.07031],[-73.6421,41.06907],[-73.64607,41.06117],[-73.64331,41.06242],[-73.64325,41.05872],[-73.64049,41.05885],[-73.64061,41.05449],[-73.64166,41.05234],[-73.64001,41.04973],[-73.63766,41.04935],[-73.63586,41.04532],[-73.63946,41.04085],[-73.63722,41.0387],[-73.6381,41.03423],[-73.63403,41.03546],[-73.63267,41.03205],[-73.62942,41.0281],[-73.63445,41.02514],[-73.63517,41.02569],[-73.6397,41.02211],[-73.64371,41.02029],[-73.6446,41.01906],[-73.65566,41.01267],[-73.65868,41.01671],[-73.66267,41.0205],[-73.68717,41.0507],[-73.69427,41.0593],[-73.71687,41.0876],[-73.72258,41.0936],[-73.72777,41.1007],[-73.63967,41.1415],[-73.6158,41.15228],[-73.61319,41.13828]]]}},{"type":"Feature","properties":{"zcta":"06880","d":642},"geometry":{"type":"Polygon","coordinates":[[[-73.38487,41.17443],[-73.38147,41.18257],[-73.37957,41.18578],[-73.3716,41.17468],[-73.37045,41.17572],[-73.33846,41.19454],[-73.32329,41.17372],[-73.31833,41.16726],[-73.31331,41.16679],[-73.314,41.16447],[-73.30922,41.15884],[-73.30936,41.15599],[-73.30671,41.15416],[-73.3046,41.15191],[-73.3059,41.14958],[-73.30425,41.14898],[-73.30339,41.14585],[-73.29898,41.145],[-73.29807,41.14287],[-73.29895,41.14065],[-73.29679,41.13636],[-73.29613,41.13367],[-73.29718,41.13214],[-73.29653,41.1297],[-73.29725,41.12604],[-73.29875,41.12479],[-73.29861,41.12021],[-73.30664,41.11652],[-73.3091,41.1148],[-73.31127,41.11648],[-73.31363,41.11677],[-73.32087,41.11527],[-73.32497,41.11343],[-73.33066,41.11],[-73.33641,41.11176],[-73.35035,41.10638],[-73.35267,41.10161],[-73.35708,41.10379],[-73.36825,41.10719],[-73.36801,41.10164],[-73.3654,41.09734],[-73.3692,41.09555],[-73.37221,41.09552],[-73.37977,41.09742],[-73.38039,41.09665],[-73.38307,41.09884],[-73.38444,41.10289],[-73.38343,41.10462],[-73.38431,41.10731],[-73.3814,41.11831],[-73.38017,41.12114],[-73.38041,41.1239],[-73.38356,41.12467],[-73.38053,41.12497],[-73.38147,41.1319],[-73.3829,41.13904],[-73.38268,41.14169],[-73.38877,41.14895],[-73.38809,41.15648],[-73.38845,41.158],[-73.38681,41.1664],[-73.38707,41.1705],[-73.38487,41.17443]]]}},{"type":"Feature","properties":{"zcta":"06890","d":764},"geometry":{"type":"Polygon","coordinates":[[[-73.30559,41.15687],[-73.30284,41.15901],[-73.29984,41.16327],[-73.30048,41.16532],[-73.29682,41.16697],[-73.2931,41.16206],[-73.28808,41.16237],[-73.28776,41.16106],[-73.29113,41.16008],[-73.29056,41.15823],[-73.28401,41.15949],[-73.28163,41.16061],[-73.2783,41.15954],[-73.27616,41.1579],[-73.2786,41.15544],[-73.27858,41.15237],[-73.27496,41.14966],[-73.27267,41.15053],[-73.27311,41.14905],[-73.27171,41.14656],[-73.27528,41.14096],[-73.27408,41.13889],[-73.27769,41.13441],[-73.28282,41.13185],[-73.28626,41.12776],[-73.28676,41.1279],[-73.29875,41.12479],[-73.29725,41.12604],[-73.29653,41.1297],[-73.29718,41.13214],[-73.29613,41.13367],[-73.29679,41.13636],[-73.29895,41.14065],[-73.29807,41.14287],[-73.29898,41.145],[-73.30339,41.14585],[-73.30425,41.14898],[-73.3059,41.14958],[-73.3046,41.15191],[-73.30671,41.15416],[-73.30559,41.15687]]]}},{"type":"Feature","properties":{"zcta":"06902","d":3558},"geometry":{"type":"Polygon","coordinates":[[[-73.55975,41.10418],[-73.55979,41.10089],[-73.56128,41.10007],[-73.56013,41.09644],[-73.55706,41.09646],[-73.55542,41.08935],[-73.55324,41.08814],[-73.55429,41.08277],[-73.5555,41.08342],[-73.5569,41.07849],[-73.55572,41.0762],[-73.55671,41.07268],[-73.55764,41.06611],[-73.55991,41.05767],[-73.55505,41.05592],[-73.5518,41.05613],[-73.55233,41.05908],[-73.54842,41.06065],[-73.54805,41.05884],[-73.54277,41.06345],[-73.54197,41.05886],[-73.54138,41.0555],[-73.54359,41.05559],[-73.54557,41.0537],[-73.5467,41.0505],[-73.54503,41.04664],[-73.53367,41.0506],[-73.52911,41.05316],[-73.53116,41.05716],[-73.53413,41.05795],[-73.53367,41.06028],[-73.53545,41.06371],[-73.53704,41.06397],[-73.538,41.06685],[-73.53397,41.06792],[-73.53924,41.07132],[-73.53685,41.07688],[-73.5348,41.07708],[-73.53356,41.07523],[-73.53454,41.07154],[-73.53411,41.06941],[-73.53176,41.0695],[-73.53341,41.06699],[-73.53306,41.06478],[-73.52784,41.06426],[-73.52816,41.06195],[-73.52648,41.0609],[-73.52355,41.06279],[-73.51577,41.06385],[-73.51134,41.06392],[-73.5091,41.06573],[-73.50874,41.06348],[-73.50632,41.05888],[-73.50248,41.05598],[-73.49787,41.04939],[-73.49576,41.04768],[-73.50058,41.04672],[-73.50106,41.04489],[-73.50597,41.0428],[-73.50796,41.0385],[-73.51728,41.03989],[-73.52329,41.03666],[-73.52115,41.03182],[-73.51701,41.03005],[-73.51826,41.02896],[-73.51924,41.02431],[-73.52306,41.02005],[-73.52697,41.01972],[-73.52908,41.01708],[-73.53035,41.01728],[-73.53121,41.02245],[-73.53019,41.02878],[-73.53279,41.03167],[-73.53534,41.03192],[-73.54484,41.02584],[-73.54744,41.02288],[-73.55149,41.02434],[-73.55287,41.02335],[-73.55515,41.02515],[-73.55569,41.02843],[-73.56315,41.04023],[-73.56615,41.05151],[-73.56675,41.05147],[-73.56795,41.05901],[-73.57649,41.07018],[-73.59245,41.09061],[-73.58897,41.09738],[-73.58876,41.1006],[-73.58219,41.10054],[-73.56916,41.10157],[-73.566,41.10305],[-73.56501,41.10144],[-73.56347,41.103],[-73.56077,41.10354],[-73.55861,41.10561],[-73.55975,41.10418]]]}},{"type":"Feature","properties":{"zcta":"06907","d":2472},"geometry":{"type":"Polygon","coordinates":[[[-73.52808,41.11867],[-73.5225,41.11889],[-73.52126,41.11883],[-73.52085,41.11556],[-73.52193,41.11486],[-73.50784,41.1142],[-73.50076,41.11441],[-73.50651,41.10956],[-73.50924,41.10973],[-73.51145,41.10762],[-73.5114,41.10565],[-73.50944,41.10481],[-73.51049,41.10213],[-73.51496,41.09416],[-73.51459,41.0927],[-73.51741,41.08979],[-73.52052,41.07989],[-73.52253,41.07762],[-73.52368,41.07806],[-73.52362,41.08298],[-73.52601,41.08346],[-73.52809,41.08625],[-73.5269,41.09394],[-73.52744,41.09685],[-73.53166,41.09663],[-73.53053,41.10157],[-73.5311,41.10539],[-73.52518,41.10574],[-73.52386,41.10783],[-73.52756,41.11396],[-73.53039,41.1137],[-73.53204,41.11531],[-73.53326,41.1146],[-73.53511,41.11624],[-73.52808,41.11867]]]}},{"type":"Feature","properties":{"zcta":"06870","d":1459},"geometry":{"type":"Polygon","coordinates":[[[-73.57197,41.0176],[-73.57533,41.02539],[-73.57392,41.02642],[-73.57216,41.03133],[-73.57315,41.03343],[-73.57024,41.03826],[-73.57427,41.04099],[-73.57481,41.04291],[-73.57319,41.04482],[-73.5719,41.04876],[-73.57227,41.05038],[-73.57462,41.05057],[-73.57308,41.0569],[-73.57691,41.05783],[-73.57585,41.05943],[-73.57818,41.06214],[-73.5788,41.06],[-73.57944,41.06306],[-73.57822,41.06778],[-73.57649,41.07018],[-73.56795,41.05901],[-73.56675,41.05147],[-73.56615,41.05151],[-73.56315,41.04023],[-73.55569,41.02843],[-73.55515,41.02515],[-73.55287,41.02335],[-73.55644,41.02078],[-73.55717,41.01716],[-73.56197,41.0168],[-73.56767,41.0109],[-73.57007,41.0016],[-73.58397,41.0009],[-73.58511,41.00546],[-73.58765,41.00764],[-73.57197,41.0176]]]}},{"type":"Feature","properties":{"zcta":"06850","d":1709},"geometry":{"type":"Polygon","coordinates":[[[-73.43746,41.15617],[-73.42223,41.16003],[-73.42427,41.15674],[-73.42538,41.15265],[-73.42758,41.14969],[-73.42789,41.14338],[-73.42712,41.13911],[-73.42547,41.13562],[-73.42882,41.13271],[-73.42625,41.12631],[-73.42121,41.12055],[-73.41968,41.11815],[-73.41603,41.11996],[-73.41064,41.11841],[-73.409,41.11521],[-73.40952,41.11291],[-73.41162,41.11076],[-73.41057,41.10744],[-73.41577,41.10642],[-73.42127,41.1066],[-73.42565,41.10557],[-73.42831,41.11249],[-73.42969,41.11274],[-73.43386,41.11011],[-73.43574,41.11163],[-73.43493,41.11292],[-73.43573,41.11567],[-73.43818,41.11586],[-73.43949,41.11926],[-73.44381,41.11914],[-73.44439,41.11499],[-73.44129,41.11286],[-73.44699,41.11293],[-73.45057,41.11011],[-73.44955,41.10645],[-73.44814,41.10645],[-73.44603,41.10368],[-73.44838,41.10481],[-73.45176,41.10463],[-73.45122,41.1009],[-73.4544,41.10055],[-73.45276,41.09436],[-73.45398,41.09167],[-73.4558,41.09339],[-73.46214,41.10113],[-73.46909,41.10829],[-73.4739,41.11383],[-73.47379,41.11572],[-73.46295,41.12983],[-73.45882,41.1349],[-73.45061,41.14871],[-73.4495,41.1501],[-73.44891,41.15375],[-73.43746,41.15617]]]}},{"type":"Feature","properties":{"zcta":"06825","d":1501},"geometry":{"type":"Polygon","coordinates":[[[-73.2633,41.21254],[-73.25656,41.2193],[-73.25565,41.22219],[-73.25256,41.22666],[-73.25135,41.23018],[-73.24856,41.23198],[-73.24417,41.22659],[-73.23317,41.21392],[-73.2275,41.20751],[-73.22313,41.20244],[-73.21914,41.19776],[-73.22037,41.18795],[-73.21801,41.18328],[-73.21965,41.18148],[-73.21927,41.17937],[-73.22307,41.17639],[-73.22386,41.174],[-73.22549,41.17391],[-73.22763,41.16943],[-73.2237,41.17016],[-73.22227,41.16893],[-73.22442,41.1663],[-73.22743,41.1641],[-73.22999,41.16073],[-73.23211,41.16266],[-73.23741,41.15898],[-73.23584,41.16242],[-73.23619,41.16579],[-73.23571,41.17259],[-73.24221,41.17772],[-73.24603,41.17979],[-73.25174,41.18164],[-73.25387,41.17816],[-73.25527,41.17739],[-73.25709,41.17904],[-73.25805,41.18201],[-73.25589,41.18397],[-73.25741,41.18979],[-73.25927,41.19174],[-73.26343,41.19451],[-73.26598,41.19783],[-73.2669,41.20047],[-73.271,41.2033],[-73.2689,41.20859],[-73.2648,41.21446],[-73.2633,41.21254]]]}},{"type":"Feature","properties":{"zcta":"06755","d":133},"geometry":{"type":"Polygon","coordinates":[[[-73.50407,41.6691],[-73.49962,41.66973],[-73.46946,41.67325],[-73.45633,41.67497],[-73.46221,41.66922],[-73.462,41.6665],[-73.46399,41.66566],[-73.46438,41.66398],[-73.46723,41.66055],[-73.46608,41.6595],[-73.46791,41.65405],[-73.46733,41.65106],[-73.46984,41.65027],[-73.47257,41.64755],[-73.46755,41.64235],[-73.46864,41.63203],[-73.47385,41.63319],[-73.4714,41.63183],[-73.46712,41.6274],[-73.46617,41.62515],[-73.47076,41.62471],[-73.48149,41.61951],[-73.48817,41.6191],[-73.48872,41.61789],[-73.49781,41.63815],[-73.49598,41.6404],[-73.49629,41.6425],[-73.49411,41.64449],[-73.49003,41.64641],[-73.48807,41.64565],[-73.48469,41.64743],[-73.49032,41.65328],[-73.49397,41.66112],[-73.49795,41.65889],[-73.50395,41.66177],[-73.50693,41.66403],[-73.50692,41.6658],[-73.50407,41.6691]]]}},{"type":"Feature","properties":{"zcta":"06840","d":410},"geometry":{"type":"Polygon","coordinates":[[[-73.50949,41.20081],[-73.48491,41.21178],[-73.48378,41.20821],[-73.48026,41.20791],[-73.47569,41.19905],[-73.47203,41.19438],[-73.47285,41.19141],[-73.47014,41.18959],[-73.47282,41.18499],[-73.47221,41.18268],[-73.47322,41.181],[-73.46847,41.17739],[-73.4654,41.176],[-73.46543,41.17023],[-73.46683,41.1655],[-73.46407,41.16279],[-73.46429,41.16152],[-73.45704,41.16011],[-73.45489,41.15916],[-73.45297,41.15978],[-73.4504,41.158],[-73.44891,41.15375],[-73.4495,41.1501],[-73.45061,41.14871],[-73.45882,41.1349],[-73.46295,41.12983],[-73.47379,41.11572],[-73.4739,41.11383],[-73.47456,41.1147],[-73.48561,41.11392],[-73.49342,41.11447],[-73.50076,41.11441],[-73.50784,41.1142],[-73.52193,41.11486],[-73.52085,41.11556],[-73.52126,41.11883],[-73.5225,41.11889],[-73.53413,41.15024],[-73.53306,41.15396],[-73.53578,41.1578],[-73.53872,41.16005],[-73.54002,41.16007],[-73.54199,41.16313],[-73.54549,41.16572],[-73.55305,41.17417],[-73.55227,41.17608],[-73.55465,41.17993],[-73.50949,41.20081]]]}},{"type":"Feature","properties":{"zcta":"06810","d":1317},"geometry":{"type":"Polygon","coordinates":[[[-73.53345,41.39217],[-73.5272,41.39255],[-73.52068,41.39048],[-73.50676,41.3895],[-73.49143,41.38578],[-73.48539,41.38351],[-73.4837,41.38348],[-73.47668,41.38558],[-73.47586,41.38832],[-73.47796,41.39317],[-73.47773,41.39549],[-73.47311,41.39958],[-73.46613,41.40172],[-73.46278,41.40345],[-73.45816,41.40778],[-73.45539,41.40972],[-73.45069,41.4118],[-73.43738,41.41474],[-73.42712,41.41736],[-73.4198,41.42124],[-73.41568,41.42431],[-73.41192,41.42953],[-73.40596,41.42819],[-73.40611,41.41606],[-73.40118,41.40285],[-73.40481,41.40242],[-73.40729,41.39574],[-73.41467,41.38961],[-73.41669,41.38626],[-73.42097,41.38467],[-73.42472,41.38216],[-73.42529,41.38023],[-73.42788,41.38062],[-73.43265,41.37848],[-73.43502,41.3724],[-73.43058,41.35573],[-73.4254,41.33785],[-73.42433,41.33529],[-73.44116,41.33175],[-73.4701,41.32642],[-73.47586,41.33744],[-73.4854,41.35662],[-73.50161,41.36214],[-73.50481,41.37328],[-73.50644,41.37741],[-73.51073,41.37725],[-73.54362,41.37509],[-73.54247,41.38906],[-73.53345,41.39217]]]}},{"type":"Feature","properties":{"zcta":"06807","d":1132},"geometry":{"type":"Polygon","coordinates":[[[-73.57649,41.07018],[-73.57822,41.06778],[-73.57944,41.06306],[-73.5788,41.06],[-73.57818,41.06214],[-73.57585,41.05943],[-73.57817,41.05931],[-73.5779,41.05795],[-73.58076,41.05763],[-73.581,41.0591],[-73.58553,41.05339],[-73.58555,41.04893],[-73.58826,41.04594],[-73.58956,41.04088],[-73.59463,41.03081],[-73.60093,41.02956],[-73.60363,41.03294],[-73.60251,41.04396],[-73.60387,41.04458],[-73.60389,41.04766],[-73.60078,41.04869],[-73.60228,41.05235],[-73.60142,41.05557],[-73.59898,41.05737],[-73.59738,41.06039],[-73.59986,41.06151],[-73.59682,41.06214],[-73.59729,41.06818],[-73.60081,41.06928],[-73.60259,41.07378],[-73.60118,41.07776],[-73.59991,41.0785],[-73.5982,41.08465],[-73.60033,41.08593],[-73.59725,41.08865],[-73.59245,41.09061],[-73.57649,41.07018]]]}},{"type":"Feature","properties":{"zcta":"06896","d":134},"geometry":{"type":"Polygon","coordinates":[[[-73.44116,41.33175],[-73.42433,41.33529],[-73.41745,41.33625],[-73.3943,41.34041],[-73.38075,41.3432],[-73.35971,41.34701],[-73.34705,41.35043],[-73.33334,41.31834],[-73.32529,41.32247],[-73.31794,41.31193],[-73.316,41.31092],[-73.31547,41.30843],[-73.31422,41.3082],[-73.3048,41.29776],[-73.32764,41.29016],[-73.36881,41.27498],[-73.38026,41.27123],[-73.41608,41.25899],[-73.4301,41.25433],[-73.43402,41.26014],[-73.43819,41.26519],[-73.44411,41.27415],[-73.44479,41.2761],[-73.44612,41.28602],[-73.44577,41.28738],[-73.44854,41.28723],[-73.45027,41.3004],[-73.4516,41.30423],[-73.45115,41.30601],[-73.45797,41.30901],[-73.46197,41.31127],[-73.46605,41.31221],[-73.4701,41.32642],[-73.44116,41.33175]]]}},{"type":"Feature","properties":{"zcta":"06853","d":1529},"geometry":{"type":"Polygon","coordinates":[[[-73.44309,41.08318],[-73.44352,41.08206],[-73.44055,41.08133],[-73.44059,41.07892],[-73.44488,41.07877],[-73.44533,41.0774],[-73.43641,41.07875],[-73.43168,41.08107],[-73.42841,41.08702],[-73.42707,41.08691],[-73.42879,41.08302],[-73.42933,41.08004],[-73.42793,41.07602],[-73.42845,41.07198],[-73.42988,41.07054],[-73.43056,41.0673],[-73.42879,41.06342],[-73.43393,41.05864],[-73.43313,41.0559],[-73.43506,41.0567],[-73.43815,41.05552],[-73.44084,41.05586],[-73.4428,41.05749],[-73.44652,41.05808],[-73.44551,41.06539],[-73.44405,41.06835],[-73.44482,41.07002],[-73.44762,41.07191],[-73.44613,41.0763],[-73.44685,41.08248],[-73.44309,41.08318]]]}},{"type":"Feature","properties":{"zcta":"06776","d":249},"geometry":{"type":"Polygon","coordinates":[[[-73.45324,41.675],[-73.40131,41.68077],[-73.38212,41.68333],[-73.38051,41.67165],[-73.37786,41.65898],[-73.37041,41.65529],[-73.37331,41.65283],[-73.36862,41.64821],[-73.36593,41.64397],[-73.36276,41.64143],[-73.36128,41.64123],[-73.36024,41.64456],[-73.361,41.64728],[-73.35908,41.64652],[-73.35641,41.62998],[-73.35023,41.60205],[-73.34774,41.59825],[-73.34691,41.5952],[-73.34862,41.59518],[-73.34307,41.56586],[-73.36464,41.56489],[-73.37205,41.56511],[-73.37907,41.56214],[-73.39117,41.55603],[-73.39031,41.55429],[-73.39078,41.54967],[-73.38897,41.54788],[-73.39175,41.54501],[-73.39576,41.54385],[-73.39946,41.54402],[-73.40354,41.54058],[-73.40474,41.53702],[-73.40452,41.53121],[-73.4026,41.52511],[-73.39978,41.5201],[-73.39741,41.51827],[-73.38696,41.51479],[-73.40267,41.509],[-73.41908,41.50144],[-73.43089,41.49792],[-73.44147,41.49129],[-73.44288,41.49898],[-73.44407,41.50179],[-73.44362,41.50368],[-73.44527,41.50949],[-73.44277,41.51409],[-73.44593,41.52525],[-73.45037,41.53468],[-73.45402,41.54269],[-73.45516,41.5472],[-73.46133,41.56072],[-73.46046,41.56271],[-73.46513,41.57205],[-73.46727,41.57359],[-73.47979,41.6008],[-73.48872,41.61789],[-73.48817,41.6191],[-73.48149,41.61951],[-73.47076,41.62471],[-73.46617,41.62515],[-73.46712,41.6274],[-73.4714,41.63183],[-73.47385,41.63319],[-73.46864,41.63203],[-73.46755,41.64235],[-73.47257,41.64755],[-73.46984,41.65027],[-73.46733,41.65106],[-73.46791,41.65405],[-73.46608,41.6595],[-73.46723,41.66055],[-73.46438,41.66398],[-73.46399,41.66566],[-73.462,41.6665],[-73.46221,41.66922],[-73.45633,41.67497],[-73.45324,41.675]]]}},{"type":"Feature","properties":{"zcta":"06830","d":895},"geometry":{"type":"MultiPolygon","coordinates":[[[[-73.60973,40.99079],[-73.60757,40.9904],[-73.61253,40.98747],[-73.61337,40.98888],[-73.60973,40.99079]]],[[[-73.62665,40.98305],[-73.62377,40.9847],[-73.62186,40.98247],[-73.62513,40.98121],[-73.62681,40.98191],[-73.63008,40.98014],[-73.62948,40.98365],[-73.62665,40.98305]]],[[[-73.64429,40.99829],[-73.64297,40.99783],[-73.64045,40.99464],[-73.63843,40.99409],[-73.63746,40.9922],[-73.63951,40.99133],[-73.63915,40.98954],[-73.64082,40.98924],[-73.64472,40.99561],[-73.64577,40.996],[-73.64429,40.99829]]],[[[-73.6446,41.01906],[-73.64371,41.02029],[-73.6397,41.02211],[-73.63517,41.02569],[-73.63445,41.02514],[-73.62942,41.0281],[-73.63267,41.03205],[-73.63403,41.03546],[-73.6381,41.03423],[-73.63722,41.0387],[-73.63946,41.04085],[-73.63586,41.04532],[-73.63766,41.04935],[-73.64001,41.04973],[-73.64166,41.05234],[-73.64061,41.05449],[-73.64049,41.05885],[-73.64325,41.05872],[-73.64331,41.06242],[-73.64607,41.06117],[-73.6421,41.06907],[-73.64264,41.07031],[-73.64141,41.07452],[-73.64203,41.07811],[-73.64879,41.07528],[-73.65282,41.08251],[-73.65095,41.08559],[-73.64797,41.08614],[-73.64754,41.09067],[-73.64877,41.09565],[-73.63922,41.09762],[-73.63496,41.09652],[-73.6272,41.09028],[-73.62387,41.08963],[-73.61098,41.09314],[-73.60545,41.09656],[-73.59916,41.09902],[-73.59245,41.09061],[-73.59725,41.08865],[-73.60033,41.08593],[-73.5982,41.08465],[-73.59991,41.0785],[-73.60118,41.07776],[-73.60259,41.07378],[-73.60081,41.06928],[-73.59729,41.06818],[-73.59682,41.06214],[-73.59986,41.06151],[-73.59738,41.06039],[-73.59898,41.05737],[-73.60142,41.05557],[-73.60228,41.05235],[-73.60078,41.04869],[-73.60389,41.04766],[-73.60387,41.04458],[-73.60251,41.04396],[-73.60363,41.03294],[-73.60093,41.02956],[-73.59463,41.03081],[-73.59455,41.0231],[-73.59674,41.01588],[-73.60395,41.01505],[-73.61472,41.0088],[-73.62494,41.00647],[-73.62709,41.00181],[-73.63989,41.00312],[-73.65117,40.99523],[-73.65676,40.98767],[-73.659,40.98886],[-73.65723,40.99091],[-73.65964,40.99434],[-73.65931,40.99717],[-73.66027,41.00048],[-73.65606,41.00892],[-73.65566,41.01267],[-73.6446,41.01906]]]]}},{"type":"Feature","properties":{"zcta":"06612","d":133},"geometry":{"type":"Polygon","coordinates":[[[-73.32764,41.29016],[-73.3048,41.29776],[-73.31422,41.3082],[-73.31547,41.30843],[-73.316,41.31092],[-73.31794,41.31193],[-73.32529,41.32247],[-73.306,41.33236],[-73.29775,41.3287],[-73.2734,41.31879],[-73.27309,41.31622],[-73.27072,41.30997],[-73.27118,41.3062],[-73.27309,41.30296],[-73.27615,41.30155],[-73.27809,41.29815],[-73.27437,41.29381],[-73.27525,41.29163],[-73.27449,41.28389],[-73.25371,41.25914],[-73.24854,41.25341],[-73.24383,41.24749],[-73.24103,41.24482],[-73.2361,41.23843],[-73.24539,41.23292],[-73.24856,41.23198],[-73.25135,41.23018],[-73.25256,41.22666],[-73.25565,41.22219],[-73.25656,41.2193],[-73.2633,41.21254],[-73.2648,41.21446],[-73.27896,41.2309],[-73.28235,41.2291],[-73.2843,41.2253],[-73.28826,41.22386],[-73.29077,41.22009],[-73.29543,41.21747],[-73.30186,41.21273],[-73.31831,41.21274],[-73.32901,41.21343],[-73.32567,41.21621],[-73.3249,41.22052],[-73.32363,41.22192],[-73.32483,41.22447],[-73.32692,41.2265],[-73.32594,41.22744],[-73.33389,41.23582],[-73.33679,41.24016],[-73.34143,41.24562],[-73.34753,41.25197],[-73.36881,41.27498],[-73.32764,41.29016]]]}},{"type":"Feature","properties":{"zcta":"06903","d":417},"geometry":{"type":"Polygon","coordinates":[[[-73.56494,41.17517],[-73.55465,41.17993],[-73.55227,41.17608],[-73.55305,41.17417],[-73.54549,41.16572],[-73.54199,41.16313],[-73.54002,41.16007],[-73.53872,41.16005],[-73.53578,41.1578],[-73.53306,41.15396],[-73.53413,41.15024],[-73.5225,41.11889],[-73.52808,41.11867],[-73.53511,41.11624],[-73.54382,41.11303],[-73.55563,41.10834],[-73.55861,41.10561],[-73.56077,41.10354],[-73.56347,41.103],[-73.56501,41.10144],[-73.566,41.10305],[-73.56916,41.10157],[-73.58219,41.10054],[-73.58876,41.1006],[-73.58897,41.09738],[-73.59245,41.09061],[-73.59916,41.09902],[-73.59456,41.10071],[-73.59196,41.10092],[-73.59673,41.10183],[-73.59854,41.10142],[-73.60016,41.10495],[-73.60398,41.10661],[-73.60705,41.10961],[-73.61378,41.11765],[-73.61759,41.12275],[-73.61552,41.12494],[-73.61421,41.12423],[-73.61144,41.12507],[-73.61213,41.12965],[-73.61327,41.12961],[-73.61263,41.13412],[-73.61551,41.13575],[-73.61319,41.13828],[-73.6158,41.15228],[-73.56494,41.17517]]]}},{"type":"Feature","properties":{"zcta":"06820","d":754},"geometry":{"type":"Polygon","coordinates":[[[-73.51496,41.09416],[-73.51049,41.10213],[-73.50944,41.10481],[-73.5114,41.10565],[-73.51145,41.10762],[-73.50924,41.10973],[-73.50651,41.10956],[-73.50076,41.11441],[-73.49342,41.11447],[-73.48561,41.11392],[-73.47456,41.1147],[-73.4739,41.11383],[-73.46909,41.10829],[-73.46214,41.10113],[-73.4558,41.09339],[-73.45398,41.09167],[-73.45384,41.08774],[-73.45067,41.08815],[-73.45012,41.08645],[-73.44747,41.08501],[-73.44685,41.08248],[-73.44613,41.0763],[-73.44762,41.07191],[-73.44482,41.07002],[-73.44405,41.06835],[-73.44551,41.06539],[-73.44652,41.05808],[-73.45048,41.05699],[-73.45364,41.05715],[-73.4542,41.05437],[-73.45957,41.05254],[-73.46171,41.05363],[-73.4589,41.05654],[-73.45782,41.05897],[-73.4594,41.05964],[-73.46319,41.05834],[-73.46396,41.0599],[-73.46673,41.06113],[-73.46898,41.06008],[-73.47047,41.05618],[-73.47049,41.05411],[-73.46726,41.05477],[-73.46715,41.05236],[-73.46958,41.05074],[-73.47403,41.05085],[-73.47438,41.04926],[-73.47003,41.04833],[-73.47024,41.0472],[-73.476,41.04392],[-73.47737,41.0364],[-73.47909,41.03658],[-73.48282,41.04622],[-73.48606,41.04613],[-73.4868,41.04224],[-73.4886,41.0408],[-73.49141,41.04274],[-73.49047,41.04413],[-73.49395,41.04804],[-73.49576,41.04768],[-73.49787,41.04939],[-73.50248,41.05598],[-73.50632,41.05888],[-73.50874,41.06348],[-73.5091,41.06573],[-73.50995,41.0668],[-73.51001,41.07041],[-73.51094,41.07217],[-73.51539,41.07434],[-73.51801,41.07998],[-73.51697,41.08117],[-73.5145,41.08828],[-73.51523,41.08897],[-73.51459,41.0927],[-73.51496,41.09416]]]}},{"type":"Feature","properties":{"zcta":"06851","d":1974},"geometry":{"type":"Polygon","coordinates":[[[-73.41898,41.1608],[-73.4154,41.16289],[-73.39484,41.17177],[-73.38707,41.1705],[-73.38681,41.1664],[-73.38845,41.158],[-73.38809,41.15648],[-73.38877,41.14895],[-73.38268,41.14169],[-73.3829,41.13904],[-73.38147,41.1319],[-73.38053,41.12497],[-73.38356,41.12467],[-73.38041,41.1239],[-73.38017,41.12114],[-73.3814,41.11831],[-73.39068,41.11347],[-73.4013,41.11039],[-73.40614,41.10846],[-73.41057,41.10744],[-73.41162,41.11076],[-73.40952,41.11291],[-73.409,41.11521],[-73.41064,41.11841],[-73.41603,41.11996],[-73.41968,41.11815],[-73.42121,41.12055],[-73.42625,41.12631],[-73.42882,41.13271],[-73.42547,41.13562],[-73.42712,41.13911],[-73.42789,41.14338],[-73.42758,41.14969],[-73.42538,41.15265],[-73.42427,41.15674],[-73.42223,41.16003],[-73.41898,41.1608]]]}},{"type":"Feature","properties":{"zcta":"06482","d":265},"geometry":{"type":"Polygon","coordinates":[[[-73.29395,41.44736],[-73.29126,41.44811],[-73.2878,41.45032],[-73.27825,41.45264],[-73.2737,41.45165],[-73.27024,41.44801],[-73.26749,41.44358],[-73.26586,41.43707],[-73.26368,41.43453],[-73.2592,41.43333],[-73.25695,41.43385],[-73.25119,41.43777],[-73.24526,41.4399],[-73.24234,41.43607],[-73.24229,41.42984],[-73.23841,41.42625],[-73.23591,41.42615],[-73.22997,41.42912],[-73.22648,41.43031],[-73.21824,41.42907],[-73.21183,41.42277],[-73.20769,41.42054],[-73.20156,41.4158],[-73.19976,41.4132],[-73.19676,41.4114],[-73.19026,41.4103],[-73.18656,41.4086],[-73.18486,41.4063],[-73.18536,41.4022],[-73.18756,41.3996],[-73.18796,41.3973],[-73.18327,41.39171],[-73.18773,41.38893],[-73.1949,41.38853],[-73.19801,41.38273],[-73.20358,41.37916],[-73.20229,41.37801],[-73.20131,41.37394],[-73.20214,41.37224],[-73.2112,41.36772],[-73.21329,41.36792],[-73.21903,41.3645],[-73.22333,41.36422],[-73.22534,41.36534],[-73.22778,41.36505],[-73.22949,41.36721],[-73.22812,41.36881],[-73.22901,41.3703],[-73.25617,41.35744],[-73.2549,41.36354],[-73.25173,41.36483],[-73.24956,41.36748],[-73.25796,41.36775],[-73.25924,41.37145],[-73.25843,41.37677],[-73.26511,41.37696],[-73.26678,41.37963],[-73.26506,41.38351],[-73.26514,41.38927],[-73.26834,41.3901],[-73.26881,41.39314],[-73.26599,41.39528],[-73.26717,41.39912],[-73.26636,41.40017],[-73.26713,41.40408],[-73.26964,41.40623],[-73.27793,41.40831],[-73.2789,41.41003],[-73.28179,41.412],[-73.28264,41.41581],[-73.28954,41.41716],[-73.30405,41.42536],[-73.31331,41.42926],[-73.31365,41.43056],[-73.31155,41.43393],[-73.31006,41.43141],[-73.3068,41.43147],[-73.30833,41.43308],[-73.30932,41.43779],[-73.31147,41.44013],[-73.31394,41.43908],[-73.31199,41.44307],[-73.30973,41.44202],[-73.30408,41.4427],[-73.30263,41.44762],[-73.2984,41.44892],[-73.29395,41.44736]]]}}]}