{"type":"FeatureCollection","features":[{"type":"Feature","properties":{"id":"51087","name":"Henrico Co."},"geometry":{"type":"Polygon","coordinates":[[[-77.6302,37.7073],[-77.6225,37.7049],[-77.6178,37.708],[-77.6106,37.7104],[-77.5981,37.7037],[-77.5947,37.7004],[-77.5954,37.697],[-77.5889,37.6942],[-77.5879,37.6951],[-77.5823,37.692],[-77.5785,37.6885],[-77.5731,37.6889],[-77.5671,37.6839],[-77.563,37.6838],[-77.5579,37.6819],[-77.5559,37.6838],[-77.5504,37.6824],[-77.5502,37.6862],[-77.5472,37.6845],[-77.5434,37.6846],[-77.5401,37.6882],[-77.5333,37.6914],[-77.5317,37.6944],[-77.5263,37.6944],[-77.5277,37.6968],[-77.5247,37.697],[-77.5213,37.7],[-77.5209,37.6977],[-77.5173,37.6994],[-77.5102,37.7008],[-77.5027,37.6997],[-77.4949,37.7015],[-77.4918,37.6988],[-77.4925,37.6969],[-77.488,37.6898],[-77.4901,37.6888],[-77.4831,37.683],[-77.4776,37.6809],[-77.4763,37.6854],[-77.4713,37.6877],[-77.4659,37.6837],[-77.4642,37.6807],[-77.4603,37.6782],[-77.4566,37.678],[-77.4559,37.6799],[-77.4511,37.6803],[-77.4488,37.6843],[-77.4432,37.6822],[-77.4401,37.6769],[-77.4395,37.6681],[-77.4308,37.6581],[-77.43,37.6513],[-77.4243,37.6487],[-77.4183,37.6332],[-77.4094,37.6275],[-77.4054,37.626],[-77.4047,37.6226],[-77.4087,37.6147],[-77.4046,37.6099],[-77.4036,37.6051],[-77.3999,37.6061],[-77.397,37.6026],[-77.3938,37.6016],[-77.3911,37.5981],[-77.3872,37.5981],[-77.3818,37.5945],[-77.3729,37.5933],[-77.3688,37.5906],[-77.3627,37.5887],[-77.3579,37.5831],[-77.3446,37.5782],[-77.3381,37.5772],[-77.3358,37.5748],[-77.3272,37.5718],[-77.3262,37.57],[-77.3213,37.5678],[-77.3167,37.5675],[-77.3134,37.5646],[-77.3111,37.5649],[-77.3059,37.561],[-77.2991,37.5597],[-77.2912,37.5606],[-77.2869,37.5563],[-77.2821,37.5557],[-77.2757,37.5529],[-77.2699,37.5515],[-77.2659,37.5519],[-77.2614,37.5497],[-77.2537,37.5427],[-77.2468,37.5393],[-77.241,37.5381],[-77.2318,37.5396],[-77.2265,37.5339],[-77.2212,37.5332],[-77.2203,37.5272],[-77.2148,37.5254],[-77.2103,37.5204],[-77.207,37.5134],[-77.2032,37.513],[-77.1982,37.509],[-77.193,37.5066],[-77.1919,37.5012],[-77.1882,37.5002],[-77.1848,37.4957],[-77.1773,37.4906],[-77.1977,37.4538],[-77.2215,37.4101],[-77.2228,37.4071],[-77.226,37.4054],[-77.2205,37.4006],[-77.2192,37.3951],[-77.2146,37.3935],[-77.2178,37.3863],[-77.2151,37.3859],[-77.2202,37.3839],[-77.2263,37.38],[-77.2295,37.3829],[-77.2346,37.3816],[-77.2353,37.3842],[-77.2395,37.3885],[-77.2468,37.3914],[-77.2461,37.3945],[-77.2487,37.3947],[-77.2513,37.3887],[-77.2538,37.387],[-77.2504,37.3867],[-77.2484,37.3826],[-77.2497,37.382],[-77.2516,37.3793],[-77.2586,37.3796],[-77.2638,37.3783],[-77.2679,37.3714],[-77.267,37.3607],[-77.2683,37.3579],[-77.2726,37.3533],[-77.2771,37.3522],[-77.2865,37.352],[-77.2928,37.3534],[-77.305,37.3585],[-77.3107,37.3658],[-77.3115,37.3733],[-77.3061,37.3788],[-77.3053,37.3819],[-77.2982,37.3921],[-77.2973,37.3967],[-77.2981,37.4032],[-77.3003,37.4053],[-77.3042,37.4059],[-77.3086,37.404],[-77.3087,37.3925],[-77.3096,37.3925],[-77.3156,37.3828],[-77.3187,37.3802],[-77.3251,37.3779],[-77.3324,37.3775],[-77.3492,37.3785],[-77.3619,37.3761],[-77.3577,37.3835],[-77.3595,37.3868],[-77.3652,37.3909],[-77.3692,37.3921],[-77.3727,37.3902],[-77.3737,37.3844],[-77.3757,37.3817],[-77.3838,37.3844],[-77.3867,37.3871],[-77.3839,37.395],[-77.3846,37.3975],[-77.3915,37.401],[-77.395,37.4048],[-77.3964,37.4138],[-77.3991,37.4213],[-77.4031,37.4235],[-77.4016,37.4203],[-77.403,37.418],[-77.4068,37.4201],[-77.4069,37.4231],[-77.4187,37.4213],[-77.4269,37.4261],[-77.429,37.4322],[-77.4277,37.4366],[-77.4207,37.4475],[-77.4189,37.4466],[-77.4175,37.4529],[-77.4216,37.4713],[-77.4212,37.481],[-77.4217,37.492],[-77.4228,37.4961],[-77.4183,37.5032],[-77.4166,37.509],[-77.4165,37.5171],[-77.4102,37.5172],[-77.4083,37.5106],[-77.4001,37.5083],[-77.3939,37.505],[-77.3943,37.5149],[-77.3874,37.5171],[-77.3943,37.5247],[-77.3912,37.5301],[-77.386,37.5289],[-77.3855,37.5352],[-77.3878,37.5368],[-77.3932,37.5373],[-77.3962,37.5463],[-77.3951,37.5494],[-77.3993,37.5495],[-77.4117,37.5523],[-77.4083,37.5577],[-77.4127,37.5595],[-77.4149,37.5635],[-77.4112,37.5654],[-77.4095,37.569],[-77.4132,37.5763],[-77.4133,37.58],[-77.4186,37.5822],[-77.4301,37.5818],[-77.4314,37.5808],[-77.4393,37.5855],[-77.4374,37.5913],[-77.4408,37.5941],[-77.4405,37.5976],[-77.4376,37.5986],[-77.4476,37.6028],[-77.4544,37.6019],[-77.4545,37.5975],[-77.4658,37.5968],[-77.4661,37.5991],[-77.4768,37.5985],[-77.4791,37.5931],[-77.478,37.5873],[-77.4725,37.5787],[-77.4824,37.5731],[-77.4938,37.582],[-77.4999,37.5754],[-77.5132,37.5825],[-77.5165,37.5817],[-77.5315,37.5918],[-77.533,37.5871],[-77.532,37.5826],[-77.5342,37.5842],[-77.5378,37.5814],[-77.5386,37.5829],[-77.5439,37.5813],[-77.5414,37.5803],[-77.5468,37.5755],[-77.5475,37.5725],[-77.5422,37.5707],[-77.5372,37.5725],[-77.5349,37.5682],[-77.5259,37.5682],[-77.5298,37.5592],[-77.5368,37.5592],[-77.5413,37.5602],[-77.5478,37.5601],[-77.5601,37.5556],[-77.5706,37.5579],[-77.578,37.559],[-77.5848,37.5585],[-77.5955,37.5558],[-77.606,37.5555],[-77.6175,37.557],[-77.6264,37.5569],[-77.635,37.5588],[-77.6449,37.5591],[-77.6498,37.5598],[-77.6554,37.564],[-77.6471,37.5664],[-77.6387,37.5667],[-77.6347,37.566],[-77.6357,37.5714],[-77.6324,37.5755],[-77.628,37.5768],[-77.6239,37.5758],[-77.6164,37.5776],[-77.6189,37.5849],[-77.6183,37.589],[-77.6245,37.59],[-77.6283,37.5946],[-77.6264,37.5988],[-77.6341,37.602],[-77.6402,37.6027],[-77.6407,37.6079],[-77.6435,37.6141],[-77.6466,37.6138],[-77.652,37.6169],[-77.6506,37.6242],[-77.652,37.6321],[-77.6537,37.6345],[-77.6545,37.6407],[-77.6505,37.6487],[-77.6486,37.6569],[-77.6494,37.6594],[-77.6462,37.6592],[-77.6444,37.6694],[-77.6409,37.6781],[-77.6419,37.6803],[-77.6419,37.6879],[-77.6377,37.6867],[-77.6308,37.7057],[-77.6302,37.7073]]]}},{"type":"Feature","properties":{"id":"51127","name":"New Kent Co."},"geometry":{"type":"Polygon","coordinates":[[[-77.2387,37.5386],[-77.2339,37.5469],[-77.2218,37.5504],[-77.2122,37.5609],[-77.2106,37.5645],[-77.1709,37.5965],[-77.1627,37.5936],[-77.1581,37.5938],[-77.1508,37.5916],[-77.1432,37.591],[-77.1404,37.5922],[-77.1395,37.5961],[-77.1396,37.6052],[-77.1357,37.6058],[-77.1327,37.6092],[-77.138,37.6169],[-77.1335,37.6198],[-77.1349,37.6217],[-77.1338,37.6264],[-77.1266,37.6246],[-77.1237,37.6269],[-77.1203,37.6248],[-77.1142,37.6238],[-77.1057,37.6242],[-77.098,37.6173],[-77.0896,37.6182],[-77.0922,37.6078],[-77.091,37.6041],[-77.0842,37.5984],[-77.0795,37.5964],[-77.0709,37.5977],[-77.0695,37.6028],[-77.0672,37.6039],[-77.0574,37.5995],[-77.054,37.5988],[-77.0482,37.5957],[-77.0397,37.5873],[-77.0362,37.5856],[-77.0323,37.5861],[-77.028,37.5843],[-77.0212,37.5841],[-77.019,37.5824],[-77.0259,37.5754],[-77.0258,37.5734],[-77.0192,37.5674],[-77.0107,37.5638],[-77.0001,37.5618],[-76.9935,37.5643],[-76.984,37.5651],[-76.9812,37.5671],[-76.9808,37.5713],[-76.9826,37.574],[-76.9918,37.5768],[-76.9939,37.5785],[-76.9927,37.5809],[-76.9851,37.5839],[-76.9761,37.5859],[-76.9686,37.5862],[-76.9636,37.5831],[-76.9613,37.5762],[-76.9571,37.5719],[-76.9551,37.5638],[-76.9568,37.557],[-76.9627,37.552],[-76.9739,37.5472],[-76.9763,37.5448],[-76.974,37.5413],[-76.9671,37.5402],[-76.953,37.5358],[-76.9471,37.5355],[-76.9442,37.5388],[-76.9432,37.5446],[-76.9434,37.5571],[-76.9427,37.5596],[-76.9373,37.5631],[-76.9215,37.5689],[-76.917,37.5696],[-76.9072,37.5686],[-76.9031,37.5658],[-76.9031,37.558],[-76.9051,37.5529],[-76.9053,37.549],[-76.8994,37.5457],[-76.8939,37.5457],[-76.8842,37.5497],[-76.8747,37.5525],[-76.8732,37.5575],[-76.8801,37.568],[-76.8825,37.5739],[-76.882,37.5765],[-76.8754,37.5796],[-76.8685,37.5814],[-76.8584,37.5795],[-76.8549,37.5768],[-76.8536,37.5726],[-76.856,37.5647],[-76.8638,37.5491],[-76.8682,37.5436],[-76.8757,37.5376],[-76.8777,37.5338],[-76.8778,37.5304],[-76.8747,37.5282],[-76.8649,37.5237],[-76.8574,37.5229],[-76.851,37.5261],[-76.8319,37.541],[-76.8269,37.5509],[-76.8241,37.5524],[-76.818,37.5505],[-76.8152,37.547],[-76.806,37.531],[-76.7998,37.5231],[-76.7922,37.5176],[-76.7915,37.5083],[-76.7895,37.5039],[-76.7781,37.5002],[-76.7645,37.4936],[-76.7568,37.4883],[-76.7517,37.4839],[-76.7474,37.4782],[-76.742,37.4671],[-76.7568,37.4617],[-76.7564,37.4564],[-76.7603,37.4587],[-76.7605,37.4525],[-76.7635,37.4542],[-76.7657,37.4515],[-76.758,37.4455],[-76.7659,37.4403],[-76.7644,37.437],[-76.7673,37.4381],[-76.7703,37.435],[-76.7704,37.4386],[-76.7726,37.4383],[-76.7744,37.4347],[-76.783,37.4377],[-76.7877,37.438],[-76.7924,37.4354],[-76.7979,37.4381],[-76.8082,37.4455],[-76.8241,37.4507],[-76.8269,37.4489],[-76.8302,37.4496],[-76.8397,37.4489],[-76.8448,37.4475],[-76.8499,37.4488],[-76.86,37.4468],[-76.8675,37.4412],[-76.876,37.4404],[-76.8822,37.4371],[-76.8871,37.4329],[-76.8921,37.4324],[-76.8953,37.4282],[-76.8904,37.42],[-76.8947,37.4149],[-76.8932,37.4096],[-76.8949,37.4079],[-76.8942,37.4002],[-76.898,37.3996],[-76.8982,37.3957],[-76.9005,37.3959],[-76.9004,37.3921],[-76.8972,37.3922],[-76.8924,37.3879],[-76.8922,37.3834],[-76.8983,37.3825],[-76.9002,37.3858],[-76.9045,37.3777],[-76.9179,37.3843],[-76.9173,37.3892],[-76.9082,37.3909],[-76.9064,37.3926],[-76.9041,37.4038],[-76.9081,37.4051],[-76.911,37.3995],[-76.9167,37.3954],[-76.9276,37.3996],[-76.9312,37.3963],[-76.9316,37.3915],[-76.9333,37.388],[-76.9425,37.3832],[-76.9449,37.3839],[-76.9461,37.3911],[-76.9453,37.3941],[-76.938,37.3995],[-76.9369,37.4034],[-76.9385,37.4074],[-76.9431,37.4104],[-76.9519,37.404],[-76.9566,37.4038],[-76.9688,37.4065],[-76.9727,37.4102],[-76.9695,37.4152],[-76.9717,37.4184],[-76.9801,37.4195],[-76.982,37.4209],[-76.9868,37.4159],[-76.9915,37.4149],[-76.9983,37.4182],[-77.0033,37.4149],[-77.0076,37.4137],[-77.0113,37.4161],[-77.0161,37.414],[-77.0213,37.416],[-77.0247,37.4202],[-77.0237,37.4228],[-77.0267,37.429],[-77.0312,37.4294],[-77.036,37.4269],[-77.0384,37.4292],[-77.0469,37.4318],[-77.0548,37.4319],[-77.06,37.4293],[-77.0597,37.4349],[-77.0617,37.4365],[-77.0689,37.4379],[-77.0701,37.4399],[-77.0763,37.4413],[-77.0785,37.4401],[-77.0864,37.4399],[-77.0864,37.4414],[-77.0959,37.4403],[-77.1013,37.4448],[-77.1006,37.4471],[-77.1055,37.4485],[-77.1074,37.4511],[-77.1118,37.4535],[-77.1153,37.4528],[-77.1191,37.4558],[-77.1176,37.4582],[-77.1185,37.4616],[-77.1227,37.4631],[-77.1241,37.4679],[-77.1269,37.4716],[-77.1314,37.4716],[-77.1417,37.4684],[-77.1433,37.4705],[-77.1411,37.4734],[-77.142,37.4763],[-77.1474,37.4757],[-77.1503,37.4773],[-77.1579,37.4745],[-77.1616,37.4765],[-77.1576,37.4858],[-77.1647,37.4847],[-77.1666,37.4819],[-77.1704,37.4814],[-77.1713,37.4872],[-77.1768,37.4887],[-77.1773,37.4906],[-77.1848,37.4957],[-77.1882,37.5002],[-77.1919,37.5012],[-77.193,37.5066],[-77.1982,37.509],[-77.2032,37.513],[-77.207,37.5134],[-77.2103,37.5204],[-77.2148,37.5254],[-77.2203,37.5272],[-77.2212,37.5332],[-77.2265,37.5339],[-77.2318,37.5396],[-77.241,37.5381],[-77.2387,37.5386]]]}},{"type":"Feature","properties":{"id":"51007","name":"Amelia Co."},"geometry":{"type":"Polygon","coordinates":[[[-78.1273,37.4531],[-78.1243,37.4454],[-78.1171,37.4448],[-78.1081,37.4477],[-78.1057,37.4493],[-78.1008,37.4481],[-78.1017,37.4421],[-78.0987,37.4406],[-78.0947,37.4447],[-78.0924,37.4557],[-78.0875,37.4573],[-78.0751,37.4524],[-78.0712,37.4535],[-78.0661,37.452],[-78.0587,37.4569],[-78.058,37.4634],[-78.0509,37.4688],[-78.0505,37.4717],[-78.046,37.4734],[-78.041,37.4736],[-78.0362,37.4716],[-78.0288,37.4718],[-78.0222,37.4741],[-78.0172,37.4715],[-78.0163,37.4751],[-78.0162,37.4828],[-78.0189,37.4851],[-78.0144,37.4886],[-78.0152,37.4915],[-77.9996,37.4981],[-77.991,37.4895],[-77.9867,37.4864],[-77.9821,37.4869],[-77.9772,37.4855],[-77.9681,37.4858],[-77.9596,37.4826],[-77.9558,37.4833],[-77.9488,37.4797],[-77.9388,37.4777],[-77.9374,37.4754],[-77.931,37.4772],[-77.9283,37.4808],[-77.9249,37.4822],[-77.9172,37.4775],[-77.9146,37.4748],[-77.9054,37.4743],[-77.8998,37.4754],[-77.8945,37.4712],[-77.8938,37.4668],[-77.8976,37.4568],[-77.8968,37.4532],[-77.894,37.4494],[-77.8864,37.4493],[-77.8827,37.4527],[-77.8766,37.4568],[-77.8713,37.4577],[-77.8666,37.4568],[-77.866,37.4536],[-77.8686,37.447],[-77.8648,37.4397],[-77.8651,37.4376],[-77.8575,37.4334],[-77.8561,37.4317],[-77.8589,37.4226],[-77.8551,37.4184],[-77.8587,37.4145],[-77.8726,37.4185],[-77.8755,37.416],[-77.8749,37.4117],[-77.8725,37.4056],[-77.8718,37.3994],[-77.8674,37.3938],[-77.8694,37.3912],[-77.873,37.392],[-77.8746,37.3866],[-77.8782,37.3835],[-77.8768,37.3781],[-77.8766,37.3695],[-77.8776,37.3662],[-77.8738,37.3624],[-77.8673,37.363],[-77.8609,37.3622],[-77.8528,37.3567],[-77.8518,37.3549],[-77.8524,37.3476],[-77.8505,37.3451],[-77.8373,37.3384],[-77.8276,37.3386],[-77.8175,37.3381],[-77.8126,37.3366],[-77.8067,37.3362],[-77.7986,37.3343],[-77.7965,37.3327],[-77.7987,37.3276],[-77.7963,37.324],[-77.8012,37.3186],[-77.8072,37.3172],[-77.809,37.3154],[-77.8067,37.3045],[-77.7971,37.2994],[-77.7892,37.2983],[-77.7849,37.2965],[-77.7694,37.285],[-77.768,37.2751],[-77.7635,37.2707],[-77.7586,37.2687],[-77.7445,37.2668],[-77.738,37.2704],[-77.7383,37.2743],[-77.7365,37.2773],[-77.7355,37.2842],[-77.7278,37.2858],[-77.7212,37.2833],[-77.7174,37.2849],[-77.7159,37.2882],[-77.7176,37.291],[-77.7162,37.2969],[-77.7138,37.299],[-77.7088,37.3001],[-77.7035,37.2982],[-77.7015,37.2961],[-77.6981,37.2877],[-77.6926,37.2815],[-77.687,37.2824],[-77.6839,37.286],[-77.6824,37.2918],[-77.6758,37.2928],[-77.6675,37.2925],[-77.6648,37.2878],[-77.6625,37.2787],[-77.6571,37.2723],[-77.6543,37.2673],[-77.6506,37.2651],[-77.6519,37.2608],[-77.6489,37.2554],[-77.656,37.2537],[-77.6571,37.2513],[-77.6564,37.2466],[-77.6614,37.2459],[-77.6607,37.2418],[-77.6686,37.241],[-77.6712,37.242],[-77.675,37.2407],[-77.6751,37.2369],[-77.6812,37.2344],[-77.6828,37.2359],[-77.6868,37.2351],[-77.6887,37.2282],[-77.6807,37.2289],[-77.6849,37.2259],[-77.6866,37.2229],[-77.6898,37.2215],[-77.7008,37.2229],[-77.7061,37.2188],[-77.7111,37.2183],[-77.7151,37.2147],[-77.7184,37.2156],[-77.7189,37.2134],[-77.726,37.2077],[-77.7265,37.2044],[-77.7289,37.2026],[-77.7365,37.2006],[-77.7477,37.1927],[-77.7574,37.1922],[-77.7637,37.1945],[-77.7762,37.1964],[-77.7845,37.197],[-77.7952,37.1951],[-77.7959,37.1926],[-77.8236,37.2013],[-77.8666,37.2124],[-77.8747,37.2137],[-77.8992,37.2197],[-77.9453,37.2306],[-78.0187,37.2476],[-78.0307,37.2502],[-78.136,37.274],[-78.2312,37.2962],[-78.2313,37.2989],[-78.235,37.3681],[-78.2337,37.3696],[-78.2394,37.3739],[-78.2399,37.3773],[-78.2371,37.3774],[-78.2313,37.3835],[-78.2235,37.3858],[-78.2203,37.3882],[-78.2172,37.3972],[-78.215,37.4007],[-78.21,37.4037],[-78.2049,37.41],[-78.2047,37.416],[-78.2015,37.4189],[-78.2017,37.4263],[-78.1947,37.4279],[-78.189,37.4253],[-78.185,37.4336],[-78.1861,37.4393],[-78.185,37.4446],[-78.1799,37.4449],[-78.1714,37.4425],[-78.1677,37.4455],[-78.1642,37.4465],[-78.1598,37.4501],[-78.1574,37.4538],[-78.1497,37.4525],[-78.1388,37.4597],[-78.132,37.4547],[-78.1273,37.4531]]]}},{"type":"Feature","properties":{"id":"51053","name":"Dinwiddie Co."},"geometry":{"type":"Polygon","coordinates":[[[-77.7952,37.1951],[-77.7845,37.197],[-77.7762,37.1964],[-77.7637,37.1945],[-77.7574,37.1922],[-77.7477,37.1927],[-77.7365,37.2006],[-77.7289,37.2026],[-77.7265,37.2044],[-77.726,37.2077],[-77.7189,37.2134],[-77.7184,37.2156],[-77.7151,37.2147],[-77.7111,37.2183],[-77.7061,37.2188],[-77.7008,37.2229],[-77.6898,37.2215],[-77.6866,37.2229],[-77.6849,37.2259],[-77.6807,37.2289],[-77.6887,37.2282],[-77.6868,37.2351],[-77.6828,37.2359],[-77.6812,37.2344],[-77.6751,37.2369],[-77.675,37.2407],[-77.6712,37.242],[-77.6686,37.241],[-77.6607,37.2418],[-77.6614,37.2459],[-77.6564,37.2466],[-77.6571,37.2513],[-77.656,37.2537],[-77.6489,37.2554],[-77.6519,37.2608],[-77.6506,37.2651],[-77.6424,37.264],[-77.6326,37.2697],[-77.6294,37.2695],[-77.6247,37.2669],[-77.6203,37.2668],[-77.6173,37.27],[-77.6133,37.2709],[-77.6077,37.2678],[-77.6033,37.2639],[-77.6022,37.2576],[-77.6005,37.2537],[-77.5914,37.2494],[-77.5897,37.2465],[-77.584,37.2461],[-77.5804,37.2429],[-77.5789,37.2379],[-77.5755,37.2364],[-77.5721,37.2371],[-77.5694,37.2399],[-77.5673,37.2379],[-77.5674,37.232],[-77.5627,37.2308],[-77.5604,37.2257],[-77.5579,37.2246],[-77.554,37.2264],[-77.5472,37.2269],[-77.5361,37.2263],[-77.5262,37.2228],[-77.5226,37.2171],[-77.5149,37.2181],[-77.5092,37.221],[-77.5024,37.2221],[-77.4997,37.2243],[-77.4965,37.2233],[-77.4931,37.2248],[-77.4861,37.2254],[-77.4796,37.2245],[-77.4723,37.2256],[-77.4665,37.2253],[-77.4536,37.2227],[-77.4474,37.2231],[-77.4474,37.2159],[-77.443,37.216],[-77.4418,37.2106],[-77.4453,37.2043],[-77.4452,37.197],[-77.4465,37.1943],[-77.4546,37.1875],[-77.4492,37.189],[-77.4281,37.185],[-77.4229,37.1812],[-77.4211,37.1736],[-77.4238,37.1733],[-77.4235,37.1651],[-77.4115,37.1667],[-77.4049,37.1715],[-77.3992,37.1709],[-77.3969,37.1542],[-77.3959,37.1122],[-77.3969,37.0579],[-77.3957,37.0428],[-77.3946,37.0357],[-77.3985,36.993],[-77.4153,36.9843],[-77.4634,36.9587],[-77.543,36.9173],[-77.6162,36.8792],[-77.619,36.8778],[-77.6267,36.8813],[-77.6312,36.8876],[-77.6381,36.886],[-77.6382,36.8822],[-77.6323,36.8787],[-77.6333,36.8751],[-77.6392,36.8738],[-77.6449,36.8767],[-77.648,36.8815],[-77.6457,36.8885],[-77.646,36.8928],[-77.6497,36.8981],[-77.6516,36.8982],[-77.6546,36.8946],[-77.6639,36.8947],[-77.6765,36.9044],[-77.6837,36.9052],[-77.6859,36.9065],[-77.6913,36.9051],[-77.6946,36.9066],[-77.7009,36.9164],[-77.7045,36.9165],[-77.7135,36.9141],[-77.7166,36.9166],[-77.7147,36.9222],[-77.7157,36.9272],[-77.7234,36.933],[-77.7278,36.9434],[-77.7336,36.9457],[-77.738,36.9462],[-77.7388,36.9505],[-77.7411,36.9534],[-77.7446,36.9516],[-77.7464,36.9531],[-77.7443,36.9565],[-77.7456,36.959],[-77.7509,36.9564],[-77.7553,36.9561],[-77.7618,36.9616],[-77.7627,36.9717],[-77.7655,36.9747],[-77.7718,36.9763],[-77.7754,36.9747],[-77.7802,36.9758],[-77.7819,36.9794],[-77.787,36.98],[-77.7931,36.9824],[-77.7948,36.9845],[-77.8101,36.9834],[-77.8196,36.9897],[-77.8236,36.991],[-77.8326,36.9913],[-77.8339,36.9937],[-77.8422,36.996],[-77.8507,36.9905],[-77.856,36.9904],[-77.8623,36.9922],[-77.865,36.9885],[-77.8716,36.9917],[-77.8755,36.9901],[-77.8826,36.9917],[-77.8866,36.9882],[-77.8898,36.9888],[-77.8913,37.0001],[-77.8989,37.1171],[-77.9003,37.1439],[-77.8926,37.1462],[-77.8881,37.1446],[-77.8706,37.1503],[-77.8665,37.1529],[-77.8637,37.1566],[-77.8575,37.1604],[-77.8554,37.1642],[-77.8451,37.1655],[-77.8417,37.1698],[-77.8393,37.1689],[-77.832,37.1703],[-77.8274,37.1693],[-77.825,37.1672],[-77.821,37.1672],[-77.8139,37.1697],[-77.8107,37.1731],[-77.8064,37.1757],[-77.8042,37.184],[-77.7994,37.1853],[-77.7991,37.1898],[-77.7959,37.1926],[-77.7952,37.1951]]]}},{"type":"Feature","properties":{"id":"51097","name":"King and Queen Co."},"geometry":{"type":"Polygon","coordinates":[[[-76.7474,37.4782],[-76.7517,37.4839],[-76.7568,37.4883],[-76.7645,37.4936],[-76.7781,37.5002],[-76.7895,37.5039],[-76.7915,37.5083],[-76.7922,37.5176],[-76.7866,37.5224],[-76.7863,37.5276],[-76.7885,37.5327],[-76.7887,37.5372],[-76.7788,37.5461],[-76.7771,37.5507],[-76.7781,37.5553],[-76.7828,37.5658],[-76.7852,37.5691],[-76.7903,37.5707],[-76.7963,37.5706],[-76.7996,37.5736],[-76.7993,37.5758],[-76.7946,37.5817],[-76.7937,37.5863],[-76.7957,37.5893],[-76.8004,37.5913],[-76.8143,37.589],[-76.823,37.5916],[-76.826,37.5938],[-76.8258,37.5973],[-76.8221,37.5999],[-76.8167,37.6005],[-76.8144,37.6024],[-76.8163,37.6055],[-76.8192,37.606],[-76.8288,37.6054],[-76.8334,37.607],[-76.8362,37.6107],[-76.8373,37.6151],[-76.841,37.6175],[-76.8491,37.6141],[-76.8543,37.6137],[-76.8682,37.6178],[-76.8703,37.6205],[-76.8688,37.624],[-76.8579,37.6275],[-76.8548,37.6329],[-76.8558,37.6362],[-76.859,37.6394],[-76.8657,37.6435],[-76.8712,37.6494],[-76.879,37.6565],[-76.8875,37.6576],[-76.8992,37.6547],[-76.9075,37.6547],[-76.9124,37.6568],[-76.9133,37.6596],[-76.906,37.6705],[-76.909,37.6764],[-76.9118,37.6781],[-76.916,37.6847],[-76.9156,37.6933],[-76.9193,37.6952],[-76.9275,37.6905],[-76.9361,37.6892],[-76.9564,37.6881],[-76.963,37.6886],[-76.9686,37.6906],[-76.9703,37.6929],[-76.9701,37.6991],[-76.9723,37.7057],[-76.976,37.7085],[-76.9824,37.706],[-76.9881,37.706],[-76.9972,37.7072],[-77.0023,37.7097],[-77.0081,37.7155],[-77.0104,37.7219],[-77.0125,37.7228],[-77.0196,37.7222],[-77.0256,37.723],[-77.0333,37.7208],[-77.036,37.7217],[-77.0363,37.7251],[-77.0493,37.7343],[-77.0533,37.7412],[-77.054,37.7441],[-77.0581,37.7458],[-77.0594,37.7495],[-77.0691,37.75],[-77.0822,37.7471],[-77.0895,37.7552],[-77.0864,37.7573],[-77.0803,37.7656],[-77.077,37.7644],[-77.0743,37.7673],[-77.0756,37.7698],[-77.0737,37.7732],[-77.0768,37.7781],[-77.0813,37.7776],[-77.0825,37.7813],[-77.0866,37.7807],[-77.0884,37.7824],[-77.0938,37.7815],[-77.0966,37.7842],[-77.1031,37.786],[-77.1035,37.7894],[-77.1068,37.7943],[-77.1065,37.7989],[-77.1027,37.8017],[-77.099,37.8007],[-77.0925,37.8022],[-77.0935,37.8101],[-77.0973,37.811],[-77.1,37.8134],[-77.1041,37.8125],[-77.1059,37.81],[-77.1084,37.8111],[-77.1141,37.8048],[-77.117,37.8083],[-77.1208,37.8076],[-77.1164,37.8129],[-77.116,37.8153],[-77.1189,37.8171],[-77.1209,37.823],[-77.1265,37.8266],[-77.1217,37.8317],[-77.1212,37.8354],[-77.1236,37.8393],[-77.1306,37.841],[-77.1322,37.8432],[-77.1309,37.8464],[-77.1337,37.8474],[-77.1398,37.852],[-77.1413,37.8561],[-77.1397,37.8603],[-77.1351,37.8613],[-77.1332,37.8654],[-77.1382,37.8672],[-77.1474,37.8646],[-77.1517,37.8688],[-77.155,37.8694],[-77.1602,37.8655],[-77.1636,37.8658],[-77.165,37.868],[-77.1632,37.8725],[-77.1588,37.8736],[-77.1542,37.873],[-77.149,37.8769],[-77.1495,37.8821],[-77.1536,37.8829],[-77.1558,37.8808],[-77.1641,37.8834],[-77.1653,37.8863],[-77.1632,37.8879],[-77.1625,37.8915],[-77.1692,37.8957],[-77.1733,37.8953],[-77.1725,37.8914],[-77.1765,37.8927],[-77.1814,37.8917],[-77.1797,37.8974],[-77.1816,37.8988],[-77.1869,37.8984],[-77.187,37.901],[-77.1821,37.9045],[-77.1792,37.9008],[-77.1748,37.9032],[-77.1754,37.9054],[-77.1815,37.908],[-77.1864,37.9112],[-77.183,37.9142],[-77.1812,37.9192],[-77.181,37.9244],[-77.1788,37.929],[-77.184,37.9414],[-77.182,37.9448],[-77.1788,37.9467],[-77.182,37.9496],[-77.1759,37.9569],[-77.167,37.9641],[-77.1636,37.9657],[-77.1597,37.9655],[-77.1539,37.9676],[-77.1486,37.972],[-77.1442,37.9722],[-77.1408,37.9704],[-77.1392,37.9717],[-77.1318,37.9711],[-77.1301,37.9718],[-77.1221,37.9704],[-77.1065,37.9716],[-77.1036,37.9702],[-77.0997,37.9644],[-77.0898,37.9638],[-77.0843,37.9655],[-77.0805,37.9687],[-77.0723,37.9683],[-77.0644,37.9573],[-77.068,37.9513],[-77.0713,37.9494],[-77.0728,37.9464],[-77.0673,37.9454],[-77.0617,37.9427],[-77.0597,37.9431],[-77.0557,37.9378],[-77.0552,37.9309],[-77.0501,37.9311],[-77.0484,37.9285],[-77.0431,37.9269],[-77.0402,37.9281],[-77.034,37.9255],[-77.0316,37.9215],[-77.0327,37.9171],[-77.0285,37.9153],[-77.0292,37.9116],[-77.0241,37.9049],[-77.0277,37.9025],[-77.0279,37.8988],[-77.0301,37.8987],[-77.0288,37.8939],[-77.0317,37.8912],[-77.0253,37.8903],[-77.0249,37.8874],[-77.0202,37.8853],[-77.0247,37.8818],[-77.0229,37.8796],[-77.0294,37.877],[-77.0396,37.8767],[-77.0427,37.873],[-77.0412,37.869],[-77.0357,37.8678],[-77.0355,37.8658],[-77.0296,37.8631],[-77.0202,37.8611],[-77.0182,37.8487],[-77.019,37.8449],[-77.0127,37.8409],[-77.0033,37.836],[-76.9926,37.8346],[-76.9913,37.8371],[-76.9834,37.8394],[-76.9816,37.839],[-76.9699,37.8286],[-76.9588,37.8286],[-76.9538,37.8296],[-76.9452,37.8282],[-76.946,37.8163],[-76.9455,37.8111],[-76.9418,37.8062],[-76.9413,37.8026],[-76.9431,37.794],[-76.9426,37.7848],[-76.9432,37.783],[-76.9383,37.785],[-76.9366,37.7884],[-76.9304,37.7914],[-76.9264,37.7912],[-76.9224,37.7945],[-76.9064,37.7962],[-76.8948,37.7918],[-76.8886,37.7906],[-76.8834,37.7835],[-76.8777,37.7821],[-76.8723,37.7827],[-76.8609,37.7885],[-76.8555,37.7901],[-76.8479,37.794],[-76.8426,37.798],[-76.8364,37.7972],[-76.8256,37.793],[-76.8207,37.7925],[-76.814,37.7942],[-76.8078,37.7936],[-76.8022,37.7946],[-76.791,37.7867],[-76.7924,37.7831],[-76.79,37.7718],[-76.7845,37.7675],[-76.7756,37.7631],[-76.7721,37.7623],[-76.7697,37.7571],[-76.7609,37.751],[-76.7596,37.7469],[-76.7568,37.7454],[-76.7533,37.7384],[-76.7532,37.7337],[-76.7515,37.7321],[-76.7494,37.7154],[-76.7511,37.7117],[-76.7472,37.7058],[-76.743,37.703],[-76.7422,37.6989],[-76.7389,37.6967],[-76.739,37.6947],[-76.7321,37.6881],[-76.7288,37.6889],[-76.7253,37.692],[-76.7282,37.6756],[-76.7222,37.673],[-76.7234,37.6696],[-76.7213,37.6643],[-76.7169,37.6605],[-76.718,37.6577],[-76.7101,37.6556],[-76.706,37.6514],[-76.7064,37.6451],[-76.7027,37.6414],[-76.6973,37.6403],[-76.6956,37.6302],[-76.6859,37.6233],[-76.6861,37.6212],[-76.6823,37.6172],[-76.6768,37.6151],[-76.6729,37.6151],[-76.6704,37.6118],[-76.6677,37.6119],[-76.6663,37.6094],[-76.6625,37.6087],[-76.6617,37.6056],[-76.6541,37.6032],[-76.6609,37.5736],[-76.662,37.5668],[-76.6615,37.558],[-76.6657,37.5399],[-76.6676,37.5351],[-76.6665,37.5333],[-76.6691,37.5296],[-76.6675,37.5201],[-76.6572,37.5072],[-76.6507,37.497],[-76.648,37.4959],[-76.6486,37.487],[-76.6456,37.4863],[-76.648,37.48],[-76.6515,37.4807],[-76.6491,37.4768],[-76.6519,37.4766],[-76.6513,37.4731],[-76.6555,37.4738],[-76.654,37.4715],[-76.6551,37.4687],[-76.6627,37.4613],[-76.6616,37.4587],[-76.6674,37.4555],[-76.6705,37.4598],[-76.674,37.4613],[-76.6853,37.4534],[-76.687,37.4479],[-76.6912,37.4476],[-76.6991,37.451],[-76.7047,37.448],[-76.7033,37.4446],[-76.7063,37.4372],[-76.7123,37.4313],[-76.7276,37.4442],[-76.733,37.4502],[-76.742,37.4671],[-76.7474,37.4782]]]}},{"type":"Feature","properties":{"id":"51149","name":"Prince George Co."},"geometry":{"type":"Polygon","coordinates":[[[-77.385,37.1751],[-77.3815,37.1795],[-77.3767,37.1805],[-77.3769,37.176],[-77.3719,37.1764],[-77.3655,37.175],[-77.3654,37.1718],[-77.3511,37.1725],[-77.3457,37.1741],[-77.3468,37.1785],[-77.346,37.1828],[-77.3412,37.1842],[-77.3431,37.1897],[-77.3409,37.1903],[-77.3298,37.1975],[-77.3357,37.2045],[-77.3398,37.2078],[-77.3394,37.21],[-77.3469,37.211],[-77.3449,37.2138],[-77.3478,37.2146],[-77.3472,37.2183],[-77.3525,37.2192],[-77.3545,37.2223],[-77.3517,37.2242],[-77.3623,37.2368],[-77.3613,37.2387],[-77.3698,37.2435],[-77.3768,37.2448],[-77.3774,37.2555],[-77.3737,37.2669],[-77.3688,37.2726],[-77.3605,37.2773],[-77.3566,37.2831],[-77.3558,37.2886],[-77.3527,37.298],[-77.3535,37.3037],[-77.3525,37.3102],[-77.3477,37.3133],[-77.3386,37.315],[-77.3357,37.313],[-77.3376,37.3076],[-77.3369,37.303],[-77.3336,37.2988],[-77.3296,37.2983],[-77.3304,37.2936],[-77.3267,37.2932],[-77.3291,37.2902],[-77.3297,37.2808],[-77.325,37.2806],[-77.328,37.2768],[-77.3283,37.2719],[-77.3244,37.2678],[-77.3306,37.262],[-77.331,37.2576],[-77.3253,37.2609],[-77.3224,37.2654],[-77.3184,37.2644],[-77.3107,37.2662],[-77.3098,37.2616],[-77.3053,37.262],[-77.2985,37.2705],[-77.2939,37.2727],[-77.2842,37.2744],[-77.2824,37.2769],[-77.2786,37.278],[-77.2786,37.2803],[-77.2757,37.2808],[-77.2732,37.2783],[-77.2698,37.2828],[-77.2672,37.2835],[-77.2606,37.2828],[-77.2607,37.2879],[-77.2561,37.29],[-77.2524,37.2935],[-77.2536,37.2967],[-77.2614,37.3029],[-77.2649,37.304],[-77.2734,37.3165],[-77.277,37.3177],[-77.2779,37.3143],[-77.2816,37.3099],[-77.284,37.313],[-77.2825,37.3137],[-77.2825,37.3186],[-77.2738,37.321],[-77.2707,37.3208],[-77.2627,37.314],[-77.2515,37.3089],[-77.2449,37.3093],[-77.2372,37.3115],[-77.2267,37.319],[-77.2205,37.3193],[-77.1875,37.3115],[-77.1552,37.3068],[-77.1359,37.3037],[-77.1251,37.3029],[-77.1095,37.3083],[-77.0967,37.3122],[-77.0882,37.3131],[-77.0862,37.3109],[-77.0796,37.2743],[-77.0741,37.2708],[-77.0694,37.2697],[-77.0327,37.2945],[-77.0101,37.3053],[-77.0019,37.3036],[-76.996,37.301],[-76.9902,37.2949],[-76.9927,37.2858],[-76.9914,37.278],[-76.9775,37.2549],[-76.9724,37.2485],[-76.9935,37.2365],[-76.9961,37.2364],[-76.9989,37.239],[-77.0017,37.2387],[-77.0034,37.2327],[-77.0064,37.2317],[-77.0123,37.2329],[-77.0142,37.2276],[-77.0135,37.2248],[-77.0168,37.2232],[-77.0188,37.2196],[-77.0168,37.2167],[-77.0138,37.2156],[-77.0118,37.2124],[-77.0179,37.207],[-77.0243,37.2066],[-77.0241,37.201],[-77.0273,37.2001],[-77.0285,37.2019],[-77.0315,37.1987],[-77.0338,37.2027],[-77.0447,37.2015],[-77.0463,37.1991],[-77.0428,37.1948],[-77.044,37.1924],[-77.0524,37.1911],[-77.0584,37.1909],[-77.0633,37.1893],[-77.0731,37.1841],[-77.0742,37.1779],[-77.079,37.1726],[-77.0878,37.1691],[-77.1237,37.1381],[-77.156,37.1139],[-77.1554,37.112],[-77.1734,37.1052],[-77.1891,37.098],[-77.1967,37.093],[-77.2098,37.0863],[-77.3712,37.0062],[-77.3824,37.0002],[-77.3985,36.993],[-77.3946,37.0357],[-77.3957,37.0428],[-77.3969,37.0579],[-77.3959,37.1122],[-77.3969,37.1542],[-77.3992,37.1709],[-77.385,37.1751]]]}},{"type":"Feature","properties":{"id":"51036","name":"Charles City Co."},"geometry":{"type":"Polygon","coordinates":[[[-77.2484,37.3826],[-77.2504,37.3867],[-77.2538,37.387],[-77.2513,37.3887],[-77.2487,37.3947],[-77.2461,37.3945],[-77.2468,37.3914],[-77.2395,37.3885],[-77.2353,37.3842],[-77.2346,37.3816],[-77.2295,37.3829],[-77.2263,37.38],[-77.2202,37.3839],[-77.2151,37.3859],[-77.2178,37.3863],[-77.2146,37.3935],[-77.2192,37.3951],[-77.2205,37.4006],[-77.226,37.4054],[-77.2228,37.4071],[-77.2215,37.4101],[-77.1977,37.4538],[-77.1773,37.4906],[-77.1768,37.4887],[-77.1713,37.4872],[-77.1704,37.4814],[-77.1666,37.4819],[-77.1647,37.4847],[-77.1576,37.4858],[-77.1616,37.4765],[-77.1579,37.4745],[-77.1503,37.4773],[-77.1474,37.4757],[-77.142,37.4763],[-77.1411,37.4734],[-77.1433,37.4705],[-77.1417,37.4684],[-77.1314,37.4716],[-77.1269,37.4716],[-77.1241,37.4679],[-77.1227,37.4631],[-77.1185,37.4616],[-77.1176,37.4582],[-77.1191,37.4558],[-77.1153,37.4528],[-77.1118,37.4535],[-77.1074,37.4511],[-77.1055,37.4485],[-77.1006,37.4471],[-77.1013,37.4448],[-77.0959,37.4403],[-77.0864,37.4414],[-77.0864,37.4399],[-77.0785,37.4401],[-77.0763,37.4413],[-77.0701,37.4399],[-77.0689,37.4379],[-77.0617,37.4365],[-77.0597,37.4349],[-77.06,37.4293],[-77.0548,37.4319],[-77.0469,37.4318],[-77.0384,37.4292],[-77.036,37.4269],[-77.0312,37.4294],[-77.0267,37.429],[-77.0237,37.4228],[-77.0247,37.4202],[-77.0213,37.416],[-77.0161,37.414],[-77.0113,37.4161],[-77.0076,37.4137],[-77.0033,37.4149],[-76.9983,37.4182],[-76.9915,37.4149],[-76.9868,37.4159],[-76.982,37.4209],[-76.9801,37.4195],[-76.9717,37.4184],[-76.9695,37.4152],[-76.9727,37.4102],[-76.9688,37.4065],[-76.9566,37.4038],[-76.9519,37.404],[-76.9431,37.4104],[-76.9385,37.4074],[-76.9369,37.4034],[-76.938,37.3995],[-76.9453,37.3941],[-76.9461,37.3911],[-76.9449,37.3839],[-76.9425,37.3832],[-76.9333,37.388],[-76.9316,37.3915],[-76.9312,37.3963],[-76.9276,37.3996],[-76.9167,37.3954],[-76.911,37.3995],[-76.9081,37.4051],[-76.9041,37.4038],[-76.9064,37.3926],[-76.9082,37.3909],[-76.9173,37.3892],[-76.9179,37.3843],[-76.9045,37.3777],[-76.8981,37.3751],[-76.899,37.3718],[-76.9085,37.3663],[-76.9104,37.3641],[-76.9159,37.3526],[-76.9096,37.3486],[-76.9054,37.3506],[-76.902,37.3562],[-76.8964,37.3608],[-76.8912,37.3621],[-76.8848,37.3686],[-76.8771,37.3692],[-76.8735,37.3634],[-76.8783,37.3553],[-76.8801,37.3487],[-76.8747,37.346],[-76.8736,37.3426],[-76.8766,37.3332],[-76.8761,37.3255],[-76.8747,37.3204],[-76.8753,37.3177],[-76.88,37.3099],[-76.8769,37.3027],[-76.872,37.2984],[-76.8717,37.2956],[-76.8779,37.29],[-76.8816,37.2855],[-76.8815,37.2813],[-76.8831,37.2759],[-76.882,37.2717],[-76.8752,37.2608],[-76.8817,37.2575],[-76.886,37.2528],[-76.89,37.2531],[-76.8974,37.2505],[-76.8977,37.2455],[-76.9048,37.2424],[-76.9142,37.2436],[-76.9165,37.2423],[-76.9186,37.2373],[-76.9178,37.2343],[-76.9332,37.2388],[-76.9404,37.2377],[-76.9439,37.2347],[-76.9486,37.2373],[-76.9644,37.2437],[-76.9724,37.2485],[-76.9775,37.2549],[-76.9914,37.278],[-76.9927,37.2858],[-76.9902,37.2949],[-76.996,37.301],[-77.0019,37.3036],[-77.0101,37.3053],[-77.0327,37.2945],[-77.0694,37.2697],[-77.0741,37.2708],[-77.0796,37.2743],[-77.0862,37.3109],[-77.0882,37.3131],[-77.0967,37.3122],[-77.1095,37.3083],[-77.1251,37.3029],[-77.1359,37.3037],[-77.1552,37.3068],[-77.1875,37.3115],[-77.2205,37.3193],[-77.2267,37.319],[-77.2372,37.3115],[-77.2449,37.3093],[-77.2515,37.3089],[-77.2627,37.314],[-77.2707,37.3208],[-77.2716,37.3266],[-77.2671,37.3401],[-77.2646,37.3441],[-77.2478,37.3609],[-77.2442,37.3693],[-77.2462,37.3779],[-77.2497,37.382],[-77.2484,37.3826]]]}},{"type":"Feature","properties":{"id":"51041","name":"Chesterfield Co."},"geometry":{"type":"Polygon","coordinates":[[[-77.8534,37.4186],[-77.8489,37.4148],[-77.8467,37.4151],[-77.843,37.4189],[-77.8403,37.4182],[-77.8332,37.4228],[-77.8267,37.4224],[-77.8092,37.4261],[-77.8085,37.4302],[-77.8049,37.4348],[-77.805,37.4376],[-77.7988,37.4449],[-77.7975,37.451],[-77.7978,37.4589],[-77.7497,37.4938],[-77.7479,37.4947],[-77.7323,37.5062],[-77.6653,37.5545],[-77.6562,37.5609],[-77.6554,37.564],[-77.6498,37.5598],[-77.6449,37.5591],[-77.635,37.5588],[-77.6264,37.5569],[-77.6175,37.557],[-77.606,37.5555],[-77.5955,37.5558],[-77.5958,37.5459],[-77.6012,37.5452],[-77.5964,37.5359],[-77.5928,37.5337],[-77.5786,37.5322],[-77.5664,37.5353],[-77.5573,37.5404],[-77.5545,37.543],[-77.5525,37.5418],[-77.545,37.5281],[-77.5286,37.5319],[-77.5282,37.5182],[-77.5275,37.5094],[-77.5259,37.5039],[-77.5232,37.5019],[-77.5238,37.4997],[-77.516,37.4807],[-77.5137,37.4793],[-77.5141,37.4759],[-77.5122,37.4725],[-77.5074,37.4676],[-77.5007,37.464],[-77.4994,37.4653],[-77.4946,37.462],[-77.4913,37.4564],[-77.4891,37.4556],[-77.4864,37.459],[-77.4808,37.4615],[-77.4797,37.4589],[-77.4766,37.461],[-77.4736,37.4602],[-77.4673,37.4639],[-77.4651,37.4625],[-77.4604,37.4626],[-77.4594,37.4643],[-77.4489,37.4598],[-77.4426,37.4604],[-77.4355,37.4575],[-77.4207,37.4475],[-77.4277,37.4366],[-77.429,37.4322],[-77.4269,37.4261],[-77.4187,37.4213],[-77.4069,37.4231],[-77.4068,37.4201],[-77.403,37.418],[-77.4016,37.4203],[-77.4031,37.4235],[-77.3991,37.4213],[-77.3964,37.4138],[-77.395,37.4048],[-77.3915,37.401],[-77.3846,37.3975],[-77.3839,37.395],[-77.3867,37.3871],[-77.3838,37.3844],[-77.3757,37.3817],[-77.3737,37.3844],[-77.3727,37.3902],[-77.3692,37.3921],[-77.3652,37.3909],[-77.3595,37.3868],[-77.3577,37.3835],[-77.3619,37.3761],[-77.3492,37.3785],[-77.3324,37.3775],[-77.3251,37.3779],[-77.3187,37.3802],[-77.3156,37.3828],[-77.3096,37.3925],[-77.3087,37.3925],[-77.3086,37.404],[-77.3042,37.4059],[-77.3003,37.4053],[-77.2981,37.4032],[-77.2973,37.3967],[-77.2982,37.3921],[-77.3053,37.3819],[-77.3061,37.3788],[-77.3115,37.3733],[-77.3107,37.3658],[-77.305,37.3585],[-77.2928,37.3534],[-77.2865,37.352],[-77.2771,37.3522],[-77.2726,37.3533],[-77.2683,37.3579],[-77.267,37.3607],[-77.2679,37.3714],[-77.2638,37.3783],[-77.2586,37.3796],[-77.2516,37.3793],[-77.2497,37.382],[-77.2462,37.3779],[-77.2442,37.3693],[-77.2478,37.3609],[-77.2646,37.3441],[-77.2671,37.3401],[-77.2716,37.3266],[-77.2707,37.3208],[-77.2738,37.321],[-77.2825,37.3186],[-77.2825,37.3137],[-77.284,37.313],[-77.2873,37.3169],[-77.2901,37.3137],[-77.2932,37.3128],[-77.3038,37.3119],[-77.3187,37.3083],[-77.3236,37.3085],[-77.3319,37.3123],[-77.3357,37.313],[-77.3386,37.315],[-77.3477,37.3133],[-77.3525,37.3102],[-77.3535,37.3037],[-77.3527,37.298],[-77.3558,37.2886],[-77.3566,37.2831],[-77.3605,37.2773],[-77.3688,37.2726],[-77.3737,37.2669],[-77.3774,37.2555],[-77.3768,37.2448],[-77.3839,37.2389],[-77.3896,37.238],[-77.39,37.2397],[-77.3953,37.2381],[-77.4017,37.2391],[-77.4005,37.2402],[-77.3954,37.2394],[-77.3921,37.2409],[-77.3857,37.2412],[-77.3803,37.2455],[-77.3792,37.2676],[-77.3755,37.2746],[-77.367,37.2784],[-77.3623,37.2822],[-77.3625,37.285],[-77.365,37.2873],[-77.3644,37.2903],[-77.368,37.2946],[-77.3682,37.2985],[-77.3728,37.2969],[-77.3791,37.2841],[-77.3894,37.2874],[-77.3917,37.2827],[-77.3974,37.2839],[-77.4002,37.2833],[-77.403,37.2801],[-77.4013,37.2764],[-77.3984,37.2757],[-77.3997,37.2719],[-77.403,37.2716],[-77.4062,37.2741],[-77.4083,37.2803],[-77.4123,37.283],[-77.4154,37.2823],[-77.4246,37.2836],[-77.4265,37.283],[-77.4268,37.2784],[-77.4231,37.2745],[-77.4318,37.2759],[-77.4224,37.2625],[-77.4185,37.2659],[-77.4156,37.2639],[-77.4144,37.2609],[-77.4177,37.2471],[-77.4155,37.2413],[-77.4165,37.2332],[-77.4291,37.2286],[-77.4334,37.225],[-77.4474,37.2231],[-77.4536,37.2227],[-77.4665,37.2253],[-77.4723,37.2256],[-77.4796,37.2245],[-77.4861,37.2254],[-77.4931,37.2248],[-77.4965,37.2233],[-77.4997,37.2243],[-77.5024,37.2221],[-77.5092,37.221],[-77.5149,37.2181],[-77.5226,37.2171],[-77.5262,37.2228],[-77.5361,37.2263],[-77.5472,37.2269],[-77.554,37.2264],[-77.5579,37.2246],[-77.5604,37.2257],[-77.5627,37.2308],[-77.5674,37.232],[-77.5673,37.2379],[-77.5694,37.2399],[-77.5721,37.2371],[-77.5755,37.2364],[-77.5789,37.2379],[-77.5804,37.2429],[-77.584,37.2461],[-77.5897,37.2465],[-77.5914,37.2494],[-77.6005,37.2537],[-77.6022,37.2576],[-77.6033,37.2639],[-77.6077,37.2678],[-77.6133,37.2709],[-77.6173,37.27],[-77.6203,37.2668],[-77.6247,37.2669],[-77.6294,37.2695],[-77.6326,37.2697],[-77.6424,37.264],[-77.6506,37.2651],[-77.6543,37.2673],[-77.6571,37.2723],[-77.6625,37.2787],[-77.6648,37.2878],[-77.6675,37.2925],[-77.6758,37.2928],[-77.6824,37.2918],[-77.6839,37.286],[-77.687,37.2824],[-77.6926,37.2815],[-77.6981,37.2877],[-77.7015,37.2961],[-77.7035,37.2982],[-77.7088,37.3001],[-77.7138,37.299],[-77.7162,37.2969],[-77.7176,37.291],[-77.7159,37.2882],[-77.7174,37.2849],[-77.7212,37.2833],[-77.7278,37.2858],[-77.7355,37.2842],[-77.7365,37.2773],[-77.7383,37.2743],[-77.738,37.2704],[-77.7445,37.2668],[-77.7586,37.2687],[-77.7635,37.2707],[-77.768,37.2751],[-77.7694,37.285],[-77.7849,37.2965],[-77.7892,37.2983],[-77.7971,37.2994],[-77.8067,37.3045],[-77.809,37.3154],[-77.8072,37.3172],[-77.8012,37.3186],[-77.7963,37.324],[-77.7987,37.3276],[-77.7965,37.3327],[-77.7986,37.3343],[-77.8067,37.3362],[-77.8126,37.3366],[-77.8175,37.3381],[-77.8276,37.3386],[-77.8373,37.3384],[-77.8505,37.3451],[-77.8524,37.3476],[-77.8518,37.3549],[-77.8528,37.3567],[-77.8609,37.3622],[-77.8673,37.363],[-77.8738,37.3624],[-77.8776,37.3662],[-77.8766,37.3695],[-77.8768,37.3781],[-77.8782,37.3835],[-77.8746,37.3866],[-77.873,37.392],[-77.8694,37.3912],[-77.8674,37.3938],[-77.8718,37.3994],[-77.8725,37.4056],[-77.8749,37.4117],[-77.8755,37.416],[-77.8726,37.4185],[-77.8587,37.4145],[-77.8551,37.4184],[-77.8534,37.4186]]]}},{"type":"Feature","properties":{"id":"51145","name":"Powhatan Co."},"geometry":{"type":"Polygon","coordinates":[[[-78.0952,37.5981],[-78.0875,37.628],[-78.0885,37.6363],[-78.0865,37.6382],[-78.0895,37.6394],[-78.084,37.6406],[-78.0818,37.6435],[-78.0841,37.6473],[-78.0803,37.6485],[-78.0795,37.6539],[-78.075,37.6574],[-78.0722,37.6574],[-78.0672,37.6511],[-78.0634,37.6484],[-78.0477,37.6434],[-78.0428,37.6424],[-78.0288,37.6418],[-78.0209,37.643],[-78.0175,37.6426],[-78.0084,37.6391],[-78.003,37.6349],[-77.9943,37.6299],[-77.9833,37.6246],[-77.9752,37.6236],[-77.9665,37.6248],[-77.9567,37.6251],[-77.9501,37.6284],[-77.9449,37.6346],[-77.9437,37.6386],[-77.9443,37.6438],[-77.9505,37.6529],[-77.9542,37.6559],[-77.956,37.6608],[-77.9551,37.6654],[-77.9474,37.6781],[-77.9451,37.6802],[-77.9262,37.6903],[-77.9213,37.6917],[-77.9133,37.6907],[-77.9098,37.6881],[-77.9077,37.683],[-77.9022,37.6731],[-77.8973,37.6682],[-77.8928,37.6656],[-77.8786,37.6593],[-77.8726,37.6555],[-77.8661,37.6496],[-77.8595,37.6453],[-77.8521,37.6422],[-77.844,37.6409],[-77.836,37.6369],[-77.8306,37.6331],[-77.8232,37.6248],[-77.8229,37.62],[-77.8249,37.6136],[-77.8224,37.6101],[-77.8143,37.6064],[-77.8076,37.6069],[-77.7994,37.611],[-77.7933,37.6126],[-77.7801,37.613],[-77.7673,37.6128],[-77.7605,37.6111],[-77.7566,37.6084],[-77.752,37.6028],[-77.7465,37.5984],[-77.7355,37.5913],[-77.7278,37.5883],[-77.7201,37.5874],[-77.7056,37.5892],[-77.6891,37.5816],[-77.6841,37.578],[-77.66,37.5668],[-77.6554,37.564],[-77.6562,37.5609],[-77.6653,37.5545],[-77.7323,37.5062],[-77.7479,37.4947],[-77.7497,37.4938],[-77.7978,37.4589],[-77.7975,37.451],[-77.7988,37.4449],[-77.805,37.4376],[-77.8049,37.4348],[-77.8085,37.4302],[-77.8092,37.4261],[-77.8267,37.4224],[-77.8332,37.4228],[-77.8403,37.4182],[-77.843,37.4189],[-77.8467,37.4151],[-77.8489,37.4148],[-77.8534,37.4186],[-77.8551,37.4184],[-77.8589,37.4226],[-77.8561,37.4317],[-77.8575,37.4334],[-77.8651,37.4376],[-77.8648,37.4397],[-77.8686,37.447],[-77.866,37.4536],[-77.8666,37.4568],[-77.8713,37.4577],[-77.8766,37.4568],[-77.8827,37.4527],[-77.8864,37.4493],[-77.894,37.4494],[-77.8968,37.4532],[-77.8976,37.4568],[-77.8938,37.4668],[-77.8945,37.4712],[-77.8998,37.4754],[-77.9054,37.4743],[-77.9146,37.4748],[-77.9172,37.4775],[-77.9249,37.4822],[-77.9283,37.4808],[-77.931,37.4772],[-77.9374,37.4754],[-77.9388,37.4777],[-77.9488,37.4797],[-77.9558,37.4833],[-77.9596,37.4826],[-77.9681,37.4858],[-77.9772,37.4855],[-77.9821,37.4869],[-77.9867,37.4864],[-77.991,37.4895],[-77.9996,37.4981],[-78.0152,37.4915],[-78.0144,37.4886],[-78.0189,37.4851],[-78.0162,37.4828],[-78.0163,37.4751],[-78.0172,37.4715],[-78.0222,37.4741],[-78.0288,37.4718],[-78.0362,37.4716],[-78.041,37.4736],[-78.046,37.4734],[-78.0505,37.4717],[-78.0509,37.4688],[-78.058,37.4634],[-78.0587,37.4569],[-78.0661,37.452],[-78.0712,37.4535],[-78.0751,37.4524],[-78.0875,37.4573],[-78.0924,37.4557],[-78.0947,37.4447],[-78.0987,37.4406],[-78.1017,37.4421],[-78.1008,37.4481],[-78.1057,37.4493],[-78.1081,37.4477],[-78.1171,37.4448],[-78.1243,37.4454],[-78.1273,37.4531],[-78.132,37.4547],[-78.0952,37.5981]]]}},{"type":"Feature","properties":{"id":"51101","name":"King William Co."},"geometry":{"type":"Polygon","coordinates":[[[-77.1765,37.8927],[-77.1725,37.8914],[-77.1733,37.8953],[-77.1692,37.8957],[-77.1625,37.8915],[-77.1632,37.8879],[-77.1653,37.8863],[-77.1641,37.8834],[-77.1558,37.8808],[-77.1536,37.8829],[-77.1495,37.8821],[-77.149,37.8769],[-77.1542,37.873],[-77.1588,37.8736],[-77.1632,37.8725],[-77.165,37.868],[-77.1636,37.8658],[-77.1602,37.8655],[-77.155,37.8694],[-77.1517,37.8688],[-77.1474,37.8646],[-77.1382,37.8672],[-77.1332,37.8654],[-77.1351,37.8613],[-77.1397,37.8603],[-77.1413,37.8561],[-77.1398,37.852],[-77.1337,37.8474],[-77.1309,37.8464],[-77.1322,37.8432],[-77.1306,37.841],[-77.1236,37.8393],[-77.1212,37.8354],[-77.1217,37.8317],[-77.1265,37.8266],[-77.1209,37.823],[-77.1189,37.8171],[-77.116,37.8153],[-77.1164,37.8129],[-77.1208,37.8076],[-77.117,37.8083],[-77.1141,37.8048],[-77.1084,37.8111],[-77.1059,37.81],[-77.1041,37.8125],[-77.1,37.8134],[-77.0973,37.811],[-77.0935,37.8101],[-77.0925,37.8022],[-77.099,37.8007],[-77.1027,37.8017],[-77.1065,37.7989],[-77.1068,37.7943],[-77.1035,37.7894],[-77.1031,37.786],[-77.0966,37.7842],[-77.0938,37.7815],[-77.0884,37.7824],[-77.0866,37.7807],[-77.0825,37.7813],[-77.0813,37.7776],[-77.0768,37.7781],[-77.0737,37.7732],[-77.0756,37.7698],[-77.0743,37.7673],[-77.077,37.7644],[-77.0803,37.7656],[-77.0864,37.7573],[-77.0895,37.7552],[-77.0822,37.7471],[-77.0691,37.75],[-77.0594,37.7495],[-77.0581,37.7458],[-77.054,37.7441],[-77.0533,37.7412],[-77.0493,37.7343],[-77.0363,37.7251],[-77.036,37.7217],[-77.0333,37.7208],[-77.0256,37.723],[-77.0196,37.7222],[-77.0125,37.7228],[-77.0104,37.7219],[-77.0081,37.7155],[-77.0023,37.7097],[-76.9972,37.7072],[-76.9881,37.706],[-76.9824,37.706],[-76.976,37.7085],[-76.9723,37.7057],[-76.9701,37.6991],[-76.9703,37.6929],[-76.9686,37.6906],[-76.963,37.6886],[-76.9564,37.6881],[-76.9361,37.6892],[-76.9275,37.6905],[-76.9193,37.6952],[-76.9156,37.6933],[-76.916,37.6847],[-76.9118,37.6781],[-76.909,37.6764],[-76.906,37.6705],[-76.9133,37.6596],[-76.9124,37.6568],[-76.9075,37.6547],[-76.8992,37.6547],[-76.8875,37.6576],[-76.879,37.6565],[-76.8712,37.6494],[-76.8657,37.6435],[-76.859,37.6394],[-76.8558,37.6362],[-76.8548,37.6329],[-76.8579,37.6275],[-76.8688,37.624],[-76.8703,37.6205],[-76.8682,37.6178],[-76.8543,37.6137],[-76.8491,37.6141],[-76.841,37.6175],[-76.8373,37.6151],[-76.8362,37.6107],[-76.8334,37.607],[-76.8288,37.6054],[-76.8192,37.606],[-76.8163,37.6055],[-76.8144,37.6024],[-76.8167,37.6005],[-76.8221,37.5999],[-76.8258,37.5973],[-76.826,37.5938],[-76.823,37.5916],[-76.8143,37.589],[-76.8004,37.5913],[-76.7957,37.5893],[-76.7937,37.5863],[-76.7946,37.5817],[-76.7993,37.5758],[-76.7996,37.5736],[-76.7963,37.5706],[-76.7903,37.5707],[-76.7852,37.5691],[-76.7828,37.5658],[-76.7781,37.5553],[-76.7771,37.5507],[-76.7788,37.5461],[-76.7887,37.5372],[-76.7885,37.5327],[-76.7863,37.5276],[-76.7866,37.5224],[-76.7922,37.5176],[-76.7998,37.5231],[-76.806,37.531],[-76.8152,37.547],[-76.818,37.5505],[-76.8241,37.5524],[-76.8269,37.5509],[-76.8319,37.541],[-76.851,37.5261],[-76.8574,37.5229],[-76.8649,37.5237],[-76.8747,37.5282],[-76.8778,37.5304],[-76.8777,37.5338],[-76.8757,37.5376],[-76.8682,37.5436],[-76.8638,37.5491],[-76.856,37.5647],[-76.8536,37.5726],[-76.8549,37.5768],[-76.8584,37.5795],[-76.8685,37.5814],[-76.8754,37.5796],[-76.882,37.5765],[-76.8825,37.5739],[-76.8801,37.568],[-76.8732,37.5575],[-76.8747,37.5525],[-76.8842,37.5497],[-76.8939,37.5457],[-76.8994,37.5457],[-76.9053,37.549],[-76.9051,37.5529],[-76.9031,37.558],[-76.9031,37.5658],[-76.9072,37.5686],[-76.917,37.5696],[-76.9215,37.5689],[-76.9373,37.5631],[-76.9427,37.5596],[-76.9434,37.5571],[-76.9432,37.5446],[-76.9442,37.5388],[-76.9471,37.5355],[-76.953,37.5358],[-76.9671,37.5402],[-76.974,37.5413],[-76.9763,37.5448],[-76.9739,37.5472],[-76.9627,37.552],[-76.9568,37.557],[-76.9551,37.5638],[-76.9571,37.5719],[-76.9613,37.5762],[-76.9636,37.5831],[-76.9686,37.5862],[-76.9761,37.5859],[-76.9851,37.5839],[-76.9927,37.5809],[-76.9939,37.5785],[-76.9918,37.5768],[-76.9826,37.574],[-76.9808,37.5713],[-76.9812,37.5671],[-76.984,37.5651],[-76.9935,37.5643],[-77.0001,37.5618],[-77.0107,37.5638],[-77.0192,37.5674],[-77.0258,37.5734],[-77.0259,37.5754],[-77.019,37.5824],[-77.0212,37.5841],[-77.028,37.5843],[-77.0323,37.5861],[-77.0362,37.5856],[-77.0397,37.5873],[-77.0482,37.5957],[-77.054,37.5988],[-77.0574,37.5995],[-77.0672,37.6039],[-77.0695,37.6028],[-77.0709,37.5977],[-77.0795,37.5964],[-77.0842,37.5984],[-77.091,37.6041],[-77.0922,37.6078],[-77.0896,37.6182],[-77.098,37.6173],[-77.1057,37.6242],[-77.1142,37.6238],[-77.1203,37.6248],[-77.1237,37.6269],[-77.127,37.6304],[-77.1296,37.6356],[-77.1231,37.6372],[-77.1153,37.636],[-77.1142,37.6377],[-77.1174,37.641],[-77.1173,37.644],[-77.1097,37.6524],[-77.108,37.6587],[-77.1104,37.6637],[-77.1127,37.6637],[-77.1181,37.6606],[-77.1225,37.6602],[-77.1302,37.6618],[-77.1349,37.6637],[-77.1357,37.6665],[-77.1417,37.6653],[-77.1406,37.6683],[-77.1437,37.6695],[-77.1437,37.6724],[-77.1486,37.6747],[-77.1463,37.6669],[-77.1473,37.6643],[-77.1521,37.6638],[-77.1547,37.6684],[-77.156,37.6654],[-77.1608,37.6658],[-77.1636,37.6677],[-77.1636,37.6642],[-77.1664,37.6609],[-77.177,37.6588],[-77.1818,37.657],[-77.1867,37.6577],[-77.1914,37.6638],[-77.1912,37.6675],[-77.1821,37.674],[-77.1847,37.6758],[-77.183,37.6781],[-77.1826,37.6833],[-77.1846,37.687],[-77.1887,37.6867],[-77.1895,37.6884],[-77.1945,37.6906],[-77.1992,37.6898],[-77.2021,37.6863],[-77.2008,37.6829],[-77.2024,37.6786],[-77.2066,37.677],[-77.2128,37.6782],[-77.2128,37.6814],[-77.2092,37.6829],[-77.2106,37.6872],[-77.2145,37.689],[-77.2215,37.6883],[-77.2347,37.6852],[-77.2397,37.6857],[-77.2397,37.6887],[-77.2368,37.6923],[-77.2439,37.6992],[-77.2406,37.7006],[-77.2359,37.7058],[-77.2323,37.7125],[-77.2303,37.7139],[-77.2355,37.7177],[-77.2337,37.7206],[-77.2366,37.7265],[-77.2404,37.7254],[-77.2438,37.7266],[-77.2425,37.7293],[-77.2465,37.731],[-77.2498,37.7273],[-77.2485,37.7255],[-77.2518,37.7222],[-77.248,37.722],[-77.2471,37.719],[-77.2497,37.7183],[-77.2457,37.7158],[-77.2437,37.7122],[-77.2489,37.7092],[-77.2599,37.7136],[-77.2631,37.7198],[-77.266,37.7203],[-77.2702,37.7234],[-77.274,37.721],[-77.2755,37.7179],[-77.2796,37.7138],[-77.2838,37.7136],[-77.2892,37.7152],[-77.292,37.714],[-77.2935,37.7198],[-77.2972,37.7243],[-77.2972,37.7299],[-77.2936,37.7345],[-77.294,37.7399],[-77.2979,37.7393],[-77.3058,37.7351],[-77.308,37.7357],[-77.3175,37.7335],[-77.3225,37.7343],[-77.3206,37.7368],[-77.3209,37.7433],[-77.3141,37.7443],[-77.308,37.7413],[-77.3038,37.7444],[-77.3041,37.7463],[-77.3012,37.7513],[-77.3041,37.7553],[-77.3159,37.753],[-77.3217,37.7553],[-77.3308,37.7531],[-77.3355,37.756],[-77.3385,37.7632],[-77.3317,37.768],[-77.3233,37.7675],[-77.322,37.7704],[-77.3297,37.7779],[-77.3295,37.7892],[-77.3328,37.7924],[-77.3452,37.7893],[-77.3456,37.7922],[-77.3331,37.8015],[-77.3301,37.8057],[-77.3064,37.8224],[-77.2907,37.8363],[-77.2876,37.8439],[-77.2803,37.8436],[-77.2738,37.8496],[-77.2622,37.864],[-77.2546,37.8687],[-77.2503,37.8724],[-77.2476,37.8762],[-77.2471,37.8802],[-77.2485,37.8861],[-77.2438,37.8962],[-77.2432,37.9002],[-77.2456,37.9044],[-77.2417,37.9096],[-77.2396,37.9103],[-77.2334,37.9092],[-77.2291,37.9055],[-77.2283,37.8999],[-77.225,37.8992],[-77.2232,37.9027],[-77.2181,37.9038],[-77.2116,37.9012],[-77.2106,37.8979],[-77.2123,37.8945],[-77.2159,37.8924],[-77.2146,37.8888],[-77.2088,37.8857],[-77.2046,37.8868],[-77.2087,37.8891],[-77.2055,37.8919],[-77.2008,37.8911],[-77.1991,37.8886],[-77.1921,37.8918],[-77.188,37.8918],[-77.1864,37.8895],[-77.1814,37.8917],[-77.1765,37.8927]]]}},{"type":"Feature","properties":{"id":"51085","name":"Hanover Co."},"geometry":{"type":"Polygon","coordinates":[[[-77.7682,37.803],[-77.7638,37.8029],[-77.7638,37.8068],[-77.7612,37.8085],[-77.7593,37.8142],[-77.7592,37.8239],[-77.7565,37.8284],[-77.7548,37.8415],[-77.7519,37.8459],[-77.7487,37.8474],[-77.7507,37.8498],[-77.7462,37.8548],[-77.7474,37.856],[-77.7359,37.8853],[-77.7331,37.8852],[-77.734,37.8899],[-77.6875,38.0078],[-77.6841,38.0082],[-77.6775,38.0066],[-77.6713,38.0039],[-77.6682,38.0006],[-77.668,37.9977],[-77.6654,37.9967],[-77.661,37.9976],[-77.6605,37.993],[-77.658,37.9917],[-77.654,37.9935],[-77.6472,37.9939],[-77.6429,37.9926],[-77.6436,37.9818],[-77.6421,37.9783],[-77.6367,37.9778],[-77.6308,37.9711],[-77.6331,37.9695],[-77.6326,37.9653],[-77.6271,37.9646],[-77.6245,37.9665],[-77.621,37.9666],[-77.6187,37.9618],[-77.6141,37.9593],[-77.6181,37.9526],[-77.6162,37.949],[-77.6115,37.9498],[-77.6083,37.9545],[-77.6027,37.9554],[-77.5998,37.9545],[-77.594,37.9506],[-77.5899,37.9493],[-77.5812,37.9506],[-77.5796,37.9557],[-77.5767,37.9581],[-77.5705,37.9549],[-77.5678,37.9498],[-77.5642,37.9465],[-77.5663,37.9438],[-77.5629,37.9401],[-77.5621,37.9364],[-77.5563,37.9358],[-77.5509,37.9301],[-77.5465,37.9286],[-77.5479,37.9262],[-77.5547,37.9262],[-77.5573,37.9229],[-77.5548,37.9207],[-77.546,37.9159],[-77.5426,37.9185],[-77.5366,37.9212],[-77.5291,37.9208],[-77.5266,37.9154],[-77.5224,37.9125],[-77.5189,37.9068],[-77.5148,37.9043],[-77.5107,37.9043],[-77.5076,37.902],[-77.5031,37.9018],[-77.4936,37.8976],[-77.4924,37.8891],[-77.4875,37.8878],[-77.4842,37.8834],[-77.4778,37.8836],[-77.4708,37.889],[-77.467,37.8895],[-77.4622,37.8882],[-77.4557,37.8901],[-77.4523,37.8931],[-77.4451,37.8947],[-77.4418,37.8883],[-77.4364,37.8853],[-77.4332,37.878],[-77.4331,37.8751],[-77.4291,37.8728],[-77.4284,37.869],[-77.422,37.8649],[-77.419,37.8612],[-77.4195,37.8589],[-77.425,37.8614],[-77.4282,37.8565],[-77.4269,37.8542],[-77.4283,37.8512],[-77.4267,37.848],[-77.4292,37.8419],[-77.4265,37.8401],[-77.4287,37.8365],[-77.4267,37.833],[-77.4283,37.8296],[-77.4249,37.8249],[-77.4194,37.825],[-77.416,37.8233],[-77.4112,37.823],[-77.4096,37.8197],[-77.4133,37.8188],[-77.4121,37.8166],[-77.4154,37.8152],[-77.4184,37.8163],[-77.4216,37.8146],[-77.4224,37.8088],[-77.418,37.8091],[-77.413,37.8052],[-77.4052,37.8031],[-77.402,37.8057],[-77.3968,37.8044],[-77.3952,37.8024],[-77.3984,37.7908],[-77.3972,37.7892],[-77.3908,37.7867],[-77.3931,37.7846],[-77.4037,37.7859],[-77.4057,37.7814],[-77.4035,37.7794],[-77.3999,37.7797],[-77.3963,37.7772],[-77.3875,37.7787],[-77.3855,37.7774],[-77.3809,37.7778],[-77.3747,37.7764],[-77.3721,37.7794],[-77.3707,37.7836],[-77.3713,37.7872],[-77.3686,37.789],[-77.363,37.7886],[-77.3664,37.791],[-77.3659,37.7938],[-77.3624,37.7954],[-77.3623,37.7977],[-77.3531,37.7951],[-77.3512,37.7905],[-77.3485,37.7888],[-77.3452,37.7893],[-77.3328,37.7924],[-77.3295,37.7892],[-77.3297,37.7779],[-77.322,37.7704],[-77.3233,37.7675],[-77.3317,37.768],[-77.3385,37.7632],[-77.3355,37.756],[-77.3308,37.7531],[-77.3217,37.7553],[-77.3159,37.753],[-77.3041,37.7553],[-77.3012,37.7513],[-77.3041,37.7463],[-77.3038,37.7444],[-77.308,37.7413],[-77.3141,37.7443],[-77.3209,37.7433],[-77.3206,37.7368],[-77.3225,37.7343],[-77.3175,37.7335],[-77.308,37.7357],[-77.3058,37.7351],[-77.2979,37.7393],[-77.294,37.7399],[-77.2936,37.7345],[-77.2972,37.7299],[-77.2972,37.7243],[-77.2935,37.7198],[-77.292,37.714],[-77.2892,37.7152],[-77.2838,37.7136],[-77.2796,37.7138],[-77.2755,37.7179],[-77.274,37.721],[-77.2702,37.7234],[-77.266,37.7203],[-77.2631,37.7198],[-77.2599,37.7136],[-77.2489,37.7092],[-77.2437,37.7122],[-77.2457,37.7158],[-77.2497,37.7183],[-77.2471,37.719],[-77.248,37.722],[-77.2518,37.7222],[-77.2485,37.7255],[-77.2498,37.7273],[-77.2465,37.731],[-77.2425,37.7293],[-77.2438,37.7266],[-77.2404,37.7254],[-77.2366,37.7265],[-77.2337,37.7206],[-77.2355,37.7177],[-77.2303,37.7139],[-77.2323,37.7125],[-77.2359,37.7058],[-77.2406,37.7006],[-77.2439,37.6992],[-77.2368,37.6923],[-77.2397,37.6887],[-77.2397,37.6857],[-77.2347,37.6852],[-77.2215,37.6883],[-77.2145,37.689],[-77.2106,37.6872],[-77.2092,37.6829],[-77.2128,37.6814],[-77.2128,37.6782],[-77.2066,37.677],[-77.2024,37.6786],[-77.2008,37.6829],[-77.2021,37.6863],[-77.1992,37.6898],[-77.1945,37.6906],[-77.1895,37.6884],[-77.1887,37.6867],[-77.1846,37.687],[-77.1826,37.6833],[-77.183,37.6781],[-77.1847,37.6758],[-77.1821,37.674],[-77.1912,37.6675],[-77.1914,37.6638],[-77.1867,37.6577],[-77.1818,37.657],[-77.177,37.6588],[-77.1664,37.6609],[-77.1636,37.6642],[-77.1636,37.6677],[-77.1608,37.6658],[-77.156,37.6654],[-77.1547,37.6684],[-77.1521,37.6638],[-77.1473,37.6643],[-77.1463,37.6669],[-77.1486,37.6747],[-77.1437,37.6724],[-77.1437,37.6695],[-77.1406,37.6683],[-77.1417,37.6653],[-77.1357,37.6665],[-77.1349,37.6637],[-77.1302,37.6618],[-77.1225,37.6602],[-77.1181,37.6606],[-77.1127,37.6637],[-77.1104,37.6637],[-77.108,37.6587],[-77.1097,37.6524],[-77.1173,37.644],[-77.1174,37.641],[-77.1142,37.6377],[-77.1153,37.636],[-77.1231,37.6372],[-77.1296,37.6356],[-77.127,37.6304],[-77.1237,37.6269],[-77.1266,37.6246],[-77.1338,37.6264],[-77.1349,37.6217],[-77.1335,37.6198],[-77.138,37.6169],[-77.1327,37.6092],[-77.1357,37.6058],[-77.1396,37.6052],[-77.1395,37.5961],[-77.1404,37.5922],[-77.1432,37.591],[-77.1508,37.5916],[-77.1581,37.5938],[-77.1627,37.5936],[-77.1709,37.5965],[-77.2106,37.5645],[-77.2122,37.5609],[-77.2218,37.5504],[-77.2339,37.5469],[-77.2387,37.5386],[-77.241,37.5381],[-77.2468,37.5393],[-77.2537,37.5427],[-77.2614,37.5497],[-77.2659,37.5519],[-77.2699,37.5515],[-77.2757,37.5529],[-77.2821,37.5557],[-77.2869,37.5563],[-77.2912,37.5606],[-77.2991,37.5597],[-77.3059,37.561],[-77.3111,37.5649],[-77.3134,37.5646],[-77.3167,37.5675],[-77.3213,37.5678],[-77.3262,37.57],[-77.3272,37.5718],[-77.3358,37.5748],[-77.3381,37.5772],[-77.3446,37.5782],[-77.3579,37.5831],[-77.3627,37.5887],[-77.3688,37.5906],[-77.3729,37.5933],[-77.3818,37.5945],[-77.3872,37.5981],[-77.3911,37.5981],[-77.3938,37.6016],[-77.397,37.6026],[-77.3999,37.6061],[-77.4036,37.6051],[-77.4046,37.6099],[-77.4087,37.6147],[-77.4047,37.6226],[-77.4054,37.626],[-77.4094,37.6275],[-77.4183,37.6332],[-77.4243,37.6487],[-77.43,37.6513],[-77.4308,37.6581],[-77.4395,37.6681],[-77.4401,37.6769],[-77.4432,37.6822],[-77.4488,37.6843],[-77.4511,37.6803],[-77.4559,37.6799],[-77.4566,37.678],[-77.4603,37.6782],[-77.4642,37.6807],[-77.4659,37.6837],[-77.4713,37.6877],[-77.4763,37.6854],[-77.4776,37.6809],[-77.4831,37.683],[-77.4901,37.6888],[-77.488,37.6898],[-77.4925,37.6969],[-77.4918,37.6988],[-77.4949,37.7015],[-77.5027,37.6997],[-77.5102,37.7008],[-77.5173,37.6994],[-77.5209,37.6977],[-77.5213,37.7],[-77.5247,37.697],[-77.5277,37.6968],[-77.5263,37.6944],[-77.5317,37.6944],[-77.5333,37.6914],[-77.5401,37.6882],[-77.5434,37.6846],[-77.5472,37.6845],[-77.5502,37.6862],[-77.5504,37.6824],[-77.5559,37.6838],[-77.5579,37.6819],[-77.563,37.6838],[-77.5671,37.6839],[-77.5731,37.6889],[-77.5785,37.6885],[-77.5823,37.692],[-77.5879,37.6951],[-77.5889,37.6942],[-77.5954,37.697],[-77.5947,37.7004],[-77.5981,37.7037],[-77.6106,37.7104],[-77.6178,37.708],[-77.6225,37.7049],[-77.6302,37.7073],[-77.6308,37.7057],[-77.6594,37.7102],[-77.6664,37.7072],[-77.6825,37.7052],[-77.6948,37.7073],[-77.7117,37.7063],[-77.749,37.7166],[-77.7716,37.7209],[-77.784,37.7216],[-77.7973,37.7294],[-77.7968,37.7306],[-77.7682,37.803]]]}},{"type":"Feature","properties":{"id":"51760","name":"Richmond city"},"geometry":{"type":"Polygon","coordinates":[[[-77.4355,37.4575],[-77.4426,37.4604],[-77.4489,37.4598],[-77.4594,37.4643],[-77.4604,37.4626],[-77.4651,37.4625],[-77.4673,37.4639],[-77.4736,37.4602],[-77.4766,37.461],[-77.4797,37.4589],[-77.4808,37.4615],[-77.4864,37.459],[-77.4891,37.4556],[-77.4913,37.4564],[-77.4946,37.462],[-77.4994,37.4653],[-77.5007,37.464],[-77.5074,37.4676],[-77.5122,37.4725],[-77.5141,37.4759],[-77.5137,37.4793],[-77.516,37.4807],[-77.5238,37.4997],[-77.5232,37.5019],[-77.5259,37.5039],[-77.5275,37.5094],[-77.5282,37.5182],[-77.5286,37.5319],[-77.545,37.5281],[-77.5525,37.5418],[-77.5545,37.543],[-77.5573,37.5404],[-77.5664,37.5353],[-77.5786,37.5322],[-77.5928,37.5337],[-77.5964,37.5359],[-77.6012,37.5452],[-77.5958,37.5459],[-77.5955,37.5558],[-77.5848,37.5585],[-77.578,37.559],[-77.5706,37.5579],[-77.5601,37.5556],[-77.5478,37.5601],[-77.5413,37.5602],[-77.5368,37.5592],[-77.5298,37.5592],[-77.5259,37.5682],[-77.5349,37.5682],[-77.5372,37.5725],[-77.5422,37.5707],[-77.5475,37.5725],[-77.5468,37.5755],[-77.5414,37.5803],[-77.5439,37.5813],[-77.5386,37.5829],[-77.5378,37.5814],[-77.5342,37.5842],[-77.532,37.5826],[-77.533,37.5871],[-77.5315,37.5918],[-77.5165,37.5817],[-77.5132,37.5825],[-77.4999,37.5754],[-77.4938,37.582],[-77.4824,37.5731],[-77.4725,37.5787],[-77.478,37.5873],[-77.4791,37.5931],[-77.4768,37.5985],[-77.4661,37.5991],[-77.4658,37.5968],[-77.4545,37.5975],[-77.4544,37.6019],[-77.4476,37.6028],[-77.4376,37.5986],[-77.4405,37.5976],[-77.4408,37.5941],[-77.4374,37.5913],[-77.4393,37.5855],[-77.4314,37.5808],[-77.4301,37.5818],[-77.4186,37.5822],[-77.4133,37.58],[-77.4132,37.5763],[-77.4095,37.569],[-77.4112,37.5654],[-77.4149,37.5635],[-77.4127,37.5595],[-77.4083,37.5577],[-77.4117,37.5523],[-77.3993,37.5495],[-77.3951,37.5494],[-77.3962,37.5463],[-77.3932,37.5373],[-77.3878,37.5368],[-77.3855,37.5352],[-77.386,37.5289],[-77.3912,37.5301],[-77.3943,37.5247],[-77.3874,37.5171],[-77.3943,37.5149],[-77.3939,37.505],[-77.4001,37.5083],[-77.4083,37.5106],[-77.4102,37.5172],[-77.4165,37.5171],[-77.4166,37.509],[-77.4183,37.5032],[-77.4228,37.4961],[-77.4217,37.492],[-77.4212,37.481],[-77.4216,37.4713],[-77.4175,37.4529],[-77.4189,37.4466],[-77.4207,37.4475],[-77.4355,37.4575]]]}},{"type":"Feature","properties":{"id":"51183","name":"Sussex Co."},"geometry":{"type":"Polygon","coordinates":[[[-77.3824,37.0002],[-77.3712,37.0062],[-77.2098,37.0863],[-77.1967,37.093],[-77.1891,37.098],[-77.1734,37.1052],[-77.1554,37.112],[-77.1557,37.1093],[-77.1531,37.1042],[-77.1484,37.1014],[-77.1436,37.1013],[-77.1392,37.1042],[-77.1378,37.102],[-77.1321,37.1013],[-77.132,37.0982],[-77.1273,37.0971],[-77.1265,37.0985],[-77.1217,37.0983],[-77.1175,37.1011],[-77.1114,37.1006],[-77.1084,37.0941],[-77.1079,37.0909],[-77.1031,37.0887],[-77.1023,37.0843],[-77.0996,37.0837],[-77.0937,37.0863],[-77.0905,37.0828],[-77.0843,37.0829],[-77.0817,37.0848],[-77.0777,37.0817],[-77.0791,37.0778],[-77.0765,37.0761],[-77.0755,37.0723],[-77.0785,37.0685],[-77.0756,37.0665],[-77.0686,37.0679],[-77.067,37.0659],[-77.0633,37.0667],[-77.0594,37.0644],[-77.0489,37.0628],[-77.045,37.0668],[-77.0446,37.0702],[-77.0389,37.069],[-77.0353,37.07],[-77.034,37.0668],[-77.0307,37.0667],[-77.0159,37.0606],[-77.0147,37.0579],[-77.0067,37.0583],[-77.005,37.052],[-76.9926,37.0499],[-76.9841,37.0498],[-76.9831,37.0538],[-76.9795,37.0535],[-76.9776,37.0507],[-76.9691,37.0548],[-76.9652,37.0545],[-76.9659,37.05],[-76.9635,37.0437],[-76.9696,37.0402],[-76.9674,37.0365],[-76.9685,37.0341],[-76.966,37.0004],[-76.9535,36.9445],[-76.9826,36.9296],[-77.0021,36.9207],[-77.027,36.9077],[-77.0699,36.8846],[-77.0978,36.87],[-77.1218,36.8577],[-77.226,36.807],[-77.3448,36.7526],[-77.4301,36.7077],[-77.4348,36.7116],[-77.4395,36.71],[-77.439,36.7116],[-77.4471,36.7119],[-77.4572,36.715],[-77.4673,36.7152],[-77.4725,36.7194],[-77.4794,36.7199],[-77.4836,36.7221],[-77.49,36.721],[-77.4801,36.7657],[-77.4669,36.8247],[-77.4587,36.863],[-77.4678,36.8612],[-77.4752,36.8611],[-77.4862,36.8533],[-77.4912,36.8485],[-77.5012,36.8451],[-77.5104,36.8451],[-77.5145,36.8479],[-77.5259,36.8509],[-77.5298,36.8528],[-77.5447,36.8529],[-77.5515,36.849],[-77.5537,36.8462],[-77.5575,36.8456],[-77.5641,36.8489],[-77.568,36.8533],[-77.5736,36.851],[-77.5764,36.8516],[-77.5801,36.8563],[-77.5865,36.8592],[-77.5891,36.865],[-77.5947,36.8711],[-77.5977,36.8721],[-77.6053,36.8709],[-77.6042,36.8755],[-77.6067,36.8774],[-77.6128,36.8759],[-77.619,36.8778],[-77.6162,36.8792],[-77.543,36.9173],[-77.4634,36.9587],[-77.4153,36.9843],[-77.3985,36.993],[-77.3824,37.0002]]]}},{"type":"Feature","properties":{"id":"51075","name":"Goochland Co."},"geometry":{"type":"Polygon","coordinates":[[[-77.7973,37.7294],[-77.784,37.7216],[-77.7716,37.7209],[-77.749,37.7166],[-77.7117,37.7063],[-77.6948,37.7073],[-77.6825,37.7052],[-77.6664,37.7072],[-77.6594,37.7102],[-77.6308,37.7057],[-77.6377,37.6867],[-77.6419,37.6879],[-77.6419,37.6803],[-77.6409,37.6781],[-77.6444,37.6694],[-77.6462,37.6592],[-77.6494,37.6594],[-77.6486,37.6569],[-77.6505,37.6487],[-77.6545,37.6407],[-77.6537,37.6345],[-77.652,37.6321],[-77.6506,37.6242],[-77.652,37.6169],[-77.6466,37.6138],[-77.6435,37.6141],[-77.6407,37.6079],[-77.6402,37.6027],[-77.6341,37.602],[-77.6264,37.5988],[-77.6283,37.5946],[-77.6245,37.59],[-77.6183,37.589],[-77.6189,37.5849],[-77.6164,37.5776],[-77.6239,37.5758],[-77.628,37.5768],[-77.6324,37.5755],[-77.6357,37.5714],[-77.6347,37.566],[-77.6387,37.5667],[-77.6471,37.5664],[-77.6554,37.564],[-77.66,37.5668],[-77.6841,37.578],[-77.6891,37.5816],[-77.7056,37.5892],[-77.7201,37.5874],[-77.7278,37.5883],[-77.7355,37.5913],[-77.7465,37.5984],[-77.752,37.6028],[-77.7566,37.6084],[-77.7605,37.6111],[-77.7673,37.6128],[-77.7801,37.613],[-77.7933,37.6126],[-77.7994,37.611],[-77.8076,37.6069],[-77.8143,37.6064],[-77.8224,37.6101],[-77.8249,37.6136],[-77.8229,37.62],[-77.8232,37.6248],[-77.8306,37.6331],[-77.836,37.6369],[-77.844,37.6409],[-77.8521,37.6422],[-77.8595,37.6453],[-77.8661,37.6496],[-77.8726,37.6555],[-77.8786,37.6593],[-77.8928,37.6656],[-77.8973,37.6682],[-77.9022,37.6731],[-77.9077,37.683],[-77.9098,37.6881],[-77.9133,37.6907],[-77.9213,37.6917],[-77.9262,37.6903],[-77.9451,37.6802],[-77.9474,37.6781],[-77.9551,37.6654],[-77.956,37.6608],[-77.9542,37.6559],[-77.9505,37.6529],[-77.9443,37.6438],[-77.9437,37.6386],[-77.9449,37.6346],[-77.9501,37.6284],[-77.9567,37.6251],[-77.9665,37.6248],[-77.9752,37.6236],[-77.9833,37.6246],[-77.9943,37.6299],[-78.003,37.6349],[-78.0084,37.6391],[-78.0175,37.6426],[-78.0209,37.643],[-78.0288,37.6418],[-78.0428,37.6424],[-78.0477,37.6434],[-78.0634,37.6484],[-78.0672,37.6511],[-78.0722,37.6574],[-78.0753,37.6611],[-78.0843,37.6684],[-78.0919,37.6709],[-78.1012,37.6702],[-78.1074,37.6717],[-78.1099,37.6746],[-78.1104,37.6779],[-78.1076,37.6828],[-78.1028,37.6856],[-78.0908,37.6966],[-78.0898,37.7012],[-78.0927,37.7082],[-78.099,37.7145],[-78.108,37.7203],[-78.1161,37.722],[-78.1259,37.7319],[-78.1347,37.738],[-78.1409,37.741],[-78.1472,37.7429],[-78.1593,37.7485],[-78.1545,37.7634],[-78.064,37.9023],[-78.0625,37.9047],[-78.0556,37.9038],[-78.05,37.9008],[-78.0432,37.8947],[-78.0391,37.8939],[-78.0372,37.891],[-78.035,37.8915],[-78.0275,37.8868],[-78.0188,37.8825],[-78.0094,37.8787],[-77.999,37.8733],[-77.9876,37.8646],[-77.9887,37.8597],[-77.9928,37.8593],[-77.9908,37.8575],[-77.9721,37.8526],[-77.9634,37.8518],[-77.9573,37.8525],[-77.9499,37.8514],[-77.9469,37.8526],[-77.9462,37.8432],[-77.9403,37.838],[-77.9373,37.8383],[-77.9313,37.8359],[-77.9315,37.8343],[-77.9251,37.8297],[-77.9178,37.8256],[-77.9072,37.8219],[-77.9074,37.8179],[-77.9043,37.8152],[-77.9067,37.8122],[-77.9057,37.8087],[-77.8999,37.8085],[-77.9006,37.8068],[-77.8974,37.8046],[-77.8989,37.7995],[-77.9058,37.7952],[-77.9077,37.792],[-77.9074,37.7851],[-77.9099,37.7842],[-77.9118,37.7809],[-77.9095,37.7803],[-77.9091,37.7763],[-77.9038,37.777],[-77.9037,37.7729],[-77.8992,37.7695],[-77.8987,37.7712],[-77.8939,37.7677],[-77.8925,37.7696],[-77.8909,37.7659],[-77.8866,37.7643],[-77.8794,37.7597],[-77.8818,37.7572],[-77.8782,37.756],[-77.8675,37.7558],[-77.8642,37.7543],[-77.8639,37.7567],[-77.858,37.7595],[-77.8592,37.7541],[-77.8467,37.7522],[-77.8445,37.7491],[-77.8377,37.7494],[-77.837,37.7518],[-77.8221,37.7475],[-77.8165,37.7451],[-77.8179,37.7437],[-77.8133,37.7425],[-77.8091,37.7363],[-77.8011,37.7331],[-77.7968,37.7306],[-77.7973,37.7294]],[[-77.9507,37.85],[-77.9532,37.8476],[-77.9487,37.8488],[-77.9507,37.85]],[[-77.9146,37.8236],[-77.9147,37.8244],[-77.9195,37.8239],[-77.9146,37.8236]],[[-77.8885,37.7608],[-77.8859,37.7606],[-77.8902,37.7643],[-77.8929,37.7635],[-77.8885,37.7608]]]}},{"type":"Feature","properties":{"id":"51730","name":"Petersburg city"},"geometry":{"type":"Polygon","coordinates":[[[-77.4334,37.225],[-77.4291,37.2286],[-77.4165,37.2332],[-77.4099,37.2337],[-77.4037,37.2373],[-77.4017,37.2391],[-77.3953,37.2381],[-77.39,37.2397],[-77.3896,37.238],[-77.3839,37.2389],[-77.3768,37.2448],[-77.3698,37.2435],[-77.3613,37.2387],[-77.3623,37.2368],[-77.3517,37.2242],[-77.3545,37.2223],[-77.3525,37.2192],[-77.3472,37.2183],[-77.3478,37.2146],[-77.3449,37.2138],[-77.3469,37.211],[-77.3394,37.21],[-77.3398,37.2078],[-77.3357,37.2045],[-77.3298,37.1975],[-77.3409,37.1903],[-77.3431,37.1897],[-77.3412,37.1842],[-77.346,37.1828],[-77.3468,37.1785],[-77.3457,37.1741],[-77.3511,37.1725],[-77.3654,37.1718],[-77.3655,37.175],[-77.3719,37.1764],[-77.3769,37.176],[-77.3767,37.1805],[-77.3815,37.1795],[-77.385,37.1751],[-77.3992,37.1709],[-77.4049,37.1715],[-77.4115,37.1667],[-77.4235,37.1651],[-77.4238,37.1733],[-77.4211,37.1736],[-77.4229,37.1812],[-77.4281,37.185],[-77.4492,37.189],[-77.4546,37.1875],[-77.4465,37.1943],[-77.4452,37.197],[-77.4453,37.2043],[-77.4418,37.2106],[-77.443,37.216],[-77.4474,37.2159],[-77.4474,37.2231],[-77.4334,37.225]]]}},{"type":"Feature","properties":{"id":"51570","name":"Colonial Heights city"},"geometry":{"type":"Polygon","coordinates":[[[-77.4155,37.2413],[-77.4177,37.2471],[-77.4144,37.2609],[-77.4156,37.2639],[-77.4185,37.2659],[-77.4224,37.2625],[-77.4318,37.2759],[-77.4231,37.2745],[-77.4268,37.2784],[-77.4265,37.283],[-77.4246,37.2836],[-77.4154,37.2823],[-77.4123,37.283],[-77.4083,37.2803],[-77.4062,37.2741],[-77.403,37.2716],[-77.3997,37.2719],[-77.3984,37.2757],[-77.4013,37.2764],[-77.403,37.2801],[-77.4002,37.2833],[-77.3974,37.2839],[-77.3917,37.2827],[-77.3894,37.2874],[-77.3791,37.2841],[-77.3728,37.2969],[-77.3682,37.2985],[-77.368,37.2946],[-77.3644,37.2903],[-77.365,37.2873],[-77.3625,37.285],[-77.3623,37.2822],[-77.367,37.2784],[-77.3755,37.2746],[-77.3792,37.2676],[-77.3803,37.2455],[-77.3857,37.2412],[-77.3921,37.2409],[-77.3954,37.2394],[-77.4005,37.2402],[-77.4037,37.2373],[-77.4099,37.2337],[-77.4165,37.2332],[-77.4155,37.2413]]]}},{"type":"Feature","properties":{"id":"51670","name":"Hopewell city"},"geometry":{"type":"Polygon","coordinates":[[[-77.2816,37.3099],[-77.2779,37.3143],[-77.277,37.3177],[-77.2734,37.3165],[-77.2649,37.304],[-77.2614,37.3029],[-77.2536,37.2967],[-77.2524,37.2935],[-77.2561,37.29],[-77.2607,37.2879],[-77.2606,37.2828],[-77.2672,37.2835],[-77.2698,37.2828],[-77.2732,37.2783],[-77.2757,37.2808],[-77.2786,37.2803],[-77.2786,37.278],[-77.2824,37.2769],[-77.2842,37.2744],[-77.2939,37.2727],[-77.2985,37.2705],[-77.3053,37.262],[-77.3098,37.2616],[-77.3107,37.2662],[-77.3184,37.2644],[-77.3224,37.2654],[-77.3253,37.2609],[-77.331,37.2576],[-77.3306,37.262],[-77.3244,37.2678],[-77.3283,37.2719],[-77.328,37.2768],[-77.325,37.2806],[-77.3297,37.2808],[-77.3291,37.2902],[-77.3267,37.2932],[-77.3304,37.2936],[-77.3296,37.2983],[-77.3336,37.2988],[-77.3369,37.303],[-77.3376,37.3076],[-77.3357,37.313],[-77.3319,37.3123],[-77.3236,37.3085],[-77.3187,37.3083],[-77.3038,37.3119],[-77.2932,37.3128],[-77.2901,37.3137],[-77.2873,37.3169],[-77.284,37.313],[-77.2816,37.3099]]]}}]}