{"type":"FeatureCollection","features":[{"type":"Feature","properties":{"id":"49023","name":"Juab Co."},"geometry":{"type":"Polygon","coordinates":[[[-112.1744,40.011],[-112.1704,40.0078],[-112.1642,40.0083],[-112.16,40.0068],[-112.1548,40.0004],[-112.1506,39.9976],[-112.1509,39.9935],[-112.142,39.9896],[-112.1421,39.9867],[-112.1362,39.9824],[-112.1327,39.9775],[-112.1243,39.9741],[-112.1101,39.9738],[-112.1098,39.9706],[-112.104,39.9653],[-112.1028,39.9595],[-112.0957,39.9568],[-112.0941,39.9545],[-112.0972,39.9513],[-112.1025,39.9483],[-112.1032,39.9424],[-112.1055,39.9412],[-112.1058,39.9377],[-112.1025,39.9348],[-112.1043,39.9308],[-112.1036,39.9288],[-112.0989,39.9281],[-112.093,39.93],[-112.0926,39.928],[-112.088,39.9254],[-112.0852,39.9255],[-112.083,39.9219],[-112.0832,39.9182],[-112.0806,39.9169],[-112.0813,39.9131],[-112.0765,39.9111],[-112.0722,39.9113],[-112.0692,39.9084],[-112.0626,39.9047],[-112.0611,39.8981],[-112.0569,39.8942],[-112.0535,39.8934],[-112.0596,39.8872],[-112.0604,39.8842],[-112.0591,39.8804],[-112.066,39.8761],[-112.0708,39.8697],[-112.073,39.8695],[-112.077,39.8659],[-112.0812,39.8651],[-112.0816,39.8627],[-112.0795,39.857],[-112.0806,39.8533],[-112.0769,39.8528],[-112.0739,39.8471],[-112.0752,39.8397],[-112.0703,39.8379],[-112.0693,39.8338],[-112.0654,39.83],[-112.0683,39.8275],[-112.071,39.8161],[-112.0727,39.8121],[-112.0772,39.8098],[-112.08,39.802],[-112.0768,39.8001],[-112.0817,39.7941],[-112.0873,39.7906],[-112.0874,39.786],[-112.0898,39.7819],[-112.0805,39.7813],[-112.0787,39.7788],[-112.0685,39.7773],[-112.0636,39.7819],[-112.0557,39.7773],[-112.0507,39.7763],[-112.0472,39.7768],[-112.0444,39.7815],[-112.0416,39.7834],[-112.0375,39.7833],[-112.0318,39.7812],[-112.0262,39.7827],[-112.0248,39.7865],[-112.0199,39.7871],[-112.0158,39.792],[-112.0136,39.7921],[-112.0098,39.7953],[-112.007,39.7946],[-112.0034,39.7971],[-112.0034,39.7998],[-111.995,39.8015],[-111.9908,39.8049],[-111.9899,39.8113],[-111.9816,39.8094],[-111.9758,39.807],[-111.9695,39.8071],[-111.9694,39.8085],[-111.9627,39.816],[-111.9639,39.8176],[-111.963,39.8228],[-111.9648,39.8251],[-111.9614,39.8292],[-111.9577,39.8367],[-111.9507,39.8343],[-111.9489,39.8367],[-111.95,39.839],[-111.948,39.8444],[-111.9483,39.849],[-111.9371,39.8554],[-111.9381,39.8574],[-111.9313,39.8644],[-111.9279,39.8652],[-111.9252,39.8705],[-111.9266,39.8727],[-111.9217,39.8745],[-111.9211,39.8802],[-111.9153,39.8837],[-111.913,39.8888],[-111.9097,39.8922],[-111.9095,39.8946],[-111.9004,39.8987],[-111.8965,39.8974],[-111.8911,39.8984],[-111.8899,39.9018],[-111.8847,39.9036],[-111.8816,39.9074],[-111.8776,39.9062],[-111.8741,39.9073],[-111.8662,39.9058],[-111.8619,39.9096],[-111.8585,39.9104],[-111.859,39.9147],[-111.8507,39.9163],[-111.846,39.9192],[-111.8448,39.9222],[-111.8411,39.9238],[-111.8333,39.9241],[-111.8318,39.9304],[-111.8327,39.9367],[-111.8271,39.947],[-111.8239,39.9477],[-111.8204,39.9433],[-111.8138,39.9414],[-111.809,39.9387],[-111.8054,39.9348],[-111.794,39.9307],[-111.7921,39.9272],[-111.7889,39.926],[-111.7863,39.9214],[-111.7891,39.9153],[-111.787,39.9093],[-111.7821,39.9075],[-111.783,39.9039],[-111.7778,39.8993],[-111.7687,39.8983],[-111.7627,39.8947],[-111.757,39.8888],[-111.761,39.8839],[-111.7583,39.8805],[-111.7573,39.876],[-111.7519,39.8739],[-111.751,39.8716],[-111.7402,39.8659],[-111.7381,39.8642],[-111.7341,39.8542],[-111.7376,39.8514],[-111.7465,39.8501],[-111.7469,39.8467],[-111.7501,39.8408],[-111.7487,39.8332],[-111.7557,39.8277],[-111.764,39.8168],[-111.7664,39.8108],[-111.7547,39.8123],[-111.6762,39.8125],[-111.6419,39.8129],[-111.6421,39.7983],[-111.6221,39.7985],[-111.6225,39.7838],[-111.6036,39.7843],[-111.5849,39.7842],[-111.5848,39.7401],[-111.6425,39.7397],[-111.6426,39.7252],[-111.6613,39.7251],[-111.6614,39.7177],[-111.6804,39.7175],[-111.6803,39.7102],[-111.6896,39.7104],[-111.6895,39.6952],[-111.7175,39.6946],[-111.7172,39.637],[-111.7152,39.637],[-111.7157,39.5482],[-111.7133,39.5482],[-111.7131,39.4603],[-111.7477,39.4601],[-111.747,39.3828],[-111.8995,39.3816],[-111.9224,39.3816],[-111.9217,39.3669],[-111.9588,39.3661],[-111.9581,39.3368],[-112.0158,39.3369],[-112.016,39.3146],[-112.0534,39.3145],[-112.0534,39.3149],[-112.0722,39.3149],[-112.0721,39.3297],[-112.1373,39.3294],[-112.1889,39.3294],[-112.1889,39.3731],[-112.1936,39.3731],[-112.1933,39.4898],[-112.2026,39.4899],[-112.2026,39.5043],[-112.2073,39.5043],[-112.2073,39.5116],[-112.212,39.5116],[-112.212,39.526],[-112.1932,39.526],[-112.1933,39.5405],[-112.2027,39.5404],[-112.2027,39.544],[-112.2073,39.5441],[-112.2074,39.5477],[-112.212,39.5477],[-112.212,39.554],[-112.236,39.5536],[-112.4624,39.5537],[-112.4624,39.5525],[-112.6295,39.5524],[-112.803,39.5526],[-112.9234,39.5525],[-113.8157,39.5526],[-113.8158,39.5441],[-114.0477,39.5427],[-114.0473,39.7594],[-114.0478,39.7942],[-114.0472,39.821],[-114.0471,39.9061],[-113.9248,39.9059],[-113.7013,39.9055],[-113.2485,39.9053],[-113.2485,39.9047],[-113.025,39.9049],[-112.7981,39.9042],[-112.7981,39.9037],[-112.6039,39.9037],[-112.4576,39.9039],[-112.342,39.9045],[-112.3431,39.9108],[-112.3373,39.9189],[-112.3353,39.9237],[-112.337,39.9279],[-112.3355,39.9306],[-112.3398,39.9437],[-112.3347,39.9457],[-112.3346,39.9495],[-112.3323,39.9528],[-112.3274,39.9467],[-112.3232,39.9445],[-112.3207,39.946],[-112.3153,39.9458],[-112.3094,39.9484],[-112.3091,39.9448],[-112.3067,39.9454],[-112.3055,39.94],[-112.302,39.9366],[-112.2984,39.9387],[-112.2847,39.9411],[-112.2808,39.9414],[-112.2783,39.9392],[-112.2703,39.939],[-112.2672,39.9418],[-112.2608,39.9428],[-112.2542,39.9506],[-112.2489,39.9508],[-112.2458,39.9562],[-112.2388,39.9586],[-112.2363,39.9607],[-112.2367,39.9666],[-112.2345,39.971],[-112.2276,39.9777],[-112.2248,39.9822],[-112.2259,39.9862],[-112.2244,39.9886],[-112.2106,39.9946],[-112.2056,39.9987],[-112.2019,39.9999],[-112.1999,40.0041],[-112.1967,40.0035],[-112.1869,40.006],[-112.1819,40.0111],[-112.1798,40.0117],[-112.1744,40.011]]]}},{"type":"Feature","properties":{"id":"49049","name":"Utah Co."},"geometry":{"type":"Polygon","coordinates":[[[-112.1769,40.0194],[-112.178,40.0266],[-112.1771,40.0306],[-112.1741,40.0327],[-112.1749,40.0353],[-112.172,40.0395],[-112.1755,40.0437],[-112.1781,40.0489],[-112.1776,40.0511],[-112.1836,40.0597],[-112.1802,40.067],[-112.1732,40.0662],[-112.1722,40.0683],[-112.176,40.0777],[-112.1745,40.0818],[-112.1714,40.0856],[-112.1649,40.0878],[-112.1579,40.0891],[-112.1569,40.0987],[-112.1511,40.1052],[-112.1509,40.1073],[-112.1549,40.1087],[-112.1558,40.1127],[-112.1609,40.1143],[-112.1642,40.1187],[-112.1636,40.1232],[-112.1688,40.1267],[-112.1721,40.1272],[-112.1761,40.1308],[-112.1734,40.1347],[-112.1722,40.1412],[-112.1678,40.1467],[-112.1713,40.1487],[-112.174,40.1543],[-112.1644,40.162],[-112.1596,40.1628],[-112.1551,40.1686],[-112.1559,40.1702],[-112.1523,40.1715],[-112.1459,40.1709],[-112.1467,40.1784],[-112.1527,40.179],[-112.1534,40.1822],[-112.1505,40.1877],[-112.1468,40.1897],[-112.1487,40.1905],[-112.1486,40.1954],[-112.1564,40.197],[-112.1604,40.1988],[-112.1572,40.2032],[-112.1586,40.2066],[-112.1495,40.2122],[-112.1547,40.2148],[-112.1538,40.2182],[-112.1572,40.2193],[-112.1615,40.2171],[-112.1687,40.2193],[-112.1705,40.2256],[-112.1767,40.2277],[-112.1797,40.2322],[-112.179,40.2447],[-112.1793,40.2494],[-112.1839,40.25],[-112.1838,40.2581],[-112.1866,40.2591],[-112.1922,40.2645],[-112.1929,40.2689],[-112.189,40.2735],[-112.1884,40.2857],[-112.1865,40.2869],[-112.1885,40.2906],[-112.1874,40.292],[-112.1902,40.2963],[-112.1898,40.3001],[-112.1921,40.3041],[-112.1986,40.3069],[-112.1974,40.3088],[-112.1985,40.3123],[-112.1968,40.3171],[-112.1937,40.3183],[-112.1927,40.3229],[-112.1963,40.3258],[-112.1911,40.3294],[-112.1799,40.3321],[-112.1755,40.3358],[-112.1786,40.3396],[-112.1814,40.3459],[-112.1853,40.3485],[-112.1881,40.3549],[-112.194,40.3599],[-112.1947,40.3628],[-112.1937,40.3679],[-112.1887,40.3725],[-112.1944,40.3795],[-112.1992,40.3825],[-112.2016,40.3882],[-112.1994,40.3906],[-112.2001,40.3974],[-112.1986,40.4],[-112.1999,40.4035],[-112.1983,40.4091],[-112.1979,40.4149],[-112.1956,40.4173],[-112.1947,40.4211],[-112.1987,40.4257],[-112.2024,40.4277],[-112.2049,40.4311],[-112.2085,40.4317],[-112.2132,40.4448],[-112.2128,40.449],[-112.2142,40.4523],[-112.2122,40.4593],[-112.2077,40.4597],[-112.1957,40.4623],[-112.1903,40.4685],[-112.1729,40.4671],[-112.1719,40.4655],[-112.1654,40.4623],[-112.1602,40.4611],[-112.1563,40.4643],[-112.1561,40.4669],[-112.1437,40.4704],[-112.1318,40.4644],[-112.1309,40.4628],[-112.1243,40.4586],[-112.1213,40.4542],[-112.1148,40.4507],[-112.1134,40.4475],[-112.1144,40.4413],[-112.1119,40.439],[-112.1046,40.4426],[-112.1012,40.4455],[-112.0936,40.4478],[-112.0668,40.4464],[-112.0652,40.4488],[-112.0616,40.4501],[-112.0594,40.453],[-112.0471,40.4566],[-112.0382,40.4646],[-112.0332,40.4627],[-112.0327,40.4576],[-112.0304,40.4539],[-112.0315,40.4506],[-112.0246,40.4504],[-112.0206,40.4474],[-112.0245,40.4451],[-112.0213,40.4388],[-112.0162,40.435],[-112.0106,40.4372],[-112.0066,40.4352],[-112.0089,40.433],[-112.0061,40.4264],[-112.0017,40.4266],[-111.9992,40.4241],[-111.9926,40.424],[-111.9925,40.4204],[-111.9845,40.4172],[-111.9821,40.4142],[-111.9787,40.4171],[-111.9737,40.4173],[-111.9665,40.4199],[-111.96,40.4184],[-111.9577,40.4218],[-111.9544,40.4216],[-111.9451,40.4256],[-111.9312,40.4336],[-111.9191,40.4432],[-111.9149,40.452],[-111.9077,40.4534],[-111.901,40.4633],[-111.8924,40.4641],[-111.8826,40.4725],[-111.8737,40.4768],[-111.8706,40.4767],[-111.8685,40.4726],[-111.8629,40.4693],[-111.8584,40.4693],[-111.8565,40.4714],[-111.8509,40.472],[-111.8501,40.4749],[-111.8437,40.4767],[-111.8428,40.4746],[-111.8362,40.4751],[-111.8362,40.4777],[-111.8333,40.4827],[-111.8263,40.4827],[-111.8263,40.4864],[-111.8222,40.4865],[-111.8163,40.4892],[-111.8119,40.4884],[-111.8073,40.4894],[-111.8027,40.4936],[-111.7893,40.4981],[-111.7892,40.502],[-111.7917,40.5052],[-111.7891,40.5091],[-111.788,40.5137],[-111.784,40.5147],[-111.7811,40.5187],[-111.7754,40.5213],[-111.7696,40.5226],[-111.7626,40.5292],[-111.7566,40.5279],[-111.7554,40.5264],[-111.7442,40.5226],[-111.7398,40.524],[-111.7367,40.5292],[-111.7363,40.5319],[-111.7268,40.5293],[-111.7206,40.5251],[-111.7164,40.5276],[-111.7131,40.5327],[-111.7008,40.5339],[-111.6981,40.5357],[-111.6846,40.5313],[-111.6813,40.5329],[-111.6785,40.5318],[-111.6753,40.5332],[-111.6735,40.537],[-111.6641,40.5412],[-111.6613,40.5476],[-111.6618,40.5497],[-111.6563,40.5518],[-111.6503,40.5512],[-111.6465,40.5561],[-111.6456,40.5599],[-111.6417,40.5624],[-111.6381,40.5678],[-111.6338,40.5675],[-111.6203,40.5652],[-111.6107,40.5659],[-111.6057,40.5645],[-111.6018,40.5703],[-111.6022,40.5753],[-111.5981,40.5779],[-111.5939,40.5771],[-111.5909,40.572],[-111.5836,40.568],[-111.5807,40.5648],[-111.5797,40.5612],[-111.5752,40.5543],[-111.5705,40.551],[-111.5679,40.5475],[-111.5712,40.5436],[-111.5708,40.5397],[-111.5726,40.5376],[-111.5703,40.5343],[-111.5697,40.5266],[-111.5718,40.5197],[-111.5753,40.5166],[-111.5754,40.5032],[-111.5791,40.5004],[-111.5781,40.4972],[-111.5745,40.493],[-111.5748,40.4869],[-111.5787,40.482],[-111.5838,40.4796],[-111.5842,40.477],[-111.5951,40.4676],[-111.5976,40.4668],[-111.6066,40.4673],[-111.6094,40.4663],[-111.6097,40.4636],[-111.6147,40.4579],[-111.6201,40.4555],[-111.621,40.4498],[-111.6188,40.4491],[-111.6158,40.4441],[-111.6179,40.44],[-111.6172,40.4375],[-111.6125,40.4319],[-111.6079,40.4314],[-111.6,40.4348],[-111.5925,40.4302],[-111.5915,40.4263],[-111.5884,40.4213],[-111.5838,40.4202],[-111.5837,40.4128],[-111.5743,40.4129],[-111.5742,40.3914],[-111.5648,40.3914],[-111.5649,40.3878],[-111.5601,40.3878],[-111.5602,40.3698],[-111.5555,40.3699],[-111.5552,40.3627],[-111.5458,40.362],[-111.527,40.3617],[-111.4803,40.3622],[-111.4805,40.355],[-111.4759,40.3549],[-111.476,40.3512],[-111.4715,40.3512],[-111.4716,40.3476],[-111.4623,40.3475],[-111.4625,40.3403],[-111.4532,40.3403],[-111.4533,40.3343],[-111.4458,40.33],[-111.4448,40.3266],[-111.438,40.3218],[-111.4412,40.32],[-111.4423,40.3151],[-111.448,40.3094],[-111.4502,40.3054],[-111.4573,40.3007],[-111.452,40.2972],[-111.4517,40.2934],[-111.4443,40.2904],[-111.44,40.2901],[-111.4341,40.2919],[-111.4266,40.287],[-111.4129,40.2894],[-111.4105,40.2951],[-111.4018,40.2957],[-111.3969,40.2924],[-111.3923,40.2962],[-111.3824,40.2946],[-111.3776,40.2975],[-111.3741,40.297],[-111.3682,40.2919],[-111.3602,40.2886],[-111.3514,40.2895],[-111.3465,40.2873],[-111.34,40.2886],[-111.3367,40.2883],[-111.3281,40.2822],[-111.3253,40.2829],[-111.322,40.2872],[-111.3152,40.2876],[-111.3079,40.2839],[-111.307,40.2803],[-111.309,40.2764],[-111.308,40.2746],[-111.3021,40.273],[-111.2979,40.2731],[-111.2942,40.2705],[-111.2937,40.2655],[-111.2899,40.2662],[-111.2821,40.2603],[-111.279,40.2589],[-111.2789,40.2561],[-111.2761,40.2521],[-111.2719,40.2508],[-111.2648,40.2423],[-111.2677,40.2371],[-111.2736,40.2362],[-111.2738,40.2326],[-111.2718,40.2276],[-111.2734,40.2219],[-111.267,40.2129],[-111.2618,40.2107],[-111.2648,40.2095],[-111.2632,40.2055],[-111.26,40.2045],[-111.2564,40.2007],[-111.2583,40.1983],[-111.2478,40.1936],[-111.2394,40.184],[-111.2359,40.1812],[-111.2353,40.176],[-111.2306,40.1709],[-111.2259,40.1677],[-111.2257,40.164],[-111.2292,40.1586],[-111.2267,40.1558],[-111.2309,40.1503],[-111.2313,40.1476],[-111.2258,40.1446],[-111.2236,40.1383],[-111.2241,40.1331],[-111.2215,40.1249],[-111.2254,40.1201],[-111.2278,40.1116],[-111.2302,40.1067],[-111.2347,40.1042],[-111.2343,40.1015],[-111.2372,40.0949],[-111.2414,40.0919],[-111.2423,40.086],[-111.238,40.0806],[-111.2406,40.0733],[-111.236,40.07],[-111.2413,40.0657],[-111.2416,40.0632],[-111.246,40.0601],[-111.2492,40.0556],[-111.247,40.0537],[-111.2462,40.0475],[-111.2408,40.0438],[-111.2382,40.0387],[-111.2267,40.0357],[-111.2235,40.0401],[-111.2143,40.0428],[-111.2111,40.0455],[-111.2049,40.0479],[-111.2002,40.0409],[-111.2003,40.0372],[-111.1977,40.0312],[-111.1949,40.0316],[-111.1913,40.0295],[-111.1897,40.0234],[-111.1866,40.0201],[-111.1773,40.0162],[-111.1751,40.0125],[-111.1717,40.0107],[-111.1683,40.0036],[-111.1699,40.0002],[-111.1693,39.996],[-111.1657,39.99],[-111.1609,39.992],[-111.1565,39.9901],[-111.1522,39.9851],[-111.1469,39.9854],[-111.143,39.987],[-111.1415,39.9842],[-111.1338,39.9786],[-111.135,39.9762],[-111.129,39.9703],[-111.1244,39.9705],[-111.1193,39.9682],[-111.1181,39.962],[-111.1209,39.9597],[-111.1201,39.9573],[-111.1292,39.9516],[-111.1311,39.9473],[-111.1259,39.9454],[-111.1198,39.9453],[-111.1184,39.9435],[-111.0926,39.9431],[-111.0831,39.9432],[-111.0831,39.9001],[-110.96,39.8997],[-110.8576,39.8997],[-110.8578,39.8133],[-111.0791,39.8141],[-111.0791,39.8122],[-111.2475,39.813],[-111.3068,39.8131],[-111.3068,39.8124],[-111.5284,39.812],[-111.5283,39.8129],[-111.575,39.8128],[-111.5845,39.8131],[-111.6028,39.8129],[-111.6419,39.8129],[-111.6762,39.8125],[-111.7547,39.8123],[-111.7664,39.8108],[-111.764,39.8168],[-111.7557,39.8277],[-111.7487,39.8332],[-111.7501,39.8408],[-111.7469,39.8467],[-111.7465,39.8501],[-111.7376,39.8514],[-111.7341,39.8542],[-111.7381,39.8642],[-111.7402,39.8659],[-111.751,39.8716],[-111.7519,39.8739],[-111.7573,39.876],[-111.7583,39.8805],[-111.761,39.8839],[-111.757,39.8888],[-111.7627,39.8947],[-111.7687,39.8983],[-111.7778,39.8993],[-111.783,39.9039],[-111.7821,39.9075],[-111.787,39.9093],[-111.7891,39.9153],[-111.7863,39.9214],[-111.7889,39.926],[-111.7921,39.9272],[-111.794,39.9307],[-111.8054,39.9348],[-111.809,39.9387],[-111.8138,39.9414],[-111.8204,39.9433],[-111.8239,39.9477],[-111.8271,39.947],[-111.8327,39.9367],[-111.8318,39.9304],[-111.8333,39.9241],[-111.8411,39.9238],[-111.8448,39.9222],[-111.846,39.9192],[-111.8507,39.9163],[-111.859,39.9147],[-111.8585,39.9104],[-111.8619,39.9096],[-111.8662,39.9058],[-111.8741,39.9073],[-111.8776,39.9062],[-111.8816,39.9074],[-111.8847,39.9036],[-111.8899,39.9018],[-111.8911,39.8984],[-111.8965,39.8974],[-111.9004,39.8987],[-111.9095,39.8946],[-111.9097,39.8922],[-111.913,39.8888],[-111.9153,39.8837],[-111.9211,39.8802],[-111.9217,39.8745],[-111.9266,39.8727],[-111.9252,39.8705],[-111.9279,39.8652],[-111.9313,39.8644],[-111.9381,39.8574],[-111.9371,39.8554],[-111.9483,39.849],[-111.948,39.8444],[-111.95,39.839],[-111.9489,39.8367],[-111.9507,39.8343],[-111.9577,39.8367],[-111.9614,39.8292],[-111.9648,39.8251],[-111.963,39.8228],[-111.9639,39.8176],[-111.9627,39.816],[-111.9694,39.8085],[-111.9695,39.8071],[-111.9758,39.807],[-111.9816,39.8094],[-111.9899,39.8113],[-111.9908,39.8049],[-111.995,39.8015],[-112.0034,39.7998],[-112.0034,39.7971],[-112.007,39.7946],[-112.0098,39.7953],[-112.0136,39.7921],[-112.0158,39.792],[-112.0199,39.7871],[-112.0248,39.7865],[-112.0262,39.7827],[-112.0318,39.7812],[-112.0375,39.7833],[-112.0416,39.7834],[-112.0444,39.7815],[-112.0472,39.7768],[-112.0507,39.7763],[-112.0557,39.7773],[-112.0636,39.7819],[-112.0685,39.7773],[-112.0787,39.7788],[-112.0805,39.7813],[-112.0898,39.7819],[-112.0874,39.786],[-112.0873,39.7906],[-112.0817,39.7941],[-112.0768,39.8001],[-112.08,39.802],[-112.0772,39.8098],[-112.0727,39.8121],[-112.071,39.8161],[-112.0683,39.8275],[-112.0654,39.83],[-112.0693,39.8338],[-112.0703,39.8379],[-112.0752,39.8397],[-112.0739,39.8471],[-112.0769,39.8528],[-112.0806,39.8533],[-112.0795,39.857],[-112.0816,39.8627],[-112.0812,39.8651],[-112.077,39.8659],[-112.073,39.8695],[-112.0708,39.8697],[-112.066,39.8761],[-112.0591,39.8804],[-112.0604,39.8842],[-112.0596,39.8872],[-112.0535,39.8934],[-112.0569,39.8942],[-112.0611,39.8981],[-112.0626,39.9047],[-112.0692,39.9084],[-112.0722,39.9113],[-112.0765,39.9111],[-112.0813,39.9131],[-112.0806,39.9169],[-112.0832,39.9182],[-112.083,39.9219],[-112.0852,39.9255],[-112.088,39.9254],[-112.0926,39.928],[-112.093,39.93],[-112.0989,39.9281],[-112.1036,39.9288],[-112.1043,39.9308],[-112.1025,39.9348],[-112.1058,39.9377],[-112.1055,39.9412],[-112.1032,39.9424],[-112.1025,39.9483],[-112.0972,39.9513],[-112.0941,39.9545],[-112.0957,39.9568],[-112.1028,39.9595],[-112.104,39.9653],[-112.1098,39.9706],[-112.1101,39.9738],[-112.1243,39.9741],[-112.1327,39.9775],[-112.1362,39.9824],[-112.1421,39.9867],[-112.142,39.9896],[-112.1509,39.9935],[-112.1506,39.9976],[-112.1548,40.0004],[-112.16,40.0068],[-112.1642,40.0083],[-112.1704,40.0078],[-112.1744,40.011],[-112.1798,40.0117],[-112.1769,40.0194]]]}}]}