{"type":"FeatureCollection","features":[{"type":"Feature","properties":{"id":"12097","name":"Osceola Co."},"geometry":{"type":"Polygon","coordinates":[[[-81.6482,28.3469],[-81.5332,28.3473],[-81.4876,28.3471],[-81.4577,28.3473],[-81.4479,28.3479],[-81.3885,28.3479],[-81.2322,28.3482],[-81.1742,28.3482],[-80.8629,28.3475],[-80.8628,28.3472],[-80.8616,28.2466],[-80.8629,28.0847],[-80.8693,28.0847],[-80.8693,28.0651],[-80.8701,28.0571],[-80.8695,28.0485],[-80.87,27.9826],[-80.8696,27.9779],[-80.8696,27.9479],[-80.8689,27.8225],[-80.8816,27.8225],[-80.8801,27.7337],[-80.8738,27.7339],[-80.8731,27.6423],[-81.0229,27.642],[-81.0684,27.6424],[-81.1422,27.6432],[-81.14,27.6467],[-81.1373,27.647],[-81.1368,27.6443],[-81.1325,27.6475],[-81.131,27.6593],[-81.1318,27.6615],[-81.1376,27.6642],[-81.1419,27.6688],[-81.1441,27.6693],[-81.1454,27.6774],[-81.1449,27.6822],[-81.149,27.692],[-81.1473,27.6958],[-81.1502,27.6998],[-81.148,27.6992],[-81.1493,27.7031],[-81.1459,27.7065],[-81.1458,27.7102],[-81.1489,27.7128],[-81.1526,27.7183],[-81.16,27.7193],[-81.1608,27.7238],[-81.1669,27.7231],[-81.1687,27.726],[-81.1686,27.7322],[-81.1644,27.736],[-81.165,27.7422],[-81.1718,27.7432],[-81.1706,27.7454],[-81.1729,27.7474],[-81.1745,27.7456],[-81.1754,27.7493],[-81.1785,27.7519],[-81.178,27.7589],[-81.1729,27.7605],[-81.175,27.7644],[-81.1791,27.7658],[-81.1782,27.7705],[-81.1808,27.7699],[-81.1808,27.7737],[-81.1847,27.7729],[-81.1877,27.7755],[-81.1857,27.7782],[-81.1894,27.7823],[-81.1896,27.7853],[-81.1963,27.7908],[-81.1988,27.7975],[-81.2001,27.797],[-81.2007,27.8037],[-81.2099,27.8172],[-81.2081,27.8211],[-81.2131,27.8234],[-81.2156,27.8268],[-81.2144,27.8286],[-81.2208,27.8349],[-81.2236,27.8362],[-81.2295,27.8418],[-81.2348,27.8437],[-81.2413,27.8472],[-81.2417,27.8457],[-81.2465,27.8488],[-81.2488,27.8449],[-81.2514,27.8446],[-81.2505,27.8489],[-81.2542,27.8488],[-81.2591,27.846],[-81.2791,27.852],[-81.2813,27.8575],[-81.2896,27.8573],[-81.2971,27.8596],[-81.3022,27.8639],[-81.2977,27.8635],[-81.3034,27.8704],[-81.3059,27.8775],[-81.3045,27.8799],[-81.3061,27.8862],[-81.312,27.8943],[-81.3149,27.9012],[-81.3124,27.9099],[-81.3092,27.9153],[-81.3086,27.9216],[-81.3162,27.9286],[-81.3188,27.9281],[-81.3171,27.9247],[-81.3334,27.9304],[-81.3383,27.9334],[-81.3387,27.9313],[-81.3455,27.9357],[-81.3476,27.9389],[-81.3459,27.9415],[-81.3385,27.94],[-81.3367,27.9453],[-81.3367,27.9496],[-81.3436,27.9523],[-81.349,27.9533],[-81.348,27.9607],[-81.3498,27.9638],[-81.3651,27.9729],[-81.3687,27.9738],[-81.3706,27.9779],[-81.3765,27.9783],[-81.377,27.9839],[-81.381,27.9834],[-81.3818,27.986],[-81.3785,27.9885],[-81.3827,27.9978],[-81.3858,27.9994],[-81.387,28.0036],[-81.3925,28.0046],[-81.3982,28.003],[-81.4037,28.0028],[-81.4089,28.001],[-81.4135,28.0008],[-81.4156,27.9982],[-81.42,28.0018],[-81.4242,28.0107],[-81.4281,28.0215],[-81.4325,28.0224],[-81.4371,28.0307],[-81.4403,28.0339],[-81.4483,28.0323],[-81.4559,28.0389],[-81.4588,28.0401],[-81.46,28.0472],[-81.4574,28.0551],[-81.4539,28.0576],[-81.4506,28.0567],[-81.4434,28.0592],[-81.4385,28.057],[-81.4354,28.0529],[-81.434,28.0459],[-81.4325,28.0433],[-81.4276,28.0413],[-81.428,28.0393],[-81.424,28.0404],[-81.4232,28.0386],[-81.4179,28.038],[-81.4108,28.0336],[-81.4058,28.029],[-81.3972,28.0294],[-81.394,28.028],[-81.3921,28.0196],[-81.3857,28.0172],[-81.3825,28.0124],[-81.3787,28.0117],[-81.3765,28.0158],[-81.379,28.022],[-81.3761,28.0247],[-81.3756,28.0297],[-81.3637,28.0378],[-81.3619,28.0437],[-81.3645,28.0469],[-81.3638,28.0495],[-81.3651,28.0552],[-81.3641,28.0569],[-81.3668,28.0617],[-81.365,28.0682],[-81.3624,28.07],[-81.3604,28.0684],[-81.3535,28.0671],[-81.3488,28.0677],[-81.3463,28.0697],[-81.3473,28.0803],[-81.3487,28.0815],[-81.3464,28.0847],[-81.3755,28.0851],[-81.445,28.0852],[-81.4558,28.0849],[-81.4562,28.1432],[-81.4701,28.1433],[-81.4733,28.1428],[-81.5242,28.1428],[-81.5241,28.201],[-81.5513,28.249],[-81.5575,28.2594],[-81.6136,28.2595],[-81.6572,28.2592],[-81.657,28.2884],[-81.6573,28.3212],[-81.6569,28.3275],[-81.6573,28.3471],[-81.6482,28.3469]]]}},{"type":"Feature","properties":{"id":"12069","name":"Lake Co."},"geometry":{"type":"Polygon","coordinates":[[[-81.3663,28.8736],[-81.3686,28.8729],[-81.3724,28.8689],[-81.3741,28.8698],[-81.376,28.8659],[-81.375,28.8623],[-81.3799,28.8581],[-81.383,28.852],[-81.3901,28.849],[-81.3947,28.8421],[-81.403,28.8372],[-81.4039,28.8348],[-81.4073,28.8348],[-81.412,28.8306],[-81.4168,28.8246],[-81.4196,28.8152],[-81.4182,28.8065],[-81.4157,28.8026],[-81.4138,28.7926],[-81.4147,28.7856],[-81.4694,28.7858],[-81.4774,28.7862],[-81.6465,28.7859],[-81.6448,28.776],[-81.6452,28.7727],[-81.649,28.7669],[-81.6532,28.7661],[-81.6564,28.7698],[-81.6586,28.7664],[-81.6585,28.6768],[-81.6582,28.6589],[-81.6569,28.6078],[-81.6572,28.5926],[-81.6535,28.5904],[-81.6481,28.5845],[-81.652,28.5802],[-81.6514,28.5751],[-81.6529,28.5709],[-81.6572,28.5698],[-81.6575,28.5224],[-81.6575,28.4506],[-81.6573,28.3841],[-81.6573,28.3471],[-81.7061,28.3466],[-81.7907,28.3464],[-81.7909,28.3618],[-81.8189,28.3617],[-81.8576,28.3619],[-81.8575,28.346],[-81.9403,28.3452],[-81.9576,28.3452],[-81.9562,28.4159],[-81.9541,28.5807],[-81.9549,28.6424],[-81.9545,28.6557],[-81.9543,28.7006],[-81.9539,28.7278],[-81.954,28.748],[-81.9537,28.7553],[-81.9536,28.8289],[-81.9533,28.8785],[-81.9541,28.9352],[-81.9542,28.9601],[-81.896,28.9599],[-81.8748,28.9603],[-81.8548,28.9598],[-81.8423,28.9599],[-81.8422,28.961],[-81.7853,28.9609],[-81.7191,28.9611],[-81.6961,28.9601],[-81.6587,28.9603],[-81.6592,29.0003],[-81.6592,29.0478],[-81.6387,29.0478],[-81.6405,29.1316],[-81.6419,29.2505],[-81.6419,29.2768],[-81.6404,29.2739],[-81.6357,29.2586],[-81.6339,29.2543],[-81.6348,29.2473],[-81.634,29.2448],[-81.6259,29.2359],[-81.6217,29.2302],[-81.6193,29.2286],[-81.6158,29.2212],[-81.615,29.2173],[-81.6173,29.2129],[-81.6168,29.2105],[-81.6123,29.2045],[-81.6123,29.2028],[-81.6046,29.2005],[-81.5931,29.199],[-81.5826,29.2003],[-81.5758,29.2029],[-81.5609,29.2002],[-81.5581,29.1974],[-81.5571,29.1939],[-81.5536,29.188],[-81.5545,29.1853],[-81.5465,29.1846],[-81.5441,29.1811],[-81.5402,29.1792],[-81.5326,29.1776],[-81.5315,29.1723],[-81.5239,29.1692],[-81.5218,29.1662],[-81.5236,29.161],[-81.5226,29.156],[-81.5173,29.1483],[-81.5147,29.1426],[-81.5129,29.1356],[-81.51,29.1328],[-81.5045,29.1237],[-81.5063,29.1178],[-81.5067,29.1122],[-81.5003,29.1025],[-81.5021,29.0978],[-81.4975,29.0957],[-81.492,29.0955],[-81.4888,29.0932],[-81.4842,29.0931],[-81.4753,29.0944],[-81.4703,29.0968],[-81.4664,29.0967],[-81.4592,29.0942],[-81.4544,29.082],[-81.4605,29.0783],[-81.4607,29.0747],[-81.4558,29.0715],[-81.4553,29.0631],[-81.4523,29.0616],[-81.4467,29.0623],[-81.4363,29.048],[-81.4322,29.0444],[-81.4258,29.0448],[-81.4188,29.038],[-81.4154,29.0384],[-81.4084,29.0312],[-81.4029,29.0325],[-81.3948,29.0241],[-81.3952,29.0187],[-81.3921,29.02],[-81.3877,29.0162],[-81.3882,29.0107],[-81.3808,29.0074],[-81.3782,28.9989],[-81.3728,28.9992],[-81.3723,28.9971],[-81.3757,28.994],[-81.373,28.9931],[-81.3644,28.9927],[-81.3584,28.9894],[-81.3547,28.9848],[-81.3569,28.9799],[-81.3627,28.9744],[-81.3642,28.9686],[-81.3694,28.9674],[-81.3661,28.9623],[-81.3668,28.9597],[-81.3709,28.9583],[-81.3681,28.9554],[-81.3617,28.9571],[-81.3589,28.9559],[-81.3596,28.9511],[-81.3556,28.9511],[-81.3546,28.9484],[-81.3592,28.9458],[-81.3574,28.9448],[-81.3549,28.9472],[-81.353,28.9462],[-81.3556,28.9412],[-81.3532,28.9391],[-81.3497,28.9396],[-81.3535,28.9368],[-81.3514,28.9328],[-81.3544,28.9315],[-81.3551,28.9284],[-81.3533,28.9264],[-81.352,28.9207],[-81.3541,28.9209],[-81.3595,28.914],[-81.3567,28.9105],[-81.3602,28.9067],[-81.3575,28.9037],[-81.3578,28.9004],[-81.3528,28.8967],[-81.3558,28.8966],[-81.3548,28.8926],[-81.3572,28.8871],[-81.3645,28.8903],[-81.3661,28.8878],[-81.3654,28.8829],[-81.3631,28.8797],[-81.3669,28.8792],[-81.3663,28.8736]]]}},{"type":"Feature","properties":{"id":"12117","name":"Seminole Co."},"geometry":{"type":"Polygon","coordinates":[[[-81.4138,28.7926],[-81.4157,28.8026],[-81.4182,28.8065],[-81.4196,28.8152],[-81.4168,28.8246],[-81.412,28.8306],[-81.4073,28.8348],[-81.4039,28.8348],[-81.403,28.8372],[-81.3947,28.8421],[-81.3901,28.849],[-81.383,28.852],[-81.3799,28.8581],[-81.375,28.8623],[-81.376,28.8659],[-81.3741,28.8698],[-81.3724,28.8689],[-81.3686,28.8729],[-81.3663,28.8736],[-81.3669,28.8792],[-81.3607,28.8725],[-81.3646,28.8674],[-81.3635,28.8647],[-81.3521,28.8623],[-81.3511,28.8581],[-81.355,28.858],[-81.3557,28.8533],[-81.3596,28.8503],[-81.358,28.8478],[-81.3476,28.8462],[-81.3415,28.8471],[-81.3335,28.8404],[-81.3242,28.8376],[-81.3205,28.8345],[-81.3096,28.8346],[-81.2257,28.8325],[-81.2229,28.8269],[-81.2246,28.8216],[-81.2213,28.8203],[-81.2159,28.8144],[-81.2163,28.8083],[-81.2137,28.8042],[-81.208,28.8018],[-81.2039,28.7969],[-81.1987,28.7945],[-81.1974,28.7919],[-81.195,28.7923],[-81.1913,28.7957],[-81.1882,28.7938],[-81.1843,28.797],[-81.1804,28.796],[-81.1795,28.7903],[-81.1812,28.7829],[-81.1775,28.7829],[-81.1776,28.7859],[-81.1716,28.786],[-81.171,28.7832],[-81.1643,28.7894],[-81.1564,28.7918],[-81.1489,28.7922],[-81.1379,28.7913],[-81.1356,28.7935],[-81.1404,28.796],[-81.1384,28.7974],[-81.1293,28.7995],[-81.1304,28.807],[-81.1248,28.8107],[-81.1231,28.8141],[-81.1262,28.8214],[-81.1183,28.8265],[-81.1151,28.8261],[-81.1117,28.8282],[-81.1057,28.8285],[-81.1039,28.8253],[-81.096,28.8221],[-81.0919,28.8247],[-81.0853,28.8159],[-81.0797,28.8169],[-81.0761,28.8193],[-81.0732,28.8149],[-81.0674,28.813],[-81.0661,28.8101],[-81.0674,28.803],[-81.0592,28.7949],[-81.0571,28.7904],[-81.0531,28.7736],[-81.0606,28.762],[-81.0611,28.75],[-81.0577,28.7451],[-81.0409,28.7297],[-81.0414,28.7267],[-81.0372,28.7254],[-81.0376,28.7202],[-81.034,28.7186],[-81.0355,28.7122],[-81.0334,28.7081],[-81.0214,28.7011],[-81.0204,28.6978],[-81.0166,28.693],[-81.017,28.6901],[-81.02,28.6885],[-81.0216,28.6829],[-81.0213,28.6743],[-81.011,28.6681],[-81.0072,28.6635],[-81.0083,28.6588],[-81.0058,28.6518],[-81.0031,28.6481],[-81.0033,28.645],[-81.0012,28.6411],[-81.0071,28.6363],[-81.0024,28.6314],[-80.9982,28.6306],[-80.9997,28.6281],[-80.9942,28.6216],[-80.9896,28.6248],[-80.9869,28.6183],[-80.99,28.6171],[-80.9899,28.6139],[-80.9872,28.613],[-80.9954,28.6132],[-81.0677,28.6127],[-81.098,28.6127],[-81.1745,28.612],[-81.192,28.6121],[-81.2623,28.6115],[-81.3279,28.6105],[-81.3285,28.6396],[-81.3616,28.6393],[-81.3617,28.6404],[-81.4152,28.6401],[-81.4597,28.6402],[-81.4595,28.7133],[-81.458,28.7143],[-81.4464,28.7137],[-81.4414,28.7151],[-81.4394,28.7191],[-81.4316,28.727],[-81.4269,28.7337],[-81.4238,28.7353],[-81.4219,28.7397],[-81.4215,28.7445],[-81.4185,28.7546],[-81.4165,28.7557],[-81.4152,28.7637],[-81.4164,28.7695],[-81.4147,28.777],[-81.4155,28.7827],[-81.4147,28.7856],[-81.4138,28.7926]]]}},{"type":"Feature","properties":{"id":"12095","name":"Orange Co."},"geometry":{"type":"Polygon","coordinates":[[[-81.4155,28.7827],[-81.4147,28.777],[-81.4164,28.7695],[-81.4152,28.7637],[-81.4165,28.7557],[-81.4185,28.7546],[-81.4215,28.7445],[-81.4219,28.7397],[-81.4238,28.7353],[-81.4269,28.7337],[-81.4316,28.727],[-81.4394,28.7191],[-81.4414,28.7151],[-81.4464,28.7137],[-81.458,28.7143],[-81.4595,28.7133],[-81.4597,28.6402],[-81.4152,28.6401],[-81.3617,28.6404],[-81.3616,28.6393],[-81.3285,28.6396],[-81.3279,28.6105],[-81.2623,28.6115],[-81.192,28.6121],[-81.1745,28.612],[-81.098,28.6127],[-81.0677,28.6127],[-80.9954,28.6132],[-80.9872,28.613],[-80.9837,28.6102],[-80.9756,28.6078],[-80.9731,28.6113],[-80.971,28.6112],[-80.9695,28.6052],[-80.9652,28.6044],[-80.9615,28.6055],[-80.957,28.6019],[-80.9565,28.6038],[-80.9522,28.6042],[-80.9531,28.6011],[-80.9466,28.5972],[-80.9433,28.5937],[-80.9439,28.5905],[-80.9471,28.585],[-80.9447,28.5838],[-80.9442,28.58],[-80.9404,28.5781],[-80.9403,28.5743],[-80.9363,28.5714],[-80.932,28.5647],[-80.93,28.5632],[-80.9316,28.5599],[-80.9341,28.5593],[-80.9317,28.5559],[-80.9338,28.555],[-80.9326,28.5516],[-80.9342,28.5448],[-80.9331,28.5411],[-80.939,28.542],[-80.9395,28.5353],[-80.9358,28.5366],[-80.9337,28.5334],[-80.9318,28.5354],[-80.9287,28.5329],[-80.9234,28.5327],[-80.9211,28.5288],[-80.9206,28.5252],[-80.9163,28.5228],[-80.9114,28.5246],[-80.9125,28.5226],[-80.907,28.5204],[-80.908,28.5181],[-80.9054,28.5166],[-80.9071,28.5138],[-80.9046,28.5105],[-80.8999,28.5114],[-80.8986,28.5097],[-80.8903,28.5118],[-80.8857,28.5103],[-80.8833,28.5043],[-80.8813,28.504],[-80.8799,28.4976],[-80.8841,28.4949],[-80.8826,28.4915],[-80.8753,28.4887],[-80.878,28.4864],[-80.8756,28.4858],[-80.8734,28.4822],[-80.8742,28.4763],[-80.8709,28.4717],[-80.8751,28.4688],[-80.8758,28.4708],[-80.8808,28.4683],[-80.8817,28.4704],[-80.8867,28.4696],[-80.8896,28.4666],[-80.8908,28.4684],[-80.8944,28.4671],[-80.8933,28.4634],[-80.8958,28.4632],[-80.8941,28.458],[-80.8983,28.4551],[-80.8957,28.4512],[-80.892,28.4491],[-80.8902,28.4453],[-80.8939,28.4439],[-80.8955,28.4363],[-80.8994,28.4335],[-80.8955,28.4207],[-80.8965,28.4187],[-80.8924,28.4185],[-80.8882,28.4158],[-80.8879,28.4128],[-80.883,28.4082],[-80.8864,28.4038],[-80.8867,28.4],[-80.8847,28.3959],[-80.8896,28.3931],[-80.8878,28.388],[-80.8884,28.3855],[-80.8855,28.3848],[-80.8814,28.3806],[-80.8796,28.3804],[-80.8793,28.3724],[-80.8753,28.3732],[-80.8728,28.3696],[-80.8739,28.3616],[-80.8718,28.3572],[-80.8667,28.3503],[-80.8629,28.3475],[-81.1742,28.3482],[-81.2322,28.3482],[-81.3885,28.3479],[-81.4479,28.3479],[-81.4577,28.3473],[-81.4876,28.3471],[-81.5332,28.3473],[-81.6482,28.3469],[-81.6573,28.3471],[-81.6573,28.3841],[-81.6575,28.4506],[-81.6575,28.5224],[-81.6572,28.5698],[-81.6529,28.5709],[-81.6514,28.5751],[-81.652,28.5802],[-81.6481,28.5845],[-81.6535,28.5904],[-81.6572,28.5926],[-81.6569,28.6078],[-81.6582,28.6589],[-81.6585,28.6768],[-81.6586,28.7664],[-81.6564,28.7698],[-81.6532,28.7661],[-81.649,28.7669],[-81.6452,28.7727],[-81.6448,28.776],[-81.6465,28.7859],[-81.4774,28.7862],[-81.4694,28.7858],[-81.4147,28.7856],[-81.4155,28.7827]]]}}]}