{"type":"FeatureCollection","features":[{"type":"Feature","properties":{"id":"37145","name":"Person Co."},"geometry":{"type":"Polygon","coordinates":[[[-78.9061,36.2385],[-78.9506,36.2393],[-79.0322,36.2404],[-79.0713,36.241],[-79.1182,36.2414],[-79.154,36.2419],[-79.146,36.3948],[-79.1407,36.4927],[-79.1383,36.5417],[-79.1247,36.5416],[-78.9718,36.5421],[-78.7963,36.5417],[-78.7948,36.5264],[-78.7971,36.4477],[-78.7995,36.3526],[-78.8015,36.2669],[-78.8023,36.2358],[-78.9061,36.2385]]]}},{"type":"Feature","properties":{"id":"37135","name":"Orange Co."},"geometry":{"type":"Polygon","coordinates":[[[-79.1182,36.2414],[-79.0713,36.241],[-79.0322,36.2404],[-78.9506,36.2393],[-78.9581,36.197],[-79.0007,35.9527],[-79.0163,35.8632],[-79.0819,35.8608],[-79.1318,35.8653],[-79.2188,35.8737],[-79.2495,35.8768],[-79.256,35.8863],[-79.2579,35.8915],[-79.2569,35.9021],[-79.2594,35.9048],[-79.2682,35.9092],[-79.2671,35.9137],[-79.264,35.9141],[-79.2635,35.9666],[-79.2645,35.9737],[-79.2634,35.9737],[-79.263,36.0059],[-79.2617,36.0415],[-79.2612,36.0688],[-79.2602,36.0815],[-79.2604,36.0952],[-79.2596,36.0954],[-79.2601,36.1096],[-79.2584,36.1944],[-79.258,36.2434],[-79.154,36.2419],[-79.1182,36.2414]]]}},{"type":"Feature","properties":{"id":"37037","name":"Chatham Co."},"geometry":{"type":"Polygon","coordinates":[[[-79.2188,35.8737],[-79.1318,35.8653],[-79.0819,35.8608],[-79.0163,35.8632],[-78.9061,35.8681],[-78.9094,35.843],[-78.9186,35.8198],[-78.9266,35.8015],[-78.9309,35.7944],[-78.9363,35.7719],[-78.9559,35.7161],[-78.9711,35.6764],[-78.9831,35.6445],[-78.995,35.6102],[-78.95,35.5959],[-78.9161,35.5841],[-78.9688,35.5225],[-78.9696,35.5217],[-78.9772,35.5296],[-78.9839,35.5356],[-78.9908,35.5402],[-78.9956,35.5421],[-79.0092,35.5427],[-79.0166,35.5443],[-79.024,35.5484],[-79.0319,35.5561],[-79.0338,35.5592],[-79.0408,35.5656],[-79.0456,35.5684],[-79.0474,35.5732],[-79.0466,35.578],[-79.0516,35.585],[-79.0526,35.5961],[-79.0618,35.6024],[-79.0687,35.6089],[-79.0777,35.614],[-79.0907,35.6178],[-79.1001,35.6236],[-79.1123,35.6229],[-79.1158,35.6276],[-79.1212,35.6276],[-79.1236,35.6248],[-79.127,35.6237],[-79.1391,35.624],[-79.1485,35.6187],[-79.1548,35.6098],[-79.1579,35.6036],[-79.1617,35.6012],[-79.1669,35.5961],[-79.172,35.5934],[-79.1844,35.5833],[-79.188,35.5794],[-79.2002,35.5771],[-79.2019,35.5741],[-79.1991,35.5639],[-79.1993,35.5592],[-79.2144,35.5557],[-79.2239,35.5508],[-79.2261,35.5551],[-79.2218,35.5587],[-79.2188,35.5659],[-79.2244,35.5688],[-79.2324,35.5681],[-79.2411,35.5705],[-79.2446,35.5693],[-79.2429,35.562],[-79.2434,35.5567],[-79.2452,35.553],[-79.251,35.5481],[-79.2609,35.5371],[-79.2676,35.5327],[-79.2755,35.5318],[-79.2801,35.5341],[-79.2873,35.5396],[-79.2901,35.5397],[-79.2918,35.5427],[-79.2885,35.5479],[-79.2821,35.5515],[-79.2846,35.555],[-79.2929,35.553],[-79.2999,35.5533],[-79.3034,35.5521],[-79.3043,35.5483],[-79.3096,35.5469],[-79.3172,35.5434],[-79.3212,35.5445],[-79.3238,35.5425],[-79.3158,35.5374],[-79.3112,35.5327],[-79.3121,35.5305],[-79.3219,35.5246],[-79.329,35.5243],[-79.3337,35.5253],[-79.3387,35.5214],[-79.3501,35.518],[-79.4393,35.5168],[-79.5558,35.515],[-79.5532,35.5993],[-79.5514,35.6315],[-79.5496,35.6588],[-79.5467,35.709],[-79.5455,35.7426],[-79.5424,35.8433],[-79.3925,35.8438],[-79.2696,35.8441],[-79.2373,35.8442],[-79.2366,35.8498],[-79.2404,35.8526],[-79.2481,35.8545],[-79.2504,35.857],[-79.2491,35.8665],[-79.2508,35.8697],[-79.2495,35.8768],[-79.2188,35.8737]]]}},{"type":"Feature","properties":{"id":"37063","name":"Durham Co."},"geometry":{"type":"Polygon","coordinates":[[[-78.9061,36.2385],[-78.8023,36.2358],[-78.8031,36.179],[-78.8047,36.0946],[-78.8031,36.0896],[-78.8075,36.0873],[-78.7978,36.0846],[-78.794,36.0864],[-78.7921,36.0853],[-78.791,36.0806],[-78.793,36.0783],[-78.7897,36.0789],[-78.7847,36.0764],[-78.7881,36.0737],[-78.7837,36.07],[-78.7791,36.0715],[-78.7513,36.0708],[-78.7543,36.0563],[-78.7536,36.0314],[-78.7402,36.0236],[-78.72,36.0296],[-78.7074,36.0111],[-78.6998,36.0114],[-78.7134,35.9689],[-78.717,35.9613],[-78.7417,35.9339],[-78.7489,35.9335],[-78.7582,35.9216],[-78.7591,35.9184],[-78.8048,35.9276],[-78.83,35.867],[-78.9061,35.8681],[-79.0163,35.8632],[-79.0007,35.9527],[-78.9581,36.197],[-78.9506,36.2393],[-78.9061,36.2385]]]}}]}