{"type":"FeatureCollection","features":[{"type":"Feature","properties":{"id":"09170","name":"South Central Connecticut Region"},"geometry":{"type":"MultiPolygon","coordinates":[[[[-72.7589,41.2538],[-72.7547,41.2559],[-72.7403,41.2565],[-72.7411,41.2527],[-72.7455,41.251],[-72.7499,41.2473],[-72.7571,41.2443],[-72.7603,41.2412],[-72.7614,41.2423],[-72.7589,41.2538]]],[[[-72.7623,41.2604],[-72.7612,41.259],[-72.7643,41.2592],[-72.7623,41.2604]]],[[[-73.1208,41.1885],[-73.1154,41.1935],[-73.1106,41.2003],[-73.1093,41.2041],[-73.1107,41.2078],[-73.1103,41.214],[-73.1084,41.2183],[-73.1105,41.2253],[-73.11,41.2294],[-73.105,41.2366],[-73.1016,41.2401],[-73.0912,41.2464],[-73.0873,41.2518],[-73.0887,41.2717],[-73.0838,41.2815],[-73.0789,41.2845],[-73.0713,41.2873],[-73.0688,41.2892],[-73.0653,41.2949],[-73.0651,41.2976],[-73.0679,41.301],[-73.0617,41.3101],[-73.0579,41.3121],[-73.0491,41.3113],[-73.0407,41.3139],[-73.0389,41.328],[-73.0437,41.3423],[-73.0463,41.3461],[-73.0464,41.3521],[-73.0491,41.3811],[-73.0482,41.3915],[-73.0464,41.4017],[-73.0417,41.4209],[-73.0295,41.4195],[-73.0252,41.4346],[-73.025,41.4512],[-73.0258,41.4596],[-73.0033,41.4627],[-73.0013,41.4711],[-72.9898,41.4689],[-72.9854,41.469],[-72.9662,41.4663],[-72.9359,41.4627],[-72.9267,41.4603],[-72.9166,41.4596],[-72.8867,41.448],[-72.8766,41.4597],[-72.8774,41.4612],[-72.8463,41.5028],[-72.8496,41.5146],[-72.8537,41.5221],[-72.8531,41.5249],[-72.8612,41.5281],[-72.858,41.5345],[-72.8536,41.5335],[-72.8517,41.5403],[-72.8531,41.5464],[-72.8443,41.5447],[-72.8485,41.5673],[-72.8402,41.5691],[-72.8276,41.571],[-72.8296,41.5624],[-72.8257,41.5643],[-72.8261,41.5559],[-72.8191,41.5543],[-72.8052,41.5666],[-72.8012,41.5731],[-72.7681,41.5773],[-72.7522,41.5789],[-72.7489,41.5443],[-72.7471,41.5273],[-72.7448,41.4982],[-72.7433,41.4831],[-72.7339,41.4854],[-72.7354,41.4733],[-72.7391,41.4383],[-72.7461,41.4233],[-72.7104,41.4291],[-72.6827,41.4338],[-72.6787,41.4338],[-72.6537,41.4381],[-72.653,41.4349],[-72.6484,41.4351],[-72.6496,41.431],[-72.6424,41.4293],[-72.6505,41.4191],[-72.6378,41.4123],[-72.6323,41.4123],[-72.6308,41.4036],[-72.625,41.3991],[-72.6259,41.3972],[-72.6225,41.3936],[-72.618,41.3917],[-72.6123,41.3862],[-72.614,41.3808],[-72.6088,41.3735],[-72.6081,41.3674],[-72.6101,41.3671],[-72.6097,41.3634],[-72.6122,41.3627],[-72.6128,41.3502],[-72.6112,41.3432],[-72.6144,41.337],[-72.6144,41.33],[-72.6115,41.3275],[-72.6087,41.3282],[-72.6008,41.3258],[-72.5957,41.328],[-72.5918,41.3228],[-72.5873,41.3243],[-72.5853,41.3186],[-72.5894,41.3151],[-72.5849,41.3129],[-72.5886,41.3117],[-72.5857,41.3099],[-72.5856,41.3073],[-72.5763,41.3024],[-72.576,41.3009],[-72.5707,41.298],[-72.5701,41.2944],[-72.5676,41.2942],[-72.5639,41.2887],[-72.5611,41.2875],[-72.555,41.2806],[-72.5489,41.2819],[-72.546,41.2803],[-72.548,41.2774],[-72.5443,41.2737],[-72.547,41.2716],[-72.5464,41.2674],[-72.5477,41.2643],[-72.5458,41.2603],[-72.5363,41.2548],[-72.5368,41.2509],[-72.5439,41.2487],[-72.5711,41.2681],[-72.5833,41.2717],[-72.598,41.2687],[-72.6041,41.2708],[-72.608,41.2704],[-72.6172,41.272],[-72.6415,41.267],[-72.6584,41.265],[-72.661,41.2685],[-72.6657,41.2701],[-72.6688,41.2659],[-72.6732,41.2676],[-72.6796,41.2615],[-72.6771,41.2583],[-72.6775,41.2548],[-72.6851,41.258],[-72.6855,41.2513],[-72.6904,41.2467],[-72.6947,41.245],[-72.6991,41.2471],[-72.7061,41.2439],[-72.709,41.2446],[-72.7092,41.2472],[-72.7132,41.2488],[-72.7026,41.2559],[-72.7058,41.2599],[-72.7173,41.2559],[-72.7189,41.2569],[-72.7154,41.259],[-72.7148,41.2614],[-72.7174,41.2629],[-72.7227,41.2593],[-72.7293,41.2583],[-72.7324,41.2551],[-72.737,41.2573],[-72.7353,41.261],[-72.7401,41.2623],[-72.7496,41.2594],[-72.7522,41.2656],[-72.7544,41.2669],[-72.7605,41.266],[-72.7621,41.2677],[-72.7672,41.2658],[-72.771,41.266],[-72.7736,41.2639],[-72.7794,41.2656],[-72.7873,41.2646],[-72.7911,41.2598],[-72.7965,41.2602],[-72.8,41.2579],[-72.8066,41.2558],[-72.8076,41.2528],[-72.8112,41.2502],[-72.8184,41.2497],[-72.8176,41.2521],[-72.8236,41.256],[-72.8207,41.2592],[-72.8213,41.2616],[-72.8288,41.2645],[-72.8302,41.259],[-72.834,41.2506],[-72.8371,41.249],[-72.8405,41.2531],[-72.8387,41.2564],[-72.8418,41.259],[-72.8449,41.2568],[-72.851,41.2564],[-72.8504,41.2506],[-72.8611,41.2458],[-72.8701,41.2453],[-72.8815,41.2431],[-72.89,41.2446],[-72.8946,41.2425],[-72.8967,41.2453],[-72.9034,41.2482],[-72.9027,41.2529],[-72.8947,41.2565],[-72.8938,41.2599],[-72.8975,41.2658],[-72.9054,41.2706],[-72.9031,41.2774],[-72.9062,41.2832],[-72.9064,41.2922],[-72.9076,41.2962],[-72.9131,41.2967],[-72.9219,41.2893],[-72.9239,41.2855],[-72.9297,41.2809],[-72.9381,41.2819],[-72.9392,41.2802],[-72.9366,41.277],[-72.9364,41.2731],[-72.9318,41.2692],[-72.931,41.2627],[-72.9362,41.2599],[-72.9532,41.2554],[-72.9572,41.2524],[-72.9621,41.2519],[-72.9635,41.248],[-72.9689,41.2439],[-72.972,41.2372],[-72.9751,41.2338],[-72.9783,41.2333],[-72.9856,41.2359],[-72.9875,41.2311],[-72.992,41.2237],[-72.997,41.2226],[-73.0025,41.2228],[-73.0041,41.2214],[-73.0084,41.2101],[-73.0145,41.2047],[-73.0202,41.2043],[-73.0203,41.2067],[-73.0296,41.2075],[-73.0349,41.2061],[-73.0379,41.2018],[-73.0447,41.2092],[-73.0496,41.2108],[-73.0555,41.2091],[-73.0608,41.2058],[-73.0659,41.1984],[-73.073,41.1976],[-73.082,41.193],[-73.0888,41.1874],[-73.1015,41.1738],[-73.1033,41.1741],[-73.108,41.1688],[-73.1199,41.1757],[-73.122,41.1789],[-73.1225,41.1829],[-73.1208,41.1885]]]]}}]}