{"type":"FeatureCollection","features":[{"type":"Feature","properties":{"zcta":"06450","d":1318},"geometry":{"type":"Polygon","coordinates":[[[-72.76808,41.57731],[-72.75218,41.57889],[-72.75024,41.55918],[-72.74927,41.54749],[-72.74706,41.52729],[-72.74478,41.49818],[-72.77265,41.49675],[-72.79592,41.50472],[-72.81519,41.50852],[-72.8129,41.51673],[-72.81056,41.52168],[-72.80761,41.52516],[-72.80551,41.53154],[-72.80242,41.53754],[-72.79492,41.54554],[-72.79248,41.55053],[-72.79176,41.55498],[-72.78956,41.56019],[-72.77972,41.57594],[-72.76808,41.57731]]]}},{"type":"Feature","properties":{"zcta":"06405","d":740},"geometry":{"type":"MultiPolygon","coordinates":[[[[-72.75973,41.24845],[-72.75886,41.25384],[-72.75466,41.25593],[-72.74768,41.25585],[-72.7403,41.25645],[-72.74106,41.25269],[-72.74548,41.25098],[-72.74566,41.24972],[-72.74987,41.24731],[-72.75714,41.2443],[-72.76034,41.24124],[-72.76143,41.24233],[-72.75973,41.24845]]],[[[-72.76234,41.26036],[-72.76119,41.259],[-72.76311,41.25804],[-72.76425,41.25921],[-72.76234,41.26036]]],[[[-72.80188,41.32368],[-72.80057,41.32108],[-72.79543,41.32022],[-72.79521,41.31896],[-72.79184,41.31727],[-72.78958,41.31425],[-72.7846,41.31548],[-72.77865,41.31167],[-72.77843,41.30992],[-72.77676,41.31018],[-72.77134,41.30509],[-72.76469,41.30686],[-72.74611,41.31063],[-72.74669,41.30804],[-72.74543,41.30487],[-72.7466,41.29959],[-72.74512,41.29744],[-72.74204,41.2972],[-72.73813,41.28629],[-72.73582,41.28407],[-72.72805,41.268],[-72.73225,41.26557],[-72.73155,41.26307],[-72.73446,41.26275],[-72.73577,41.26115],[-72.74013,41.26227],[-72.7496,41.25937],[-72.7515,41.2627],[-72.75217,41.26563],[-72.75444,41.26691],[-72.76054,41.26604],[-72.76206,41.26769],[-72.76716,41.26584],[-72.77103,41.266],[-72.77357,41.26389],[-72.77944,41.26557],[-72.78728,41.26456],[-72.78822,41.26265],[-72.79109,41.25985],[-72.79653,41.26018],[-72.79995,41.25795],[-72.80353,41.25748],[-72.80656,41.25584],[-72.80761,41.25283],[-72.81124,41.2502],[-72.81671,41.2493],[-72.81841,41.24965],[-72.81759,41.2521],[-72.82143,41.25532],[-72.82357,41.25605],[-72.82067,41.25916],[-72.82134,41.26163],[-72.82466,41.26203],[-72.82483,41.2637],[-72.82877,41.26454],[-72.82921,41.26198],[-72.83094,41.26],[-72.83017,41.25903],[-72.83293,41.25439],[-72.83396,41.25056],[-72.8371,41.24899],[-72.84053,41.25309],[-72.83874,41.25636],[-72.84106,41.2566],[-72.84179,41.25903],[-72.84452,41.25823],[-72.8449,41.25682],[-72.8474,41.2572],[-72.85101,41.25645],[-72.85001,41.2553],[-72.85042,41.25062],[-72.85462,41.24813],[-72.85889,41.24659],[-72.85724,41.2522],[-72.85227,41.25905],[-72.85193,41.26218],[-72.85334,41.26413],[-72.8577,41.26557],[-72.86051,41.26552],[-72.86247,41.26978],[-72.86405,41.26955],[-72.85934,41.28101],[-72.86082,41.28301],[-72.85897,41.28773],[-72.85582,41.29087],[-72.85086,41.29364],[-72.84374,41.2964],[-72.84018,41.2998],[-72.83729,41.31257],[-72.83501,41.31439],[-72.82384,41.31832],[-72.80188,41.32368]]]]}},{"type":"Feature","properties":{"zcta":"06516","d":2483},"geometry":{"type":"Polygon","coordinates":[[[-72.99046,41.24772],[-72.99237,41.24869],[-72.99203,41.26809],[-72.97994,41.27919],[-72.98298,41.28129],[-72.98691,41.28116],[-72.98619,41.28574],[-72.9873,41.28825],[-72.98573,41.29199],[-72.98427,41.30179],[-72.98915,41.3133],[-72.97249,41.31195],[-72.96371,41.31091],[-72.9563,41.31046],[-72.95743,41.30665],[-72.95597,41.30514],[-72.9563,41.30161],[-72.95264,41.29944],[-72.94987,41.29619],[-72.952,41.29447],[-72.94792,41.29206],[-72.94651,41.29289],[-72.94293,41.28901],[-72.94021,41.28778],[-72.94075,41.28599],[-72.93859,41.28113],[-72.93916,41.28019],[-72.93657,41.27697],[-72.93641,41.27305],[-72.93179,41.26918],[-72.93111,41.26729],[-72.93102,41.26267],[-72.93619,41.25989],[-72.95315,41.25542],[-72.95721,41.25243],[-72.96206,41.25194],[-72.96348,41.248],[-72.9689,41.24392],[-72.97204,41.23717],[-72.97514,41.23383],[-72.97835,41.23331],[-72.98559,41.23588],[-72.98655,41.23532],[-72.9927,41.23452],[-72.99323,41.23739],[-72.99213,41.239],[-72.99463,41.24169],[-72.99313,41.24475],[-72.99205,41.24491],[-72.99046,41.24772]]]}},{"type":"Feature","properties":{"zcta":"06513","d":2306},"geometry":{"type":"Polygon","coordinates":[[[-72.89264,41.3303],[-72.88884,41.3326],[-72.87918,41.33409],[-72.86994,41.33478],[-72.8662,41.33601],[-72.86031,41.33664],[-72.82799,41.34236],[-72.8283,41.34134],[-72.82273,41.34149],[-72.81775,41.33998],[-72.82263,41.32288],[-72.82433,41.32351],[-72.82811,41.32226],[-72.83171,41.32339],[-72.83299,41.32497],[-72.84255,41.3239],[-72.84036,41.32923],[-72.84292,41.32977],[-72.84423,41.32626],[-72.84351,41.32384],[-72.84886,41.32205],[-72.85126,41.32195],[-72.85167,41.31604],[-72.85357,41.3221],[-72.85754,41.32193],[-72.85845,41.31938],[-72.85986,41.31914],[-72.85937,41.31694],[-72.85771,41.31649],[-72.85737,41.31399],[-72.85996,41.31053],[-72.85725,41.30757],[-72.8629,41.30441],[-72.86602,41.305],[-72.86895,41.30711],[-72.8705,41.30568],[-72.87364,41.30685],[-72.87629,41.30356],[-72.88252,41.29323],[-72.88643,41.28811],[-72.89249,41.28912],[-72.89324,41.29442],[-72.89619,41.29479],[-72.89771,41.29356],[-72.89765,41.2968],[-72.89982,41.29463],[-72.90452,41.29919],[-72.90566,41.30356],[-72.90813,41.30605],[-72.9078,41.31239],[-72.90676,41.31562],[-72.90433,41.31638],[-72.90411,41.31487],[-72.89479,41.32136],[-72.89163,41.32242],[-72.88947,41.325],[-72.89169,41.32847],[-72.89264,41.3303]]]}},{"type":"Feature","properties":{"zcta":"06471","d":433},"geometry":{"type":"Polygon","coordinates":[[[-72.81775,41.33998],[-72.81661,41.33961],[-72.81541,41.34177],[-72.81455,41.34632],[-72.81036,41.34684],[-72.80881,41.34788],[-72.80631,41.34465],[-72.80586,41.33932],[-72.79896,41.339],[-72.79795,41.33691],[-72.7944,41.33496],[-72.78674,41.3399],[-72.78858,41.34106],[-72.79038,41.34486],[-72.78911,41.34843],[-72.78517,41.35209],[-72.78017,41.35952],[-72.77673,41.3638],[-72.77176,41.36836],[-72.76835,41.37069],[-72.76457,41.372],[-72.7664,41.36952],[-72.76733,41.36583],[-72.76871,41.36504],[-72.76868,41.35793],[-72.76715,41.35464],[-72.76385,41.35807],[-72.7594,41.35775],[-72.75685,41.36121],[-72.7542,41.3621],[-72.75149,41.36551],[-72.74949,41.36627],[-72.74729,41.36884],[-72.74591,41.37223],[-72.7436,41.34665],[-72.74383,41.34636],[-72.74213,41.33456],[-72.74145,41.32369],[-72.74611,41.31063],[-72.76469,41.30686],[-72.77134,41.30509],[-72.77676,41.31018],[-72.77843,41.30992],[-72.77865,41.31167],[-72.7846,41.31548],[-72.78958,41.31425],[-72.79184,41.31727],[-72.79521,41.31896],[-72.79543,41.32022],[-72.80057,41.32108],[-72.80188,41.32368],[-72.82384,41.31832],[-72.82263,41.32288],[-72.81775,41.33998]]]}},{"type":"Feature","properties":{"zcta":"06472","d":211},"geometry":{"type":"Polygon","coordinates":[[[-72.79863,41.40513],[-72.78242,41.41091],[-72.77649,41.41337],[-72.74614,41.4233],[-72.72064,41.4274],[-72.72337,41.41914],[-72.7282,41.41764],[-72.73282,41.412],[-72.7408,41.40434],[-72.74274,41.403],[-72.74597,41.3969],[-72.7493,41.39809],[-72.74682,41.38256],[-72.74591,41.37223],[-72.74729,41.36884],[-72.74949,41.36627],[-72.75149,41.36551],[-72.7542,41.3621],[-72.75685,41.36121],[-72.7594,41.35775],[-72.76385,41.35807],[-72.76715,41.35464],[-72.76868,41.35793],[-72.76871,41.36504],[-72.76733,41.36583],[-72.7664,41.36952],[-72.76457,41.372],[-72.76835,41.37069],[-72.77176,41.36836],[-72.77673,41.3638],[-72.78017,41.35952],[-72.78517,41.35209],[-72.78911,41.34843],[-72.79038,41.34486],[-72.78858,41.34106],[-72.78674,41.3399],[-72.7944,41.33496],[-72.79795,41.33691],[-72.79896,41.339],[-72.80586,41.33932],[-72.80631,41.34465],[-72.80881,41.34788],[-72.81036,41.34684],[-72.81455,41.34632],[-72.81541,41.34177],[-72.81661,41.33961],[-72.81775,41.33998],[-72.817,41.36388],[-72.81745,41.37753],[-72.81772,41.39945],[-72.79863,41.40513]]]}},{"type":"Feature","properties":{"zcta":"06443","d":253},"geometry":{"type":"Polygon","coordinates":[[[-72.67109,41.43536],[-72.66683,41.43569],[-72.65367,41.43813],[-72.65456,41.43626],[-72.65302,41.43491],[-72.64836,41.43515],[-72.64959,41.43101],[-72.64684,41.43115],[-72.64235,41.42932],[-72.64879,41.422],[-72.65048,41.41912],[-72.64687,41.41574],[-72.64507,41.4158],[-72.64163,41.41374],[-72.6378,41.41232],[-72.63232,41.41232],[-72.63227,41.40812],[-72.63059,41.40694],[-72.63083,41.40359],[-72.62902,41.40123],[-72.62503,41.39909],[-72.62591,41.39717],[-72.62246,41.39359],[-72.61801,41.39166],[-72.61603,41.38874],[-72.61233,41.38618],[-72.61384,41.3844],[-72.61401,41.38078],[-72.61152,41.3765],[-72.60884,41.37351],[-72.60924,41.37053],[-72.60813,41.3674],[-72.61014,41.36715],[-72.60975,41.36337],[-72.61223,41.36267],[-72.61265,41.35383],[-72.6116,41.35233],[-72.61283,41.35022],[-72.61139,41.3471],[-72.61121,41.34323],[-72.61441,41.337],[-72.6136,41.33622],[-72.61496,41.33359],[-72.61441,41.32997],[-72.61208,41.32922],[-72.61152,41.32751],[-72.60865,41.32818],[-72.60523,41.32761],[-72.60078,41.32581],[-72.59719,41.32853],[-72.59571,41.32804],[-72.5918,41.32278],[-72.58944,41.32266],[-72.58734,41.32433],[-72.58577,41.32298],[-72.58532,41.31862],[-72.58941,41.31513],[-72.58488,41.31293],[-72.58857,41.3117],[-72.58566,41.30985],[-72.5856,41.30735],[-72.5825,41.30639],[-72.57987,41.304],[-72.57634,41.30243],[-72.57595,41.30092],[-72.5707,41.298],[-72.57015,41.29442],[-72.56756,41.29417],[-72.56563,41.29239],[-72.56393,41.2887],[-72.56113,41.2875],[-72.55743,41.2837],[-72.55724,41.28199],[-72.55503,41.28061],[-72.55113,41.28058],[-72.54889,41.28186],[-72.54599,41.28034],[-72.54805,41.27742],[-72.54434,41.2737],[-72.54703,41.2716],[-72.54636,41.2674],[-72.54766,41.26432],[-72.54573,41.26024],[-72.53633,41.25481],[-72.53676,41.2509],[-72.54394,41.2487],[-72.57114,41.2681],[-72.58334,41.2717],[-72.59804,41.2687],[-72.60408,41.27077],[-72.60796,41.27044],[-72.61724,41.272],[-72.64154,41.267],[-72.65453,41.26576],[-72.65656,41.26988],[-72.65427,41.27125],[-72.65436,41.27399],[-72.64969,41.27441],[-72.64799,41.2759],[-72.64928,41.27956],[-72.64685,41.28112],[-72.64443,41.28093],[-72.64741,41.28594],[-72.64609,41.28744],[-72.64877,41.28888],[-72.64562,41.28899],[-72.64388,41.29161],[-72.63326,41.29936],[-72.63397,41.30391],[-72.63174,41.30945],[-72.63558,41.31288],[-72.63594,41.3155],[-72.63828,41.31803],[-72.64201,41.3204],[-72.64257,41.32266],[-72.65047,41.32668],[-72.65068,41.32842],[-72.65549,41.33134],[-72.65845,41.33029],[-72.66299,41.33292],[-72.66834,41.33928],[-72.67496,41.34857],[-72.67617,41.35385],[-72.67815,41.3574],[-72.67865,41.36041],[-72.67822,41.37186],[-72.67967,41.37976],[-72.67874,41.4338],[-72.67109,41.43536]]]}},{"type":"Feature","properties":{"zcta":"06524","d":129},"geometry":{"type":"Polygon","coordinates":[[[-72.94745,41.4601],[-72.94905,41.4558],[-72.95255,41.4529],[-72.95715,41.4501],[-72.95814,41.44884],[-72.95792,41.4452],[-72.96324,41.43941],[-72.96349,41.43754],[-72.96158,41.43243],[-72.95525,41.42893],[-72.95071,41.42781],[-72.95256,41.41937],[-72.94015,41.41122],[-72.93893,41.40858],[-72.94041,41.40782],[-72.94473,41.40623],[-72.95352,41.39974],[-72.95291,41.39695],[-72.95487,41.39448],[-72.9656,41.39361],[-72.97245,41.39278],[-73.00056,41.3905],[-73.02998,41.38853],[-73.03425,41.39179],[-73.03794,41.39191],[-73.04159,41.39506],[-73.04754,41.39583],[-73.04641,41.40169],[-73.04165,41.4209],[-73.02946,41.41949],[-73.02522,41.43457],[-73.02497,41.45123],[-73.02575,41.4596],[-73.00423,41.46256],[-73.0035,41.46709],[-73.00181,41.47116],[-72.98976,41.46887],[-72.98544,41.46904],[-72.96619,41.46625],[-72.94805,41.4641],[-72.94745,41.4601]]]}},{"type":"Feature","properties":{"zcta":"06460","d":1635},"geometry":{"type":"Polygon","coordinates":[[[-73.10833,41.19984],[-73.09357,41.20519],[-73.09435,41.20791],[-73.08701,41.21235],[-73.08529,41.21165],[-73.08273,41.21235],[-73.07655,41.21521],[-73.07327,41.22178],[-73.07481,41.22257],[-73.07347,41.22438],[-73.06726,41.22906],[-73.06769,41.23033],[-73.06163,41.23177],[-73.06299,41.23278],[-73.06048,41.23325],[-73.0594,41.23224],[-73.05497,41.23293],[-73.04746,41.23205],[-73.0435,41.23306],[-73.03629,41.2385],[-73.03504,41.24305],[-73.03198,41.24195],[-73.02774,41.24551],[-73.02862,41.24697],[-73.02567,41.24972],[-73.02482,41.25175],[-73.02123,41.25081],[-73.01271,41.24951],[-72.99205,41.24491],[-72.99313,41.24475],[-72.99463,41.24169],[-72.99213,41.239],[-72.99323,41.23739],[-72.9927,41.23452],[-72.98655,41.23532],[-72.98755,41.2311],[-72.99204,41.22372],[-72.99703,41.22264],[-73.00255,41.22275],[-73.00408,41.2214],[-73.00839,41.21014],[-73.01455,41.20474],[-73.02022,41.20432],[-73.02028,41.20669],[-73.0233,41.20761],[-73.02964,41.20753],[-73.0349,41.20608],[-73.03794,41.20181],[-73.04472,41.20919],[-73.04657,41.21055],[-73.0496,41.21078],[-73.05545,41.20913],[-73.06084,41.20577],[-73.06595,41.19841],[-73.07296,41.19763],[-73.08204,41.19296],[-73.08884,41.1874],[-73.09733,41.17807],[-73.10149,41.17383],[-73.10329,41.17408],[-73.10801,41.16875],[-73.11985,41.1757],[-73.122,41.17893],[-73.12245,41.1829],[-73.12075,41.1885],[-73.11535,41.1935],[-73.11057,41.20027],[-73.10833,41.19984]]]}},{"type":"Feature","properties":{"zcta":"06492","d":590},"geometry":{"type":"Polygon","coordinates":[[[-72.87664,41.45967],[-72.87738,41.46118],[-72.88227,41.46319],[-72.87543,41.46582],[-72.87228,41.46789],[-72.8682,41.47359],[-72.86895,41.47368],[-72.86513,41.48013],[-72.87052,41.48222],[-72.87004,41.48352],[-72.87215,41.48571],[-72.87049,41.48664],[-72.86689,41.49118],[-72.86198,41.49224],[-72.85934,41.49459],[-72.85575,41.49578],[-72.85327,41.49456],[-72.84633,41.50276],[-72.8503,41.51573],[-72.81519,41.50852],[-72.79592,41.50472],[-72.77265,41.49675],[-72.74478,41.49818],[-72.74333,41.48311],[-72.73389,41.48537],[-72.73544,41.47327],[-72.73912,41.43829],[-72.74024,41.4365],[-72.74614,41.4233],[-72.77649,41.41337],[-72.78242,41.41091],[-72.79863,41.40513],[-72.81772,41.39945],[-72.82756,41.39666],[-72.82696,41.41949],[-72.8274,41.42438],[-72.83253,41.42408],[-72.83787,41.42717],[-72.8443,41.42609],[-72.84964,41.42872],[-72.85136,41.43438],[-72.85546,41.43583],[-72.88321,41.44665],[-72.88675,41.44615],[-72.88667,41.44796],[-72.87664,41.45967]]]}},{"type":"Feature","properties":{"zcta":"06514","d":1213},"geometry":{"type":"Polygon","coordinates":[[[-72.95291,41.39695],[-72.95352,41.39974],[-72.94473,41.40623],[-72.94041,41.40782],[-72.94167,41.40641],[-72.93749,41.40679],[-72.93277,41.40932],[-72.92993,41.40935],[-72.9281,41.40517],[-72.92709,41.40605],[-72.92406,41.40578],[-72.92289,41.40716],[-72.92019,41.40666],[-72.9147,41.40781],[-72.91364,41.40653],[-72.90865,41.40962],[-72.90793,41.40899],[-72.91242,41.40358],[-72.91384,41.40009],[-72.91543,41.39334],[-72.91482,41.38161],[-72.91244,41.38107],[-72.9146,41.37788],[-72.91605,41.3746],[-72.91134,41.37279],[-72.91751,41.36701],[-72.91878,41.36524],[-72.91831,41.36326],[-72.91599,41.3617],[-72.91716,41.35911],[-72.91582,41.35746],[-72.92102,41.35631],[-72.91913,41.35457],[-72.92196,41.35225],[-72.92715,41.35315],[-72.93202,41.34522],[-72.93062,41.34462],[-72.93094,41.34084],[-72.93355,41.34071],[-72.93515,41.33822],[-72.93519,41.33547],[-72.94055,41.33585],[-72.95275,41.33723],[-72.95699,41.33985],[-72.95518,41.34235],[-72.95136,41.34395],[-72.95148,41.34711],[-72.95353,41.34728],[-72.95281,41.34908],[-72.95467,41.35016],[-72.95774,41.35039],[-72.95864,41.34908],[-72.96125,41.34901],[-72.96206,41.3463],[-72.96419,41.34642],[-72.96446,41.34379],[-72.96684,41.34544],[-72.96833,41.34798],[-72.97291,41.3474],[-72.97433,41.35048],[-72.97522,41.35545],[-72.9754,41.35994],[-72.97411,41.36527],[-72.96735,41.37774],[-72.96113,41.38794],[-72.95703,41.39297],[-72.95487,41.39448],[-72.95291,41.39695]]]}},{"type":"Feature","properties":{"zcta":"06515","d":1610},"geometry":{"type":"Polygon","coordinates":[[[-72.96833,41.34798],[-72.96684,41.34544],[-72.96446,41.34379],[-72.96419,41.34642],[-72.96206,41.3463],[-72.96125,41.34901],[-72.95864,41.34908],[-72.95774,41.35039],[-72.95467,41.35016],[-72.95281,41.34908],[-72.95353,41.34728],[-72.95148,41.34711],[-72.95136,41.34395],[-72.95518,41.34235],[-72.95699,41.33985],[-72.95275,41.33723],[-72.94055,41.33585],[-72.93912,41.3335],[-72.94101,41.32986],[-72.94236,41.32899],[-72.94438,41.33031],[-72.94767,41.32999],[-72.94955,41.32768],[-72.94852,41.32727],[-72.95084,41.32394],[-72.95344,41.32217],[-72.95765,41.32476],[-72.9563,41.31046],[-72.96371,41.31091],[-72.97249,41.31195],[-72.98915,41.3133],[-72.99805,41.3141],[-72.99711,41.32219],[-72.99639,41.32375],[-72.98894,41.32889],[-72.98874,41.33019],[-72.98501,41.33302],[-72.98331,41.33731],[-72.97407,41.34159],[-72.97019,41.3429],[-72.97291,41.3474],[-72.96833,41.34798]]]}},{"type":"Feature","properties":{"zcta":"06437","d":239},"geometry":{"type":"Polygon","coordinates":[[[-72.69156,41.43244],[-72.68267,41.43378],[-72.67874,41.4338],[-72.67967,41.37976],[-72.67822,41.37186],[-72.67865,41.36041],[-72.67815,41.3574],[-72.67617,41.35385],[-72.67496,41.34857],[-72.66834,41.33928],[-72.66299,41.33292],[-72.65845,41.33029],[-72.65549,41.33134],[-72.65068,41.32842],[-72.65047,41.32668],[-72.64257,41.32266],[-72.64201,41.3204],[-72.63828,41.31803],[-72.63594,41.3155],[-72.63558,41.31288],[-72.63174,41.30945],[-72.63397,41.30391],[-72.63326,41.29936],[-72.64388,41.29161],[-72.64562,41.28899],[-72.64877,41.28888],[-72.64609,41.28744],[-72.64741,41.28594],[-72.64443,41.28093],[-72.64685,41.28112],[-72.64928,41.27956],[-72.64799,41.2759],[-72.64969,41.27441],[-72.65436,41.27399],[-72.65427,41.27125],[-72.65656,41.26988],[-72.65453,41.26576],[-72.65842,41.26501],[-72.66103,41.26853],[-72.66567,41.27014],[-72.66882,41.26591],[-72.67322,41.26762],[-72.67964,41.2615],[-72.67705,41.25827],[-72.67748,41.25477],[-72.68411,41.25839],[-72.68507,41.25803],[-72.68554,41.2513],[-72.69044,41.2467],[-72.69474,41.24497],[-72.69908,41.24709],[-72.70614,41.24385],[-72.70897,41.24459],[-72.70922,41.24717],[-72.7124,41.24708],[-72.71324,41.2488],[-72.70262,41.25592],[-72.70579,41.25991],[-72.71726,41.25586],[-72.71886,41.25688],[-72.71539,41.25896],[-72.71479,41.26136],[-72.71738,41.26291],[-72.72267,41.25926],[-72.72569,41.25978],[-72.72695,41.25831],[-72.72928,41.25831],[-72.73244,41.25512],[-72.73704,41.25734],[-72.73577,41.26115],[-72.73446,41.26275],[-72.73155,41.26307],[-72.73225,41.26557],[-72.72805,41.268],[-72.73582,41.28407],[-72.73813,41.28629],[-72.74204,41.2972],[-72.74512,41.29744],[-72.7466,41.29959],[-72.74543,41.30487],[-72.74669,41.30804],[-72.74611,41.31063],[-72.74145,41.32369],[-72.74213,41.33456],[-72.74383,41.34636],[-72.7436,41.34665],[-72.74591,41.37223],[-72.74682,41.38256],[-72.7493,41.39809],[-72.74597,41.3969],[-72.74274,41.403],[-72.7408,41.40434],[-72.73282,41.412],[-72.7282,41.41764],[-72.72337,41.41914],[-72.72064,41.4274],[-72.69156,41.43244]]]}},{"type":"Feature","properties":{"zcta":"06519","d":3840},"geometry":{"type":"Polygon","coordinates":[[[-72.9534,41.31008],[-72.9526,41.30544],[-72.94263,41.30603],[-72.94247,41.3069],[-72.93889,41.30703],[-72.93923,41.30615],[-72.93596,41.30561],[-72.93638,41.30321],[-72.93484,41.30395],[-72.93351,41.30188],[-72.93006,41.30286],[-72.92598,41.30101],[-72.92431,41.30101],[-72.92428,41.29933],[-72.92754,41.29569],[-72.93082,41.2935],[-72.93105,41.29156],[-72.92931,41.28546],[-72.92579,41.28732],[-72.92479,41.28674],[-72.91532,41.29702],[-72.91183,41.29862],[-72.91076,41.30084],[-72.90887,41.30074],[-72.90518,41.29825],[-72.90734,41.29525],[-72.90762,41.2962],[-72.91309,41.29674],[-72.92188,41.28933],[-72.92394,41.28552],[-72.92965,41.28092],[-72.93253,41.28032],[-72.93314,41.2821],[-72.93759,41.28204],[-72.93859,41.28113],[-72.94075,41.28599],[-72.94021,41.28778],[-72.94293,41.28901],[-72.94651,41.29289],[-72.94792,41.29206],[-72.952,41.29447],[-72.94987,41.29619],[-72.95264,41.29944],[-72.9563,41.30161],[-72.95597,41.30514],[-72.95743,41.30665],[-72.9563,41.31046],[-72.9534,41.31008]]]}},{"type":"Feature","properties":{"zcta":"06461","d":841},"geometry":{"type":"Polygon","coordinates":[[[-73.07856,41.27335],[-73.07228,41.26972],[-73.05151,41.2595],[-73.04414,41.25682],[-73.03031,41.25278],[-73.02482,41.25175],[-73.02567,41.24972],[-73.02862,41.24697],[-73.02774,41.24551],[-73.03198,41.24195],[-73.03504,41.24305],[-73.03629,41.2385],[-73.0435,41.23306],[-73.04746,41.23205],[-73.05497,41.23293],[-73.0594,41.23224],[-73.06048,41.23325],[-73.06299,41.23278],[-73.06163,41.23177],[-73.06769,41.23033],[-73.06726,41.22906],[-73.07347,41.22438],[-73.07481,41.22257],[-73.07327,41.22178],[-73.07655,41.21521],[-73.08273,41.21235],[-73.08529,41.21165],[-73.08701,41.21235],[-73.09435,41.20791],[-73.09357,41.20519],[-73.10833,41.19984],[-73.11057,41.20027],[-73.10925,41.2041],[-73.11065,41.2078],[-73.11025,41.214],[-73.10835,41.2183],[-73.11045,41.2253],[-73.10995,41.2294],[-73.10495,41.2366],[-73.10157,41.24009],[-73.0934,41.24462],[-73.09122,41.24641],[-73.08735,41.25179],[-73.08675,41.2546],[-73.08785,41.2601],[-73.08775,41.2653],[-73.08865,41.2717],[-73.08685,41.2766],[-73.07856,41.27335]]]}},{"type":"Feature","properties":{"zcta":"06510","d":7190},"geometry":{"type":"Polygon","coordinates":[[[-72.93144,41.30358],[-72.92964,41.30598],[-72.93252,41.30721],[-72.9316,41.30842],[-72.92705,41.30658],[-72.92137,41.31435],[-72.91844,41.31317],[-72.92012,41.31092],[-72.92218,41.31175],[-72.92099,41.30977],[-72.92115,41.30696],[-72.9244,41.3026],[-72.92431,41.30101],[-72.92598,41.30101],[-72.93006,41.30286],[-72.93351,41.30188],[-72.93484,41.30395],[-72.93638,41.30321],[-72.93596,41.30561],[-72.93144,41.30358]]]}},{"type":"Feature","properties":{"zcta":"06517","d":1492},"geometry":{"type":"Polygon","coordinates":[[[-72.91437,41.37635],[-72.90958,41.37443],[-72.90704,41.37679],[-72.90379,41.37811],[-72.90713,41.3763],[-72.90684,41.37364],[-72.90837,41.37191],[-72.9063,41.37105],[-72.90802,41.36652],[-72.89398,41.3633],[-72.88174,41.3609],[-72.88188,41.35888],[-72.88392,41.35716],[-72.88447,41.35474],[-72.8829,41.35312],[-72.87697,41.35348],[-72.87446,41.35168],[-72.87325,41.3494],[-72.87494,41.3474],[-72.87724,41.34661],[-72.87964,41.34749],[-72.88115,41.3465],[-72.87876,41.34463],[-72.88016,41.34338],[-72.88285,41.3437],[-72.88797,41.33966],[-72.88925,41.33411],[-72.88884,41.3326],[-72.89264,41.3303],[-72.89169,41.32847],[-72.89331,41.3289],[-72.90254,41.3272],[-72.91323,41.33359],[-72.92811,41.33469],[-72.93519,41.33547],[-72.93515,41.33822],[-72.93355,41.34071],[-72.93094,41.34084],[-72.93062,41.34462],[-72.93202,41.34522],[-72.92715,41.35315],[-72.92196,41.35225],[-72.91913,41.35457],[-72.92102,41.35631],[-72.91582,41.35746],[-72.91716,41.35911],[-72.91599,41.3617],[-72.91831,41.36326],[-72.91878,41.36524],[-72.91751,41.36701],[-72.91134,41.37279],[-72.91605,41.3746],[-72.9146,41.37788],[-72.91437,41.37635]]]}},{"type":"Feature","properties":{"zcta":"06451","d":1282},"geometry":{"type":"Polygon","coordinates":[[[-72.78956,41.56019],[-72.79176,41.55498],[-72.79248,41.55053],[-72.79492,41.54554],[-72.80242,41.53754],[-72.80551,41.53154],[-72.80761,41.52516],[-72.81056,41.52168],[-72.8129,41.51673],[-72.81519,41.50852],[-72.8503,41.51573],[-72.85373,41.52214],[-72.85308,41.52493],[-72.86123,41.5281],[-72.85798,41.53455],[-72.85361,41.53348],[-72.85169,41.54029],[-72.85271,41.54629],[-72.84699,41.54524],[-72.84529,41.54853],[-72.84573,41.55335],[-72.84854,41.56733],[-72.84024,41.5691],[-72.82764,41.571],[-72.82964,41.5624],[-72.82574,41.5643],[-72.82614,41.5559],[-72.82124,41.5542],[-72.81915,41.5543],[-72.80996,41.56228],[-72.80924,41.562],[-72.80524,41.5666],[-72.80124,41.5731],[-72.77972,41.57594],[-72.78956,41.56019]]]}},{"type":"Feature","properties":{"zcta":"06477","d":423},"geometry":{"type":"Polygon","coordinates":[[[-73.03358,41.31313],[-73.02806,41.31188],[-73.01307,41.31032],[-73.00876,41.31041],[-73.0007,41.31262],[-72.99805,41.3141],[-72.98915,41.3133],[-72.98427,41.30179],[-72.98573,41.29199],[-72.9873,41.28825],[-72.98619,41.28574],[-72.98691,41.28116],[-72.98298,41.28129],[-72.97994,41.27919],[-72.99203,41.26809],[-72.99237,41.24869],[-72.99046,41.24772],[-72.99205,41.24491],[-73.01271,41.24951],[-73.02123,41.25081],[-73.02482,41.25175],[-73.03031,41.25278],[-73.04414,41.25682],[-73.05151,41.2595],[-73.07228,41.26972],[-73.07856,41.27335],[-73.08685,41.2766],[-73.08375,41.2815],[-73.07885,41.2845],[-73.07125,41.2873],[-73.06875,41.2892],[-73.06525,41.2949],[-73.06505,41.2976],[-73.06785,41.301],[-73.06503,41.30613],[-73.06175,41.31008],[-73.0567,41.31217],[-73.05315,41.31135],[-73.04911,41.3113],[-73.04071,41.31389],[-73.03358,41.31313]]]}},{"type":"Feature","properties":{"zcta":"06512","d":1493},"geometry":{"type":"Polygon","coordinates":[[[-72.90518,41.29825],[-72.90452,41.29919],[-72.89982,41.29463],[-72.89765,41.2968],[-72.89771,41.29356],[-72.89619,41.29479],[-72.89324,41.29442],[-72.89249,41.28912],[-72.88643,41.28811],[-72.88252,41.29323],[-72.87629,41.30356],[-72.87364,41.30685],[-72.8705,41.30568],[-72.86895,41.30711],[-72.86602,41.305],[-72.8629,41.30441],[-72.85725,41.30757],[-72.85996,41.31053],[-72.85737,41.31399],[-72.85771,41.31649],[-72.85937,41.31694],[-72.85986,41.31914],[-72.85845,41.31938],[-72.85754,41.32193],[-72.85357,41.3221],[-72.85167,41.31604],[-72.85126,41.32195],[-72.84886,41.32205],[-72.84351,41.32384],[-72.84423,41.32626],[-72.84292,41.32977],[-72.84036,41.32923],[-72.84255,41.3239],[-72.83299,41.32497],[-72.83171,41.32339],[-72.82811,41.32226],[-72.82433,41.32351],[-72.82263,41.32288],[-72.82384,41.31832],[-72.83501,41.31439],[-72.83729,41.31257],[-72.84018,41.2998],[-72.84374,41.2964],[-72.85086,41.29364],[-72.85582,41.29087],[-72.85897,41.28773],[-72.86082,41.28301],[-72.85934,41.28101],[-72.86405,41.26955],[-72.86247,41.26978],[-72.86051,41.26552],[-72.8577,41.26557],[-72.85334,41.26413],[-72.85193,41.26218],[-72.85227,41.25905],[-72.85724,41.2522],[-72.85889,41.24659],[-72.86106,41.2458],[-72.87013,41.24531],[-72.88151,41.24309],[-72.88562,41.24427],[-72.89004,41.24465],[-72.89458,41.24251],[-72.8967,41.24532],[-72.90343,41.24818],[-72.90412,41.24955],[-72.90273,41.25292],[-72.89871,41.2552],[-72.89467,41.25652],[-72.89384,41.2599],[-72.8975,41.26576],[-72.90536,41.27063],[-72.9031,41.27739],[-72.90619,41.28316],[-72.90643,41.29218],[-72.90734,41.29525],[-72.90518,41.29825]]]}},{"type":"Feature","properties":{"zcta":"06525","d":231},"geometry":{"type":"Polygon","coordinates":[[[-73.04159,41.39506],[-73.03794,41.39191],[-73.03425,41.39179],[-73.02998,41.38853],[-73.00056,41.3905],[-72.97245,41.39278],[-72.9656,41.39361],[-72.95487,41.39448],[-72.95703,41.39297],[-72.96113,41.38794],[-72.96735,41.37774],[-72.97411,41.36527],[-72.9754,41.35994],[-72.97522,41.35545],[-72.97433,41.35048],[-72.97291,41.3474],[-72.97019,41.3429],[-72.97407,41.34159],[-72.98331,41.33731],[-72.98501,41.33302],[-72.98874,41.33019],[-72.98894,41.32889],[-72.99639,41.32375],[-72.99711,41.32219],[-72.99805,41.3141],[-73.0007,41.31262],[-73.00876,41.31041],[-73.01307,41.31032],[-73.02806,41.31188],[-73.03358,41.31313],[-73.04071,41.31389],[-73.04042,41.31855],[-73.03893,41.32801],[-73.03998,41.33236],[-73.04372,41.34232],[-73.04633,41.34608],[-73.04645,41.35209],[-73.04907,41.38105],[-73.0482,41.3915],[-73.04754,41.39583],[-73.04159,41.39506]]]}},{"type":"Feature","properties":{"zcta":"06518","d":478},"geometry":{"type":"MultiPolygon","coordinates":[[[[-72.9063,41.37105],[-72.90837,41.37191],[-72.90684,41.37364],[-72.90713,41.3763],[-72.90379,41.37811],[-72.9063,41.37105]]],[[[-72.93594,41.4627],[-72.92674,41.4603],[-72.91703,41.45973],[-72.9001,41.45299],[-72.88667,41.44796],[-72.88675,41.44615],[-72.88321,41.44665],[-72.85546,41.43583],[-72.85136,41.43438],[-72.85436,41.43084],[-72.85831,41.42953],[-72.86178,41.42593],[-72.86409,41.42657],[-72.87421,41.42631],[-72.87735,41.42448],[-72.88315,41.42331],[-72.88457,41.41141],[-72.88637,41.4113],[-72.88581,41.40504],[-72.88637,41.40043],[-72.88752,41.39683],[-72.88741,41.39336],[-72.89081,41.39337],[-72.89284,41.38947],[-72.89349,41.38614],[-72.89961,41.38025],[-72.90379,41.37811],[-72.90704,41.37679],[-72.90958,41.37443],[-72.91437,41.37635],[-72.9146,41.37788],[-72.91244,41.38107],[-72.91482,41.38161],[-72.91543,41.39334],[-72.91384,41.40009],[-72.91242,41.40358],[-72.90793,41.40899],[-72.90865,41.40962],[-72.91364,41.40653],[-72.9147,41.40781],[-72.92019,41.40666],[-72.92289,41.40716],[-72.92406,41.40578],[-72.92709,41.40605],[-72.9281,41.40517],[-72.92993,41.40935],[-72.93277,41.40932],[-72.93749,41.40679],[-72.94167,41.40641],[-72.94041,41.40782],[-72.93893,41.40858],[-72.94015,41.41122],[-72.95256,41.41937],[-72.95071,41.42781],[-72.95525,41.42893],[-72.96158,41.43243],[-72.96349,41.43754],[-72.96324,41.43941],[-72.95792,41.4452],[-72.95814,41.44884],[-72.95715,41.4501],[-72.95255,41.4529],[-72.94905,41.4558],[-72.94745,41.4601],[-72.94805,41.4641],[-72.93594,41.4627]]]]}},{"type":"Feature","properties":{"zcta":"06511","d":3692},"geometry":{"type":"Polygon","coordinates":[[[-72.93519,41.33547],[-72.92811,41.33469],[-72.91323,41.33359],[-72.90254,41.3272],[-72.89331,41.3289],[-72.89169,41.32847],[-72.88947,41.325],[-72.89163,41.32242],[-72.89479,41.32136],[-72.90411,41.31487],[-72.90433,41.31638],[-72.90676,41.31562],[-72.9078,41.31239],[-72.90813,41.30605],[-72.90566,41.30356],[-72.90452,41.29919],[-72.90518,41.29825],[-72.90887,41.30074],[-72.91076,41.30084],[-72.91183,41.29862],[-72.91532,41.29702],[-72.92479,41.28674],[-72.92579,41.28732],[-72.92931,41.28546],[-72.93105,41.29156],[-72.93082,41.2935],[-72.92754,41.29569],[-72.92428,41.29933],[-72.92431,41.30101],[-72.9244,41.3026],[-72.92115,41.30696],[-72.92099,41.30977],[-72.92218,41.31175],[-72.92012,41.31092],[-72.91844,41.31317],[-72.92137,41.31435],[-72.92705,41.30658],[-72.9316,41.30842],[-72.93252,41.30721],[-72.92964,41.30598],[-72.93144,41.30358],[-72.93596,41.30561],[-72.93923,41.30615],[-72.93889,41.30703],[-72.94247,41.3069],[-72.94263,41.30603],[-72.9526,41.30544],[-72.9534,41.31008],[-72.9563,41.31046],[-72.95765,41.32476],[-72.95344,41.32217],[-72.95084,41.32394],[-72.94852,41.32727],[-72.94955,41.32768],[-72.94767,41.32999],[-72.94438,41.33031],[-72.94236,41.32899],[-72.94101,41.32986],[-72.93912,41.3335],[-72.94055,41.33585],[-72.93519,41.33547]]]}},{"type":"Feature","properties":{"zcta":"06473","d":610},"geometry":{"type":"Polygon","coordinates":[[[-72.90379,41.37811],[-72.89961,41.38025],[-72.89349,41.38614],[-72.89284,41.38947],[-72.89081,41.39337],[-72.88741,41.39336],[-72.88752,41.39683],[-72.88637,41.40043],[-72.88581,41.40504],[-72.88637,41.4113],[-72.88457,41.41141],[-72.88315,41.42331],[-72.87735,41.42448],[-72.87421,41.42631],[-72.86409,41.42657],[-72.86178,41.42593],[-72.85831,41.42953],[-72.85436,41.43084],[-72.85136,41.43438],[-72.84964,41.42872],[-72.8443,41.42609],[-72.83787,41.42717],[-72.83253,41.42408],[-72.8274,41.42438],[-72.82696,41.41949],[-72.82756,41.39666],[-72.81772,41.39945],[-72.81745,41.37753],[-72.817,41.36388],[-72.81775,41.33998],[-72.82273,41.34149],[-72.8283,41.34134],[-72.82799,41.34236],[-72.86031,41.33664],[-72.8662,41.33601],[-72.86994,41.33478],[-72.87918,41.33409],[-72.88884,41.3326],[-72.88925,41.33411],[-72.88797,41.33966],[-72.88285,41.3437],[-72.88016,41.34338],[-72.87876,41.34463],[-72.88115,41.3465],[-72.87964,41.34749],[-72.87724,41.34661],[-72.87494,41.3474],[-72.87325,41.3494],[-72.87446,41.35168],[-72.87697,41.35348],[-72.8829,41.35312],[-72.88447,41.35474],[-72.88392,41.35716],[-72.88188,41.35888],[-72.88174,41.3609],[-72.89398,41.3633],[-72.90802,41.36652],[-72.9063,41.37105],[-72.90379,41.37811]]]}}]}