{"type":"FeatureCollection","features":[{"type":"Feature","properties":{"id":"41051","name":"Multnomah Co., OR"},"geometry":{"type":"Polygon","coordinates":[[[-122.8634,45.7214],[-122.7847,45.7209],[-122.7847,45.7287],[-122.7622,45.7286],[-122.7725,45.6996],[-122.7745,45.6804],[-122.7638,45.6571],[-122.7381,45.6441],[-122.7133,45.6374],[-122.691,45.6247],[-122.675,45.618],[-122.6439,45.6097],[-122.6026,45.6076],[-122.5814,45.6039],[-122.5481,45.5968],[-122.5237,45.5896],[-122.4923,45.5833],[-122.4747,45.5783],[-122.4539,45.5673],[-122.4387,45.5636],[-122.4107,45.5676],[-122.3918,45.5745],[-122.3803,45.5759],[-122.3528,45.5694],[-122.3315,45.5482],[-122.2949,45.5435],[-122.2667,45.5438],[-122.2626,45.5443],[-122.2489,45.5478],[-122.2017,45.5641],[-122.1837,45.5777],[-122.1407,45.5845],[-122.1295,45.5829],[-122.1124,45.5814],[-122.1017,45.5835],[-122.0444,45.6095],[-122.0226,45.6152],[-122.0037,45.6159],[-121.983,45.6228],[-121.9798,45.6248],[-121.9635,45.6328],[-121.9557,45.6436],[-121.9518,45.645],[-121.9351,45.6442],[-121.922,45.6492],[-121.9221,45.6108],[-121.9165,45.6076],[-121.9131,45.6013],[-121.9155,45.5971],[-121.9146,45.5937],[-121.9184,45.5855],[-121.9155,45.5824],[-121.9105,45.5812],[-121.9114,45.5765],[-121.9139,45.5712],[-121.9126,45.5682],[-121.9073,45.5667],[-121.9083,45.565],[-121.9063,45.5619],[-121.9029,45.5611],[-121.9019,45.5562],[-121.9088,45.55],[-121.9221,45.5467],[-121.9164,45.5432],[-121.9132,45.5373],[-121.9131,45.5326],[-121.9097,45.5267],[-121.9069,45.5247],[-121.9067,45.5208],[-121.8939,45.5134],[-121.8887,45.5123],[-121.8819,45.5131],[-121.8747,45.5158],[-121.8693,45.5141],[-121.8682,45.5087],[-121.8647,45.5045],[-121.8609,45.5018],[-121.8598,45.4992],[-121.8634,45.4928],[-121.8603,45.4894],[-121.8547,45.4866],[-121.8504,45.4865],[-121.8443,45.4762],[-121.8368,45.4746],[-121.8289,45.4675],[-121.8196,45.4617],[-121.822,45.4602],[-121.9831,45.4602],[-121.9831,45.4614],[-122.0042,45.4615],[-122.086,45.4606],[-122.1265,45.4613],[-122.1265,45.46],[-122.1472,45.4608],[-122.25,45.4609],[-122.2498,45.4614],[-122.3429,45.4615],[-122.3721,45.4612],[-122.4145,45.4616],[-122.4547,45.4609],[-122.4746,45.4612],[-122.4967,45.461],[-122.5073,45.4613],[-122.5376,45.4614],[-122.5583,45.4611],[-122.579,45.4615],[-122.6416,45.4615],[-122.6412,45.4587],[-122.661,45.4578],[-122.6591,45.4543],[-122.6526,45.4457],[-122.6477,45.444],[-122.6463,45.4396],[-122.6512,45.4361],[-122.6487,45.4327],[-122.7437,45.4333],[-122.7437,45.4764],[-122.7439,45.5195],[-122.7645,45.5196],[-122.7644,45.5338],[-122.7842,45.534],[-122.7848,45.5484],[-122.7951,45.5484],[-122.7927,45.5493],[-122.7959,45.5521],[-122.7961,45.5557],[-122.8054,45.5557],[-122.8055,45.5629],[-122.826,45.563],[-122.8263,45.5775],[-122.847,45.5775],[-122.8468,45.5918],[-122.8676,45.5919],[-122.8675,45.6062],[-122.888,45.6064],[-122.8878,45.6205],[-122.909,45.6208],[-122.9091,45.6352],[-122.9291,45.6353],[-122.9291,45.7215],[-122.8634,45.7214]]]}},{"type":"Feature","properties":{"id":"53011","name":"Clark Co., WA"},"geometry":{"type":"Polygon","coordinates":[[[-122.7774,45.853],[-122.7733,45.8574],[-122.7615,45.8616],[-122.751,45.8641],[-122.7432,45.8701],[-122.7359,45.8706],[-122.723,45.8667],[-122.7207,45.8671],[-122.7198,45.8709],[-122.7287,45.8774],[-122.7342,45.8858],[-122.7344,45.8885],[-122.7324,45.8942],[-122.7347,45.8953],[-122.7403,45.8932],[-122.7471,45.8935],[-122.7494,45.8963],[-122.7485,45.8988],[-122.7377,45.9019],[-122.7378,45.908],[-122.7395,45.9108],[-122.739,45.9153],[-122.7326,45.914],[-122.7259,45.9157],[-122.7188,45.9248],[-122.7209,45.9319],[-122.7178,45.9337],[-122.7151,45.9323],[-122.7064,45.9305],[-122.6991,45.931],[-122.6932,45.928],[-122.6893,45.9291],[-122.6886,45.9344],[-122.6949,45.9377],[-122.6948,45.9406],[-122.6893,45.9413],[-122.6815,45.9388],[-122.6693,45.937],[-122.6609,45.9325],[-122.6576,45.9281],[-122.6549,45.9288],[-122.6534,45.9321],[-122.6462,45.9373],[-122.6417,45.9381],[-122.6304,45.9358],[-122.62,45.9368],[-122.6157,45.9357],[-122.606,45.94],[-122.601,45.9448],[-122.5903,45.9484],[-122.5854,45.9528],[-122.578,45.9547],[-122.5721,45.9526],[-122.5646,45.9517],[-122.5574,45.9538],[-122.5546,45.9598],[-122.5498,45.9626],[-122.5469,45.967],[-122.5383,45.9702],[-122.5318,45.974],[-122.5348,45.977],[-122.5345,45.9792],[-122.523,45.9841],[-122.5179,45.9828],[-122.5107,45.9849],[-122.5064,45.9803],[-122.497,45.9807],[-122.4975,45.987],[-122.4939,45.9868],[-122.4896,45.9835],[-122.4847,45.9836],[-122.4833,45.9864],[-122.4771,45.9881],[-122.4701,45.9864],[-122.4685,45.987],[-122.4524,45.985],[-122.4464,45.9832],[-122.4447,45.9778],[-122.4422,45.9758],[-122.4353,45.9751],[-122.4289,45.9769],[-122.4185,45.9767],[-122.4184,45.974],[-122.4108,45.9739],[-122.4028,45.9721],[-122.3985,45.9725],[-122.3898,45.9667],[-122.3829,45.9648],[-122.3798,45.9616],[-122.3751,45.9601],[-122.3632,45.9627],[-122.361,45.958],[-122.3563,45.9569],[-122.3521,45.9588],[-122.3435,45.9595],[-122.3327,45.9651],[-122.3244,45.9761],[-122.3257,45.9787],[-122.3253,45.9827],[-122.3184,45.9854],[-122.3148,45.9913],[-122.3166,45.994],[-122.3225,45.9964],[-122.325,45.9998],[-122.3245,46.0071],[-122.3284,46.0095],[-122.3254,46.0126],[-122.3199,46.0118],[-122.3175,46.0127],[-122.3137,46.017],[-122.3152,46.0216],[-122.3117,46.0288],[-122.3059,46.0296],[-122.3016,46.0337],[-122.2972,46.0353],[-122.2947,46.038],[-122.2944,46.0492],[-122.2874,46.0496],[-122.2834,46.0514],[-122.2776,46.0575],[-122.2692,46.0596],[-122.2591,46.0578],[-122.2515,46.0557],[-122.2515,46.054],[-122.2459,46.0539],[-122.2456,46.0326],[-122.2462,45.9539],[-122.2452,45.9385],[-122.2445,45.8666],[-122.2498,45.8666],[-122.2491,45.8364],[-122.2501,45.8228],[-122.2496,45.8156],[-122.2497,45.7942],[-122.2502,45.7509],[-122.2495,45.7441],[-122.2497,45.7303],[-122.2493,45.7222],[-122.2492,45.6729],[-122.2499,45.6648],[-122.2492,45.6357],[-122.249,45.6139],[-122.249,45.5777],[-122.2492,45.5487],[-122.2489,45.5478],[-122.2626,45.5443],[-122.2667,45.5438],[-122.2949,45.5435],[-122.3315,45.5482],[-122.3528,45.5694],[-122.3803,45.5759],[-122.3918,45.5745],[-122.4107,45.5676],[-122.4387,45.5636],[-122.4539,45.5673],[-122.4747,45.5783],[-122.4923,45.5833],[-122.5237,45.5896],[-122.5481,45.5968],[-122.5814,45.6039],[-122.6026,45.6076],[-122.6439,45.6097],[-122.675,45.618],[-122.691,45.6247],[-122.7133,45.6374],[-122.7381,45.6441],[-122.7638,45.6571],[-122.7745,45.6804],[-122.7725,45.6996],[-122.7622,45.7286],[-122.7601,45.7344],[-122.7615,45.7592],[-122.7695,45.7806],[-122.7956,45.81],[-122.796,45.825],[-122.7857,45.8442],[-122.7855,45.8505],[-122.7774,45.853]]]}},{"type":"Feature","properties":{"id":"41005","name":"Clackamas Co., OR"},"geometry":{"type":"Polygon","coordinates":[[[-122.8465,45.3172],[-122.8465,45.346],[-122.8072,45.3463],[-122.8056,45.3457],[-122.8055,45.3318],[-122.7437,45.3321],[-122.7439,45.3718],[-122.7438,45.3965],[-122.7441,45.4189],[-122.7437,45.4333],[-122.6487,45.4327],[-122.6512,45.4361],[-122.6463,45.4396],[-122.6477,45.444],[-122.6526,45.4457],[-122.6591,45.4543],[-122.661,45.4578],[-122.6412,45.4587],[-122.6416,45.4615],[-122.579,45.4615],[-122.5583,45.4611],[-122.5376,45.4614],[-122.5073,45.4613],[-122.4967,45.461],[-122.4746,45.4612],[-122.4547,45.4609],[-122.4145,45.4616],[-122.3721,45.4612],[-122.3429,45.4615],[-122.2498,45.4614],[-122.25,45.4609],[-122.1472,45.4608],[-122.1265,45.46],[-122.1265,45.4613],[-122.086,45.4606],[-122.0042,45.4615],[-121.9831,45.4614],[-121.9831,45.4602],[-121.822,45.4602],[-121.8196,45.4617],[-121.8155,45.4597],[-121.8107,45.4555],[-121.8068,45.4546],[-121.806,45.4518],[-121.8076,45.449],[-121.8056,45.4443],[-121.8079,45.4426],[-121.807,45.4354],[-121.8026,45.4319],[-121.7995,45.4278],[-121.7964,45.4272],[-121.7945,45.4242],[-121.7927,45.4152],[-121.7856,45.4122],[-121.7762,45.4027],[-121.7665,45.4034],[-121.7622,45.4028],[-121.7446,45.3973],[-121.7384,45.3971],[-121.7351,45.3957],[-121.7242,45.3936],[-121.7209,45.3894],[-121.7086,45.3836],[-121.7055,45.3835],[-121.7005,45.3785],[-121.6976,45.372],[-121.7021,45.3634],[-121.7012,45.3562],[-121.7035,45.349],[-121.7046,45.3392],[-121.7036,45.339],[-121.7033,45.3313],[-121.6987,45.3239],[-121.6938,45.3213],[-121.69,45.3164],[-121.6879,45.305],[-121.6791,45.2972],[-121.6808,45.2948],[-121.68,45.29],[-121.6846,45.2863],[-121.685,45.2818],[-121.6905,45.2756],[-121.6907,45.2716],[-121.695,45.2639],[-121.6964,45.2554],[-121.6919,45.2541],[-121.6893,45.2513],[-121.6809,45.2506],[-121.6825,45.2472],[-121.6815,45.2435],[-121.6848,45.2401],[-121.6863,45.2333],[-121.6826,45.229],[-121.6911,45.2296],[-121.6977,45.2274],[-121.6994,45.2241],[-121.7036,45.2233],[-121.7093,45.22],[-121.713,45.2124],[-121.7156,45.2109],[-121.7273,45.212],[-121.7305,45.2115],[-121.7363,45.2069],[-121.7469,45.206],[-121.7482,45.2051],[-121.7491,45.1976],[-121.7486,45.1918],[-121.7465,45.1864],[-121.7403,45.1822],[-121.7365,45.1763],[-121.7334,45.1749],[-121.732,45.1709],[-121.7302,45.1703],[-121.7272,45.1616],[-121.724,45.1584],[-121.7187,45.1568],[-121.7157,45.154],[-121.7122,45.1534],[-121.7102,45.1487],[-121.7103,45.1404],[-121.708,45.1341],[-121.7002,45.1271],[-121.6997,45.1218],[-121.6934,45.1169],[-121.6909,45.1181],[-121.6878,45.1225],[-121.685,45.1237],[-121.667,45.1205],[-121.6647,45.1152],[-121.6624,45.1133],[-121.6617,45.1054],[-121.6526,45.102],[-121.6533,45.0986],[-121.6514,45.0888],[-121.652,45.0867],[-121.6596,45.0796],[-121.6608,45.0753],[-121.6604,45.0695],[-121.6587,45.0664],[-121.6724,45.0677],[-121.6833,45.068],[-121.6882,45.0671],[-121.6977,45.0616],[-121.6999,45.0585],[-121.7108,45.0559],[-121.7226,45.0454],[-121.719,45.0423],[-121.717,45.038],[-121.7208,45.0369],[-121.7306,45.0362],[-121.7378,45.0336],[-121.741,45.0344],[-121.7494,45.0341],[-121.7522,45.0362],[-121.7665,45.0396],[-121.7707,45.0398],[-121.7787,45.0373],[-121.7818,45.0337],[-121.7797,45.0316],[-121.7788,45.0262],[-121.7811,45.0215],[-121.7812,45.0157],[-121.7846,45.0151],[-121.7932,45.0175],[-121.7982,45.0162],[-121.8044,45.0129],[-121.8057,45.0061],[-121.8032,44.9996],[-121.8035,44.9922],[-121.8016,44.9827],[-121.8033,44.9771],[-121.8001,44.9765],[-121.796,44.9705],[-121.7948,44.9649],[-121.7911,44.9566],[-121.7878,44.9548],[-121.7856,44.9504],[-121.7867,44.9452],[-121.7961,44.9374],[-121.7951,44.9357],[-121.7897,44.9347],[-121.7798,44.9352],[-121.7722,44.9398],[-121.7665,44.9417],[-121.7626,44.9412],[-121.7541,44.932],[-121.7485,44.9275],[-121.7446,44.9198],[-121.7473,44.9172],[-121.7473,44.9146],[-121.7383,44.9102],[-121.7354,44.9078],[-121.729,44.9048],[-121.723,44.9063],[-121.7146,44.9061],[-121.7156,44.9],[-121.7182,44.8975],[-121.7245,44.8954],[-121.7282,44.8913],[-121.7344,44.8893],[-121.7342,44.8857],[-122.401,44.8857],[-122.3932,44.8917],[-122.3958,44.9015],[-122.3996,44.9041],[-122.4077,44.905],[-122.4104,44.9032],[-122.4227,44.9042],[-122.4297,44.902],[-122.4415,44.904],[-122.4455,44.9061],[-122.45,44.9104],[-122.4536,44.9116],[-122.4585,44.9152],[-122.4642,44.9164],[-122.4665,44.9155],[-122.4751,44.9184],[-122.4803,44.9216],[-122.4862,44.9227],[-122.4929,44.9209],[-122.4992,44.9178],[-122.5053,44.9183],[-122.5115,44.9226],[-122.5159,44.9279],[-122.5175,44.9328],[-122.5263,44.936],[-122.5297,44.935],[-122.5329,44.9374],[-122.5355,44.9367],[-122.5369,44.94],[-122.5422,44.9457],[-122.5432,44.9489],[-122.5486,44.9504],[-122.5492,44.9542],[-122.5518,44.958],[-122.5568,44.9614],[-122.5559,44.9629],[-122.5598,44.9652],[-122.5589,44.9672],[-122.5611,44.9714],[-122.5651,44.9739],[-122.5672,44.9786],[-122.5674,44.9826],[-122.5715,44.9852],[-122.5799,44.986],[-122.5817,44.9884],[-122.5889,44.9896],[-122.5925,44.9889],[-122.5955,44.9928],[-122.5932,45.0034],[-122.5947,45.0095],[-122.5935,45.0122],[-122.5956,45.0139],[-122.5955,45.0196],[-122.6022,45.0218],[-122.6092,45.0219],[-122.6117,45.0244],[-122.6162,45.025],[-122.6186,45.027],[-122.6265,45.0284],[-122.6339,45.0338],[-122.6398,45.0314],[-122.6442,45.0338],[-122.6493,45.0325],[-122.6502,45.0358],[-122.6585,45.0359],[-122.6625,45.0386],[-122.666,45.0436],[-122.6696,45.0465],[-122.6785,45.0463],[-122.6817,45.0483],[-122.6811,45.0503],[-122.6857,45.0524],[-122.6946,45.0541],[-122.7052,45.0593],[-122.7073,45.0645],[-122.7141,45.0691],[-122.7171,45.0699],[-122.7179,45.0742],[-122.7207,45.0758],[-122.7197,45.0796],[-122.7253,45.0829],[-122.7256,45.0857],[-122.7297,45.0873],[-122.7329,45.0922],[-122.7406,45.096],[-122.7433,45.0963],[-122.7463,45.1028],[-122.75,45.1033],[-122.7498,45.1077],[-122.7526,45.1071],[-122.7534,45.1101],[-122.7603,45.1116],[-122.7656,45.1158],[-122.7707,45.1183],[-122.7734,45.1178],[-122.7743,45.1202],[-122.7855,45.1276],[-122.7866,45.1305],[-122.7849,45.1359],[-122.7808,45.1377],[-122.7829,45.1439],[-122.7796,45.1466],[-122.7769,45.1532],[-122.7751,45.1534],[-122.77,45.1594],[-122.7748,45.1618],[-122.7737,45.1635],[-122.7697,45.1617],[-122.7666,45.1633],[-122.7599,45.1709],[-122.7619,45.172],[-122.7569,45.1728],[-122.7593,45.1752],[-122.7577,45.1775],[-122.7541,45.1774],[-122.7568,45.1796],[-122.7525,45.181],[-122.7527,45.1827],[-122.7601,45.1826],[-122.7549,45.1847],[-122.7532,45.1875],[-122.7551,45.1916],[-122.7594,45.1898],[-122.7599,45.1947],[-122.7555,45.1954],[-122.7565,45.1931],[-122.7532,45.1918],[-122.7518,45.1937],[-122.7544,45.1967],[-122.7498,45.195],[-122.7505,45.1992],[-122.7544,45.1999],[-122.7536,45.2018],[-122.7588,45.2007],[-122.7595,45.2033],[-122.7558,45.207],[-122.7575,45.2091],[-122.7525,45.2098],[-122.7534,45.2123],[-122.7483,45.211],[-122.7486,45.2142],[-122.7454,45.216],[-122.7481,45.2207],[-122.7467,45.2252],[-122.7519,45.2302],[-122.7481,45.2312],[-122.7468,45.2293],[-122.7453,45.2328],[-122.7498,45.232],[-122.7507,45.235],[-122.7476,45.2358],[-122.7519,45.2425],[-122.7511,45.2453],[-122.7471,45.2493],[-122.7479,45.2518],[-122.7435,45.2516],[-122.7445,45.2534],[-122.7414,45.259],[-122.739,45.2595],[-122.7848,45.2596],[-122.7849,45.2741],[-122.8346,45.2741],[-122.8379,45.2696],[-122.8467,45.2614],[-122.8499,45.2597],[-122.8681,45.2597],[-122.8679,45.3173],[-122.8465,45.3172]]]}},{"type":"Feature","properties":{"id":"41067","name":"Washington Co., OR"},"geometry":{"type":"Polygon","coordinates":[[[-123.321,45.7802],[-123.1959,45.7799],[-123.1152,45.7801],[-123.0309,45.7792],[-123.0317,45.7658],[-123.0318,45.7514],[-123.0111,45.7515],[-122.9903,45.7508],[-122.9904,45.7365],[-122.9289,45.7357],[-122.9291,45.7215],[-122.9291,45.6353],[-122.9091,45.6352],[-122.909,45.6208],[-122.8878,45.6205],[-122.888,45.6064],[-122.8675,45.6062],[-122.8676,45.5919],[-122.8468,45.5918],[-122.847,45.5775],[-122.8263,45.5775],[-122.826,45.563],[-122.8055,45.5629],[-122.8054,45.5557],[-122.7961,45.5557],[-122.7959,45.5521],[-122.7927,45.5493],[-122.7951,45.5484],[-122.7848,45.5484],[-122.7842,45.534],[-122.7644,45.5338],[-122.7645,45.5196],[-122.7439,45.5195],[-122.7437,45.4764],[-122.7437,45.4333],[-122.7441,45.4189],[-122.7438,45.3965],[-122.7439,45.3718],[-122.7437,45.3321],[-122.8055,45.3318],[-122.8056,45.3457],[-122.8072,45.3463],[-122.8465,45.346],[-122.8465,45.3172],[-122.8679,45.3173],[-122.9089,45.3175],[-122.9088,45.3462],[-122.9702,45.3465],[-122.9703,45.3608],[-122.9914,45.3611],[-122.9914,45.3755],[-123.0117,45.3763],[-123.0113,45.3909],[-123.0323,45.3909],[-123.0322,45.405],[-123.0527,45.4047],[-123.073,45.4051],[-123.0838,45.4045],[-123.1146,45.4044],[-123.1147,45.419],[-123.1347,45.4189],[-123.1354,45.4335],[-123.2093,45.4337],[-123.4649,45.4333],[-123.4861,45.4332],[-123.4854,45.4471],[-123.4639,45.4473],[-123.462,45.4621],[-123.4612,45.4916],[-123.4411,45.4913],[-123.4407,45.5053],[-123.4427,45.5211],[-123.422,45.5214],[-123.4219,45.5354],[-123.4021,45.5356],[-123.402,45.5501],[-123.3611,45.5499],[-123.3611,45.5788],[-123.32,45.5787],[-123.3202,45.593],[-123.2993,45.593],[-123.2994,45.6072],[-123.3403,45.6075],[-123.3405,45.6222],[-123.3604,45.6225],[-123.3807,45.622],[-123.3802,45.6358],[-123.4233,45.6362],[-123.423,45.6506],[-123.4438,45.6507],[-123.4438,45.6651],[-123.4641,45.6651],[-123.4644,45.6793],[-123.4851,45.6793],[-123.4847,45.7088],[-123.361,45.7087],[-123.3614,45.7371],[-123.361,45.7434],[-123.3617,45.7577],[-123.3612,45.7649],[-123.3616,45.7796],[-123.321,45.7802]]]}},{"type":"Feature","properties":{"id":"41009","name":"Columbia Co., OR"},"geometry":{"type":"Polygon","coordinates":[[[-122.7857,45.8442],[-122.796,45.825],[-122.7956,45.81],[-122.7695,45.7806],[-122.7615,45.7592],[-122.7601,45.7344],[-122.7622,45.7286],[-122.7847,45.7287],[-122.7847,45.7209],[-122.8634,45.7214],[-122.9291,45.7215],[-122.9289,45.7357],[-122.9904,45.7365],[-122.9903,45.7508],[-123.0111,45.7515],[-123.0318,45.7514],[-123.0317,45.7658],[-123.0309,45.7792],[-123.1152,45.7801],[-123.1959,45.7799],[-123.321,45.7802],[-123.3616,45.7796],[-123.361,45.7869],[-123.3608,45.8082],[-123.3588,45.8367],[-123.3606,45.8666],[-123.3604,45.8793],[-123.3606,45.9534],[-123.3603,45.9535],[-123.3595,46.0112],[-123.3596,46.0394],[-123.3674,46.0395],[-123.3654,46.0831],[-123.3657,46.0991],[-123.3647,46.1207],[-123.364,46.1273],[-123.3637,46.1463],[-123.3463,46.1451],[-123.3407,46.1462],[-123.3323,46.1461],[-123.301,46.1446],[-123.2802,46.1448],[-123.2512,46.1565],[-123.242,46.161],[-123.2308,46.1643],[-123.2224,46.1677],[-123.2131,46.1725],[-123.1664,46.189],[-123.1159,46.1853],[-123.105,46.1777],[-123.0511,46.1536],[-123.0413,46.1464],[-123.0338,46.1443],[-123.0221,46.1391],[-123.0094,46.136],[-123.0042,46.1338],[-122.9627,46.1048],[-122.9041,46.0837],[-122.8845,46.0603],[-122.8781,46.0313],[-122.8562,46.0145],[-122.8376,45.9808],[-122.814,45.961],[-122.8062,45.9324],[-122.8115,45.9127],[-122.7981,45.8843],[-122.785,45.8677],[-122.7855,45.8505],[-122.7857,45.8442]]]}},{"type":"Feature","properties":{"id":"41071","name":"Yamhill Co., OR"},"geometry":{"type":"Polygon","coordinates":[[[-123.2093,45.4337],[-123.1354,45.4335],[-123.1347,45.4189],[-123.1147,45.419],[-123.1146,45.4044],[-123.0838,45.4045],[-123.073,45.4051],[-123.0527,45.4047],[-123.0322,45.405],[-123.0323,45.3909],[-123.0113,45.3909],[-123.0117,45.3763],[-122.9914,45.3755],[-122.9914,45.3611],[-122.9703,45.3608],[-122.9702,45.3465],[-122.9088,45.3462],[-122.9089,45.3175],[-122.8679,45.3173],[-122.8681,45.2597],[-122.8499,45.2597],[-122.8588,45.2547],[-122.8672,45.253],[-122.8791,45.2544],[-122.8932,45.2581],[-122.8995,45.2567],[-122.9042,45.2594],[-122.9117,45.2656],[-122.9145,45.2669],[-122.9251,45.2686],[-122.9473,45.2675],[-122.9516,45.2699],[-122.9573,45.2787],[-122.964,45.2849],[-122.9676,45.2851],[-122.9747,45.28],[-122.9751,45.276],[-122.9784,45.2723],[-122.991,45.2677],[-122.996,45.2648],[-123.0008,45.2593],[-123.0016,45.2566],[-122.9991,45.2431],[-122.9954,45.2366],[-122.9962,45.2307],[-122.9993,45.2241],[-123.0019,45.2226],[-123.0076,45.2221],[-123.0261,45.2232],[-123.0393,45.2219],[-123.049,45.2147],[-123.0511,45.2107],[-123.047,45.2047],[-123.0459,45.2011],[-123.0413,45.1989],[-123.0366,45.1994],[-123.0255,45.2021],[-123.0205,45.1998],[-123.0189,45.1967],[-123.0189,45.1892],[-123.0154,45.177],[-123.0112,45.1731],[-123.0019,45.1674],[-123.0008,45.1644],[-123.0036,45.1613],[-123.0073,45.1595],[-123.018,45.1628],[-123.023,45.1629],[-123.0277,45.1616],[-123.0314,45.1579],[-123.0332,45.1536],[-123.0326,45.1469],[-123.0281,45.1413],[-123.015,45.1368],[-123.0099,45.1293],[-123.0011,45.1232],[-122.9964,45.1181],[-122.999,45.1147],[-123.0056,45.1111],[-123.01,45.1054],[-123.0146,45.102],[-123.0181,45.101],[-123.0276,45.1006],[-123.0361,45.0977],[-123.0415,45.0941],[-123.0461,45.0892],[-123.0519,45.0863],[-123.0594,45.0839],[-123.0656,45.0806],[-123.0684,45.0779],[-123.0683,45.0749],[-123.0921,45.0749],[-123.2493,45.0751],[-123.3214,45.0755],[-123.4489,45.0753],[-123.5022,45.0751],[-123.5506,45.0756],[-123.5766,45.076],[-123.7244,45.0762],[-123.7244,45.0768],[-123.784,45.0767],[-123.7845,45.0887],[-123.7843,45.104],[-123.7842,45.1447],[-123.7856,45.1597],[-123.7853,45.1669],[-123.7842,45.1734],[-123.7841,45.2021],[-123.7845,45.2163],[-123.7417,45.2163],[-123.6548,45.2166],[-123.6444,45.2171],[-123.6139,45.2171],[-123.6064,45.2166],[-123.483,45.2161],[-123.4635,45.2163],[-123.4631,45.2599],[-123.4631,45.2802],[-123.4623,45.3382],[-123.4641,45.3745],[-123.4657,45.4174],[-123.4649,45.4333],[-123.2093,45.4337]]]}},{"type":"Feature","properties":{"id":"53059","name":"Skamania Co., WA"},"geometry":{"type":"Polygon","coordinates":[[[-122.246,46.1282],[-122.2467,46.2006],[-122.2455,46.2113],[-122.242,46.2116],[-122.2412,46.3124],[-122.2404,46.3559],[-122.2395,46.3854],[-122.241,46.3859],[-122.1978,46.3864],[-122.1558,46.3862],[-122.1143,46.3865],[-122.1145,46.3883],[-122.0321,46.3878],[-121.9899,46.388],[-121.9899,46.3886],[-121.5223,46.3886],[-121.5223,46.044],[-121.6122,46.0441],[-121.6126,45.8989],[-121.6125,45.8704],[-121.6086,45.8704],[-121.6085,45.8426],[-121.6092,45.7825],[-121.5174,45.782],[-121.5144,45.7821],[-121.5197,45.7779],[-121.5284,45.7774],[-121.5307,45.7741],[-121.5381,45.7709],[-121.5384,45.766],[-121.5368,45.7606],[-121.5328,45.7591],[-121.5264,45.7508],[-121.5215,45.7476],[-121.525,45.744],[-121.523,45.7391],[-121.5215,45.7319],[-121.5237,45.7249],[-121.5331,45.7265],[-121.6312,45.7047],[-121.6684,45.7051],[-121.7074,45.6948],[-121.7351,45.694],[-121.8113,45.7068],[-121.8672,45.6933],[-121.9019,45.6707],[-121.9009,45.662],[-121.9083,45.6544],[-121.922,45.6492],[-121.9351,45.6442],[-121.9518,45.645],[-121.9557,45.6436],[-121.9635,45.6328],[-121.9798,45.6248],[-121.983,45.6228],[-122.0037,45.6159],[-122.0226,45.6152],[-122.0444,45.6095],[-122.1017,45.5835],[-122.1124,45.5814],[-122.1295,45.5829],[-122.1407,45.5845],[-122.1837,45.5777],[-122.2017,45.5641],[-122.2489,45.5478],[-122.2492,45.5487],[-122.249,45.5777],[-122.249,45.6139],[-122.2492,45.6357],[-122.2499,45.6648],[-122.2492,45.6729],[-122.2493,45.7222],[-122.2497,45.7303],[-122.2495,45.7441],[-122.2502,45.7509],[-122.2497,45.7942],[-122.2496,45.8156],[-122.2501,45.8228],[-122.2491,45.8364],[-122.2498,45.8666],[-122.2445,45.8666],[-122.2452,45.9385],[-122.2462,45.9539],[-122.2456,46.0326],[-122.2459,46.0539],[-122.246,46.1282]]]}}]}