{"type":"FeatureCollection","features":[{"type":"Feature","properties":{"id":"37101","name":"Johnston Co."},"geometry":{"type":"Polygon","coordinates":[[[-78.6944,35.5301],[-78.5979,35.6047],[-78.4829,35.6942],[-78.4737,35.7015],[-78.4716,35.7049],[-78.4677,35.7075],[-78.464,35.7081],[-78.46,35.7057],[-78.4135,35.7304],[-78.3655,35.7562],[-78.3242,35.779],[-78.2683,35.8104],[-78.256,35.8181],[-78.257,35.8132],[-78.2514,35.8109],[-78.2517,35.8049],[-78.2491,35.8012],[-78.2509,35.7983],[-78.2494,35.7953],[-78.2439,35.7919],[-78.248,35.7808],[-78.2485,35.7748],[-78.2509,35.7739],[-78.2462,35.7726],[-78.2449,35.77],[-78.2383,35.7671],[-78.2382,35.7631],[-78.2348,35.7595],[-78.2351,35.7552],[-78.2327,35.7513],[-78.2268,35.7505],[-78.2198,35.7551],[-78.2166,35.7519],[-78.2158,35.7458],[-78.2131,35.745],[-78.2157,35.7392],[-78.2155,35.7358],[-78.2085,35.7303],[-78.2069,35.7315],[-78.2041,35.7281],[-78.1938,35.7284],[-78.1921,35.7305],[-78.1823,35.7289],[-78.1803,35.7253],[-78.1764,35.7249],[-78.1775,35.721],[-78.176,35.7184],[-78.1706,35.7171],[-78.1678,35.7133],[-78.1613,35.7129],[-78.1603,35.711],[-78.1613,35.6982],[-78.1575,35.6853],[-78.1274,35.6076],[-78.1256,35.6031],[-78.1156,35.6004],[-78.0648,35.5853],[-78.1003,35.5193],[-78.106,35.5089],[-78.1409,35.4436],[-78.1549,35.4178],[-78.1537,35.392],[-78.1499,35.3918],[-78.1443,35.3874],[-78.1459,35.3829],[-78.1501,35.3795],[-78.1578,35.375],[-78.1624,35.3672],[-78.1579,35.3598],[-78.1599,35.3565],[-78.1545,35.357],[-78.1532,35.3507],[-78.1588,35.3475],[-78.1609,35.3493],[-78.1656,35.3464],[-78.1767,35.3463],[-78.1788,35.3441],[-78.1848,35.3454],[-78.1859,35.3431],[-78.1963,35.3436],[-78.1973,35.3401],[-78.2006,35.3413],[-78.2093,35.3398],[-78.212,35.3423],[-78.2155,35.3415],[-78.2167,35.3371],[-78.2156,35.3338],[-78.219,35.3327],[-78.2303,35.3261],[-78.2342,35.3232],[-78.2421,35.32],[-78.2486,35.3204],[-78.2568,35.3256],[-78.269,35.3228],[-78.2717,35.3212],[-78.276,35.3151],[-78.2897,35.3151],[-78.2983,35.3018],[-78.3066,35.2876],[-78.3104,35.2869],[-78.3977,35.263],[-78.4118,35.2547],[-78.4502,35.2586],[-78.4919,35.2633],[-78.5098,35.2817],[-78.5222,35.295],[-78.5266,35.303],[-78.5383,35.3164],[-78.5356,35.3199],[-78.5376,35.3271],[-78.5326,35.3313],[-78.5299,35.3349],[-78.5336,35.3406],[-78.5352,35.345],[-78.5397,35.3471],[-78.5457,35.352],[-78.5489,35.3532],[-78.5522,35.3567],[-78.5573,35.3588],[-78.5627,35.3622],[-78.5635,35.3662],[-78.5688,35.3693],[-78.5681,35.3734],[-78.572,35.3804],[-78.5725,35.3865],[-78.5796,35.3923],[-78.5841,35.3942],[-78.5842,35.3957],[-78.5911,35.3972],[-78.5951,35.4019],[-78.5973,35.4079],[-78.5966,35.4092],[-78.5988,35.4183],[-78.6101,35.4276],[-78.6072,35.4321],[-78.6148,35.4403],[-78.6146,35.442],[-78.6197,35.4454],[-78.6214,35.4505],[-78.6272,35.4583],[-78.6383,35.4616],[-78.6444,35.4662],[-78.6503,35.4724],[-78.6504,35.4828],[-78.6534,35.484],[-78.6557,35.4903],[-78.6606,35.4962],[-78.6755,35.4964],[-78.6831,35.5008],[-78.6869,35.5019],[-78.6878,35.5042],[-78.6882,35.5138],[-78.6897,35.5159],[-78.6973,35.5169],[-78.7089,35.5195],[-78.6944,35.5301]]]}},{"type":"Feature","properties":{"id":"37069","name":"Franklin Co."},"geometry":{"type":"Polygon","coordinates":[[[-78.2544,35.8291],[-78.2578,35.8308],[-78.2625,35.8374],[-78.266,35.8396],[-78.2694,35.8444],[-78.2702,35.8504],[-78.273,35.8577],[-78.278,35.8673],[-78.2811,35.8685],[-78.2843,35.8746],[-78.2899,35.8766],[-78.2913,35.8807],[-78.2951,35.8811],[-78.297,35.8866],[-78.3013,35.8878],[-78.3076,35.8949],[-78.3072,35.8966],[-78.313,35.8973],[-78.3175,35.8946],[-78.3213,35.8961],[-78.3285,35.8967],[-78.3315,35.8979],[-78.3321,35.901],[-78.3355,35.9058],[-78.3408,35.9074],[-78.3439,35.9068],[-78.351,35.9101],[-78.3533,35.9311],[-78.3943,35.9369],[-78.4269,35.975],[-78.4859,35.9995],[-78.5023,36.0059],[-78.5464,36.0218],[-78.5448,36.0807],[-78.5426,36.0851],[-78.4966,36.1752],[-78.4959,36.1797],[-78.4928,36.1839],[-78.4876,36.18],[-78.485,36.1794],[-78.4857,36.1754],[-78.474,36.1726],[-78.4669,36.1726],[-78.4607,36.17],[-78.4604,36.1659],[-78.4576,36.1637],[-78.454,36.168],[-78.4497,36.1691],[-78.4408,36.1678],[-78.4357,36.1663],[-78.4314,36.1664],[-78.4326,36.1646],[-78.4247,36.1637],[-78.4214,36.1645],[-78.4222,36.1678],[-78.4176,36.1678],[-78.4168,36.1692],[-78.4121,36.1696],[-78.3781,36.2351],[-78.3381,36.2344],[-78.3333,36.2409],[-78.3148,36.2562],[-78.307,36.2662],[-78.2412,36.2582],[-78.2327,36.2577],[-78.2303,36.2559],[-78.2249,36.2566],[-78.2187,36.2542],[-78.2158,36.2519],[-78.2098,36.2525],[-78.1979,36.2498],[-78.1943,36.2468],[-78.1891,36.2477],[-78.1795,36.2529],[-78.1728,36.2553],[-78.1665,36.2515],[-78.1609,36.2456],[-78.157,36.2444],[-78.1494,36.2468],[-78.1423,36.246],[-78.1379,36.2476],[-78.1327,36.2463],[-78.1308,36.2404],[-78.1268,36.236],[-78.1257,36.2263],[-78.1173,36.2226],[-78.1165,36.2186],[-78.1142,36.2162],[-78.1109,36.2164],[-78.1098,36.2102],[-78.1042,36.2104],[-78.1031,36.209],[-78.0947,36.2102],[-78.0918,36.2077],[-78.0873,36.2086],[-78.0832,36.2126],[-78.0773,36.2114],[-78.0764,36.2134],[-78.0713,36.2164],[-78.0688,36.215],[-78.0661,36.2165],[-78.0638,36.214],[-78.0611,36.2143],[-78.0571,36.2111],[-78.0535,36.213],[-78.0491,36.2133],[-78.0449,36.2155],[-78.0439,36.2116],[-78.0373,36.2104],[-78.0359,36.2072],[-78.0328,36.2073],[-78.0303,36.211],[-78.0247,36.2095],[-78.0223,36.2054],[-78.0182,36.2055],[-78.0169,36.2078],[-78.0141,36.2052],[-78.0118,36.2061],[-78.0066,36.2026],[-78.0107,36.1962],[-78.0524,36.1343],[-78.1312,36.0168],[-78.1822,35.9388],[-78.2324,35.8575],[-78.256,35.8181],[-78.2544,35.8291]]]}},{"type":"Feature","properties":{"id":"37183","name":"Wake Co."},"geometry":{"type":"Polygon","coordinates":[[[-78.5023,36.0059],[-78.4859,35.9995],[-78.4269,35.975],[-78.3943,35.9369],[-78.3533,35.9311],[-78.351,35.9101],[-78.3439,35.9068],[-78.3408,35.9074],[-78.3355,35.9058],[-78.3321,35.901],[-78.3315,35.8979],[-78.3285,35.8967],[-78.3213,35.8961],[-78.3175,35.8946],[-78.313,35.8973],[-78.3072,35.8966],[-78.3076,35.8949],[-78.3013,35.8878],[-78.297,35.8866],[-78.2951,35.8811],[-78.2913,35.8807],[-78.2899,35.8766],[-78.2843,35.8746],[-78.2811,35.8685],[-78.278,35.8673],[-78.273,35.8577],[-78.2702,35.8504],[-78.2694,35.8444],[-78.266,35.8396],[-78.2625,35.8374],[-78.2578,35.8308],[-78.2544,35.8291],[-78.256,35.8181],[-78.2683,35.8104],[-78.3242,35.779],[-78.3655,35.7562],[-78.4135,35.7304],[-78.46,35.7057],[-78.464,35.7081],[-78.4677,35.7075],[-78.4716,35.7049],[-78.4737,35.7015],[-78.4829,35.6942],[-78.5979,35.6047],[-78.6944,35.5301],[-78.7089,35.5195],[-78.8109,35.5512],[-78.9161,35.5841],[-78.95,35.5959],[-78.995,35.6102],[-78.9831,35.6445],[-78.9711,35.6764],[-78.9559,35.7161],[-78.9363,35.7719],[-78.9309,35.7944],[-78.9266,35.8015],[-78.9186,35.8198],[-78.9094,35.843],[-78.9061,35.8681],[-78.83,35.867],[-78.8048,35.9276],[-78.7591,35.9184],[-78.7582,35.9216],[-78.7489,35.9335],[-78.7417,35.9339],[-78.717,35.9613],[-78.7134,35.9689],[-78.6998,36.0114],[-78.7074,36.0111],[-78.72,36.0296],[-78.7402,36.0236],[-78.7536,36.0314],[-78.7543,36.0563],[-78.7513,36.0708],[-78.7188,36.0759],[-78.7056,36.0764],[-78.6832,36.0745],[-78.6273,36.0517],[-78.6036,36.0424],[-78.554,36.0244],[-78.5464,36.0218],[-78.5023,36.0059]]]}}]}