{"type":"FeatureCollection","features":[{"type":"Feature","properties":{"id":"25005","name":"Bristol Co., MA"},"geometry":{"type":"MultiPolygon","coordinates":[[[[-70.8316,41.602],[-70.83,41.6045],[-70.824,41.5996],[-70.8255,41.5963],[-70.8235,41.5917],[-70.8184,41.5908],[-70.8218,41.5871],[-70.8231,41.5829],[-70.8295,41.5846],[-70.8351,41.5909],[-70.8385,41.5965],[-70.8357,41.6023],[-70.8316,41.602]]],[[[-71.3643,41.9853],[-71.2883,42.0145],[-71.1785,42.0574],[-71.1386,42.0728],[-71.0805,42.0955],[-71.0696,42.0497],[-71.0542,41.9827],[-71.0495,41.9631],[-71.0426,41.9595],[-71.0106,41.9401],[-70.9955,41.9251],[-70.9972,41.9231],[-70.9971,41.9167],[-70.9951,41.915],[-70.992,41.9156],[-70.9911,41.9091],[-70.9932,41.9064],[-70.9873,41.9058],[-70.9772,41.8751],[-70.9737,41.8609],[-70.9783,41.8572],[-70.9858,41.8541],[-70.9905,41.8501],[-70.9959,41.847],[-71.0366,41.8165],[-71.0146,41.7996],[-71.0263,41.7789],[-70.9218,41.7912],[-70.9044,41.758],[-70.8864,41.7602],[-70.8452,41.6447],[-70.8432,41.6285],[-70.8525,41.6269],[-70.8597,41.6241],[-70.8551,41.6218],[-70.8537,41.614],[-70.8496,41.6103],[-70.848,41.603],[-70.8432,41.5966],[-70.8509,41.5934],[-70.8532,41.5881],[-70.8532,41.583],[-70.8567,41.5837],[-70.8572,41.5877],[-70.8602,41.5946],[-70.8637,41.5976],[-70.863,41.6039],[-70.8689,41.6147],[-70.8684,41.6227],[-70.8727,41.6278],[-70.8888,41.6328],[-70.8927,41.6259],[-70.8954,41.6242],[-70.9088,41.6236],[-70.9132,41.6193],[-70.9045,41.6104],[-70.8986,41.5927],[-70.9021,41.5916],[-70.9091,41.5937],[-70.9108,41.5955],[-70.9166,41.6075],[-70.9224,41.6143],[-70.9305,41.6133],[-70.9297,41.6095],[-70.9312,41.6069],[-70.93,41.6004],[-70.9274,41.5941],[-70.9313,41.5842],[-70.9338,41.5804],[-70.9376,41.5775],[-70.9393,41.5802],[-70.9425,41.5815],[-70.9439,41.586],[-70.9502,41.5846],[-70.947,41.5727],[-70.9378,41.5652],[-70.9354,41.5557],[-70.9346,41.5487],[-70.9285,41.5398],[-70.9418,41.5401],[-70.9463,41.5376],[-70.9479,41.5298],[-70.9549,41.5276],[-70.9526,41.5181],[-70.9533,41.515],[-70.9566,41.5155],[-70.958,41.5217],[-70.9614,41.5297],[-70.9666,41.5317],[-70.9723,41.5308],[-70.9801,41.5276],[-70.9846,41.5204],[-70.9816,41.5137],[-70.9817,41.5101],[-70.984,41.5089],[-70.9939,41.5113],[-71.0033,41.5119],[-71.0194,41.5089],[-71.0223,41.5043],[-71.0355,41.499],[-71.0383,41.4922],[-71.0336,41.4868],[-71.0355,41.4816],[-71.0384,41.4811],[-71.0412,41.4905],[-71.041,41.4975],[-71.0486,41.5027],[-71.0584,41.506],[-71.0707,41.5089],[-71.0857,41.5093],[-71.0931,41.5042],[-71.1068,41.5025],[-71.1138,41.5001],[-71.1158,41.4965],[-71.1206,41.4974],[-71.1224,41.5222],[-71.1313,41.5923],[-71.1316,41.5939],[-71.1375,41.6026],[-71.1406,41.6051],[-71.1415,41.6161],[-71.1405,41.6239],[-71.1357,41.6284],[-71.1327,41.6587],[-71.1329,41.6601],[-71.1459,41.6628],[-71.1761,41.6681],[-71.176,41.6714],[-71.1956,41.6751],[-71.2248,41.7105],[-71.2614,41.7523],[-71.3179,41.7762],[-71.3279,41.7805],[-71.3294,41.7826],[-71.3293,41.7868],[-71.3339,41.7945],[-71.3393,41.7963],[-71.3408,41.8002],[-71.3392,41.809],[-71.3472,41.8231],[-71.3449,41.828],[-71.3352,41.8355],[-71.3422,41.8448],[-71.334,41.8623],[-71.3408,41.8816],[-71.3387,41.8984],[-71.3738,41.8944],[-71.3817,41.8932],[-71.3814,41.9648],[-71.3815,41.9851],[-71.3643,41.9853]]]]}},{"type":"Feature","properties":{"id":"44007","name":"Providence Co., RI"},"geometry":{"type":"Polygon","coordinates":[[[-71.3814,41.9648],[-71.3817,41.8932],[-71.3738,41.8944],[-71.3387,41.8984],[-71.3408,41.8816],[-71.334,41.8623],[-71.3422,41.8448],[-71.3352,41.8355],[-71.3449,41.828],[-71.3472,41.8231],[-71.3392,41.809],[-71.3408,41.8002],[-71.3393,41.7963],[-71.3339,41.7945],[-71.3293,41.7868],[-71.3294,41.7826],[-71.3279,41.7805],[-71.3179,41.7762],[-71.3199,41.7745],[-71.3515,41.7526],[-71.3539,41.7513],[-71.3558,41.7451],[-71.3599,41.7451],[-71.3601,41.7495],[-71.3623,41.7509],[-71.3608,41.7552],[-71.3618,41.7607],[-71.3646,41.7647],[-71.3696,41.7646],[-71.3661,41.7711],[-71.3651,41.7775],[-71.3715,41.7834],[-71.3813,41.7853],[-71.3906,41.7837],[-71.3917,41.7811],[-71.3855,41.7687],[-71.3856,41.7603],[-71.3838,41.7585],[-71.3857,41.7584],[-71.3885,41.7638],[-71.3941,41.764],[-71.3956,41.7667],[-71.3996,41.7683],[-71.4014,41.7666],[-71.4052,41.7676],[-71.4107,41.7666],[-71.4144,41.763],[-71.4201,41.7617],[-71.4187,41.7641],[-71.422,41.7646],[-71.4262,41.761],[-71.4338,41.7614],[-71.4376,41.7598],[-71.4412,41.7547],[-71.4406,41.7522],[-71.4465,41.7489],[-71.4444,41.7442],[-71.4447,41.7402],[-71.4513,41.7397],[-71.4537,41.7374],[-71.4528,41.7343],[-71.4553,41.7324],[-71.5169,41.7306],[-71.5474,41.73],[-71.6443,41.7278],[-71.7201,41.7263],[-71.7897,41.7252],[-71.7911,41.7703],[-71.7928,41.807],[-71.7979,41.9354],[-71.7992,42.0081],[-71.766,42.0097],[-71.5769,42.0141],[-71.5276,42.015],[-71.4999,42.0172],[-71.3814,42.0188],[-71.3815,41.9851],[-71.3814,41.9648]]]}},{"type":"Feature","properties":{"id":"44005","name":"Newport Co., RI"},"geometry":{"type":"MultiPolygon","coordinates":[[[[-71.2816,41.6482],[-71.2782,41.6473],[-71.2763,41.6405],[-71.2721,41.6371],[-71.277,41.638],[-71.2838,41.6378],[-71.2882,41.6429],[-71.2865,41.6476],[-71.2816,41.6482]]],[[[-71.2986,41.5849],[-71.2972,41.5798],[-71.3008,41.5806],[-71.3015,41.5857],[-71.2986,41.5849]]],[[[-71.3243,41.4539],[-71.3256,41.4521],[-71.3263,41.4547],[-71.3243,41.4539]]],[[[-71.327,41.4931],[-71.3254,41.4876],[-71.3278,41.483],[-71.329,41.4871],[-71.3288,41.4923],[-71.327,41.4931]]],[[[-71.3387,41.4949],[-71.3431,41.4949],[-71.3413,41.5005],[-71.3387,41.4949]]],[[[-71.3431,41.5358],[-71.3426,41.529],[-71.3459,41.5296],[-71.3463,41.5342],[-71.345,41.5379],[-71.3431,41.5358]]],[[[-71.3503,41.649],[-71.3476,41.6528],[-71.3441,41.6528],[-71.3438,41.6549],[-71.3516,41.6586],[-71.3469,41.6633],[-71.3489,41.6653],[-71.3448,41.667],[-71.344,41.6615],[-71.3376,41.658],[-71.3393,41.655],[-71.3381,41.6508],[-71.3324,41.6438],[-71.3365,41.6419],[-71.335,41.6442],[-71.3371,41.6467],[-71.3447,41.6425],[-71.3437,41.6399],[-71.3406,41.6397],[-71.3391,41.6371],[-71.3347,41.6344],[-71.3268,41.6317],[-71.3171,41.6314],[-71.314,41.6279],[-71.3081,41.6262],[-71.304,41.6188],[-71.3026,41.6055],[-71.3049,41.6045],[-71.3078,41.5974],[-71.3167,41.5831],[-71.3261,41.5786],[-71.3312,41.5803],[-71.3359,41.5859],[-71.337,41.5947],[-71.3338,41.6059],[-71.3296,41.6091],[-71.3301,41.6111],[-71.3266,41.6161],[-71.3256,41.6241],[-71.3374,41.6313],[-71.345,41.6323],[-71.3474,41.6313],[-71.3507,41.6339],[-71.3533,41.6408],[-71.3538,41.6475],[-71.3503,41.649]]],[[[-71.1292,41.4963],[-71.1369,41.4939],[-71.1411,41.4899],[-71.1391,41.4834],[-71.1424,41.4812],[-71.1457,41.4812],[-71.1465,41.4785],[-71.1509,41.4758],[-71.1544,41.4767],[-71.1593,41.476],[-71.1631,41.4717],[-71.1673,41.4714],[-71.1702,41.4684],[-71.1686,41.4615],[-71.1736,41.4614],[-71.1755,41.4599],[-71.1863,41.4603],[-71.194,41.4564],[-71.1969,41.4611],[-71.1966,41.4648],[-71.1924,41.4666],[-71.1919,41.4744],[-71.19,41.4783],[-71.1902,41.4843],[-71.1994,41.4918],[-71.1997,41.4955],[-71.2023,41.4984],[-71.2064,41.4992],[-71.2008,41.5144],[-71.2048,41.5191],[-71.2048,41.5233],[-71.2083,41.5289],[-71.2049,41.5408],[-71.2068,41.5435],[-71.216,41.5472],[-71.2157,41.5521],[-71.2138,41.5568],[-71.221,41.5609],[-71.2169,41.5618],[-71.2114,41.5582],[-71.2098,41.5587],[-71.2102,41.563],[-71.2086,41.571],[-71.2084,41.5812],[-71.2144,41.5837],[-71.2147,41.586],[-71.2094,41.5906],[-71.2092,41.594],[-71.2054,41.5943],[-71.2045,41.5984],[-71.2078,41.6007],[-71.2127,41.6101],[-71.2118,41.6235],[-71.218,41.6257],[-71.2241,41.6229],[-71.2365,41.6214],[-71.2407,41.6192],[-71.2411,41.6069],[-71.2436,41.5875],[-71.2378,41.5776],[-71.2349,41.5765],[-71.2361,41.5748],[-71.2363,41.565],[-71.2382,41.5588],[-71.237,41.5549],[-71.2337,41.5524],[-71.2365,41.5449],[-71.2349,41.5417],[-71.2366,41.5359],[-71.2348,41.5325],[-71.2289,41.5303],[-71.228,41.5283],[-71.2294,41.5215],[-71.2335,41.5141],[-71.2407,41.5056],[-71.2407,41.5017],[-71.2467,41.4943],[-71.248,41.4903],[-71.2443,41.4857],[-71.2374,41.4857],[-71.2376,41.4823],[-71.2397,41.4803],[-71.2404,41.4761],[-71.2464,41.4729],[-71.2477,41.4737],[-71.2452,41.4803],[-71.2521,41.4859],[-71.2582,41.4879],[-71.2648,41.4889],[-71.2676,41.4882],[-71.2689,41.4847],[-71.2749,41.4798],[-71.2766,41.48],[-71.2823,41.4883],[-71.2855,41.489],[-71.2913,41.4879],[-71.2974,41.4848],[-71.2965,41.4798],[-71.2974,41.4734],[-71.2969,41.4691],[-71.3014,41.4673],[-71.304,41.4637],[-71.3028,41.4597],[-71.3044,41.4545],[-71.3102,41.4511],[-71.312,41.4514],[-71.311,41.4551],[-71.3147,41.4564],[-71.3185,41.4557],[-71.3203,41.4598],[-71.3269,41.4589],[-71.3275,41.4571],[-71.3348,41.4495],[-71.338,41.4495],[-71.3397,41.4526],[-71.3442,41.454],[-71.3536,41.4498],[-71.3562,41.4505],[-71.3588,41.4597],[-71.3629,41.4617],[-71.3612,41.4646],[-71.3583,41.4644],[-71.3528,41.4692],[-71.3479,41.4706],[-71.3418,41.476],[-71.3364,41.482],[-71.3344,41.4782],[-71.3364,41.4717],[-71.336,41.4696],[-71.3235,41.4758],[-71.3165,41.4776],[-71.3181,41.4878],[-71.3212,41.4881],[-71.3228,41.4911],[-71.3231,41.5031],[-71.3278,41.5043],[-71.3307,41.5077],[-71.3293,41.5138],[-71.326,41.5143],[-71.3255,41.5173],[-71.328,41.5188],[-71.3271,41.5216],[-71.324,41.5224],[-71.3209,41.5195],[-71.3146,41.5198],[-71.3113,41.5226],[-71.3142,41.5314],[-71.3127,41.5365],[-71.3081,41.5394],[-71.3081,41.5429],[-71.3111,41.5441],[-71.3105,41.5469],[-71.3037,41.5599],[-71.2967,41.5671],[-71.2944,41.5714],[-71.2884,41.5733],[-71.2841,41.5794],[-71.2857,41.5828],[-71.2891,41.5827],[-71.2853,41.5924],[-71.2806,41.5929],[-71.2734,41.607],[-71.2724,41.615],[-71.2752,41.6194],[-71.2719,41.624],[-71.2648,41.6252],[-71.261,41.6274],[-71.2589,41.6332],[-71.2511,41.6388],[-71.2463,41.6398],[-71.2425,41.6384],[-71.2365,41.6384],[-71.2332,41.6402],[-71.2323,41.6434],[-71.2254,41.6471],[-71.2223,41.6542],[-71.2203,41.6556],[-71.2173,41.6462],[-71.2166,41.6391],[-71.2118,41.6391],[-71.208,41.6531],[-71.1956,41.6751],[-71.176,41.6714],[-71.1761,41.6681],[-71.1459,41.6628],[-71.1329,41.6601],[-71.1327,41.6587],[-71.1357,41.6284],[-71.1405,41.6239],[-71.1415,41.6161],[-71.1406,41.6051],[-71.1375,41.6026],[-71.1316,41.5939],[-71.1313,41.5923],[-71.1224,41.5222],[-71.1206,41.4974],[-71.1292,41.4963]]],[[[-71.3607,41.6611],[-71.3547,41.6598],[-71.3534,41.6579],[-71.3564,41.6521],[-71.36,41.6499],[-71.3625,41.6511],[-71.3646,41.6576],[-71.367,41.6607],[-71.3607,41.6611]]],[[[-71.3673,41.606],[-71.3634,41.6067],[-71.3648,41.6014],[-71.3694,41.5982],[-71.3734,41.5974],[-71.3679,41.604],[-71.3673,41.606]]],[[[-71.3991,41.4639],[-71.3959,41.4647],[-71.3944,41.4672],[-71.3976,41.4738],[-71.3966,41.4789],[-71.3981,41.4849],[-71.3975,41.487],[-71.4005,41.4903],[-71.3994,41.493],[-71.3924,41.4919],[-71.384,41.4938],[-71.3849,41.497],[-71.3835,41.5011],[-71.3789,41.5049],[-71.3849,41.5108],[-71.391,41.5146],[-71.3926,41.5176],[-71.3921,41.5245],[-71.3888,41.5344],[-71.3857,41.539],[-71.3866,41.5458],[-71.3855,41.5484],[-71.3845,41.5567],[-71.3814,41.5588],[-71.3813,41.5631],[-71.379,41.5678],[-71.3736,41.5732],[-71.3702,41.574],[-71.3636,41.5709],[-71.3599,41.5563],[-71.3604,41.5478],[-71.3647,41.5414],[-71.3639,41.5354],[-71.3613,41.5264],[-71.3634,41.5186],[-71.3654,41.5166],[-71.3652,41.512],[-71.3634,41.5101],[-71.3599,41.5107],[-71.3576,41.5087],[-71.3589,41.5033],[-71.366,41.4988],[-71.3665,41.4948],[-71.3595,41.4831],[-71.3541,41.4804],[-71.3587,41.4771],[-71.3642,41.4765],[-71.3717,41.4775],[-71.3751,41.4738],[-71.3768,41.4749],[-71.3782,41.4828],[-71.3807,41.4888],[-71.3862,41.4877],[-71.3847,41.4828],[-71.3848,41.4784],[-71.3822,41.4724],[-71.3816,41.4681],[-71.3845,41.4641],[-71.389,41.4655],[-71.3903,41.455],[-71.396,41.452],[-71.3996,41.4486],[-71.4008,41.455],[-71.4006,41.4609],[-71.3991,41.4639]]],[[[-71.4014,41.5063],[-71.3974,41.5062],[-71.3963,41.5037],[-71.4032,41.4976],[-71.4051,41.4982],[-71.4014,41.5063]]]]}},{"type":"Feature","properties":{"id":"44009","name":"Washington Co., RI"},"geometry":{"type":"MultiPolygon","coordinates":[[[[-71.6105,41.1626],[-71.6106,41.1684],[-71.608,41.1729],[-71.6056,41.1821],[-71.5975,41.1852],[-71.5934,41.1914],[-71.5929,41.1989],[-71.5895,41.1966],[-71.5859,41.2002],[-71.5806,41.2034],[-71.5769,41.211],[-71.5763,41.2249],[-71.5777,41.2312],[-71.5703,41.2253],[-71.5625,41.2242],[-71.5559,41.2166],[-71.5541,41.213],[-71.5556,41.2083],[-71.5614,41.2006],[-71.5641,41.1954],[-71.5664,41.1882],[-71.5647,41.1797],[-71.5579,41.173],[-71.5546,41.1734],[-71.5529,41.1691],[-71.5502,41.1668],[-71.5444,41.1649],[-71.5471,41.1537],[-71.552,41.1517],[-71.5565,41.1516],[-71.5659,41.149],[-71.5687,41.1494],[-71.5786,41.1476],[-71.5805,41.1491],[-71.5937,41.1463],[-71.6,41.1469],[-71.6116,41.1539],[-71.6131,41.1603],[-71.6105,41.1626]]],[[[-71.7608,41.598],[-71.6536,41.5987],[-71.6434,41.601],[-71.5448,41.602],[-71.5204,41.6026],[-71.4844,41.6026],[-71.4855,41.613],[-71.488,41.616],[-71.4825,41.6236],[-71.4794,41.6242],[-71.4713,41.6291],[-71.4725,41.6321],[-71.4678,41.6342],[-71.4624,41.6384],[-71.4591,41.6379],[-71.4556,41.6351],[-71.4544,41.6312],[-71.4514,41.6295],[-71.4484,41.6334],[-71.4493,41.6367],[-71.442,41.6433],[-71.4425,41.6458],[-71.4328,41.6513],[-71.4289,41.6506],[-71.4239,41.6539],[-71.4176,41.655],[-71.4089,41.6538],[-71.4075,41.6333],[-71.4032,41.6275],[-71.4034,41.6255],[-71.4086,41.622],[-71.4079,41.6197],[-71.4024,41.6156],[-71.4043,41.6118],[-71.4096,41.6104],[-71.4119,41.6111],[-71.4169,41.6049],[-71.4143,41.6026],[-71.4036,41.603],[-71.4038,41.5893],[-71.411,41.5866],[-71.4196,41.5858],[-71.4302,41.5834],[-71.4395,41.5773],[-71.4388,41.5814],[-71.4409,41.585],[-71.4464,41.5832],[-71.4443,41.5789],[-71.447,41.5784],[-71.4464,41.5745],[-71.4381,41.5706],[-71.4441,41.568],[-71.4422,41.5638],[-71.4344,41.5616],[-71.4348,41.5581],[-71.4302,41.5582],[-71.4279,41.5555],[-71.431,41.5501],[-71.4286,41.547],[-71.4248,41.5494],[-71.4234,41.5482],[-71.4267,41.5436],[-71.4231,41.5388],[-71.4177,41.5363],[-71.4181,41.5322],[-71.4155,41.5299],[-71.4149,41.5163],[-71.4214,41.4986],[-71.4209,41.4932],[-71.4186,41.4921],[-71.4208,41.49],[-71.4203,41.4836],[-71.418,41.4821],[-71.4184,41.4727],[-71.4212,41.4699],[-71.423,41.4727],[-71.4276,41.4725],[-71.4307,41.4706],[-71.43,41.4611],[-71.4267,41.4588],[-71.4269,41.4541],[-71.4303,41.453],[-71.4321,41.4494],[-71.4311,41.4473],[-71.4381,41.4417],[-71.4406,41.4384],[-71.4428,41.4414],[-71.4489,41.4385],[-71.4558,41.433],[-71.4548,41.4218],[-71.4526,41.4178],[-71.453,41.4097],[-71.4562,41.4051],[-71.4623,41.4013],[-71.4637,41.3958],[-71.469,41.3936],[-71.4749,41.3861],[-71.4842,41.3718],[-71.4829,41.3659],[-71.4804,41.3624],[-71.4809,41.3602],[-71.4892,41.3624],[-71.489,41.3644],[-71.4949,41.3683],[-71.4973,41.3713],[-71.5029,41.3742],[-71.5202,41.3765],[-71.5315,41.3765],[-71.5372,41.3733],[-71.5409,41.373],[-71.5516,41.3744],[-71.5861,41.3681],[-71.5948,41.3652],[-71.6165,41.363],[-71.633,41.3585],[-71.6383,41.3554],[-71.6429,41.3557],[-71.6881,41.3428],[-71.6967,41.341],[-71.7052,41.3343],[-71.716,41.3311],[-71.7243,41.3321],[-71.7307,41.3316],[-71.7468,41.3281],[-71.7517,41.3254],[-71.761,41.3285],[-71.7664,41.3289],[-71.7737,41.328],[-71.8153,41.3202],[-71.8338,41.3156],[-71.8453,41.3119],[-71.8574,41.3063],[-71.8599,41.3094],[-71.8628,41.3098],[-71.8621,41.3166],[-71.8605,41.3202],[-71.8575,41.3208],[-71.8519,41.3247],[-71.8477,41.3296],[-71.8447,41.3306],[-71.8362,41.336],[-71.8294,41.3424],[-71.8313,41.3513],[-71.8357,41.3536],[-71.8379,41.3601],[-71.8376,41.3655],[-71.8316,41.3709],[-71.8327,41.3756],[-71.8306,41.3788],[-71.8335,41.3824],[-71.8327,41.3872],[-71.8382,41.3906],[-71.8421,41.3954],[-71.8411,41.3992],[-71.8435,41.4058],[-71.8426,41.4099],[-71.8396,41.4121],[-71.8341,41.4116],[-71.8246,41.4152],[-71.8203,41.4194],[-71.8129,41.4194],[-71.8068,41.4167],[-71.8037,41.4174],[-71.8014,41.4155],[-71.7977,41.4167],[-71.7894,41.5969],[-71.7608,41.598]]]]}},{"type":"Feature","properties":{"id":"44003","name":"Kent Co., RI"},"geometry":{"type":"Polygon","coordinates":[[[-71.7201,41.7263],[-71.6443,41.7278],[-71.5474,41.73],[-71.5169,41.7306],[-71.4553,41.7324],[-71.4528,41.7343],[-71.4537,41.7374],[-71.4513,41.7397],[-71.4447,41.7402],[-71.4444,41.7442],[-71.4465,41.7489],[-71.4406,41.7522],[-71.4412,41.7547],[-71.4376,41.7598],[-71.4338,41.7614],[-71.4262,41.761],[-71.422,41.7646],[-71.4187,41.7641],[-71.4201,41.7617],[-71.4144,41.763],[-71.4107,41.7666],[-71.4052,41.7676],[-71.4014,41.7666],[-71.3996,41.7683],[-71.3956,41.7667],[-71.3941,41.764],[-71.3885,41.7638],[-71.3857,41.7584],[-71.3838,41.7585],[-71.381,41.7557],[-71.3806,41.7459],[-71.3761,41.7442],[-71.3808,41.7389],[-71.381,41.7273],[-71.3765,41.7216],[-71.3699,41.7183],[-71.3639,41.7174],[-71.3573,41.7182],[-71.3573,41.7166],[-71.3657,41.7116],[-71.3644,41.7047],[-71.3656,41.7006],[-71.3656,41.6937],[-71.3627,41.6919],[-71.3649,41.6884],[-71.3715,41.6854],[-71.3734,41.6786],[-71.373,41.6726],[-71.3779,41.6666],[-71.382,41.6673],[-71.3863,41.671],[-71.3899,41.6719],[-71.3906,41.6841],[-71.3982,41.6834],[-71.4181,41.6842],[-71.4338,41.687],[-71.4413,41.6864],[-71.4419,41.69],[-71.4459,41.6911],[-71.4502,41.6865],[-71.4477,41.6779],[-71.4446,41.6743],[-71.447,41.6712],[-71.4448,41.6638],[-71.4421,41.6637],[-71.4402,41.6668],[-71.4347,41.6663],[-71.4243,41.6703],[-71.4177,41.6653],[-71.4086,41.6632],[-71.4089,41.6538],[-71.4176,41.655],[-71.4239,41.6539],[-71.4289,41.6506],[-71.4328,41.6513],[-71.4425,41.6458],[-71.442,41.6433],[-71.4493,41.6367],[-71.4484,41.6334],[-71.4514,41.6295],[-71.4544,41.6312],[-71.4556,41.6351],[-71.4591,41.6379],[-71.4624,41.6384],[-71.4678,41.6342],[-71.4725,41.6321],[-71.4713,41.6291],[-71.4794,41.6242],[-71.4825,41.6236],[-71.488,41.616],[-71.4855,41.613],[-71.4844,41.6026],[-71.5204,41.6026],[-71.5448,41.602],[-71.6434,41.601],[-71.6536,41.5987],[-71.7608,41.598],[-71.7894,41.5969],[-71.787,41.656],[-71.7897,41.7252],[-71.7201,41.7263]]]}},{"type":"Feature","properties":{"id":"44001","name":"Bristol Co., RI"},"geometry":{"type":"Polygon","coordinates":[[[-71.2614,41.7523],[-71.2248,41.7105],[-71.2279,41.7055],[-71.233,41.702],[-71.241,41.6977],[-71.2458,41.6972],[-71.2425,41.6879],[-71.2346,41.6775],[-71.2354,41.6721],[-71.2384,41.6656],[-71.2403,41.6656],[-71.2444,41.6691],[-71.2503,41.665],[-71.2534,41.6606],[-71.2546,41.6522],[-71.2567,41.6503],[-71.2596,41.6426],[-71.2671,41.6449],[-71.2701,41.6524],[-71.2677,41.6574],[-71.2777,41.6663],[-71.2804,41.6726],[-71.2788,41.6783],[-71.2855,41.6824],[-71.2891,41.6796],[-71.2876,41.6725],[-71.2905,41.6624],[-71.2979,41.6583],[-71.2976,41.6538],[-71.2992,41.6495],[-71.3014,41.65],[-71.305,41.6594],[-71.3061,41.6726],[-71.3026,41.6817],[-71.2989,41.6815],[-71.2931,41.6883],[-71.2912,41.7027],[-71.2988,41.711],[-71.3014,41.7064],[-71.3038,41.7066],[-71.308,41.7128],[-71.3058,41.7187],[-71.3071,41.7216],[-71.3148,41.7238],[-71.3242,41.7254],[-71.3395,41.7248],[-71.3411,41.7291],[-71.3411,41.7348],[-71.3444,41.7362],[-71.3482,41.742],[-71.3523,41.7451],[-71.3558,41.7451],[-71.3539,41.7513],[-71.3515,41.7526],[-71.3199,41.7745],[-71.3179,41.7762],[-71.2614,41.7523]]]}}]}