{"type":"FeatureCollection","features":[{"type":"Feature","properties":{"id":"06065","name":"Riverside Co."},"geometry":{"type":"Polygon","coordinates":[[[-114.4377,34.0719],[-114.4393,34.0579],[-114.4386,34.0502],[-114.4355,34.0426],[-114.4349,34.0378],[-114.4362,34.0281],[-114.4383,34.0226],[-114.4438,34.0162],[-114.4548,34.011],[-114.4633,34.0123],[-114.4659,34.011],[-114.4674,34.0075],[-114.4663,34.0039],[-114.4592,34.0],[-114.458,33.9978],[-114.4601,33.9939],[-114.4679,33.9929],[-114.4711,33.988],[-114.4815,33.9813],[-114.4848,33.9755],[-114.495,33.9668],[-114.4999,33.9618],[-114.5096,33.9573],[-114.5159,33.9581],[-114.522,33.9556],[-114.5287,33.9478],[-114.5355,33.9347],[-114.5358,33.9276],[-114.5346,33.9254],[-114.5254,33.9223],[-114.5184,33.9175],[-114.5115,33.9111],[-114.5079,33.9038],[-114.5087,33.9006],[-114.5137,33.898],[-114.5163,33.8979],[-114.5229,33.9011],[-114.5259,33.901],[-114.5236,33.8936],[-114.5101,33.8808],[-114.5043,33.8769],[-114.503,33.868],[-114.5056,33.8643],[-114.5147,33.8586],[-114.5168,33.8581],[-114.5236,33.8601],[-114.5279,33.8589],[-114.5306,33.8554],[-114.5296,33.8481],[-114.5255,33.8386],[-114.5234,33.8353],[-114.52,33.8254],[-114.5227,33.819],[-114.528,33.815],[-114.5201,33.7995],[-114.5167,33.7883],[-114.5071,33.7679],[-114.5049,33.7605],[-114.5045,33.751],[-114.5082,33.7416],[-114.5123,33.7342],[-114.5042,33.7281],[-114.5008,33.7222],[-114.4966,33.7192],[-114.4949,33.7144],[-114.4942,33.7079],[-114.4965,33.6969],[-114.505,33.693],[-114.5124,33.6913],[-114.524,33.6859],[-114.5303,33.6792],[-114.5321,33.6697],[-114.5264,33.6639],[-114.5171,33.6629],[-114.5141,33.6602],[-114.5146,33.658],[-114.5183,33.6559],[-114.5252,33.6559],[-114.5306,33.6545],[-114.5332,33.6517],[-114.5332,33.6484],[-114.5295,33.6439],[-114.5254,33.6407],[-114.5238,33.6347],[-114.5264,33.6303],[-114.5303,33.629],[-114.5312,33.6239],[-114.5277,33.6185],[-114.5224,33.6142],[-114.5221,33.6113],[-114.5292,33.6067],[-114.5406,33.5914],[-114.5403,33.5806],[-114.536,33.5692],[-114.5268,33.5575],[-114.5246,33.5522],[-114.542,33.5425],[-114.5589,33.5318],[-114.5608,33.5243],[-114.561,33.5167],[-114.5695,33.5092],[-114.5738,33.5075],[-114.5805,33.5065],[-114.5882,33.5025],[-114.5916,33.4994],[-114.5973,33.4907],[-114.5997,33.4843],[-114.6078,33.4748],[-114.6125,33.4708],[-114.6229,33.4566],[-114.6223,33.4476],[-114.6271,33.4336],[-114.7177,33.4336],[-114.7665,33.4337],[-114.8309,33.4337],[-114.8308,33.4301],[-114.9348,33.4299],[-115.0008,33.4294],[-115.0577,33.4286],[-115.0632,33.4281],[-115.2413,33.4286],[-115.2517,33.4282],[-115.3491,33.4281],[-115.4675,33.4284],[-115.4675,33.427],[-115.5712,33.4269],[-115.6775,33.4274],[-115.686,33.4272],[-115.7497,33.4271],[-115.8769,33.4265],[-115.9904,33.4265],[-115.9979,33.4263],[-116.0414,33.4262],[-116.06,33.426],[-116.1126,33.4259],[-116.1976,33.4289],[-116.267,33.4281],[-116.4152,33.4273],[-116.5184,33.4269],[-116.6177,33.4274],[-116.8218,33.4269],[-116.8571,33.4266],[-116.9234,33.4275],[-116.9459,33.4276],[-116.9937,33.4275],[-117.0019,33.4269],[-117.0309,33.4269],[-117.0308,33.43],[-117.1069,33.4306],[-117.1364,33.4325],[-117.1538,33.4326],[-117.1915,33.4322],[-117.2413,33.432],[-117.2417,33.4489],[-117.2845,33.4627],[-117.3636,33.4881],[-117.3709,33.4905],[-117.3643,33.505],[-117.5097,33.505],[-117.5097,33.5091],[-117.5038,33.5089],[-117.5032,33.5204],[-117.5099,33.5205],[-117.5102,33.534],[-117.5012,33.5458],[-117.4967,33.5526],[-117.4613,33.5974],[-117.4579,33.6022],[-117.4139,33.6577],[-117.4133,33.6593],[-117.424,33.667],[-117.4598,33.6917],[-117.4746,33.7038],[-117.4976,33.7056],[-117.534,33.7104],[-117.535,33.7275],[-117.5358,33.75],[-117.5364,33.7577],[-117.5692,33.7646],[-117.5801,33.768],[-117.5808,33.7695],[-117.6073,33.7974],[-117.6366,33.83],[-117.6621,33.8575],[-117.6743,33.858],[-117.6751,33.8687],[-117.6716,33.8694],[-117.673,33.871],[-117.6705,33.8743],[-117.673,33.8754],[-117.6688,33.8805],[-117.6763,33.8888],[-117.6549,33.8888],[-117.6551,33.9077],[-117.6556,33.9099],[-117.6554,33.9251],[-117.6109,33.9251],[-117.6109,33.9718],[-117.5584,33.9884],[-117.5583,34.0335],[-117.4999,34.0335],[-117.4537,34.0336],[-117.4354,34.0342],[-117.4142,34.0343],[-117.3906,34.0339],[-117.3753,34.0339],[-117.3742,34.0308],[-117.3773,34.0267],[-117.3754,34.0254],[-117.3754,34.0194],[-117.3049,34.0193],[-117.2961,34.0183],[-117.2706,34.0187],[-117.2255,34.018],[-117.2254,34.0042],[-117.1731,34.0041],[-117.1385,34.0043],[-117.1213,34.0035],[-117.1039,34.0044],[-117.0865,34.0038],[-117.0541,34.0041],[-117.0345,34.0049],[-117.0131,34.0043],[-116.9872,34.0047],[-116.9295,34.0049],[-116.9296,34.0341],[-116.8771,34.034],[-116.8759,34.0339],[-116.7197,34.0338],[-116.6156,34.0333],[-116.6156,34.0326],[-116.5123,34.0329],[-116.4578,34.0329],[-116.3008,34.0325],[-116.3006,34.0344],[-116.1958,34.0343],[-116.1959,34.0336],[-116.0464,34.0343],[-115.9848,34.0344],[-115.7508,34.0352],[-115.7478,34.0354],[-115.6324,34.0353],[-115.3162,34.0341],[-115.3161,34.0778],[-115.1924,34.0778],[-115.1924,34.0794],[-115.1361,34.0797],[-115.0923,34.0798],[-114.8295,34.0796],[-114.4812,34.0798],[-114.4354,34.0797],[-114.4377,34.0719]]]}},{"type":"Feature","properties":{"id":"06071","name":"San Bernardino Co."},"geometry":{"type":"Polygon","coordinates":[[[-117.6793,33.8776],[-117.7325,33.9103],[-117.7325,33.9114],[-117.7481,33.9214],[-117.7747,33.9402],[-117.7936,33.9538],[-117.7937,33.9681],[-117.8024,33.9683],[-117.8025,33.9756],[-117.7852,34.0046],[-117.7675,34.0047],[-117.767,34.0112],[-117.7677,34.0235],[-117.7358,34.0186],[-117.7301,34.0214],[-117.7274,34.0374],[-117.7167,34.0669],[-117.7044,34.0953],[-117.6868,34.1381],[-117.6817,34.1558],[-117.6785,34.162],[-117.6464,34.2892],[-117.6597,34.4516],[-117.6604,34.5579],[-117.6671,34.5579],[-117.6671,34.6902],[-117.6675,34.8225],[-117.6322,34.8223],[-117.6326,34.9832],[-117.6322,34.9909],[-117.6328,35.0427],[-117.6331,35.0869],[-117.6333,35.0976],[-117.6309,35.0976],[-117.6312,35.1287],[-117.6312,35.1828],[-117.631,35.2474],[-117.6313,35.2742],[-117.6312,35.3524],[-117.6321,35.395],[-117.6325,35.4056],[-117.6313,35.4196],[-117.6337,35.4345],[-117.6337,35.4514],[-117.6302,35.4514],[-117.6297,35.4662],[-117.6301,35.5401],[-117.6301,35.5643],[-117.6346,35.5643],[-117.6345,35.5807],[-117.6348,35.5933],[-117.6342,35.6081],[-117.6344,35.6508],[-117.6165,35.6516],[-117.6165,35.6807],[-117.6522,35.6808],[-117.6521,35.7099],[-117.6343,35.7098],[-117.6343,35.7973],[-117.3684,35.7952],[-117.3157,35.7952],[-117.2695,35.7951],[-117.1259,35.7957],[-117.1176,35.7952],[-116.9232,35.7954],[-116.2818,35.7934],[-116.2532,35.7935],[-116.2109,35.7933],[-116.0703,35.7935],[-116.0576,35.794],[-115.7359,35.7936],[-115.7357,35.8091],[-115.6485,35.8091],[-115.648,35.8096],[-115.6274,35.7938],[-115.6258,35.792],[-115.5008,35.6934],[-115.4129,35.625],[-115.4061,35.6186],[-115.3915,35.6073],[-115.2713,35.5127],[-115.1649,35.4279],[-115.1599,35.4231],[-115.1033,35.3775],[-115.084,35.3634],[-115.0433,35.3306],[-114.9947,35.2925],[-114.9255,35.2371],[-114.8278,35.1592],[-114.7879,35.1273],[-114.7175,35.07],[-114.6335,35.0019],[-114.6294,34.9918],[-114.6299,34.9808],[-114.6346,34.9691],[-114.635,34.9589],[-114.6317,34.9513],[-114.6298,34.9448],[-114.6298,34.9387],[-114.6322,34.9306],[-114.6332,34.9212],[-114.6306,34.9119],[-114.6309,34.9073],[-114.6354,34.8952],[-114.6368,34.8857],[-114.6352,34.875],[-114.6307,34.8664],[-114.6239,34.8597],[-114.6199,34.8569],[-114.6043,34.8496],[-114.5923,34.8412],[-114.5868,34.8357],[-114.5811,34.8261],[-114.5765,34.8153],[-114.5746,34.8057],[-114.571,34.7943],[-114.5587,34.7739],[-114.5527,34.7669],[-114.5403,34.7571],[-114.5296,34.7508],[-114.5166,34.7367],[-114.4959,34.728],[-114.491,34.7248],[-114.4875,34.7166],[-114.4828,34.7145],[-114.4737,34.714],[-114.4716,34.713],[-114.4686,34.7076],[-114.4681,34.7018],[-114.4652,34.6912],[-114.4622,34.6858],[-114.4553,34.6768],[-114.4543,34.6712],[-114.4505,34.6668],[-114.451,34.6649],[-114.4572,34.66],[-114.457,34.6563],[-114.4495,34.6514],[-114.4443,34.6465],[-114.4415,34.6425],[-114.4403,34.6382],[-114.4415,34.6315],[-114.4387,34.6215],[-114.4286,34.6146],[-114.4242,34.6105],[-114.4243,34.6023],[-114.4275,34.5992],[-114.4364,34.5968],[-114.4344,34.5926],[-114.4224,34.5807],[-114.4052,34.5696],[-114.3896,34.543],[-114.3808,34.5297],[-114.3782,34.5165],[-114.3781,34.5073],[-114.3824,34.4958],[-114.383,34.4889],[-114.3816,34.4779],[-114.3835,34.4704],[-114.3872,34.462],[-114.3867,34.4579],[-114.3789,34.4504],[-114.3737,34.4469],[-114.3634,34.4478],[-114.356,34.4497],[-114.3426,34.4514],[-114.3354,34.45],[-114.3307,34.4453],[-114.3261,34.4373],[-114.3191,34.4358],[-114.301,34.4268],[-114.2948,34.4214],[-114.2922,34.4176],[-114.2918,34.4111],[-114.2868,34.4053],[-114.2801,34.4031],[-114.2675,34.4025],[-114.2643,34.4013],[-114.2527,34.3901],[-114.2453,34.3857],[-114.2343,34.3767],[-114.2297,34.3689],[-114.2261,34.3659],[-114.2138,34.3625],[-114.1995,34.3614],[-114.1911,34.3561],[-114.1856,34.3544],[-114.1769,34.3493],[-114.1688,34.3395],[-114.1572,34.3179],[-114.1409,34.3059],[-114.1383,34.3032],[-114.1395,34.2958],[-114.1384,34.2886],[-114.136,34.2808],[-114.137,34.277],[-114.1348,34.269],[-114.1312,34.2627],[-114.1315,34.2604],[-114.1354,34.2579],[-114.1448,34.2596],[-114.1533,34.2583],[-114.1646,34.259],[-114.1639,34.2533],[-114.1665,34.2496],[-114.1746,34.2473],[-114.178,34.24],[-114.1909,34.2309],[-114.2155,34.209],[-114.2234,34.2051],[-114.2259,34.2018],[-114.2249,34.1939],[-114.227,34.1889],[-114.2297,34.1869],[-114.2407,34.1832],[-114.2442,34.1796],[-114.2541,34.1738],[-114.2683,34.1702],[-114.2753,34.1722],[-114.2873,34.1705],[-114.2928,34.1667],[-114.3122,34.1448],[-114.3208,34.1386],[-114.3246,34.1368],[-114.3361,34.134],[-114.3481,34.1345],[-114.353,34.1331],[-114.3564,34.1304],[-114.3604,34.1236],[-114.3665,34.1186],[-114.3792,34.116],[-114.3906,34.1101],[-114.4014,34.1117],[-114.4117,34.11],[-114.4159,34.1076],[-114.4262,34.097],[-114.428,34.0928],[-114.4342,34.0874],[-114.4354,34.0797],[-114.4812,34.0798],[-114.8295,34.0796],[-115.0923,34.0798],[-115.1361,34.0797],[-115.1924,34.0794],[-115.1924,34.0778],[-115.3161,34.0778],[-115.3162,34.0341],[-115.6324,34.0353],[-115.7478,34.0354],[-115.7508,34.0352],[-115.9848,34.0344],[-116.0464,34.0343],[-116.1959,34.0336],[-116.1958,34.0343],[-116.3006,34.0344],[-116.3008,34.0325],[-116.4578,34.0329],[-116.5123,34.0329],[-116.6156,34.0326],[-116.6156,34.0333],[-116.7197,34.0338],[-116.8759,34.0339],[-116.8771,34.034],[-116.9296,34.0341],[-116.9295,34.0049],[-116.9872,34.0047],[-117.0131,34.0043],[-117.0345,34.0049],[-117.0541,34.0041],[-117.0865,34.0038],[-117.1039,34.0044],[-117.1213,34.0035],[-117.1385,34.0043],[-117.1731,34.0041],[-117.2254,34.0042],[-117.2255,34.018],[-117.2706,34.0187],[-117.2961,34.0183],[-117.3049,34.0193],[-117.3754,34.0194],[-117.3754,34.0254],[-117.3773,34.0267],[-117.3742,34.0308],[-117.3753,34.0339],[-117.3906,34.0339],[-117.4142,34.0343],[-117.4354,34.0342],[-117.4537,34.0336],[-117.4999,34.0335],[-117.5583,34.0335],[-117.5584,33.9884],[-117.6109,33.9718],[-117.6109,33.9251],[-117.6554,33.9251],[-117.6556,33.9099],[-117.6551,33.9077],[-117.6549,33.8888],[-117.6763,33.8888],[-117.6688,33.8805],[-117.673,33.8754],[-117.6705,33.8743],[-117.673,33.871],[-117.6793,33.8776]]]}}]}