{"type":"FeatureCollection","features":[{"type":"Feature","properties":{"id":"12127","name":"Volusia Co."},"geometry":{"type":"Polygon","coordinates":[[[-81.4317,29.3997],[-81.4294,29.3971],[-81.4247,29.3973],[-81.4229,29.4004],[-81.4207,29.3996],[-81.4177,29.2693],[-81.4173,29.2612],[-81.3632,29.2617],[-81.3298,29.2623],[-81.2094,29.2641],[-81.1958,29.2648],[-81.1501,29.266],[-81.1527,29.3504],[-81.1538,29.3829],[-81.1559,29.411],[-81.1482,29.4118],[-81.1487,29.4168],[-81.1294,29.4217],[-81.1102,29.427],[-81.1019,29.4271],[-81.0467,29.3079],[-80.9662,29.148],[-80.9444,29.1109],[-80.9299,29.0916],[-80.9179,29.0784],[-80.9096,29.0709],[-80.9073,29.0643],[-80.8931,29.0369],[-80.878,29.0116],[-80.787,28.8753],[-80.7399,28.8016],[-80.7329,28.7912],[-80.8059,28.7912],[-80.8808,28.7911],[-80.9679,28.7902],[-80.9646,28.6143],[-80.9645,28.613],[-80.9742,28.6127],[-80.9872,28.613],[-80.9899,28.6139],[-80.99,28.6171],[-80.9869,28.6183],[-80.9896,28.6248],[-80.9942,28.6216],[-80.9997,28.6281],[-80.9982,28.6306],[-81.0024,28.6314],[-81.0071,28.6363],[-81.0012,28.6411],[-81.0033,28.645],[-81.0031,28.6481],[-81.0058,28.6518],[-81.0083,28.6588],[-81.0072,28.6635],[-81.011,28.6681],[-81.0213,28.6743],[-81.0216,28.6829],[-81.02,28.6885],[-81.017,28.6901],[-81.0166,28.693],[-81.0204,28.6978],[-81.0214,28.7011],[-81.0334,28.7081],[-81.0355,28.7122],[-81.034,28.7186],[-81.0376,28.7202],[-81.0372,28.7254],[-81.0414,28.7267],[-81.0409,28.7297],[-81.0577,28.7451],[-81.0611,28.75],[-81.0606,28.762],[-81.0531,28.7736],[-81.0571,28.7904],[-81.0592,28.7949],[-81.0674,28.803],[-81.0661,28.8101],[-81.0674,28.813],[-81.0732,28.8149],[-81.0761,28.8193],[-81.0797,28.8169],[-81.0853,28.8159],[-81.0919,28.8247],[-81.096,28.8221],[-81.1039,28.8253],[-81.1057,28.8285],[-81.1117,28.8282],[-81.1151,28.8261],[-81.1183,28.8265],[-81.1262,28.8214],[-81.1231,28.8141],[-81.1248,28.8107],[-81.1304,28.807],[-81.1293,28.7995],[-81.1384,28.7974],[-81.1404,28.796],[-81.1356,28.7935],[-81.1379,28.7913],[-81.1489,28.7922],[-81.1564,28.7918],[-81.1643,28.7894],[-81.171,28.7832],[-81.1716,28.786],[-81.1776,28.7859],[-81.1775,28.7829],[-81.1812,28.7829],[-81.1795,28.7903],[-81.1804,28.796],[-81.1843,28.797],[-81.1882,28.7938],[-81.1913,28.7957],[-81.195,28.7923],[-81.1974,28.7919],[-81.1987,28.7945],[-81.2039,28.7969],[-81.208,28.8018],[-81.2137,28.8042],[-81.2163,28.8083],[-81.2159,28.8144],[-81.2213,28.8203],[-81.2246,28.8216],[-81.2229,28.8269],[-81.2257,28.8325],[-81.3096,28.8346],[-81.3205,28.8345],[-81.3242,28.8376],[-81.3335,28.8404],[-81.3415,28.8471],[-81.3476,28.8462],[-81.358,28.8478],[-81.3596,28.8503],[-81.3557,28.8533],[-81.355,28.858],[-81.3511,28.8581],[-81.3521,28.8623],[-81.3635,28.8647],[-81.3646,28.8674],[-81.3607,28.8725],[-81.3669,28.8792],[-81.3631,28.8797],[-81.3654,28.8829],[-81.3661,28.8878],[-81.3645,28.8903],[-81.3572,28.8871],[-81.3548,28.8926],[-81.3558,28.8966],[-81.3528,28.8967],[-81.3578,28.9004],[-81.3575,28.9037],[-81.3602,28.9067],[-81.3567,28.9105],[-81.3595,28.914],[-81.3541,28.9209],[-81.352,28.9207],[-81.3533,28.9264],[-81.3551,28.9284],[-81.3544,28.9315],[-81.3514,28.9328],[-81.3535,28.9368],[-81.3497,28.9396],[-81.3532,28.9391],[-81.3556,28.9412],[-81.353,28.9462],[-81.3549,28.9472],[-81.3574,28.9448],[-81.3592,28.9458],[-81.3546,28.9484],[-81.3556,28.9511],[-81.3596,28.9511],[-81.3589,28.9559],[-81.3617,28.9571],[-81.3681,28.9554],[-81.3709,28.9583],[-81.3668,28.9597],[-81.3661,28.9623],[-81.3694,28.9674],[-81.3642,28.9686],[-81.3627,28.9744],[-81.3569,28.9799],[-81.3547,28.9848],[-81.3584,28.9894],[-81.3644,28.9927],[-81.373,28.9931],[-81.3757,28.994],[-81.3723,28.9971],[-81.3728,28.9992],[-81.3782,28.9989],[-81.3808,29.0074],[-81.3882,29.0107],[-81.3877,29.0162],[-81.3921,29.02],[-81.3952,29.0187],[-81.3948,29.0241],[-81.4029,29.0325],[-81.4084,29.0312],[-81.4154,29.0384],[-81.4188,29.038],[-81.4258,29.0448],[-81.4322,29.0444],[-81.4363,29.048],[-81.4467,29.0623],[-81.4523,29.0616],[-81.4553,29.0631],[-81.4558,29.0715],[-81.4607,29.0747],[-81.4605,29.0783],[-81.4544,29.082],[-81.4592,29.0942],[-81.4664,29.0967],[-81.4703,29.0968],[-81.4753,29.0944],[-81.4842,29.0931],[-81.4888,29.0932],[-81.492,29.0955],[-81.4975,29.0957],[-81.5021,29.0978],[-81.5003,29.1025],[-81.5067,29.1122],[-81.5063,29.1178],[-81.5045,29.1237],[-81.51,29.1328],[-81.5129,29.1356],[-81.5147,29.1426],[-81.5173,29.1483],[-81.5226,29.156],[-81.5236,29.161],[-81.5218,29.1662],[-81.5239,29.1692],[-81.5315,29.1723],[-81.5326,29.1776],[-81.5402,29.1792],[-81.5441,29.1811],[-81.5465,29.1846],[-81.5545,29.1853],[-81.5536,29.188],[-81.5571,29.1939],[-81.5581,29.1974],[-81.5609,29.2002],[-81.5758,29.2029],[-81.5826,29.2003],[-81.5931,29.199],[-81.6046,29.2005],[-81.6123,29.2028],[-81.6123,29.2045],[-81.6168,29.2105],[-81.6173,29.2129],[-81.615,29.2173],[-81.6158,29.2212],[-81.6193,29.2286],[-81.6217,29.2302],[-81.6259,29.2359],[-81.634,29.2448],[-81.6348,29.2473],[-81.6339,29.2543],[-81.6357,29.2586],[-81.6404,29.2739],[-81.6478,29.286],[-81.6484,29.2902],[-81.6521,29.2964],[-81.6557,29.2999],[-81.6601,29.2992],[-81.6679,29.3015],[-81.6721,29.3053],[-81.6755,29.3106],[-81.6809,29.3244],[-81.5409,29.3566],[-81.5218,29.3622],[-81.518,29.3619],[-81.508,29.3645],[-81.4509,29.3785],[-81.4459,29.3801],[-81.4415,29.3851],[-81.4398,29.3914],[-81.4353,29.3953],[-81.434,29.3986],[-81.4317,29.3997]]]}},{"type":"Feature","properties":{"id":"12035","name":"Flagler Co."},"geometry":{"type":"Polygon","coordinates":[[[-81.4388,29.3972],[-81.4517,29.3902],[-81.455,29.3897],[-81.4681,29.3923],[-81.4763,29.3962],[-81.4788,29.3991],[-81.4801,29.4048],[-81.4804,29.414],[-81.4822,29.419],[-81.486,29.4242],[-81.4867,29.4456],[-81.4907,29.4542],[-81.5011,29.4688],[-81.5176,29.4902],[-81.5205,29.4965],[-81.5223,29.5598],[-81.5237,29.6224],[-81.4945,29.6227],[-81.4581,29.6233],[-81.3696,29.6252],[-81.3241,29.6256],[-81.3243,29.6535],[-81.3185,29.6513],[-81.3114,29.6428],[-81.3059,29.6426],[-81.302,29.6498],[-81.2977,29.6511],[-81.2905,29.6497],[-81.2867,29.6513],[-81.2821,29.6504],[-81.2745,29.6527],[-81.2759,29.6545],[-81.2714,29.6563],[-81.2723,29.6606],[-81.2696,29.6598],[-81.2684,29.6631],[-81.2626,29.6662],[-81.2618,29.6687],[-81.2577,29.6674],[-81.2577,29.6645],[-81.2534,29.6616],[-81.2514,29.6624],[-81.2473,29.6591],[-81.2375,29.6626],[-81.2317,29.6634],[-81.2273,29.6705],[-81.2129,29.6707],[-81.2116,29.6671],[-81.1636,29.5553],[-81.1239,29.4745],[-81.1152,29.4563],[-81.1019,29.4271],[-81.1102,29.427],[-81.1294,29.4217],[-81.1487,29.4168],[-81.1482,29.4118],[-81.1559,29.411],[-81.1538,29.3829],[-81.1527,29.3504],[-81.1501,29.266],[-81.1958,29.2648],[-81.2094,29.2641],[-81.3298,29.2623],[-81.3632,29.2617],[-81.4173,29.2612],[-81.4177,29.2693],[-81.4207,29.3996],[-81.4229,29.4004],[-81.4247,29.3973],[-81.4294,29.3971],[-81.4317,29.3997],[-81.434,29.3986],[-81.4388,29.3972]]]}}]}