{"type":"FeatureCollection","features":[{"type":"Feature","properties":{"zcta":"32720","d":246},"geometry":{"type":"Polygon","coordinates":[[[-81.50205,29.0978],[-81.49748,29.09567],[-81.492,29.09554],[-81.48884,29.09319],[-81.48419,29.09314],[-81.48142,29.09399],[-81.47531,29.09444],[-81.47033,29.0968],[-81.46786,29.09704],[-81.46305,29.09509],[-81.45916,29.09422],[-81.45726,29.09161],[-81.45679,29.08755],[-81.45461,29.08346],[-81.45438,29.08198],[-81.45589,29.08049],[-81.45822,29.0802],[-81.46048,29.07826],[-81.4607,29.07466],[-81.45576,29.07155],[-81.4553,29.06858],[-81.45595,29.06594],[-81.45529,29.06307],[-81.45226,29.06165],[-81.4467,29.06232],[-81.44546,29.06137],[-81.44144,29.05479],[-81.43632,29.04804],[-81.43221,29.04442],[-81.4294,29.04535],[-81.42579,29.04481],[-81.42311,29.04267],[-81.42077,29.03942],[-81.41875,29.03799],[-81.41538,29.03836],[-81.41149,29.03505],[-81.41092,29.03235],[-81.40845,29.03115],[-81.40671,29.03254],[-81.40285,29.03247],[-81.39476,29.02414],[-81.39523,29.01867],[-81.39113,29.02044],[-81.39148,29.02547],[-81.39077,29.029],[-81.39306,29.03223],[-81.39217,29.03566],[-81.39432,29.03962],[-81.39668,29.04113],[-81.39657,29.04446],[-81.39298,29.04688],[-81.38498,29.04737],[-81.37994,29.0466],[-81.37556,29.04819],[-81.37399,29.05272],[-81.37782,29.0541],[-81.37964,29.0558],[-81.37914,29.05794],[-81.38116,29.05797],[-81.38293,29.0626],[-81.38651,29.06364],[-81.39006,29.06709],[-81.39043,29.06959],[-81.39214,29.07072],[-81.37405,29.0711],[-81.37399,29.07006],[-81.36412,29.0685],[-81.36467,29.10376],[-81.36407,29.10789],[-81.3544,29.10651],[-81.3542,29.11195],[-81.34898,29.11131],[-81.34209,29.10512],[-81.34149,29.10514],[-81.33811,29.10292],[-81.33827,29.10134],[-81.32752,29.08958],[-81.32162,29.08562],[-81.31505,29.07919],[-81.30583,29.07193],[-81.30462,29.06924],[-81.30388,29.04519],[-81.30184,29.04463],[-81.30178,29.04283],[-81.30393,29.04281],[-81.30119,29.03907],[-81.30111,29.03635],[-81.29954,29.03636],[-81.29945,29.03356],[-81.30361,29.03349],[-81.30337,29.02629],[-81.3013,29.02631],[-81.30278,29.02452],[-81.30108,29.0209],[-81.30089,29.01559],[-81.30302,29.01472],[-81.30257,29.00444],[-81.30075,29.0026],[-81.30067,28.99894],[-81.30246,28.99891],[-81.30207,28.99202],[-81.29977,28.99074],[-81.29918,28.98458],[-81.29655,28.98443],[-81.29661,28.97716],[-81.29924,28.97893],[-81.29889,28.97408],[-81.30214,28.97331],[-81.30219,28.97512],[-81.31036,28.97505],[-81.31043,28.97719],[-81.3155,28.97714],[-81.31558,28.97492],[-81.32184,28.97477],[-81.32177,28.97248],[-81.32696,28.97226],[-81.327,28.97477],[-81.33219,28.97475],[-81.33249,28.97959],[-81.33478,28.98383],[-81.33682,28.98187],[-81.33925,28.98102],[-81.33917,28.9769],[-81.34008,28.97592],[-81.34059,28.97151],[-81.34213,28.97138],[-81.34673,28.97526],[-81.34536,28.97224],[-81.34699,28.97186],[-81.35021,28.9662],[-81.34832,28.96305],[-81.34981,28.95857],[-81.3491,28.95435],[-81.34644,28.95046],[-81.3428,28.94338],[-81.34545,28.93934],[-81.34885,28.94063],[-81.34972,28.93964],[-81.35321,28.93913],[-81.35556,28.94117],[-81.35297,28.94625],[-81.35488,28.94724],[-81.35742,28.94483],[-81.35917,28.94582],[-81.35462,28.94839],[-81.35396,28.94958],[-81.35561,28.95113],[-81.35959,28.95111],[-81.36026,28.95372],[-81.35892,28.95595],[-81.36167,28.9571],[-81.36362,28.95581],[-81.36808,28.95541],[-81.37078,28.95795],[-81.36982,28.9596],[-81.39993,28.9596],[-81.40023,28.95204],[-81.40867,28.9522],[-81.40918,28.95566],[-81.418,28.9559],[-81.41495,28.9596],[-81.44268,28.95966],[-81.4425,28.97416],[-81.45722,28.97396],[-81.46314,28.97209],[-81.46635,28.97356],[-81.47115,28.97924],[-81.47225,28.98148],[-81.47475,28.9914],[-81.47625,28.99107],[-81.47676,29.00402],[-81.45844,29.0038],[-81.4587,29.01185],[-81.46148,29.01422],[-81.46325,29.01456],[-81.46174,29.01795],[-81.46028,29.02502],[-81.45894,29.03457],[-81.45732,29.03751],[-81.463,29.04338],[-81.46429,29.04681],[-81.46082,29.0498],[-81.46026,29.05132],[-81.46525,29.06034],[-81.46252,29.0683],[-81.46068,29.06783],[-81.4598,29.06937],[-81.46114,29.07265],[-81.46094,29.07841],[-81.45897,29.08025],[-81.45518,29.08133],[-81.45464,29.08283],[-81.45714,29.08565],[-81.4584,29.09279],[-81.45997,29.09402],[-81.46447,29.095],[-81.46826,29.09683],[-81.47089,29.09586],[-81.46675,29.09545],[-81.46672,29.09438],[-81.47108,29.0949],[-81.47289,29.09391],[-81.47937,29.09374],[-81.48622,29.0924],[-81.49028,29.09347],[-81.4917,29.09509],[-81.49575,29.09499],[-81.50259,29.09663],[-81.50326,29.09968],[-81.50148,29.09973],[-81.50205,29.0978]],[[-81.30367,29.03542],[-81.30558,29.03532],[-81.30361,29.03349],[-81.30367,29.03542]]]}},{"type":"Feature","properties":{"zcta":"32744","d":147},"geometry":{"type":"Polygon","coordinates":[[[-81.18366,28.97082],[-81.18894,28.96963],[-81.18899,28.96444],[-81.19047,28.9635],[-81.21478,28.96352],[-81.21518,28.96527],[-81.22104,28.96189],[-81.21933,28.95946],[-81.21937,28.94895],[-81.22806,28.94888],[-81.22802,28.95243],[-81.23294,28.95241],[-81.23291,28.94878],[-81.23642,28.94894],[-81.23653,28.9524],[-81.24052,28.95264],[-81.24055,28.95786],[-81.24237,28.95796],[-81.24237,28.95957],[-81.2447,28.95956],[-81.24471,28.9632],[-81.24884,28.96318],[-81.24885,28.95955],[-81.25618,28.95962],[-81.24211,29.00382],[-81.23973,29.00878],[-81.23172,29.01747],[-81.22625,29.01788],[-81.22604,29.01262],[-81.22197,29.01265],[-81.22202,29.01446],[-81.21569,29.01454],[-81.21582,29.01922],[-81.20965,29.0198],[-81.20452,29.02115],[-81.19968,29.02366],[-81.19879,29.01882],[-81.1982,29.01215],[-81.19538,29.00622],[-81.19396,29.00026],[-81.18993,28.99672],[-81.18622,28.9903],[-81.18656,28.98452],[-81.18521,28.97998],[-81.18098,28.97643],[-81.18366,28.97082]]]}},{"type":"Feature","properties":{"zcta":"32132","d":508},"geometry":{"type":"Polygon","coordinates":[[[-80.90854,29.00634],[-80.90163,28.99272],[-80.89048,28.97256],[-80.89599,28.97274],[-80.90244,28.96969],[-80.92428,28.96204],[-80.93441,28.9548],[-80.94603,28.95082],[-80.95033,28.95068],[-80.95701,28.96511],[-80.95076,28.96519],[-80.95008,28.96864],[-80.9474,28.97629],[-80.94534,28.97876],[-80.9411,28.98062],[-80.9254,28.98621],[-80.92692,28.99209],[-80.9285,28.99209],[-80.93033,28.99626],[-80.9324,28.99933],[-80.93034,29.00012],[-80.91207,29.00521],[-80.90912,29.00628],[-80.90854,29.00634]]]}},{"type":"Feature","properties":{"zcta":"32764","d":19},"geometry":{"type":"Polygon","coordinates":[[[-81.15071,28.92116],[-81.14278,28.90558],[-81.1321,28.899],[-81.12846,28.89862],[-81.12573,28.89468],[-81.12102,28.8944],[-81.1159,28.89155],[-81.1139,28.88868],[-81.11417,28.88427],[-81.11522,28.87932],[-81.11402,28.87666],[-81.11151,28.87663],[-81.11026,28.87209],[-81.10638,28.86464],[-81.10353,28.86251],[-81.10038,28.8583],[-81.09834,28.85268],[-81.09572,28.84841],[-81.09167,28.84735],[-81.08465,28.84989],[-81.08072,28.84979],[-81.0823,28.8536],[-81.08226,28.86726],[-81.08174,28.86902],[-81.07772,28.87292],[-81.07763,28.87603],[-81.07851,28.87961],[-81.08044,28.88271],[-81.08464,28.88474],[-81.0894,28.88833],[-81.09783,28.89604],[-81.10295,28.9016],[-81.1052,28.90596],[-81.10513,28.90882],[-81.102,28.91171],[-81.10246,28.91596],[-81.10171,28.9184],[-81.09837,28.92476],[-81.09435,28.92526],[-81.09434,28.91828],[-81.06966,28.91857],[-81.06997,28.94374],[-81.0653,28.94411],[-81.04853,28.94625],[-81.04267,28.94795],[-81.03607,28.95074],[-81.02708,28.90456],[-81.02546,28.9045],[-81.02461,28.89978],[-81.02677,28.89591],[-81.02784,28.89062],[-81.03534,28.8906],[-81.03701,28.88656],[-81.03066,28.8856],[-81.02683,28.88578],[-81.02565,28.88686],[-81.02214,28.88559],[-81.02071,28.88348],[-81.02115,28.87993],[-81.0199,28.8765],[-81.01598,28.875],[-80.98747,28.87712],[-80.98694,28.87527],[-80.97819,28.86881],[-80.9741,28.86205],[-80.97077,28.85437],[-80.96886,28.84864],[-80.96883,28.82995],[-80.96995,28.81422],[-80.96641,28.80957],[-80.96318,28.80334],[-80.96318,28.79478],[-80.96109,28.79676],[-80.95701,28.79751],[-80.96016,28.79028],[-80.96789,28.7902],[-80.9673,28.76454],[-80.97787,28.76954],[-80.9793,28.76635],[-80.98052,28.76055],[-81.01864,28.75978],[-81.02078,28.75686],[-81.02411,28.75375],[-81.02672,28.75308],[-81.02894,28.7505],[-81.02881,28.7491],[-81.03336,28.74661],[-81.03342,28.74525],[-81.03604,28.74477],[-81.03783,28.74562],[-81.03904,28.73925],[-81.03981,28.7313],[-81.03931,28.72771],[-81.0416,28.73031],[-81.05768,28.74512],[-81.06111,28.75],[-81.06109,28.75674],[-81.06056,28.76199],[-81.05309,28.77356],[-81.05552,28.78484],[-81.05706,28.79045],[-81.05917,28.79494],[-81.06336,28.79944],[-81.06745,28.80304],[-81.06773,28.80526],[-81.06615,28.81008],[-81.06741,28.81299],[-81.07064,28.81491],[-81.07316,28.81486],[-81.07609,28.81933],[-81.07816,28.81925],[-81.07975,28.81693],[-81.08317,28.81563],[-81.08525,28.81595],[-81.08932,28.82054],[-81.09194,28.82465],[-81.09482,28.82385],[-81.09601,28.82209],[-81.09873,28.82192],[-81.09948,28.82318],[-81.10389,28.82533],[-81.10423,28.82785],[-81.10575,28.82854],[-81.11172,28.82822],[-81.11513,28.82614],[-81.11829,28.82648],[-81.1205,28.82568],[-81.12213,28.82369],[-81.12624,28.82144],[-81.12314,28.81413],[-81.12484,28.81066],[-81.13041,28.80699],[-81.13119,28.80574],[-81.12977,28.80425],[-81.12929,28.79945],[-81.13026,28.79854],[-81.13354,28.79845],[-81.13837,28.79739],[-81.14041,28.79597],[-81.13564,28.7935],[-81.13786,28.79129],[-81.14436,28.79157],[-81.14892,28.79221],[-81.15394,28.79142],[-81.15639,28.79177],[-81.16433,28.78944],[-81.16711,28.78731],[-81.16974,28.78361],[-81.17098,28.78315],[-81.17159,28.78603],[-81.17758,28.78587],[-81.17746,28.78292],[-81.17894,28.78189],[-81.18124,28.78287],[-81.17951,28.79027],[-81.18014,28.79526],[-81.1832,28.79747],[-81.18817,28.79377],[-81.19134,28.79567],[-81.19502,28.7923],[-81.19778,28.79234],[-81.19871,28.79448],[-81.20364,28.79678],[-81.20477,28.79876],[-81.20803,28.80176],[-81.21045,28.80245],[-81.20935,28.80419],[-81.20955,28.80797],[-81.21073,28.81183],[-81.20998,28.81498],[-81.21323,28.81617],[-81.21466,28.81821],[-81.21627,28.84661],[-81.21371,28.84674],[-81.20969,28.84541],[-81.20785,28.84179],[-81.20516,28.84444],[-81.2014,28.84398],[-81.19986,28.84523],[-81.20366,28.84897],[-81.20038,28.84901],[-81.20089,28.85158],[-81.19506,28.85172],[-81.19461,28.85274],[-81.19043,28.85267],[-81.19262,28.85132],[-81.19261,28.84724],[-81.19063,28.84723],[-81.19091,28.84541],[-81.18786,28.84721],[-81.18324,28.84773],[-81.18191,28.84603],[-81.18194,28.84884],[-81.17796,28.84888],[-81.17797,28.85394],[-81.18203,28.85513],[-81.18208,28.85637],[-81.17793,28.85634],[-81.17793,28.85989],[-81.16573,28.85993],[-81.16542,28.86716],[-81.16232,28.86718],[-81.16229,28.87028],[-81.15893,28.87527],[-81.15649,28.87721],[-81.15178,28.87944],[-81.1519,28.89064],[-81.15182,28.92232],[-81.15071,28.92116]]]}},{"type":"Feature","properties":{"zcta":"32141","d":405},"geometry":{"type":"Polygon","coordinates":[[[-80.94603,28.95082],[-80.93441,28.9548],[-80.92428,28.96204],[-80.90244,28.96969],[-80.89599,28.97274],[-80.89048,28.97256],[-80.88467,28.96239],[-80.88237,28.95759],[-80.87606,28.95107],[-80.87306,28.94696],[-80.87181,28.9422],[-80.8693,28.94051],[-80.86734,28.93696],[-80.85881,28.91455],[-80.85678,28.9086],[-80.85431,28.90393],[-80.86099,28.90109],[-80.87062,28.90075],[-80.868,28.89337],[-80.87166,28.89354],[-80.86926,28.89001],[-80.87272,28.88599],[-80.86934,28.88601],[-80.86788,28.8827],[-80.86375,28.88165],[-80.86297,28.87974],[-80.86585,28.87963],[-80.86944,28.88108],[-80.87117,28.88066],[-80.87072,28.87812],[-80.87431,28.87951],[-80.87623,28.88175],[-80.87696,28.88416],[-80.92166,28.87699],[-80.92155,28.87526],[-80.92608,28.88679],[-80.93281,28.90443],[-80.93926,28.92541],[-80.95093,28.95067],[-80.95033,28.95068],[-80.94603,28.95082]]]}},{"type":"Feature","properties":{"zcta":"32117","d":1215},"geometry":{"type":"Polygon","coordinates":[[[-81.03521,29.25508],[-81.02607,29.23817],[-81.02228,29.23023],[-81.03438,29.22519],[-81.03358,29.22369],[-81.03609,29.2227],[-81.03687,29.22413],[-81.04799,29.21947],[-81.04802,29.21728],[-81.05052,29.21621],[-81.05234,29.21763],[-81.07118,29.20977],[-81.07119,29.20569],[-81.07336,29.20556],[-81.07417,29.20949],[-81.07673,29.20969],[-81.08686,29.2139],[-81.09028,29.21244],[-81.08731,29.20182],[-81.0956,29.19865],[-81.1088,29.23669],[-81.11156,29.24549],[-81.10615,29.2471],[-81.09963,29.24069],[-81.09829,29.23707],[-81.09099,29.23714],[-81.0936,29.24448],[-81.09383,29.2527],[-81.08744,29.25284],[-81.08735,29.24958],[-81.07353,29.24907],[-81.07291,29.24878],[-81.06177,29.25346],[-81.06488,29.25775],[-81.06045,29.25946],[-81.05521,29.25928],[-81.04861,29.26249],[-81.04675,29.26119],[-81.03978,29.26386],[-81.03521,29.25508]],[[-81.08863,29.20219],[-81.08858,29.20474],[-81.08979,29.20305],[-81.08863,29.20219]]]}},{"type":"Feature","properties":{"zcta":"32190","d":16},"geometry":{"type":"Polygon","coordinates":[[[-81.43169,29.39966],[-81.42944,29.3971],[-81.42469,29.39732],[-81.42294,29.40045],[-81.42074,29.39965],[-81.4191,29.32138],[-81.45669,29.32361],[-81.46417,29.3203],[-81.47133,29.31863],[-81.4811,29.31809],[-81.48198,29.31601],[-81.48205,29.31256],[-81.48407,29.31252],[-81.48395,29.30914],[-81.48945,29.30909],[-81.47934,29.28797],[-81.47573,29.27571],[-81.4762,29.27416],[-81.54408,29.27226],[-81.54357,29.27638],[-81.54109,29.28193],[-81.53844,29.28647],[-81.53723,29.28696],[-81.54107,29.29101],[-81.54318,29.29435],[-81.54431,29.306],[-81.547,29.31302],[-81.54903,29.31642],[-81.55128,29.31828],[-81.55235,29.32218],[-81.55352,29.32298],[-81.55678,29.32887],[-81.56288,29.3346],[-81.56772,29.34141],[-81.5695,29.3422],[-81.57257,29.34627],[-81.57363,29.34871],[-81.55412,29.3534],[-81.54893,29.35448],[-81.52176,29.36219],[-81.51804,29.36187],[-81.50799,29.36451],[-81.45089,29.37846],[-81.44589,29.38014],[-81.44155,29.38508],[-81.43985,29.39144],[-81.43531,29.39526],[-81.43399,29.39855],[-81.43169,29.39966]]]}},{"type":"Feature","properties":{"zcta":"32180","d":17},"geometry":{"type":"Polygon","coordinates":[[[-81.4762,29.27416],[-81.47573,29.27571],[-81.47934,29.28797],[-81.48945,29.30909],[-81.48395,29.30914],[-81.48407,29.31252],[-81.48205,29.31256],[-81.48198,29.31601],[-81.4811,29.31809],[-81.47133,29.31863],[-81.46417,29.3203],[-81.45669,29.32361],[-81.4191,29.32138],[-81.40789,29.32071],[-81.40898,29.32431],[-81.41398,29.33556],[-81.41139,29.34268],[-81.40294,29.34172],[-81.40279,29.33571],[-81.39974,29.33456],[-81.39664,29.32006],[-81.38586,29.32018],[-81.3862,29.31506],[-81.38864,29.31184],[-81.38847,29.30933],[-81.39018,29.30511],[-81.38975,29.2998],[-81.39017,29.29703],[-81.38642,29.29662],[-81.3801,29.29886],[-81.37237,29.29893],[-81.36996,29.29589],[-81.37154,29.29278],[-81.37019,29.2921],[-81.36961,29.28765],[-81.37336,29.28656],[-81.37757,29.28311],[-81.37984,29.27937],[-81.38272,29.27777],[-81.37705,29.27533],[-81.36906,29.27522],[-81.36812,29.27392],[-81.36428,29.27442],[-81.35788,29.26855],[-81.3563,29.26627],[-81.35551,29.2619],[-81.36711,29.26169],[-81.36642,29.25803],[-81.36672,29.25223],[-81.37027,29.24847],[-81.36757,29.24319],[-81.36256,29.22513],[-81.36646,29.21656],[-81.36887,29.2048],[-81.37081,29.20429],[-81.40295,29.19324],[-81.41553,29.19122],[-81.41859,29.1897],[-81.42103,29.18734],[-81.36382,29.14236],[-81.35918,29.13965],[-81.35903,29.13716],[-81.36347,29.13525],[-81.36476,29.13625],[-81.3715,29.13688],[-81.37914,29.13471],[-81.38424,29.13623],[-81.38644,29.13349],[-81.38926,29.1328],[-81.39288,29.13357],[-81.39285,29.14453],[-81.3925,29.14757],[-81.39369,29.15086],[-81.39155,29.15594],[-81.39017,29.16171],[-81.39283,29.16253],[-81.39766,29.16595],[-81.40194,29.16197],[-81.40491,29.1617],[-81.40728,29.16313],[-81.41324,29.16225],[-81.41757,29.15819],[-81.42228,29.1507],[-81.42443,29.14523],[-81.43227,29.14471],[-81.43918,29.14486],[-81.446,29.14285],[-81.45505,29.14293],[-81.45769,29.14159],[-81.46203,29.14246],[-81.4686,29.14687],[-81.47364,29.14598],[-81.4795,29.1425],[-81.4832,29.14161],[-81.49007,29.1386],[-81.49404,29.13879],[-81.49076,29.14325],[-81.48929,29.15215],[-81.49063,29.15581],[-81.49241,29.15737],[-81.49235,29.17062],[-81.49757,29.17055],[-81.49756,29.16621],[-81.49964,29.16604],[-81.49965,29.16377],[-81.50334,29.16441],[-81.50336,29.17047],[-81.50847,29.17039],[-81.50398,29.17306],[-81.49773,29.17833],[-81.49434,29.18017],[-81.49409,29.18315],[-81.50045,29.1881],[-81.50391,29.18815],[-81.51281,29.18993],[-81.51124,29.19828],[-81.51087,29.20614],[-81.5205,29.20562],[-81.5341,29.19813],[-81.53843,29.19823],[-81.53992,29.19641],[-81.5398,29.19854],[-81.54435,29.19516],[-81.54664,29.19492],[-81.55001,29.19614],[-81.55558,29.19219],[-81.55799,29.19922],[-81.56042,29.20118],[-81.56784,29.20232],[-81.56956,29.20384],[-81.5638,29.20287],[-81.55845,29.20453],[-81.55869,29.20782],[-81.55273,29.21094],[-81.5474,29.21216],[-81.54418,29.2103],[-81.54411,29.20853],[-81.54233,29.20782],[-81.54276,29.20977],[-81.54016,29.20805],[-81.53945,29.21035],[-81.53739,29.21101],[-81.53486,29.21573],[-81.53605,29.2159],[-81.53248,29.21899],[-81.53455,29.21617],[-81.53318,29.21661],[-81.52904,29.22068],[-81.52895,29.22275],[-81.52536,29.22344],[-81.52441,29.22497],[-81.5265,29.2276],[-81.5243,29.23248],[-81.52506,29.23932],[-81.52585,29.24047],[-81.52696,29.24991],[-81.52816,29.25467],[-81.52916,29.25603],[-81.52879,29.25897],[-81.52596,29.25967],[-81.52372,29.2588],[-81.52467,29.26079],[-81.52893,29.26158],[-81.53457,29.26184],[-81.53899,29.26438],[-81.54524,29.27059],[-81.54408,29.27226],[-81.4762,29.27416]]]}},{"type":"Feature","properties":{"zcta":"32127","d":934},"geometry":{"type":"Polygon","coordinates":[[[-80.98321,29.15334],[-80.97565,29.15653],[-80.97306,29.15318],[-80.97118,29.14955],[-80.97,29.1496],[-80.96719,29.14571],[-80.96889,29.14497],[-80.96659,29.14129],[-80.96489,29.14151],[-80.96252,29.13892],[-80.96149,29.13611],[-80.9597,29.13693],[-80.94438,29.11086],[-80.92994,29.09162],[-80.91788,29.07843],[-80.91351,29.07497],[-80.91795,29.07368],[-80.91906,29.07067],[-80.92739,29.0706],[-80.93037,29.07464],[-80.92992,29.07663],[-80.9366,29.08182],[-80.93693,29.08473],[-80.93942,29.08897],[-80.94159,29.09092],[-80.94456,29.09225],[-80.94646,29.09166],[-80.94845,29.09334],[-80.9493,29.08913],[-80.95045,29.08758],[-80.95858,29.08706],[-80.96376,29.08924],[-80.96856,29.08652],[-80.9736,29.08568],[-80.97407,29.08216],[-80.986,29.07902],[-80.98922,29.07381],[-80.9909,29.07204],[-80.99308,29.07483],[-80.99729,29.07529],[-80.99754,29.07776],[-80.99896,29.07961],[-80.99862,29.08255],[-81.00319,29.08467],[-81.0069,29.08318],[-81.00887,29.08754],[-81.01361,29.08914],[-81.01569,29.08842],[-81.0164,29.09339],[-81.01934,29.09158],[-81.02174,29.09133],[-81.02894,29.10593],[-81.02662,29.10788],[-81.02492,29.11354],[-81.02527,29.11567],[-81.02855,29.11891],[-81.0281,29.12304],[-81.02733,29.11856],[-81.0257,29.11841],[-81.02419,29.11579],[-81.02331,29.11685],[-81.01036,29.12566],[-81.0035,29.12888],[-81.0052,29.13205],[-81.00035,29.13411],[-80.99725,29.13866],[-80.99293,29.14325],[-80.99014,29.14439],[-80.98905,29.14311],[-80.98674,29.14321],[-80.97536,29.14841],[-80.98122,29.15106],[-80.98309,29.15311],[-80.98321,29.15334]]]}},{"type":"Feature","properties":{"zcta":"32725","d":1082},"geometry":{"type":"Polygon","coordinates":[[[-81.2738,28.90545],[-81.26961,28.91825],[-81.26901,28.91917],[-81.25752,28.95525],[-81.25618,28.95962],[-81.24885,28.95955],[-81.24884,28.96318],[-81.24471,28.9632],[-81.2447,28.95956],[-81.24237,28.95957],[-81.24237,28.95796],[-81.24055,28.95786],[-81.24052,28.95264],[-81.23653,28.9524],[-81.23642,28.94894],[-81.23291,28.94878],[-81.23294,28.95241],[-81.22802,28.95243],[-81.22806,28.94888],[-81.22776,28.94559],[-81.21447,28.9364],[-81.21093,28.93563],[-81.21206,28.93205],[-81.2088,28.93102],[-81.2082,28.92785],[-81.20882,28.92629],[-81.20726,28.92506],[-81.20927,28.92176],[-81.20829,28.9199],[-81.21225,28.91577],[-81.21459,28.91623],[-81.21585,28.91778],[-81.21794,28.91792],[-81.21988,28.91576],[-81.21983,28.91296],[-81.22116,28.9121],[-81.22079,28.91],[-81.22418,28.90801],[-81.22158,28.90616],[-81.21871,28.90539],[-81.21757,28.90348],[-81.21798,28.89507],[-81.21689,28.89096],[-81.21884,28.88942],[-81.21886,28.88666],[-81.22197,28.88352],[-81.22062,28.87867],[-81.22072,28.87493],[-81.22455,28.86945],[-81.21928,28.86616],[-81.21937,28.85999],[-81.21882,28.85847],[-81.22294,28.85944],[-81.22294,28.85681],[-81.21932,28.85707],[-81.21945,28.85427],[-81.21831,28.85401],[-81.21737,28.84999],[-81.2192,28.84923],[-81.21627,28.84661],[-81.21466,28.81821],[-81.21323,28.81617],[-81.20998,28.81498],[-81.21073,28.81183],[-81.20955,28.80797],[-81.20935,28.80419],[-81.21045,28.80245],[-81.21372,28.80421],[-81.21431,28.80753],[-81.21634,28.8083],[-81.21674,28.8104],[-81.2159,28.81442],[-81.22134,28.82034],[-81.22463,28.82159],[-81.22287,28.82686],[-81.22568,28.83245],[-81.27298,28.8337],[-81.30957,28.83456],[-81.3198,28.83453],[-81.31703,28.83812],[-81.28637,28.86867],[-81.28478,28.86798],[-81.27801,28.8694],[-81.27785,28.87202],[-81.2814,28.87247],[-81.28415,28.87186],[-81.27934,28.8868],[-81.27778,28.89299],[-81.27684,28.89887],[-81.27561,28.90208],[-81.2738,28.90545]]]}},{"type":"Feature","properties":{"zcta":"32169","d":396},"geometry":{"type":"Polygon","coordinates":[[[-80.9493,29.08913],[-80.94845,29.09334],[-80.94646,29.09166],[-80.94456,29.09225],[-80.94159,29.09092],[-80.93942,29.08897],[-80.93693,29.08473],[-80.9366,29.08182],[-80.92992,29.07663],[-80.93037,29.07464],[-80.92739,29.0706],[-80.91906,29.07067],[-80.91795,29.07368],[-80.91351,29.07497],[-80.90959,29.07093],[-80.90727,29.06426],[-80.89309,29.03695],[-80.87799,29.01159],[-80.79077,28.88088],[-80.79818,28.88061],[-80.80165,28.88732],[-80.80583,28.8923],[-80.81056,28.89628],[-80.81661,28.90061],[-80.85256,28.90063],[-80.85431,28.90393],[-80.85678,28.9086],[-80.85881,28.91455],[-80.86734,28.93696],[-80.8693,28.94051],[-80.87181,28.9422],[-80.87306,28.94696],[-80.87606,28.95107],[-80.88237,28.95759],[-80.88467,28.96239],[-80.89048,28.97256],[-80.90163,28.99272],[-80.90854,29.00634],[-80.90912,29.00628],[-80.91331,29.01502],[-80.91744,29.02044],[-80.91835,29.02353],[-80.91834,29.02831],[-80.92091,29.02732],[-80.92591,29.03268],[-80.92756,29.03575],[-80.92437,29.0376],[-80.91726,29.03912],[-80.91869,29.04196],[-80.9161,29.04737],[-80.91904,29.04882],[-80.92296,29.04975],[-80.92405,29.0517],[-80.92846,29.05441],[-80.92803,29.05838],[-80.93385,29.06033],[-80.936,29.06266],[-80.94968,29.08766],[-80.95045,29.08758],[-80.9493,29.08913]]]}},{"type":"Feature","properties":{"zcta":"32119","d":1395},"geometry":{"type":"Polygon","coordinates":[[[-81.02868,29.17535],[-81.01652,29.18016],[-80.9986,29.18773],[-80.98437,29.15915],[-80.98486,29.15672],[-80.98321,29.15334],[-80.98309,29.15311],[-80.99358,29.1494],[-80.99361,29.15048],[-81.00361,29.15052],[-81.00483,29.14848],[-81.00752,29.15322],[-81.0094,29.15246],[-81.01031,29.15419],[-81.01217,29.15346],[-81.01076,29.15085],[-81.01218,29.15028],[-81.01142,29.14775],[-81.01331,29.14699],[-81.01421,29.14862],[-81.01621,29.14782],[-81.01986,29.15444],[-81.02396,29.15262],[-81.03016,29.16356],[-81.03516,29.16158],[-81.0355,29.15489],[-81.04491,29.15491],[-81.04499,29.14171],[-81.05262,29.14174],[-81.05668,29.13985],[-81.04852,29.13305],[-81.04657,29.12863],[-81.0575,29.1285],[-81.06143,29.13186],[-81.065,29.13703],[-81.07544,29.15533],[-81.07557,29.15553],[-81.02868,29.17535]]]}},{"type":"Feature","properties":{"zcta":"32168","d":101},"geometry":{"type":"Polygon","coordinates":[[[-81.08518,29.0816],[-81.08395,29.03793],[-81.07734,29.04043],[-81.06746,29.04371],[-81.06796,29.05005],[-81.07379,29.0499],[-81.07391,29.05666],[-81.06282,29.05732],[-81.0594,29.05706],[-81.05531,29.05878],[-81.05551,29.06609],[-81.05155,29.06611],[-81.05121,29.06264],[-81.04367,29.06342],[-81.04292,29.06438],[-81.04286,29.05899],[-81.04206,29.05719],[-81.03869,29.05634],[-81.03867,29.05543],[-81.03454,29.05541],[-81.03445,29.0533],[-81.0328,29.05333],[-81.03266,29.05007],[-81.03032,29.04947],[-81.01491,29.04695],[-81.0073,29.04756],[-81.00879,29.06274],[-81.01076,29.06898],[-81.02174,29.09133],[-81.01934,29.09158],[-81.0164,29.09339],[-81.01569,29.08842],[-81.01361,29.08914],[-81.00887,29.08754],[-81.0069,29.08318],[-81.00319,29.08467],[-80.99862,29.08255],[-80.99896,29.07961],[-80.99754,29.07776],[-80.99729,29.07529],[-80.99308,29.07483],[-80.9909,29.07204],[-80.98922,29.07381],[-80.986,29.07902],[-80.97407,29.08216],[-80.9736,29.08568],[-80.96856,29.08652],[-80.96376,29.08924],[-80.95858,29.08706],[-80.95045,29.08758],[-80.94968,29.08766],[-80.936,29.06266],[-80.93385,29.06033],[-80.92803,29.05838],[-80.92846,29.05441],[-80.92405,29.0517],[-80.92296,29.04975],[-80.91904,29.04882],[-80.9161,29.04737],[-80.91869,29.04196],[-80.91726,29.03912],[-80.92437,29.0376],[-80.92756,29.03575],[-80.92591,29.03268],[-80.92091,29.02732],[-80.91834,29.02831],[-80.91835,29.02353],[-80.91744,29.02044],[-80.91331,29.01502],[-80.90912,29.00628],[-80.91207,29.00521],[-80.93034,29.00012],[-80.9324,28.99933],[-80.93033,28.99626],[-80.9285,28.99209],[-80.92692,28.99209],[-80.9254,28.98621],[-80.9411,28.98062],[-80.94534,28.97876],[-80.9474,28.97629],[-80.95008,28.96864],[-80.95076,28.96519],[-80.95701,28.96511],[-80.95033,28.95068],[-80.95093,28.95067],[-80.93926,28.92541],[-80.93281,28.90443],[-80.92608,28.88679],[-80.9478,28.88276],[-80.94675,28.87812],[-80.97946,28.87632],[-80.98747,28.87712],[-81.01598,28.875],[-81.0199,28.8765],[-81.02115,28.87993],[-81.02071,28.88348],[-81.02214,28.88559],[-81.02565,28.88686],[-81.02683,28.88578],[-81.03066,28.8856],[-81.03701,28.88656],[-81.03534,28.8906],[-81.02784,28.89062],[-81.02677,28.89591],[-81.02461,28.89978],[-81.02546,28.9045],[-81.02708,28.90456],[-81.03607,28.95074],[-81.04267,28.94795],[-81.04853,28.94625],[-81.0653,28.94411],[-81.06997,28.94374],[-81.06966,28.91857],[-81.09434,28.91828],[-81.09435,28.92526],[-81.09837,28.92476],[-81.10171,28.9184],[-81.10246,28.91596],[-81.102,28.91171],[-81.10513,28.90882],[-81.1052,28.90596],[-81.10295,28.9016],[-81.09783,28.89604],[-81.0894,28.88833],[-81.08464,28.88474],[-81.08044,28.88271],[-81.07851,28.87961],[-81.07763,28.87603],[-81.07772,28.87292],[-81.08174,28.86902],[-81.08226,28.86726],[-81.0823,28.8536],[-81.08072,28.84979],[-81.08465,28.84989],[-81.09167,28.84735],[-81.09572,28.84841],[-81.09834,28.85268],[-81.10038,28.8583],[-81.10353,28.86251],[-81.10638,28.86464],[-81.11026,28.87209],[-81.11151,28.87663],[-81.11402,28.87666],[-81.11522,28.87932],[-81.11417,28.88427],[-81.1139,28.88868],[-81.1159,28.89155],[-81.12102,28.8944],[-81.12573,28.89468],[-81.12846,28.89862],[-81.1321,28.899],[-81.14278,28.90558],[-81.15071,28.92116],[-81.15182,28.92232],[-81.16062,28.92996],[-81.16158,28.93466],[-81.15639,28.93501],[-81.15644,28.95657],[-81.16055,28.95666],[-81.16065,28.96399],[-81.16603,28.96394],[-81.16611,28.9721],[-81.1556,28.97262],[-81.14043,28.97291],[-81.13988,28.9735],[-81.1413,29.02592],[-81.14965,29.02665],[-81.15466,29.02841],[-81.15226,29.03523],[-81.13815,29.06373],[-81.13469,29.08262],[-81.08518,29.0816]]]}},{"type":"Feature","properties":{"zcta":"32124","d":123},"geometry":{"type":"Polygon","coordinates":[[[-81.0956,29.19865],[-81.0889,29.17932],[-81.08756,29.17645],[-81.0841,29.17239],[-81.08265,29.168],[-81.07557,29.15553],[-81.07544,29.15533],[-81.07946,29.15428],[-81.08304,29.15238],[-81.10035,29.14509],[-81.10016,29.1449],[-81.1126,29.13964],[-81.11784,29.13678],[-81.1211,29.13417],[-81.14362,29.11046],[-81.19877,29.05226],[-81.20014,29.05413],[-81.20175,29.06013],[-81.20414,29.06304],[-81.21694,29.06296],[-81.2173,29.09989],[-81.213,29.10206],[-81.21347,29.10382],[-81.21969,29.11146],[-81.22275,29.11334],[-81.22533,29.11626],[-81.2274,29.12036],[-81.22283,29.12208],[-81.22016,29.12402],[-81.216,29.12474],[-81.21898,29.1369],[-81.22363,29.15308],[-81.22876,29.15984],[-81.22641,29.1614],[-81.21573,29.16297],[-81.21429,29.16468],[-81.21155,29.16407],[-81.20353,29.16333],[-81.20058,29.1609],[-81.19883,29.16285],[-81.19746,29.16735],[-81.19247,29.1718],[-81.18804,29.17058],[-81.18177,29.17184],[-81.17797,29.17204],[-81.18265,29.17946],[-81.17984,29.18188],[-81.182,29.19228],[-81.17288,29.19244],[-81.17051,29.19204],[-81.1711,29.1939],[-81.1685,29.20061],[-81.16878,29.20336],[-81.1714,29.20654],[-81.17212,29.21158],[-81.17791,29.2158],[-81.18109,29.22107],[-81.17777,29.22112],[-81.17785,29.22862],[-81.1698,29.22889],[-81.17226,29.23317],[-81.17457,29.23557],[-81.17437,29.239],[-81.17284,29.24096],[-81.17257,29.24534],[-81.17457,29.249],[-81.17471,29.25849],[-81.17342,29.25851],[-81.17352,29.26245],[-81.17172,29.262],[-81.16507,29.25705],[-81.16289,29.25595],[-81.15533,29.25491],[-81.15611,29.2525],[-81.15551,29.24896],[-81.13341,29.2301],[-81.13029,29.23298],[-81.12456,29.23313],[-81.12444,29.2295],[-81.12034,29.22967],[-81.12054,29.23684],[-81.11625,29.23693],[-81.11631,29.23951],[-81.11788,29.24092],[-81.1205,29.24093],[-81.12056,29.24452],[-81.1219,29.24588],[-81.12062,29.2482],[-81.11638,29.24832],[-81.11633,29.24603],[-81.1126,29.24614],[-81.10949,29.23668],[-81.1088,29.23669],[-81.0956,29.19865]]]}},{"type":"Feature","properties":{"zcta":"32110","d":17},"geometry":{"type":"Polygon","coordinates":[[[-81.27458,29.51067],[-81.26416,29.51089],[-81.26278,29.51977],[-81.26284,29.52207],[-81.26638,29.52188],[-81.26661,29.52525],[-81.26503,29.52528],[-81.26429,29.5301],[-81.26502,29.53272],[-81.26258,29.53269],[-81.26328,29.53009],[-81.26258,29.52016],[-81.2638,29.51302],[-81.26494,29.49599],[-81.24762,29.49623],[-81.24726,29.48213],[-81.2391,29.48229],[-81.23906,29.47871],[-81.23236,29.47886],[-81.2311,29.47546],[-81.22321,29.4756],[-81.22316,29.47352],[-81.22714,29.47349],[-81.22707,29.4717],[-81.23901,29.4715],[-81.23869,29.44802],[-81.2416,29.44741],[-81.23146,29.43274],[-81.22841,29.43066],[-81.21097,29.41979],[-81.20613,29.4141],[-81.20407,29.41412],[-81.20398,29.4178],[-81.20296,29.41781],[-81.20293,29.42133],[-81.19895,29.42142],[-81.19889,29.41785],[-81.19695,29.41786],[-81.19701,29.42052],[-81.19488,29.42061],[-81.19492,29.42333],[-81.19284,29.42338],[-81.19279,29.41975],[-81.18867,29.41984],[-81.18861,29.41803],[-81.18652,29.41805],[-81.18649,29.41623],[-81.1886,29.4162],[-81.18855,29.41437],[-81.18439,29.41443],[-81.1844,29.41622],[-81.18027,29.41631],[-81.18026,29.41448],[-81.16012,29.41473],[-81.15534,29.40376],[-81.17098,29.40362],[-81.17129,29.39728],[-81.17543,29.39722],[-81.17555,29.39995],[-81.18391,29.39989],[-81.18375,29.39711],[-81.1879,29.39706],[-81.18819,29.40167],[-81.1861,29.40169],[-81.18621,29.40346],[-81.19248,29.40347],[-81.1923,29.397],[-81.19092,29.39586],[-81.18987,29.39158],[-81.1856,29.39164],[-81.18538,29.38619],[-81.1833,29.38622],[-81.18314,29.38257],[-81.18465,29.38255],[-81.1876,29.38498],[-81.18679,29.38295],[-81.1693,29.36437],[-81.1573,29.3551],[-81.15714,29.34949],[-81.15861,29.34809],[-81.16436,29.3455],[-81.16557,29.34183],[-81.16894,29.34071],[-81.17208,29.33648],[-81.17638,29.33415],[-81.18206,29.3333],[-81.18497,29.33424],[-81.18712,29.33321],[-81.18911,29.32974],[-81.19362,29.32973],[-81.19867,29.32833],[-81.2027,29.32789],[-81.20301,29.33003],[-81.2055,29.33151],[-81.20704,29.33394],[-81.21014,29.34105],[-81.21311,29.34448],[-81.21298,29.34793],[-81.21529,29.34828],[-81.21905,29.34748],[-81.21931,29.34399],[-81.22192,29.34195],[-81.23187,29.34179],[-81.23435,29.34098],[-81.23558,29.33778],[-81.23444,29.30762],[-81.23488,29.30502],[-81.24238,29.31066],[-81.25496,29.31015],[-81.26489,29.30851],[-81.26223,29.3028],[-81.2634,29.30048],[-81.26828,29.29587],[-81.26763,29.26319],[-81.2684,29.26318],[-81.35551,29.2619],[-81.3563,29.26627],[-81.35788,29.26855],[-81.36428,29.27442],[-81.36812,29.27392],[-81.36906,29.27522],[-81.37705,29.27533],[-81.38272,29.27777],[-81.37984,29.27937],[-81.37757,29.28311],[-81.37336,29.28656],[-81.36961,29.28765],[-81.37019,29.2921],[-81.37154,29.29278],[-81.36996,29.29589],[-81.37237,29.29893],[-81.3801,29.29886],[-81.38642,29.29662],[-81.39017,29.29703],[-81.38975,29.2998],[-81.39018,29.30511],[-81.38847,29.30933],[-81.38864,29.31184],[-81.3862,29.31506],[-81.38586,29.32018],[-81.39664,29.32006],[-81.39974,29.33456],[-81.40279,29.33571],[-81.40294,29.34172],[-81.41139,29.34268],[-81.41398,29.33556],[-81.40898,29.32431],[-81.40789,29.32071],[-81.4191,29.32138],[-81.42074,29.39965],[-81.42294,29.40045],[-81.42469,29.39732],[-81.42944,29.3971],[-81.43169,29.39966],[-81.43399,29.39855],[-81.43879,29.39715],[-81.44219,29.39495],[-81.45169,29.39015],[-81.455,29.38965],[-81.46119,29.39045],[-81.46809,29.39225],[-81.47629,29.39615],[-81.47879,29.39905],[-81.48009,29.40475],[-81.48039,29.41395],[-81.48219,29.41895],[-81.48599,29.42415],[-81.48639,29.42755],[-81.48639,29.44045],[-81.48719,29.44715],[-81.49069,29.45415],[-81.49669,29.46225],[-81.50111,29.46882],[-81.51523,29.48672],[-81.51765,29.49016],[-81.52047,29.49651],[-81.52129,29.52011],[-81.52167,29.53852],[-81.52228,29.55983],[-81.52366,29.62243],[-81.49452,29.62273],[-81.45815,29.62333],[-81.40795,29.62446],[-81.41372,29.60896],[-81.40627,29.60884],[-81.37841,29.60456],[-81.37465,29.60028],[-81.34658,29.56282],[-81.34086,29.5546],[-81.29684,29.51904],[-81.27293,29.50082],[-81.28239,29.55151],[-81.28224,29.55156],[-81.27458,29.51067]]]}},{"type":"Feature","properties":{"zcta":"32738","d":919},"geometry":{"type":"Polygon","coordinates":[[[-81.21937,28.94895],[-81.21933,28.95946],[-81.22104,28.96189],[-81.21518,28.96527],[-81.21478,28.96352],[-81.19047,28.9635],[-81.18899,28.96444],[-81.18894,28.96963],[-81.18366,28.97082],[-81.18098,28.97643],[-81.16573,28.9598],[-81.16148,28.95187],[-81.16158,28.93466],[-81.16062,28.92996],[-81.15182,28.92232],[-81.1519,28.89064],[-81.15178,28.87944],[-81.15649,28.87721],[-81.15893,28.87527],[-81.16229,28.87028],[-81.16232,28.86718],[-81.16542,28.86716],[-81.16573,28.85993],[-81.17793,28.85989],[-81.17793,28.85634],[-81.18208,28.85637],[-81.18203,28.85513],[-81.17797,28.85394],[-81.17796,28.84888],[-81.18194,28.84884],[-81.18191,28.84603],[-81.18324,28.84773],[-81.18786,28.84721],[-81.19091,28.84541],[-81.19063,28.84723],[-81.19261,28.84724],[-81.19262,28.85132],[-81.19043,28.85267],[-81.19461,28.85274],[-81.19506,28.85172],[-81.20089,28.85158],[-81.20038,28.84901],[-81.20366,28.84897],[-81.19986,28.84523],[-81.2014,28.84398],[-81.20516,28.84444],[-81.20785,28.84179],[-81.20969,28.84541],[-81.21371,28.84674],[-81.21627,28.84661],[-81.2192,28.84923],[-81.21737,28.84999],[-81.21831,28.85401],[-81.21945,28.85427],[-81.21932,28.85707],[-81.22294,28.85681],[-81.22294,28.85944],[-81.21882,28.85847],[-81.21937,28.85999],[-81.21928,28.86616],[-81.22455,28.86945],[-81.22072,28.87493],[-81.22062,28.87867],[-81.22197,28.88352],[-81.21886,28.88666],[-81.21884,28.88942],[-81.21689,28.89096],[-81.21798,28.89507],[-81.21757,28.90348],[-81.21871,28.90539],[-81.22158,28.90616],[-81.22418,28.90801],[-81.22079,28.91],[-81.22116,28.9121],[-81.21983,28.91296],[-81.21988,28.91576],[-81.21794,28.91792],[-81.21585,28.91778],[-81.21459,28.91623],[-81.21225,28.91577],[-81.20829,28.9199],[-81.20927,28.92176],[-81.20726,28.92506],[-81.20882,28.92629],[-81.2082,28.92785],[-81.2088,28.93102],[-81.21206,28.93205],[-81.21093,28.93563],[-81.21447,28.9364],[-81.22776,28.94559],[-81.22806,28.94888],[-81.21937,28.94895]]]}},{"type":"Feature","properties":{"zcta":"32130","d":29},"geometry":{"type":"Polygon","coordinates":[[[-81.38926,29.1328],[-81.38644,29.13349],[-81.38424,29.13623],[-81.37914,29.13471],[-81.3715,29.13688],[-81.36476,29.13625],[-81.36347,29.13525],[-81.35903,29.13716],[-81.35918,29.13965],[-81.36382,29.14236],[-81.42103,29.18734],[-81.41859,29.1897],[-81.41553,29.19122],[-81.40295,29.19324],[-81.37081,29.20429],[-81.36887,29.2048],[-81.36646,29.21656],[-81.36256,29.22513],[-81.36757,29.24319],[-81.37027,29.24847],[-81.36672,29.25223],[-81.36642,29.25803],[-81.36711,29.26169],[-81.35551,29.2619],[-81.2684,29.26318],[-81.26913,29.2562],[-81.26823,29.24466],[-81.26357,29.2373],[-81.25954,29.22729],[-81.26018,29.22749],[-81.26478,29.23358],[-81.2679,29.23224],[-81.27068,29.23231],[-81.27054,29.22828],[-81.26645,29.21629],[-81.25584,29.19756],[-81.25171,29.19272],[-81.25087,29.19091],[-81.24716,29.19347],[-81.24631,29.19123],[-81.24411,29.18076],[-81.24358,29.17342],[-81.24114,29.16924],[-81.23959,29.16394],[-81.24094,29.15332],[-81.24306,29.14823],[-81.24253,29.1287],[-81.24492,29.12834],[-81.25226,29.12317],[-81.25443,29.12264],[-81.25547,29.12411],[-81.25878,29.13871],[-81.27735,29.13082],[-81.27631,29.12846],[-81.28092,29.12669],[-81.28197,29.12437],[-81.28554,29.12409],[-81.28589,29.12016],[-81.28745,29.11677],[-81.29031,29.11381],[-81.29188,29.11651],[-81.29459,29.11613],[-81.30908,29.11576],[-81.30882,29.1084],[-81.3174,29.10823],[-81.31838,29.10457],[-81.32546,29.1047],[-81.32576,29.11422],[-81.33317,29.11424],[-81.33824,29.11065],[-81.33816,29.10708],[-81.34036,29.10704],[-81.34149,29.10514],[-81.34209,29.10512],[-81.34898,29.11131],[-81.3542,29.11195],[-81.3544,29.10651],[-81.36407,29.10789],[-81.36467,29.10376],[-81.36412,29.0685],[-81.37399,29.07006],[-81.37405,29.0711],[-81.39214,29.07072],[-81.39043,29.06959],[-81.39006,29.06709],[-81.38651,29.06364],[-81.38293,29.0626],[-81.38116,29.05797],[-81.37914,29.05794],[-81.37964,29.0558],[-81.37782,29.0541],[-81.37399,29.05272],[-81.37556,29.04819],[-81.37994,29.0466],[-81.38498,29.04737],[-81.39298,29.04688],[-81.39657,29.04446],[-81.39668,29.04113],[-81.39432,29.03962],[-81.39217,29.03566],[-81.39306,29.03223],[-81.39077,29.029],[-81.39148,29.02547],[-81.39113,29.02044],[-81.39523,29.01867],[-81.39476,29.02414],[-81.40285,29.03247],[-81.40671,29.03254],[-81.40845,29.03115],[-81.41092,29.03235],[-81.41149,29.03505],[-81.41538,29.03836],[-81.41875,29.03799],[-81.42077,29.03942],[-81.42311,29.04267],[-81.42579,29.04481],[-81.4294,29.04535],[-81.43221,29.04442],[-81.43632,29.04804],[-81.44144,29.05479],[-81.44546,29.06137],[-81.4467,29.06232],[-81.45226,29.06165],[-81.45529,29.06307],[-81.45595,29.06594],[-81.4553,29.06858],[-81.45576,29.07155],[-81.4607,29.07466],[-81.46048,29.07826],[-81.45822,29.0802],[-81.45589,29.08049],[-81.45438,29.08198],[-81.45461,29.08346],[-81.45679,29.08755],[-81.45726,29.09161],[-81.45916,29.09422],[-81.46305,29.09509],[-81.46786,29.09704],[-81.47033,29.0968],[-81.47531,29.09444],[-81.48142,29.09399],[-81.48419,29.09314],[-81.48884,29.09319],[-81.492,29.09554],[-81.49748,29.09567],[-81.50205,29.0978],[-81.50148,29.09973],[-81.50032,29.1025],[-81.5028,29.10627],[-81.5,29.10742],[-81.48758,29.10644],[-81.46707,29.11074],[-81.4664,29.10875],[-81.45625,29.10909],[-81.44793,29.111],[-81.4441,29.10782],[-81.43993,29.10844],[-81.43676,29.1128],[-81.43438,29.11483],[-81.43245,29.11466],[-81.42858,29.10815],[-81.42259,29.10421],[-81.40407,29.11176],[-81.40037,29.1149],[-81.40052,29.11681],[-81.40234,29.11749],[-81.40494,29.12218],[-81.4044,29.12621],[-81.39852,29.12684],[-81.39407,29.13046],[-81.39418,29.13273],[-81.39288,29.13357],[-81.38926,29.1328]]]}},{"type":"Feature","properties":{"zcta":"32713","d":576},"geometry":{"type":"MultiPolygon","coordinates":[[[[-81.29884,28.91448],[-81.3012,28.91447],[-81.29886,28.91589],[-81.29884,28.91448]]],[[[-81.34446,28.923],[-81.34447,28.9195],[-81.32779,28.91942],[-81.3278,28.92305],[-81.32376,28.92306],[-81.32361,28.91391],[-81.31825,28.91393],[-81.31822,28.91236],[-81.31129,28.91206],[-81.3113,28.91579],[-81.30272,28.91583],[-81.30248,28.91241],[-81.29674,28.91197],[-81.29668,28.90861],[-81.29249,28.90864],[-81.29245,28.90571],[-81.29054,28.90572],[-81.29036,28.89759],[-81.28483,28.89763],[-81.28787,28.90352],[-81.28214,28.9033],[-81.2821,28.90485],[-81.27976,28.9042],[-81.27594,28.90487],[-81.27561,28.90208],[-81.27684,28.89887],[-81.27778,28.89299],[-81.27934,28.8868],[-81.28415,28.87186],[-81.2814,28.87247],[-81.27785,28.87202],[-81.27801,28.8694],[-81.28478,28.86798],[-81.28637,28.86867],[-81.31703,28.83812],[-81.3198,28.83453],[-81.32339,28.83731],[-81.33348,28.8404],[-81.34155,28.84705],[-81.34763,28.84622],[-81.35803,28.8478],[-81.35963,28.8503],[-81.35566,28.85334],[-81.355,28.858],[-81.35348,28.8592],[-81.35111,28.85811],[-81.35212,28.86232],[-81.35793,28.86403],[-81.36348,28.86473],[-81.36457,28.86744],[-81.36303,28.8699],[-81.36047,28.87052],[-81.36067,28.87246],[-81.36529,28.87652],[-81.36694,28.87923],[-81.36305,28.87971],[-81.36537,28.88286],[-81.36612,28.88776],[-81.36453,28.89026],[-81.36177,28.88981],[-81.35891,28.88727],[-81.35717,28.88715],[-81.35483,28.89261],[-81.35575,28.8966],[-81.35279,28.89669],[-81.35406,28.89846],[-81.35651,28.89883],[-81.35782,28.90041],[-81.35753,28.90372],[-81.36017,28.90665],[-81.35667,28.91054],[-81.35954,28.91396],[-81.35412,28.92091],[-81.352,28.92065],[-81.35277,28.92312],[-81.34446,28.923]]]]}},{"type":"Feature","properties":{"zcta":"32763","d":725},"geometry":{"type":"Polygon","coordinates":[[[-81.34885,28.94063],[-81.34545,28.93934],[-81.3428,28.94338],[-81.34644,28.95046],[-81.3491,28.95435],[-81.34981,28.95857],[-81.34832,28.96305],[-81.35021,28.9662],[-81.34699,28.97186],[-81.34536,28.97224],[-81.34673,28.97526],[-81.34213,28.97138],[-81.34059,28.97151],[-81.34008,28.97592],[-81.33917,28.9769],[-81.33925,28.98102],[-81.33682,28.98187],[-81.33478,28.98383],[-81.33249,28.97959],[-81.33219,28.97475],[-81.327,28.97477],[-81.32696,28.97226],[-81.32177,28.97248],[-81.32184,28.97477],[-81.31558,28.97492],[-81.3155,28.97714],[-81.31043,28.97719],[-81.31036,28.97505],[-81.30219,28.97512],[-81.30214,28.97331],[-81.29889,28.97408],[-81.29694,28.97344],[-81.28723,28.97293],[-81.28399,28.97178],[-81.25752,28.95525],[-81.26901,28.91917],[-81.26961,28.91825],[-81.2738,28.90545],[-81.27561,28.90208],[-81.27594,28.90487],[-81.27976,28.9042],[-81.2821,28.90485],[-81.28214,28.9033],[-81.28787,28.90352],[-81.28483,28.89763],[-81.29036,28.89759],[-81.29054,28.90572],[-81.29245,28.90571],[-81.29249,28.90864],[-81.29668,28.90861],[-81.29674,28.91197],[-81.30248,28.91241],[-81.30272,28.91583],[-81.3113,28.91579],[-81.31129,28.91206],[-81.31822,28.91236],[-81.31825,28.91393],[-81.32361,28.91391],[-81.32376,28.92306],[-81.3278,28.92305],[-81.32779,28.91942],[-81.34447,28.9195],[-81.34446,28.923],[-81.35277,28.92312],[-81.35332,28.92644],[-81.35515,28.92843],[-81.35438,28.93148],[-81.35143,28.93284],[-81.3535,28.93681],[-81.34972,28.93964],[-81.34885,28.94063]],[[-81.3012,28.91447],[-81.29884,28.91448],[-81.29886,28.91589],[-81.3012,28.91447]]]}},{"type":"Feature","properties":{"zcta":"32114","d":804},"geometry":{"type":"MultiPolygon","coordinates":[[[[-81.08858,29.20474],[-81.08863,29.20219],[-81.08979,29.20305],[-81.08858,29.20474]]],[[[-81.08731,29.20182],[-81.09028,29.21244],[-81.08686,29.2139],[-81.07673,29.20969],[-81.07417,29.20949],[-81.07336,29.20556],[-81.07119,29.20569],[-81.07118,29.20977],[-81.05234,29.21763],[-81.05052,29.21621],[-81.04802,29.21728],[-81.04799,29.21947],[-81.03687,29.22413],[-81.03609,29.2227],[-81.03358,29.22369],[-81.03438,29.22519],[-81.02228,29.23023],[-81.01893,29.22263],[-81.01658,29.21819],[-81.01115,29.21113],[-80.9986,29.18773],[-81.01652,29.18016],[-81.02868,29.17535],[-81.07557,29.15553],[-81.08265,29.168],[-81.0841,29.17239],[-81.08756,29.17645],[-81.0889,29.17932],[-81.0956,29.19865],[-81.08731,29.20182]]]]}},{"type":"Feature","properties":{"zcta":"32174","d":227},"geometry":{"type":"Polygon","coordinates":[[[-81.26763,29.26319],[-81.26828,29.29587],[-81.2634,29.30048],[-81.26223,29.3028],[-81.26489,29.30851],[-81.25496,29.31015],[-81.24238,29.31066],[-81.23488,29.30502],[-81.23444,29.30762],[-81.23558,29.33778],[-81.23435,29.34098],[-81.23187,29.34179],[-81.22192,29.34195],[-81.21931,29.34399],[-81.21905,29.34748],[-81.21529,29.34828],[-81.21298,29.34793],[-81.21311,29.34448],[-81.21014,29.34105],[-81.20704,29.33394],[-81.2055,29.33151],[-81.20301,29.33003],[-81.2027,29.32789],[-81.19867,29.32833],[-81.19362,29.32973],[-81.18911,29.32974],[-81.18712,29.33321],[-81.18497,29.33424],[-81.18206,29.3333],[-81.17638,29.33415],[-81.17208,29.33648],[-81.16894,29.34071],[-81.16557,29.34183],[-81.16436,29.3455],[-81.15861,29.34809],[-81.15714,29.34949],[-81.1573,29.3551],[-81.1693,29.36437],[-81.18679,29.38295],[-81.1876,29.38498],[-81.18465,29.38255],[-81.18314,29.38257],[-81.1833,29.38622],[-81.18538,29.38619],[-81.1856,29.39164],[-81.18987,29.39158],[-81.19092,29.39586],[-81.1923,29.397],[-81.19248,29.40347],[-81.18621,29.40346],[-81.1861,29.40169],[-81.18819,29.40167],[-81.1879,29.39706],[-81.18375,29.39711],[-81.18391,29.39989],[-81.17555,29.39995],[-81.17543,29.39722],[-81.17129,29.39728],[-81.17098,29.40362],[-81.15534,29.40376],[-81.15588,29.41095],[-81.14815,29.41185],[-81.14873,29.41679],[-81.12938,29.42165],[-81.12957,29.41927],[-81.12742,29.41848],[-81.12868,29.41731],[-81.12674,29.41536],[-81.12562,29.41072],[-81.12403,29.411],[-81.12126,29.4078],[-81.11942,29.40899],[-81.11686,29.40617],[-81.11429,29.40185],[-81.1101,29.40333],[-81.10094,29.40863],[-81.09825,29.40486],[-81.09674,29.40018],[-81.09159,29.3904],[-81.07815,29.35779],[-81.06906,29.33501],[-81.06585,29.32577],[-81.0623,29.31717],[-81.05688,29.30486],[-81.05705,29.29745],[-81.05227,29.28705],[-81.04605,29.2758],[-81.03978,29.26386],[-81.04675,29.26119],[-81.04861,29.26249],[-81.05521,29.25928],[-81.06045,29.25946],[-81.06488,29.25775],[-81.06177,29.25346],[-81.07291,29.24878],[-81.07353,29.24907],[-81.08735,29.24958],[-81.08744,29.25284],[-81.09383,29.2527],[-81.0936,29.24448],[-81.09099,29.23714],[-81.09829,29.23707],[-81.09963,29.24069],[-81.10615,29.2471],[-81.11156,29.24549],[-81.1088,29.23669],[-81.10949,29.23668],[-81.1126,29.24614],[-81.11633,29.24603],[-81.11638,29.24832],[-81.12062,29.2482],[-81.1219,29.24588],[-81.12056,29.24452],[-81.1205,29.24093],[-81.11788,29.24092],[-81.11631,29.23951],[-81.11625,29.23693],[-81.12054,29.23684],[-81.12034,29.22967],[-81.12444,29.2295],[-81.12456,29.23313],[-81.13029,29.23298],[-81.13341,29.2301],[-81.15551,29.24896],[-81.15611,29.2525],[-81.15533,29.25491],[-81.16289,29.25595],[-81.16507,29.25705],[-81.17172,29.262],[-81.17352,29.26245],[-81.17342,29.25851],[-81.17471,29.25849],[-81.17457,29.249],[-81.17257,29.24534],[-81.17284,29.24096],[-81.17437,29.239],[-81.17457,29.23557],[-81.17226,29.23317],[-81.1698,29.22889],[-81.17785,29.22862],[-81.17777,29.22112],[-81.18109,29.22107],[-81.17791,29.2158],[-81.17212,29.21158],[-81.1714,29.20654],[-81.16878,29.20336],[-81.1685,29.20061],[-81.1711,29.1939],[-81.17051,29.19204],[-81.17288,29.19244],[-81.182,29.19228],[-81.17984,29.18188],[-81.18265,29.17946],[-81.17797,29.17204],[-81.18177,29.17184],[-81.18804,29.17058],[-81.19247,29.1718],[-81.19746,29.16735],[-81.19883,29.16285],[-81.20058,29.1609],[-81.20353,29.16333],[-81.21155,29.16407],[-81.21429,29.16468],[-81.21573,29.16297],[-81.22641,29.1614],[-81.22876,29.15984],[-81.2348,29.15544],[-81.23518,29.15331],[-81.24104,29.14889],[-81.24306,29.14823],[-81.24094,29.15332],[-81.23959,29.16394],[-81.24114,29.16924],[-81.24358,29.17342],[-81.24411,29.18076],[-81.24631,29.19123],[-81.24716,29.19347],[-81.25087,29.19091],[-81.25171,29.19272],[-81.25584,29.19756],[-81.26645,29.21629],[-81.27054,29.22828],[-81.27068,29.23231],[-81.2679,29.23224],[-81.26478,29.23358],[-81.26018,29.22749],[-81.25954,29.22729],[-81.26357,29.2373],[-81.26823,29.24466],[-81.26913,29.2562],[-81.2684,29.26318],[-81.26763,29.26319]]]}},{"type":"Feature","properties":{"zcta":"32136","d":254},"geometry":{"type":"Polygon","coordinates":[[[-81.16358,29.55529],[-81.1239,29.47447],[-81.11522,29.45627],[-81.11121,29.44712],[-81.10191,29.42705],[-81.10563,29.42701],[-81.10553,29.4219],[-81.10372,29.41908],[-81.10524,29.4198],[-81.10358,29.41285],[-81.10094,29.40863],[-81.1101,29.40333],[-81.11429,29.40185],[-81.11686,29.40617],[-81.11942,29.40899],[-81.12126,29.4078],[-81.12403,29.411],[-81.12562,29.41072],[-81.12674,29.41536],[-81.12868,29.41731],[-81.12742,29.41848],[-81.12957,29.41927],[-81.12938,29.42165],[-81.14873,29.41679],[-81.14815,29.41185],[-81.15588,29.41095],[-81.15534,29.40376],[-81.16012,29.41473],[-81.16656,29.42868],[-81.16981,29.43883],[-81.17569,29.45429],[-81.1814,29.47003],[-81.17515,29.45461],[-81.16987,29.45486],[-81.16686,29.45426],[-81.1712,29.46199],[-81.17518,29.47061],[-81.1792,29.47591],[-81.16532,29.47656],[-81.15703,29.4767],[-81.14877,29.47647],[-81.14889,29.48003],[-81.1532,29.48008],[-81.15383,29.48228],[-81.15769,29.48706],[-81.15732,29.49404],[-81.15437,29.49376],[-81.15248,29.49188],[-81.15073,29.49345],[-81.15114,29.49757],[-81.14321,29.49834],[-81.14706,29.50824],[-81.15044,29.51588],[-81.15448,29.52861],[-81.16084,29.54576],[-81.16263,29.54994],[-81.16575,29.55556],[-81.16404,29.55637],[-81.16358,29.55529]]]}},{"type":"Feature","properties":{"zcta":"32118","d":2136},"geometry":{"type":"Polygon","coordinates":[[[-81.02699,29.26876],[-80.96618,29.14796],[-80.9597,29.13693],[-80.96149,29.13611],[-80.96252,29.13892],[-80.96489,29.14151],[-80.96659,29.14129],[-80.96889,29.14497],[-80.96719,29.14571],[-80.97,29.1496],[-80.97118,29.14955],[-80.97306,29.15318],[-80.97565,29.15653],[-80.98321,29.15334],[-80.98486,29.15672],[-80.98437,29.15915],[-80.9986,29.18773],[-81.01115,29.21113],[-81.01658,29.21819],[-81.01893,29.22263],[-81.02228,29.23023],[-81.02607,29.23817],[-81.03521,29.25508],[-81.03978,29.26386],[-81.02699,29.26876]]]}},{"type":"Feature","properties":{"zcta":"32128","d":335},"geometry":{"type":"Polygon","coordinates":[[[-81.1211,29.13417],[-81.11784,29.13678],[-81.1126,29.13964],[-81.10016,29.1449],[-81.10035,29.14509],[-81.08304,29.15238],[-81.07946,29.15428],[-81.07544,29.15533],[-81.065,29.13703],[-81.06143,29.13186],[-81.0575,29.1285],[-81.04776,29.12257],[-81.04789,29.12206],[-81.03448,29.11393],[-81.03242,29.11215],[-81.02894,29.10593],[-81.02174,29.09133],[-81.01076,29.06898],[-81.00879,29.06274],[-81.0073,29.04756],[-81.01491,29.04695],[-81.03032,29.04947],[-81.03266,29.05007],[-81.0328,29.05333],[-81.03445,29.0533],[-81.03454,29.05541],[-81.03867,29.05543],[-81.03869,29.05634],[-81.04206,29.05719],[-81.04286,29.05899],[-81.04292,29.06438],[-81.04367,29.06342],[-81.05121,29.06264],[-81.05155,29.06611],[-81.05551,29.06609],[-81.05531,29.05878],[-81.0594,29.05706],[-81.06282,29.05732],[-81.07391,29.05666],[-81.07379,29.0499],[-81.06796,29.05005],[-81.06746,29.04371],[-81.07734,29.04043],[-81.08395,29.03793],[-81.08518,29.0816],[-81.13469,29.08262],[-81.13292,29.09298],[-81.13749,29.09633],[-81.13825,29.1034],[-81.14376,29.10265],[-81.14362,29.11046],[-81.1211,29.13417]]]}},{"type":"Feature","properties":{"zcta":"32759","d":35},"geometry":{"type":"Polygon","coordinates":[[[-80.97946,28.87632],[-80.94675,28.87812],[-80.9478,28.88276],[-80.92608,28.88679],[-80.92155,28.87526],[-80.92166,28.87699],[-80.87696,28.88416],[-80.87623,28.88175],[-80.87431,28.87951],[-80.87072,28.87812],[-80.87117,28.88066],[-80.86944,28.88108],[-80.86585,28.87963],[-80.86297,28.87974],[-80.86375,28.88165],[-80.86788,28.8827],[-80.86934,28.88601],[-80.87272,28.88599],[-80.86926,28.89001],[-80.87166,28.89354],[-80.868,28.89337],[-80.87062,28.90075],[-80.86099,28.90109],[-80.85431,28.90393],[-80.85256,28.90063],[-80.84897,28.89381],[-80.84317,28.88447],[-80.83862,28.87938],[-80.83523,28.87342],[-80.82505,28.85694],[-80.83494,28.85693],[-80.83479,28.84239],[-80.84183,28.84235],[-80.83789,28.83674],[-80.84186,28.83537],[-80.84049,28.83194],[-80.84267,28.83119],[-80.84196,28.82961],[-80.84724,28.82784],[-80.85104,28.82784],[-80.85072,28.80657],[-80.84653,28.80033],[-80.84292,28.79115],[-80.88273,28.7912],[-80.96016,28.79028],[-80.95701,28.79751],[-80.96109,28.79676],[-80.96318,28.79478],[-80.96318,28.80334],[-80.96641,28.80957],[-80.96995,28.81422],[-80.96883,28.82995],[-80.96886,28.84864],[-80.97077,28.85437],[-80.9741,28.86205],[-80.97819,28.86881],[-80.98694,28.87527],[-80.98747,28.87712],[-80.97946,28.87632]]]}},{"type":"Feature","properties":{"zcta":"32137","d":436},"geometry":{"type":"Polygon","coordinates":[[[-81.16575,29.55556],[-81.16263,29.54994],[-81.16084,29.54576],[-81.15448,29.52861],[-81.15044,29.51588],[-81.14706,29.50824],[-81.14321,29.49834],[-81.15114,29.49757],[-81.15073,29.49345],[-81.15248,29.49188],[-81.15437,29.49376],[-81.15732,29.49404],[-81.15769,29.48706],[-81.15383,29.48228],[-81.1532,29.48008],[-81.14889,29.48003],[-81.14877,29.47647],[-81.15703,29.4767],[-81.16532,29.47656],[-81.1792,29.47591],[-81.17518,29.47061],[-81.1712,29.46199],[-81.16686,29.45426],[-81.16987,29.45486],[-81.17515,29.45461],[-81.1814,29.47003],[-81.17569,29.45429],[-81.19202,29.49715],[-81.19577,29.49791],[-81.20103,29.49789],[-81.20099,29.51084],[-81.1989,29.51518],[-81.20662,29.53511],[-81.21009,29.54048],[-81.21052,29.53997],[-81.21491,29.54681],[-81.21841,29.54923],[-81.22434,29.54864],[-81.22649,29.54699],[-81.23018,29.54776],[-81.23355,29.54514],[-81.23763,29.5492],[-81.24922,29.55135],[-81.25302,29.55125],[-81.25626,29.55304],[-81.26501,29.55294],[-81.2639,29.54892],[-81.26474,29.54203],[-81.26258,29.53269],[-81.26502,29.53272],[-81.26429,29.5301],[-81.26503,29.52528],[-81.26661,29.52525],[-81.26638,29.52188],[-81.26284,29.52207],[-81.26278,29.51977],[-81.26416,29.51089],[-81.27458,29.51067],[-81.28224,29.55156],[-81.28291,29.55394],[-81.28725,29.57718],[-81.28706,29.57725],[-81.30079,29.65048],[-81.29773,29.65112],[-81.29025,29.64964],[-81.28668,29.65135],[-81.28212,29.65042],[-81.27692,29.65244],[-81.27447,29.65268],[-81.27595,29.65452],[-81.27322,29.65487],[-81.27439,29.65686],[-81.27279,29.65776],[-81.2714,29.65627],[-81.27234,29.66061],[-81.26963,29.65976],[-81.26839,29.66313],[-81.26602,29.66381],[-81.2653,29.66527],[-81.26263,29.6662],[-81.26185,29.66868],[-81.26022,29.66904],[-81.25766,29.66743],[-81.25774,29.66447],[-81.25492,29.66346],[-81.25338,29.66159],[-81.25137,29.66243],[-81.24921,29.66148],[-81.24726,29.65909],[-81.24489,29.65958],[-81.24077,29.66169],[-81.23752,29.66265],[-81.23171,29.66341],[-81.2285,29.66766],[-81.22731,29.67054],[-81.21385,29.67066],[-81.21337,29.66892],[-81.2162,29.66789],[-81.21688,29.66426],[-81.21645,29.66016],[-81.20959,29.66248],[-81.16404,29.55637],[-81.16575,29.55556]],[[-81.23248,29.5498],[-81.22764,29.54967],[-81.22519,29.54853],[-81.22069,29.54971],[-81.22284,29.55279],[-81.22646,29.55169],[-81.22647,29.55331],[-81.22938,29.5531],[-81.23655,29.55026],[-81.23567,29.54854],[-81.23248,29.5498]]]}},{"type":"Feature","properties":{"zcta":"32164","d":822},"geometry":{"type":"MultiPolygon","coordinates":[[[[-81.23655,29.55026],[-81.22938,29.5531],[-81.22647,29.55331],[-81.22646,29.55169],[-81.22284,29.55279],[-81.22069,29.54971],[-81.22519,29.54853],[-81.22764,29.54967],[-81.23248,29.5498],[-81.23567,29.54854],[-81.23655,29.55026]]],[[[-81.16981,29.43883],[-81.16656,29.42868],[-81.16012,29.41473],[-81.18026,29.41448],[-81.18027,29.41631],[-81.1844,29.41622],[-81.18439,29.41443],[-81.18855,29.41437],[-81.1886,29.4162],[-81.18649,29.41623],[-81.18652,29.41805],[-81.18861,29.41803],[-81.18867,29.41984],[-81.19279,29.41975],[-81.19284,29.42338],[-81.19492,29.42333],[-81.19488,29.42061],[-81.19701,29.42052],[-81.19695,29.41786],[-81.19889,29.41785],[-81.19895,29.42142],[-81.20293,29.42133],[-81.20296,29.41781],[-81.20398,29.4178],[-81.20407,29.41412],[-81.20613,29.4141],[-81.21097,29.41979],[-81.22841,29.43066],[-81.23146,29.43274],[-81.2416,29.44741],[-81.23869,29.44802],[-81.23901,29.4715],[-81.22707,29.4717],[-81.22714,29.47349],[-81.22316,29.47352],[-81.22321,29.4756],[-81.2311,29.47546],[-81.23236,29.47886],[-81.23906,29.47871],[-81.2391,29.48229],[-81.24726,29.48213],[-81.24762,29.49623],[-81.26494,29.49599],[-81.2638,29.51302],[-81.26258,29.52016],[-81.26328,29.53009],[-81.26258,29.53269],[-81.26474,29.54203],[-81.2639,29.54892],[-81.26501,29.55294],[-81.25626,29.55304],[-81.25302,29.55125],[-81.24922,29.55135],[-81.23763,29.5492],[-81.23355,29.54514],[-81.23018,29.54776],[-81.22649,29.54699],[-81.22434,29.54864],[-81.21841,29.54923],[-81.21491,29.54681],[-81.21052,29.53997],[-81.21009,29.54048],[-81.20662,29.53511],[-81.1989,29.51518],[-81.20099,29.51084],[-81.20103,29.49789],[-81.19577,29.49791],[-81.19202,29.49715],[-81.17569,29.45429],[-81.16981,29.43883]]]]}},{"type":"Feature","properties":{"zcta":"32129","d":1504},"geometry":{"type":"Polygon","coordinates":[[[-81.04657,29.12863],[-81.04852,29.13305],[-81.05668,29.13985],[-81.05262,29.14174],[-81.04499,29.14171],[-81.04491,29.15491],[-81.0355,29.15489],[-81.03516,29.16158],[-81.03016,29.16356],[-81.02396,29.15262],[-81.01986,29.15444],[-81.01621,29.14782],[-81.01421,29.14862],[-81.01331,29.14699],[-81.01142,29.14775],[-81.01218,29.15028],[-81.01076,29.15085],[-81.01217,29.15346],[-81.01031,29.15419],[-81.0094,29.15246],[-81.00752,29.15322],[-81.00483,29.14848],[-81.00361,29.15052],[-80.99361,29.15048],[-80.99358,29.1494],[-80.98309,29.15311],[-80.98122,29.15106],[-80.97536,29.14841],[-80.98674,29.14321],[-80.98905,29.14311],[-80.99014,29.14439],[-80.99293,29.14325],[-80.99725,29.13866],[-81.00035,29.13411],[-81.0052,29.13205],[-81.0035,29.12888],[-81.01036,29.12566],[-81.02331,29.11685],[-81.02419,29.11579],[-81.0257,29.11841],[-81.02733,29.11856],[-81.0281,29.12304],[-81.02855,29.11891],[-81.02527,29.11567],[-81.02492,29.11354],[-81.02662,29.10788],[-81.02894,29.10593],[-81.03242,29.11215],[-81.03448,29.11393],[-81.04789,29.12206],[-81.04776,29.12257],[-81.0575,29.1285],[-81.04657,29.12863]]]}},{"type":"Feature","properties":{"zcta":"32176","d":1443},"geometry":{"type":"Polygon","coordinates":[[[-81.04668,29.30786],[-81.02699,29.26876],[-81.03978,29.26386],[-81.04605,29.2758],[-81.05227,29.28705],[-81.05705,29.29745],[-81.05688,29.30486],[-81.0623,29.31717],[-81.06585,29.32577],[-81.06906,29.33501],[-81.07815,29.35779],[-81.09159,29.3904],[-81.09674,29.40018],[-81.09825,29.40486],[-81.10094,29.40863],[-81.10358,29.41285],[-81.10524,29.4198],[-81.10372,29.41908],[-81.10553,29.4219],[-81.10563,29.42701],[-81.10191,29.42705],[-81.04668,29.30786]]]}},{"type":"Feature","properties":{"zcta":"32724","d":215},"geometry":{"type":"Polygon","coordinates":[[[-81.24104,29.14889],[-81.23518,29.15331],[-81.2348,29.15544],[-81.22876,29.15984],[-81.22363,29.15308],[-81.21898,29.1369],[-81.216,29.12474],[-81.22016,29.12402],[-81.22283,29.12208],[-81.2274,29.12036],[-81.22533,29.11626],[-81.22275,29.11334],[-81.21969,29.11146],[-81.21347,29.10382],[-81.213,29.10206],[-81.2173,29.09989],[-81.21694,29.06296],[-81.20414,29.06304],[-81.20175,29.06013],[-81.20014,29.05413],[-81.19877,29.05226],[-81.14362,29.11046],[-81.14376,29.10265],[-81.13825,29.1034],[-81.13749,29.09633],[-81.13292,29.09298],[-81.13469,29.08262],[-81.13815,29.06373],[-81.15226,29.03523],[-81.15466,29.02841],[-81.14965,29.02665],[-81.1413,29.02592],[-81.13988,28.9735],[-81.14043,28.97291],[-81.1556,28.97262],[-81.16611,28.9721],[-81.16603,28.96394],[-81.16065,28.96399],[-81.16055,28.95666],[-81.15644,28.95657],[-81.15639,28.93501],[-81.16158,28.93466],[-81.16148,28.95187],[-81.16573,28.9598],[-81.18098,28.97643],[-81.18521,28.97998],[-81.18656,28.98452],[-81.18622,28.9903],[-81.18993,28.99672],[-81.19396,29.00026],[-81.19538,29.00622],[-81.1982,29.01215],[-81.19879,29.01882],[-81.19968,29.02366],[-81.20452,29.02115],[-81.20965,29.0198],[-81.21582,29.01922],[-81.21569,29.01454],[-81.22202,29.01446],[-81.22197,29.01265],[-81.22604,29.01262],[-81.22625,29.01788],[-81.23172,29.01747],[-81.23973,29.00878],[-81.24211,29.00382],[-81.25618,28.95962],[-81.25752,28.95525],[-81.28399,28.97178],[-81.28723,28.97293],[-81.29694,28.97344],[-81.29889,28.97408],[-81.29924,28.97893],[-81.29661,28.97716],[-81.29655,28.98443],[-81.29918,28.98458],[-81.29977,28.99074],[-81.30207,28.99202],[-81.30246,28.99891],[-81.30067,28.99894],[-81.30075,29.0026],[-81.30257,29.00444],[-81.30302,29.01472],[-81.30089,29.01559],[-81.30108,29.0209],[-81.30278,29.02452],[-81.3013,29.02631],[-81.30337,29.02629],[-81.30361,29.03349],[-81.29945,29.03356],[-81.29954,29.03636],[-81.30111,29.03635],[-81.30119,29.03907],[-81.30393,29.04281],[-81.30178,29.04283],[-81.30184,29.04463],[-81.30388,29.04519],[-81.30462,29.06924],[-81.30583,29.07193],[-81.31505,29.07919],[-81.32162,29.08562],[-81.32752,29.08958],[-81.33827,29.10134],[-81.33811,29.10292],[-81.34149,29.10514],[-81.34036,29.10704],[-81.33816,29.10708],[-81.33824,29.11065],[-81.33317,29.11424],[-81.32576,29.11422],[-81.32546,29.1047],[-81.31838,29.10457],[-81.3174,29.10823],[-81.30882,29.1084],[-81.30908,29.11576],[-81.29459,29.11613],[-81.29188,29.11651],[-81.29031,29.11381],[-81.28745,29.11677],[-81.28589,29.12016],[-81.28554,29.12409],[-81.28197,29.12437],[-81.28092,29.12669],[-81.27631,29.12846],[-81.27735,29.13082],[-81.25878,29.13871],[-81.25547,29.12411],[-81.25443,29.12264],[-81.25226,29.12317],[-81.24492,29.12834],[-81.24253,29.1287],[-81.24306,29.14823],[-81.24104,29.14889]]]}}]}