{"type":"FeatureCollection","features":[{"type":"Feature","properties":{"id":"16073","name":"Owyhee Co."},"geometry":{"type":"Polygon","coordinates":[[[-117.0205,43.6779],[-117.0118,43.6748],[-117.0046,43.673],[-117.001,43.6731],[-116.9916,43.6714],[-116.9802,43.6721],[-116.9766,43.6715],[-116.9695,43.6683],[-116.9637,43.6612],[-116.9641,43.652],[-116.96,43.641],[-116.9553,43.6357],[-116.946,43.6321],[-116.9385,43.6279],[-116.933,43.6258],[-116.9233,43.6192],[-116.9189,43.614],[-116.9169,43.6094],[-116.9125,43.6041],[-116.9079,43.6004],[-116.9031,43.6007],[-116.8925,43.5976],[-116.8812,43.5957],[-116.869,43.5918],[-116.8628,43.594],[-116.856,43.5947],[-116.845,43.5944],[-116.8374,43.5907],[-116.8309,43.5846],[-116.8165,43.5779],[-116.8119,43.574],[-116.8054,43.5648],[-116.8029,43.5596],[-116.8002,43.5483],[-116.7933,43.5412],[-116.7884,43.5347],[-116.7818,43.5293],[-116.7806,43.5234],[-116.7849,43.5149],[-116.783,43.5055],[-116.7831,43.5012],[-116.7851,43.4995],[-116.7815,43.4898],[-116.7813,43.4786],[-116.7777,43.4732],[-116.7717,43.4694],[-116.7641,43.4659],[-116.7545,43.4602],[-116.7505,43.4592],[-116.7447,43.4555],[-116.7416,43.4507],[-116.732,43.4418],[-116.7276,43.4358],[-116.723,43.4347],[-116.7176,43.4311],[-116.7131,43.4252],[-116.7039,43.4195],[-116.7002,43.4146],[-116.6926,43.4096],[-116.6902,43.4094],[-116.6844,43.4062],[-116.6764,43.4002],[-116.6732,43.3958],[-116.6714,43.3911],[-116.6673,43.3866],[-116.6565,43.3826],[-116.6474,43.3772],[-116.641,43.3779],[-116.6324,43.3739],[-116.6291,43.3714],[-116.6226,43.37],[-116.6179,43.3652],[-116.6121,43.3554],[-116.6072,43.3513],[-116.6039,43.3461],[-116.5997,43.3369],[-116.6,43.3308],[-116.5927,43.3267],[-116.5836,43.316],[-116.5812,43.3085],[-116.5792,43.3062],[-116.5666,43.3029],[-116.5628,43.3027],[-116.5504,43.2992],[-116.5446,43.3005],[-116.5362,43.2984],[-116.5313,43.299],[-116.5218,43.2979],[-116.5152,43.294],[-116.5119,43.2905],[-116.5089,43.2874],[-116.5012,43.2821],[-116.4972,43.2825],[-116.4939,43.2857],[-116.4841,43.2893],[-116.4721,43.2912],[-116.4631,43.2906],[-116.4473,43.2925],[-116.4399,43.2958],[-116.433,43.2962],[-116.4253,43.2935],[-116.4141,43.2857],[-116.4102,43.2844],[-116.4059,43.2796],[-116.4066,43.2779],[-116.4026,43.2736],[-116.4019,43.2654],[-116.4033,43.263],[-116.398,43.2581],[-116.3886,43.2532],[-116.3848,43.2494],[-116.3772,43.2393],[-116.3761,43.2311],[-116.3813,43.2232],[-116.3844,43.2171],[-116.3846,43.2137],[-116.3827,43.2055],[-116.3859,43.1972],[-116.386,43.1936],[-116.3809,43.1882],[-116.3681,43.1812],[-116.3647,43.1757],[-116.3587,43.171],[-116.3559,43.1674],[-116.3504,43.1646],[-116.3445,43.1647],[-116.3396,43.1636],[-116.336,43.1614],[-116.333,43.1538],[-116.3336,43.1499],[-116.3307,43.1476],[-116.3194,43.144],[-116.3128,43.1362],[-116.3097,43.1251],[-116.3051,43.1206],[-116.2999,43.1192],[-116.2859,43.12],[-116.2766,43.1193],[-116.2694,43.1172],[-116.2662,43.1123],[-116.2678,43.1081],[-116.2668,43.1061],[-116.2552,43.1007],[-116.2442,43.0979],[-116.2374,43.0945],[-116.2239,43.0964],[-116.2116,43.095],[-116.206,43.0932],[-116.1917,43.0825],[-116.1957,43.0779],[-116.2064,43.0707],[-116.2081,43.0638],[-116.2058,43.0582],[-116.206,43.0536],[-116.2017,43.0489],[-116.1963,43.0477],[-116.1862,43.0436],[-116.1777,43.0427],[-116.1733,43.0387],[-116.1672,43.0378],[-116.1575,43.0396],[-116.1511,43.0393],[-116.1416,43.0341],[-116.1397,43.0305],[-116.1407,43.027],[-116.1488,43.0213],[-116.1494,43.0159],[-116.1458,43.0134],[-116.1379,43.0132],[-116.1306,43.0151],[-116.1252,43.0145],[-116.1155,43.0108],[-116.1049,42.9999],[-116.0967,42.9954],[-116.0907,42.9879],[-116.0815,42.9872],[-116.0752,42.9857],[-116.0639,42.9878],[-116.0538,42.9873],[-116.0501,42.9853],[-116.0411,42.9753],[-116.0322,42.9619],[-116.0228,42.957],[-116.0128,42.9502],[-115.9964,42.9484],[-115.9848,42.9483],[-115.9786,42.9476],[-115.9737,42.9457],[-115.965,42.9437],[-115.9631,42.9494],[-115.9609,42.9519],[-115.9619,42.9563],[-115.9673,42.9631],[-115.9721,42.9705],[-115.9668,42.9773],[-115.9675,42.9802],[-115.9617,42.9889],[-115.9576,42.9893],[-115.9537,42.9924],[-115.945,42.9938],[-115.9391,43.0002],[-115.9357,43.0017],[-115.926,43.0013],[-115.9174,42.9952],[-115.9165,42.9933],[-115.9171,42.9874],[-115.9067,42.9823],[-115.899,42.9818],[-115.8935,42.9827],[-115.8873,42.9876],[-115.8784,42.9889],[-115.8676,42.983],[-115.8647,42.9748],[-115.8553,42.9726],[-115.8463,42.9693],[-115.837,42.971],[-115.8321,42.973],[-115.8171,42.9724],[-115.8083,42.9741],[-115.7945,42.973],[-115.7909,42.9719],[-115.7885,42.9693],[-115.7884,42.9655],[-115.7861,42.9604],[-115.7968,42.9516],[-115.7963,42.9487],[-115.7882,42.9445],[-115.7813,42.9433],[-115.7715,42.9387],[-115.7614,42.9391],[-115.7558,42.9376],[-115.7482,42.9387],[-115.7408,42.943],[-115.7365,42.9419],[-115.7329,42.939],[-115.7287,42.9389],[-115.7225,42.9407],[-115.7178,42.94],[-115.6945,42.9394],[-115.6866,42.9404],[-115.6815,42.9422],[-115.671,42.9435],[-115.6562,42.948],[-115.6477,42.9532],[-115.6413,42.9552],[-115.6343,42.9561],[-115.6229,42.9557],[-115.6124,42.9497],[-115.6117,42.9466],[-115.6063,42.9411],[-115.6044,42.9377],[-115.5966,42.9376],[-115.5907,42.9366],[-115.5812,42.9372],[-115.5703,42.9357],[-115.5666,42.9345],[-115.5606,42.9347],[-115.5536,42.9399],[-115.5364,42.9429],[-115.5304,42.9427],[-115.523,42.9391],[-115.5147,42.9372],[-115.5089,42.9315],[-115.5006,42.9272],[-115.4949,42.9264],[-115.4844,42.9299],[-115.4763,42.9285],[-115.4683,42.9279],[-115.4607,42.9289],[-115.4559,42.9283],[-115.4415,42.9311],[-115.4414,42.8511],[-115.4541,42.8511],[-115.4542,42.7679],[-115.0377,42.7684],[-115.0376,42.6824],[-115.0377,42.6289],[-115.0375,42.5791],[-115.0378,42.2456],[-115.0382,41.996],[-115.2508,41.9962],[-115.2543,41.9967],[-115.3139,41.9961],[-115.5868,41.9969],[-115.6259,41.9974],[-115.8702,41.9968],[-115.9416,41.9965],[-116.0471,41.9963],[-116.066,41.9975],[-116.1639,41.9976],[-116.3328,41.9973],[-116.3685,41.9963],[-116.4099,41.9966],[-116.4671,41.997],[-116.4982,41.9974],[-116.5822,41.9978],[-116.5869,41.9974],[-116.6259,41.9974],[-116.6268,41.9978],[-116.9692,41.999],[-117.0093,41.9981],[-117.0262,41.9999],[-117.0261,42.1176],[-117.0266,42.1333],[-117.0262,42.1664],[-117.0261,42.3572],[-117.0266,42.3786],[-117.0267,42.6249],[-117.0263,42.807],[-117.0263,42.8074],[-117.0267,43.0249],[-117.0267,43.0251],[-117.0268,43.6019],[-117.027,43.621],[-117.0267,43.6317],[-117.0266,43.6808],[-117.0205,43.6779]]]}},{"type":"Feature","properties":{"id":"16015","name":"Boise Co."},"geometry":{"type":"Polygon","coordinates":[[[-116.1557,44.1514],[-116.1557,44.1477],[-116.1125,44.1478],[-116.1115,44.1493],[-116.1168,44.1546],[-116.1173,44.1649],[-116.1204,44.1697],[-116.1186,44.176],[-116.1141,44.1781],[-116.1165,44.182],[-116.1141,44.1881],[-116.1142,44.1909],[-116.1112,44.1952],[-116.1132,44.1969],[-116.1088,44.204],[-116.1067,44.2095],[-116.107,44.2144],[-116.1059,44.2236],[-116.1034,44.2262],[-116.1031,44.2364],[-116.037,44.2365],[-116.0369,44.2355],[-115.6825,44.2356],[-115.5203,44.2354],[-115.5156,44.2424],[-115.5062,44.2433],[-115.5023,44.2345],[-115.4975,44.2343],[-115.4945,44.2328],[-115.4847,44.2412],[-115.48,44.2406],[-115.472,44.2381],[-115.4721,44.2413],[-115.4573,44.243],[-115.4551,44.2451],[-115.4484,44.2482],[-115.4435,44.2482],[-115.4419,44.2517],[-115.4428,44.255],[-115.4356,44.2593],[-115.4286,44.2616],[-115.4262,44.2665],[-115.4211,44.2659],[-115.4165,44.267],[-115.4079,44.2635],[-115.4055,44.2591],[-115.4014,44.2596],[-115.4015,44.2658],[-115.3985,44.2654],[-115.3966,44.268],[-115.3937,44.267],[-115.3904,44.2699],[-115.39,44.2736],[-115.3879,44.2768],[-115.3873,44.2827],[-115.389,44.2846],[-115.3862,44.2895],[-115.3785,44.291],[-115.3753,44.2956],[-115.369,44.2958],[-115.3683,44.2979],[-115.361,44.3016],[-115.3535,44.3039],[-115.3539,44.312],[-115.3494,44.3141],[-115.351,44.3205],[-115.3508,44.3264],[-115.3529,44.3285],[-115.3563,44.3288],[-115.3563,44.3331],[-115.3521,44.3337],[-115.3502,44.3363],[-115.3523,44.3396],[-115.3574,44.3435],[-115.3575,44.346],[-115.3492,44.3493],[-115.3447,44.347],[-115.3394,44.3469],[-115.3309,44.3517],[-115.3235,44.351],[-115.3202,44.3484],[-115.3049,44.3445],[-115.3035,44.3425],[-115.2946,44.3394],[-115.2934,44.3346],[-115.2882,44.3299],[-115.2877,44.3247],[-115.2788,44.3225],[-115.2754,44.3178],[-115.2714,44.3152],[-115.2672,44.3161],[-115.2639,44.3135],[-115.2497,44.3111],[-115.2482,44.3072],[-115.249,44.3023],[-115.2478,44.2967],[-115.2444,44.2947],[-115.2435,44.2922],[-115.2402,44.2941],[-115.2397,44.2977],[-115.2419,44.3005],[-115.2403,44.3053],[-115.2368,44.3079],[-115.2329,44.3061],[-115.2265,44.3078],[-115.2212,44.3078],[-115.2127,44.304],[-115.2134,44.3005],[-115.2111,44.2971],[-115.2106,44.2916],[-115.209,44.2881],[-115.2052,44.2863],[-115.2039,44.2833],[-115.1979,44.2828],[-115.1875,44.2874],[-115.1862,44.2897],[-115.179,44.2965],[-115.1752,44.293],[-115.1732,44.2866],[-115.1688,44.2831],[-115.166,44.2751],[-115.1684,44.2696],[-115.164,44.2624],[-115.1675,44.2578],[-115.1633,44.2522],[-115.1581,44.2492],[-115.1569,44.2451],[-115.1605,44.2396],[-115.1681,44.2384],[-115.1748,44.2355],[-115.1697,44.2256],[-115.1699,44.2208],[-115.1628,44.2137],[-115.1637,44.2114],[-115.1693,44.2061],[-115.1677,44.2028],[-115.1598,44.1996],[-115.1584,44.1979],[-115.1527,44.1967],[-115.1498,44.1937],[-115.1437,44.1903],[-115.1367,44.192],[-115.1305,44.1922],[-115.1251,44.1901],[-115.1217,44.184],[-115.1156,44.1786],[-115.1092,44.1758],[-115.1094,44.171],[-115.1079,44.1701],[-115.1007,44.1711],[-115.0982,44.1735],[-115.0891,44.1724],[-115.0824,44.1762],[-115.0763,44.1728],[-115.0728,44.1723],[-115.0724,44.1694],[-115.0617,44.1601],[-115.0606,44.1632],[-115.0513,44.1653],[-115.0439,44.1614],[-115.0438,44.1595],[-115.0314,44.1599],[-115.0265,44.1582],[-115.0242,44.1555],[-115.0231,44.1493],[-115.0209,44.1482],[-115.0171,44.1413],[-115.0245,44.1309],[-115.0281,44.1274],[-115.0395,44.1236],[-115.0465,44.1236],[-115.0467,44.12],[-115.0399,44.1128],[-115.0296,44.1103],[-115.0282,44.1051],[-115.0205,44.0984],[-115.0136,44.0966],[-115.0084,44.0987],[-115.0021,44.0966],[-114.998,44.0982],[-114.9967,44.097],[-114.9969,44.0906],[-114.9997,44.0857],[-115.0037,44.082],[-115.0107,44.0772],[-115.0176,44.0783],[-115.0196,44.08],[-115.0233,44.0783],[-115.0237,44.075],[-115.0279,44.0714],[-115.0328,44.0707],[-115.0369,44.0671],[-115.0349,44.0633],[-115.0354,44.0605],[-115.0436,44.0588],[-115.0477,44.0507],[-115.0469,44.0448],[-115.0481,44.0378],[-115.0393,44.0283],[-115.0399,44.0245],[-115.0345,44.0241],[-115.0324,44.0195],[-115.0238,44.0162],[-115.0195,44.0165],[-115.0176,44.0125],[-115.0136,44.0141],[-115.0074,44.0133],[-115.0048,44.0179],[-114.9986,44.0207],[-114.9956,44.0174],[-114.9956,44.0143],[-114.9915,44.011],[-114.986,44.0102],[-114.9826,44.0112],[-114.9834,44.0062],[-114.9855,44.0044],[-114.9822,44.0007],[-114.9874,43.9922],[-114.9849,43.9888],[-114.975,43.984],[-114.97,43.9837],[-114.9673,43.9821],[-114.9694,43.9775],[-114.9687,43.9737],[-114.971,43.9709],[-114.9738,43.9718],[-114.9786,43.9702],[-114.9869,43.9598],[-114.9878,43.9551],[-114.9913,43.9531],[-114.9908,43.9497],[-114.9969,43.9488],[-115.0062,43.9511],[-115.012,43.9498],[-115.0191,43.9534],[-115.0313,43.954],[-115.0385,43.9577],[-115.0473,43.9495],[-115.0538,43.9491],[-115.0556,43.9462],[-115.0622,43.9462],[-115.0675,43.9407],[-115.0696,43.9428],[-115.0745,43.944],[-115.0763,43.9459],[-115.0747,43.9484],[-115.0742,43.9535],[-115.0778,43.9551],[-115.0852,43.9529],[-115.0925,43.9584],[-115.0926,43.9606],[-115.0871,43.9655],[-115.0828,43.9709],[-115.0857,43.9765],[-115.0905,43.9762],[-115.0904,43.9742],[-115.0977,43.973],[-115.1002,43.9742],[-115.1059,43.9702],[-115.1095,43.971],[-115.1162,43.977],[-115.116,43.979],[-115.124,43.9802],[-115.1362,43.9839],[-115.1374,43.9899],[-115.1417,43.9962],[-115.1464,43.9994],[-115.1478,44.0028],[-115.1431,44.0058],[-115.1481,44.0097],[-115.1447,44.0138],[-115.1468,44.0196],[-115.1469,44.025],[-115.1516,44.0338],[-115.1491,44.0412],[-115.1514,44.0454],[-115.1507,44.0477],[-115.1524,44.0522],[-115.1566,44.0551],[-115.156,44.0621],[-115.1624,44.0669],[-115.1644,44.0759],[-115.1663,44.0779],[-115.1692,44.0775],[-115.1735,44.081],[-115.1725,44.0836],[-115.1819,44.0905],[-115.1908,44.0897],[-115.1937,44.0919],[-115.1983,44.0924],[-115.2023,44.0944],[-115.2103,44.0965],[-115.2157,44.0964],[-115.2226,44.0981],[-115.2305,44.0988],[-115.2329,44.0958],[-115.2188,44.092],[-115.2146,44.0893],[-115.213,44.0866],[-115.2073,44.0833],[-115.2039,44.0763],[-115.1977,44.0708],[-115.1971,44.0686],[-115.2021,44.0631],[-115.2057,44.0616],[-115.2099,44.0563],[-115.2095,44.0514],[-115.214,44.0432],[-115.2159,44.0326],[-115.2232,44.0269],[-115.2271,44.0206],[-115.2326,44.0152],[-115.2342,44.0068],[-115.2401,44.0043],[-115.2419,44.0019],[-115.2519,43.9957],[-115.2563,43.988],[-115.2641,43.9802],[-115.2631,43.979],[-115.2684,43.9736],[-115.2684,43.9702],[-115.2717,43.9672],[-115.2759,43.9607],[-115.2751,43.9567],[-115.2769,43.9563],[-115.2761,43.9498],[-115.2782,43.9484],[-115.2771,43.9449],[-115.2783,43.9419],[-115.281,43.9423],[-115.2874,43.9391],[-115.2865,43.9359],[-115.2934,43.9336],[-115.2986,43.9334],[-115.2993,43.9318],[-115.3053,43.9311],[-115.308,43.9295],[-115.3142,43.9294],[-115.3155,43.9309],[-115.3193,43.9291],[-115.3186,43.9272],[-115.3251,43.9257],[-115.3303,43.9261],[-115.3364,43.924],[-115.3378,43.921],[-115.3438,43.922],[-115.3494,43.9197],[-115.3517,43.9212],[-115.3558,43.9194],[-115.3587,43.9237],[-115.3636,43.9219],[-115.3669,43.9249],[-115.3708,43.9232],[-115.3735,43.9244],[-115.3773,43.9228],[-115.382,43.9229],[-115.3818,43.9212],[-115.3862,43.9206],[-115.3862,43.9187],[-115.3908,43.9161],[-115.3973,43.9159],[-115.4007,43.9139],[-115.4081,43.9116],[-115.4252,43.9094],[-115.4297,43.9062],[-115.4407,43.903],[-115.4524,43.9012],[-115.4589,43.9023],[-115.4656,43.8988],[-115.471,43.894],[-115.4834,43.8937],[-115.4867,43.8918],[-115.4894,43.8923],[-115.5004,43.8899],[-115.5012,43.887],[-115.5087,43.8849],[-115.5142,43.8804],[-115.5145,43.8777],[-115.5206,43.8686],[-115.5192,43.8677],[-115.5194,43.8629],[-115.5245,43.8613],[-115.5224,43.8595],[-115.5257,43.8573],[-115.5329,43.8572],[-115.5371,43.8541],[-115.5363,43.8511],[-115.5333,43.8496],[-115.5346,43.8477],[-115.5391,43.8474],[-115.5355,43.8401],[-115.532,43.8403],[-115.5332,43.8374],[-115.5312,43.8353],[-115.534,43.8346],[-115.5318,43.8311],[-115.5347,43.826],[-115.5334,43.8225],[-115.5337,43.8184],[-115.5297,43.8165],[-115.5332,43.8123],[-115.5355,43.8116],[-115.5378,43.8075],[-115.5468,43.8028],[-115.5475,43.7927],[-115.5552,43.7943],[-115.5721,43.7937],[-115.5789,43.7972],[-115.584,43.7977],[-115.5856,43.7946],[-115.5894,43.7951],[-115.5928,43.7983],[-115.5943,43.7937],[-115.5993,43.7935],[-115.6044,43.7892],[-115.6083,43.7841],[-115.6134,43.7828],[-115.6155,43.7807],[-115.616,43.7764],[-115.6206,43.7696],[-115.6166,43.7635],[-115.6203,43.7611],[-115.6244,43.7565],[-115.6233,43.7546],[-115.6275,43.7549],[-115.6278,43.7517],[-115.6321,43.7511],[-115.6291,43.7478],[-115.6301,43.7459],[-115.6339,43.7457],[-115.6324,43.7429],[-115.6267,43.7424],[-115.628,43.7337],[-115.6251,43.7334],[-115.6242,43.7294],[-115.6209,43.7312],[-115.6147,43.7288],[-115.6164,43.7258],[-115.6256,43.7283],[-115.6301,43.7268],[-115.6273,43.7229],[-115.6345,43.7235],[-115.6346,43.7202],[-115.6377,43.7179],[-115.6379,43.7155],[-115.6351,43.7109],[-115.6421,43.7076],[-115.6458,43.7003],[-115.6538,43.7015],[-115.6551,43.6993],[-115.6605,43.6963],[-115.6645,43.6973],[-115.6692,43.6902],[-115.6749,43.6868],[-115.6759,43.6809],[-115.6801,43.6823],[-115.6836,43.6799],[-115.6837,43.6769],[-115.6904,43.6719],[-115.6953,43.672],[-115.6975,43.6654],[-115.6999,43.6676],[-115.7042,43.6675],[-115.7052,43.6647],[-115.7118,43.6618],[-115.7134,43.6642],[-115.7216,43.6639],[-115.7264,43.668],[-115.7311,43.6649],[-115.7258,43.6617],[-115.7272,43.6572],[-115.7305,43.6537],[-115.7382,43.6553],[-115.7409,43.654],[-115.7439,43.6496],[-115.7445,43.6465],[-115.7543,43.643],[-115.754,43.6465],[-115.7578,43.65],[-115.7638,43.649],[-115.77,43.6503],[-115.7753,43.6487],[-115.782,43.6484],[-115.783,43.6454],[-115.7879,43.6438],[-115.7915,43.6402],[-115.7971,43.6386],[-115.7949,43.6341],[-115.7976,43.6321],[-115.8002,43.6277],[-115.8058,43.6259],[-115.8066,43.6228],[-115.8127,43.6193],[-115.8219,43.62],[-115.8243,43.6161],[-115.822,43.6111],[-115.8279,43.6077],[-115.8293,43.6056],[-115.8351,43.6084],[-115.8411,43.6069],[-115.8472,43.608],[-115.8531,43.6027],[-115.8567,43.6016],[-115.8645,43.6023],[-115.8665,43.5985],[-115.8759,43.5913],[-115.8826,43.5935],[-115.8852,43.5974],[-115.8896,43.5972],[-115.8972,43.5988],[-115.9012,43.5971],[-115.9037,43.5943],[-115.9124,43.5921],[-115.9208,43.5928],[-115.9224,43.5957],[-115.9299,43.5956],[-115.9351,43.6082],[-115.9412,43.6072],[-115.9448,43.6088],[-115.9508,43.6065],[-115.9558,43.6017],[-115.9552,43.5958],[-115.9535,43.5934],[-115.9565,43.5895],[-115.9635,43.5892],[-115.9757,43.5914],[-115.9788,43.5891],[-115.9803,43.5859],[-116.0487,43.6366],[-116.1413,43.705],[-116.1598,43.7186],[-116.2418,43.7783],[-116.282,43.8074],[-116.274,43.8074],[-116.2734,43.8936],[-116.2736,43.9109],[-116.2733,44.109],[-116.2731,44.1512],[-116.2139,44.1514],[-116.1557,44.1514]]]}},{"type":"Feature","properties":{"id":"16027","name":"Canyon Co."},"geometry":{"type":"Polygon","coordinates":[[[-116.6446,43.8072],[-116.5125,43.8072],[-116.5127,43.7588],[-116.5125,43.7117],[-116.5131,43.6342],[-116.4735,43.6341],[-116.4735,43.5868],[-116.4737,43.5612],[-116.4734,43.4883],[-116.4736,43.4599],[-116.5134,43.4593],[-116.5137,43.372],[-116.5123,43.3718],[-116.5119,43.2905],[-116.5152,43.294],[-116.5218,43.2979],[-116.5313,43.299],[-116.5362,43.2984],[-116.5446,43.3005],[-116.5504,43.2992],[-116.5628,43.3027],[-116.5666,43.3029],[-116.5792,43.3062],[-116.5812,43.3085],[-116.5836,43.316],[-116.5927,43.3267],[-116.6,43.3308],[-116.5997,43.3369],[-116.6039,43.3461],[-116.6072,43.3513],[-116.6121,43.3554],[-116.6179,43.3652],[-116.6226,43.37],[-116.6291,43.3714],[-116.6324,43.3739],[-116.641,43.3779],[-116.6474,43.3772],[-116.6565,43.3826],[-116.6673,43.3866],[-116.6714,43.3911],[-116.6732,43.3958],[-116.6764,43.4002],[-116.6844,43.4062],[-116.6902,43.4094],[-116.6926,43.4096],[-116.7002,43.4146],[-116.7039,43.4195],[-116.7131,43.4252],[-116.7176,43.4311],[-116.723,43.4347],[-116.7276,43.4358],[-116.732,43.4418],[-116.7416,43.4507],[-116.7447,43.4555],[-116.7505,43.4592],[-116.7545,43.4602],[-116.7641,43.4659],[-116.7717,43.4694],[-116.7777,43.4732],[-116.7813,43.4786],[-116.7815,43.4898],[-116.7851,43.4995],[-116.7831,43.5012],[-116.783,43.5055],[-116.7849,43.5149],[-116.7806,43.5234],[-116.7818,43.5293],[-116.7884,43.5347],[-116.7933,43.5412],[-116.8002,43.5483],[-116.8029,43.5596],[-116.8054,43.5648],[-116.8119,43.574],[-116.8165,43.5779],[-116.8309,43.5846],[-116.8374,43.5907],[-116.845,43.5944],[-116.856,43.5947],[-116.8628,43.594],[-116.869,43.5918],[-116.8812,43.5957],[-116.8925,43.5976],[-116.9031,43.6007],[-116.9079,43.6004],[-116.9125,43.6041],[-116.9169,43.6094],[-116.9189,43.614],[-116.9233,43.6192],[-116.933,43.6258],[-116.9385,43.6279],[-116.946,43.6321],[-116.9553,43.6357],[-116.96,43.641],[-116.9641,43.652],[-116.9637,43.6612],[-116.9695,43.6683],[-116.9766,43.6715],[-116.9802,43.6721],[-116.9916,43.6714],[-117.001,43.6731],[-117.0046,43.673],[-117.0118,43.6748],[-117.0205,43.6779],[-117.0266,43.6808],[-117.0268,43.7329],[-117.0267,43.7339],[-117.0266,43.8081],[-117.023,43.8138],[-117.0215,43.8194],[-117.0236,43.8238],[-117.0329,43.83],[-117.0319,43.8342],[-117.0252,43.8413],[-117.0215,43.8417],[-117.0168,43.84],[-117.0128,43.84],[-117.0104,43.8448],[-117.0107,43.8498],[-117.0199,43.8538],[-117.0217,43.8562],[-117.02,43.859],[-117.0108,43.8623],[-116.9991,43.8646],[-116.9914,43.8639],[-116.9842,43.8668],[-116.9822,43.8712],[-116.9837,43.8801],[-116.9544,43.8802],[-116.9545,43.8365],[-116.914,43.8362],[-116.9138,43.8217],[-116.8941,43.8218],[-116.8938,43.8077],[-116.8531,43.8074],[-116.8532,43.7927],[-116.7932,43.7927],[-116.7932,43.7999],[-116.7531,43.7999],[-116.7526,43.8072],[-116.7127,43.8072],[-116.6446,43.8072]]]}},{"type":"Feature","properties":{"id":"16001","name":"Ada Co."},"geometry":{"type":"Polygon","coordinates":[[[-116.4839,43.8072],[-116.282,43.8074],[-116.2418,43.7783],[-116.1598,43.7186],[-116.1413,43.705],[-116.0487,43.6366],[-115.9803,43.5859],[-115.9788,43.5891],[-115.9757,43.5914],[-115.976,43.546],[-115.9748,43.546],[-115.9749,43.2858],[-115.9765,43.2857],[-115.9772,43.2004],[-115.9786,43.2004],[-115.9787,43.1134],[-116.1558,43.113],[-116.1559,43.1123],[-116.2662,43.1123],[-116.2694,43.1172],[-116.2766,43.1193],[-116.2859,43.12],[-116.2999,43.1192],[-116.3051,43.1206],[-116.3097,43.1251],[-116.3128,43.1362],[-116.3194,43.144],[-116.3307,43.1476],[-116.3336,43.1499],[-116.333,43.1538],[-116.336,43.1614],[-116.3396,43.1636],[-116.3445,43.1647],[-116.3504,43.1646],[-116.3559,43.1674],[-116.3587,43.171],[-116.3647,43.1757],[-116.3681,43.1812],[-116.3809,43.1882],[-116.386,43.1936],[-116.3859,43.1972],[-116.3827,43.2055],[-116.3846,43.2137],[-116.3844,43.2171],[-116.3813,43.2232],[-116.3761,43.2311],[-116.3772,43.2393],[-116.3848,43.2494],[-116.3886,43.2532],[-116.398,43.2581],[-116.4033,43.263],[-116.4019,43.2654],[-116.4026,43.2736],[-116.4066,43.2779],[-116.4059,43.2796],[-116.4102,43.2844],[-116.4141,43.2857],[-116.4253,43.2935],[-116.433,43.2962],[-116.4399,43.2958],[-116.4473,43.2925],[-116.4631,43.2906],[-116.4721,43.2912],[-116.4841,43.2893],[-116.4939,43.2857],[-116.4972,43.2825],[-116.5012,43.2821],[-116.5089,43.2874],[-116.5119,43.2905],[-116.5123,43.3718],[-116.5137,43.372],[-116.5134,43.4593],[-116.4736,43.4599],[-116.4734,43.4883],[-116.4737,43.5612],[-116.4735,43.5868],[-116.4735,43.6341],[-116.5131,43.6342],[-116.5125,43.7117],[-116.5127,43.7588],[-116.5125,43.8072],[-116.4839,43.8072]]]}},{"type":"Feature","properties":{"id":"16045","name":"Gem Co."},"geometry":{"type":"Polygon","coordinates":[[[-116.2731,44.1512],[-116.2733,44.109],[-116.2736,43.9109],[-116.2734,43.8936],[-116.274,43.8074],[-116.282,43.8074],[-116.4839,43.8072],[-116.5125,43.8072],[-116.6446,43.8072],[-116.7127,43.8072],[-116.7128,43.8799],[-116.7123,43.9052],[-116.7123,43.9521],[-116.7125,43.9813],[-116.5722,43.9805],[-116.5721,44.0092],[-116.5322,44.0088],[-116.5321,44.066],[-116.4526,44.0654],[-116.4521,44.1515],[-116.3585,44.1512],[-116.3603,44.1542],[-116.3574,44.1599],[-116.3558,44.1657],[-116.3541,44.1677],[-116.3532,44.1755],[-116.3563,44.1785],[-116.3566,44.1824],[-116.3537,44.1863],[-116.3555,44.1886],[-116.3538,44.1907],[-116.3571,44.1965],[-116.3556,44.1987],[-116.3554,44.2032],[-116.357,44.2072],[-116.3488,44.2106],[-116.3464,44.2152],[-116.3433,44.2178],[-116.3466,44.2194],[-116.3469,44.2242],[-116.3436,44.2258],[-116.3474,44.2342],[-116.3515,44.2378],[-116.3464,44.2412],[-116.3503,44.245],[-116.3493,44.2519],[-116.344,44.2564],[-116.3446,44.2637],[-116.3423,44.2681],[-116.3443,44.2704],[-116.3442,44.2738],[-116.3418,44.277],[-116.345,44.2874],[-116.3513,44.2882],[-116.3486,44.2909],[-116.3438,44.2988],[-116.3437,44.304],[-116.3419,44.3057],[-116.3418,44.3111],[-116.3451,44.313],[-116.3443,44.3179],[-116.348,44.3223],[-116.3414,44.327],[-116.3395,44.3342],[-116.3402,44.3368],[-116.3363,44.3409],[-116.3361,44.3438],[-116.3312,44.3487],[-116.3325,44.3518],[-116.3294,44.3549],[-116.3286,44.3577],[-116.3328,44.3587],[-116.3358,44.3659],[-116.3331,44.3717],[-116.3339,44.376],[-116.3291,44.3755],[-116.3279,44.3826],[-116.3256,44.3831],[-116.3217,44.3877],[-116.3211,44.3908],[-116.3236,44.3931],[-116.3213,44.3968],[-116.3219,44.4011],[-116.3191,44.4053],[-116.3191,44.4116],[-116.3202,44.4165],[-116.3196,44.4207],[-116.3155,44.423],[-116.3121,44.4219],[-116.3083,44.4234],[-116.3071,44.4285],[-116.303,44.4391],[-116.2997,44.4429],[-116.2983,44.4482],[-116.2915,44.4527],[-116.2833,44.456],[-116.2801,44.4584],[-116.271,44.4604],[-116.2686,44.4627],[-116.257,44.4663],[-116.2447,44.4643],[-116.2447,44.462],[-116.2416,44.462],[-116.2361,44.4647],[-116.2364,44.4698],[-116.2319,44.4769],[-116.2339,44.4813],[-116.231,44.485],[-116.23,44.4895],[-116.2274,44.4927],[-116.2226,44.4942],[-116.2204,44.4974],[-116.2178,44.5086],[-116.2133,44.5108],[-116.2108,44.5046],[-116.2043,44.5023],[-116.2005,44.5031],[-116.1999,44.5001],[-116.1969,44.4983],[-116.1933,44.4937],[-116.1888,44.4932],[-116.1854,44.4947],[-116.1803,44.4993],[-116.1766,44.5007],[-116.1602,44.4981],[-116.1524,44.4988],[-116.1523,44.3245],[-116.2129,44.3244],[-116.2139,44.1514],[-116.2731,44.1512]]]}}]}