{"type":"FeatureCollection","features":[{"type":"Feature","properties":{"id":"28029","name":"Copiah Co."},"geometry":{"type":"Polygon","coordinates":[[[-90.6552,32.0485],[-90.6551,32.05],[-90.6216,32.0501],[-90.5868,32.0498],[-90.515,32.05],[-90.4637,32.0497],[-90.301,32.0496],[-90.2303,32.0497],[-90.23,32.0467],[-90.2367,32.0375],[-90.2427,32.0374],[-90.2479,32.0315],[-90.2438,32.0263],[-90.2436,32.0226],[-90.2346,32.025],[-90.2341,32.0227],[-90.2382,32.0228],[-90.2392,32.0195],[-90.2335,32.0171],[-90.2293,32.0209],[-90.2209,32.0189],[-90.2141,32.0254],[-90.2157,32.0217],[-90.2251,32.0098],[-90.2296,32.0103],[-90.2328,32.0089],[-90.2271,32.002],[-90.2228,31.9948],[-90.2229,31.9892],[-90.217,31.9898],[-90.2141,31.9864],[-90.2104,31.9892],[-90.2061,31.988],[-90.2051,31.9836],[-90.207,31.9777],[-90.2057,31.9742],[-90.2018,31.9714],[-90.2013,31.9679],[-90.197,31.9651],[-90.1981,31.9579],[-90.19,31.9552],[-90.1875,31.952],[-90.19,31.9495],[-90.191,31.9533],[-90.1928,31.9531],[-90.1919,31.9441],[-90.1978,31.9429],[-90.1945,31.9396],[-90.1914,31.9394],[-90.187,31.9416],[-90.1842,31.9377],[-90.1803,31.9389],[-90.1787,31.9427],[-90.1683,31.9305],[-90.1666,31.9236],[-90.1698,31.9176],[-90.1703,31.9045],[-90.1592,31.9005],[-90.1555,31.8972],[-90.1457,31.8929],[-90.1418,31.8874],[-90.1369,31.8708],[-90.1371,31.8643],[-90.133,31.8599],[-90.1326,31.8569],[-90.1364,31.8543],[-90.1365,31.85],[-90.1389,31.8481],[-90.1521,31.8447],[-90.1589,31.8455],[-90.1582,31.8421],[-90.147,31.8335],[-90.1446,31.8299],[-90.1379,31.8328],[-90.1351,31.8322],[-90.1283,31.8275],[-90.1273,31.8256],[-90.1297,31.8228],[-90.1327,31.8268],[-90.1348,31.8274],[-90.1376,31.8238],[-90.136,31.819],[-90.1423,31.8128],[-90.1487,31.8078],[-90.1507,31.7999],[-90.1439,31.7943],[-90.1408,31.7894],[-90.1373,31.7888],[-90.1235,31.7891],[-90.1154,31.7912],[-90.111,31.7893],[-90.1105,31.7834],[-90.1075,31.7777],[-90.1125,31.7697],[-90.1159,31.7678],[-90.1197,31.768],[-90.1217,31.7748],[-90.1242,31.7743],[-90.129,31.7682],[-90.1288,31.7659],[-90.1251,31.7617],[-90.1218,31.7559],[-90.1226,31.7527],[-90.1264,31.7525],[-90.1313,31.756],[-90.141,31.7502],[-90.1436,31.7472],[-90.1479,31.7463],[-90.1545,31.7471],[-90.1637,31.7441],[-90.1677,31.7406],[-90.1726,31.7398],[-90.1782,31.7365],[-90.1841,31.7315],[-90.1917,31.7299],[-90.1954,31.7279],[-90.2066,31.7254],[-90.2141,31.7257],[-90.2241,31.7231],[-90.2299,31.7237],[-90.2458,31.7175],[-90.2549,31.7101],[-90.259,31.7039],[-90.2724,31.7042],[-90.28,31.6999],[-90.3721,31.7003],[-90.3801,31.7002],[-90.3794,31.6852],[-90.4136,31.6853],[-90.4142,31.7005],[-90.4472,31.7007],[-90.4473,31.6993],[-90.5485,31.6988],[-90.5622,31.6983],[-90.7368,31.6985],[-90.7363,31.7861],[-90.7356,31.8155],[-90.733,31.83],[-90.7168,31.8446],[-90.7164,31.9042],[-90.7165,31.9396],[-90.7158,31.9622],[-90.7144,31.9776],[-90.7183,32.0484],[-90.6552,32.0485]]]}},{"type":"Feature","properties":{"id":"28121","name":"Rankin Co."},"geometry":{"type":"Polygon","coordinates":[[[-90.0641,32.3999],[-90.0637,32.4042],[-90.0667,32.4066],[-90.075,32.4175],[-90.0742,32.42],[-90.0705,32.42],[-90.0705,32.4177],[-90.0658,32.4163],[-90.0629,32.42],[-90.0653,32.4223],[-90.0701,32.4338],[-90.0681,32.4386],[-90.0575,32.4351],[-90.055,32.4398],[-90.051,32.4377],[-90.0465,32.4385],[-90.0407,32.4417],[-90.0368,32.4457],[-90.0381,32.4484],[-90.0401,32.4467],[-90.0409,32.4495],[-90.0311,32.4597],[-90.0306,32.4619],[-90.0264,32.4628],[-90.0242,32.4681],[-90.0249,32.4716],[-90.0186,32.4737],[-90.0193,32.4773],[-90.0154,32.4775],[-90.0129,32.4808],[-90.0103,32.4791],[-90.007,32.4804],[-90.0063,32.4847],[-89.9968,32.4863],[-89.9928,32.4828],[-89.9883,32.4875],[-89.9847,32.4876],[-89.9847,32.4912],[-89.9816,32.4982],[-89.9762,32.4962],[-89.9747,32.4933],[-89.9716,32.4962],[-89.9651,32.4945],[-89.9621,32.4913],[-89.9585,32.4974],[-89.9555,32.4984],[-89.9541,32.503],[-89.9455,32.506],[-89.9411,32.5083],[-89.9456,32.509],[-89.9419,32.5132],[-89.9346,32.5134],[-89.9314,32.5123],[-89.9279,32.5155],[-89.9286,32.5176],[-89.9261,32.5198],[-89.9233,32.5252],[-89.9233,32.5289],[-89.9112,32.5287],[-89.9106,32.5325],[-89.9129,32.5356],[-89.91,32.5378],[-89.905,32.5372],[-89.9022,32.5383],[-89.8997,32.5428],[-89.8961,32.5411],[-89.8932,32.5424],[-89.8951,32.5445],[-89.8929,32.5497],[-89.896,32.5536],[-89.8896,32.5585],[-89.8863,32.5632],[-89.8751,32.5592],[-89.867,32.5645],[-89.8666,32.5678],[-89.8638,32.5693],[-89.8623,32.5801],[-89.8589,32.5848],[-89.8491,32.5826],[-89.8454,32.5835],[-89.8417,32.5875],[-89.8411,32.592],[-89.8393,32.5932],[-89.8367,32.5907],[-89.8376,32.5865],[-89.8321,32.5899],[-89.8326,32.5864],[-89.8269,32.5846],[-89.8228,32.5865],[-89.8179,32.5867],[-89.8159,32.5825],[-89.813,32.5827],[-89.8136,32.5853],[-89.8079,32.5841],[-89.8066,32.5879],[-89.8086,32.5908],[-89.8032,32.5891],[-89.7985,32.59],[-89.796,32.5848],[-89.7939,32.5854],[-89.7922,32.589],[-89.794,32.593],[-89.7913,32.5911],[-89.7875,32.592],[-89.7888,32.5844],[-89.7859,32.5837],[-89.7841,32.5869],[-89.7735,32.5439],[-89.7564,32.4694],[-89.7301,32.3527],[-89.7298,32.3353],[-89.7302,32.2501],[-89.7304,32.222],[-89.7311,32.2219],[-89.7312,32.1649],[-89.7312,32.1343],[-89.7297,32.1343],[-89.7297,32.1114],[-89.7301,32.0471],[-89.7782,32.0471],[-89.8469,32.0474],[-89.882,32.0475],[-89.9371,32.0479],[-89.9372,32.0492],[-89.985,32.0494],[-90.0781,32.0494],[-90.1357,32.0496],[-90.215,32.0496],[-90.2303,32.0497],[-90.232,32.0553],[-90.2298,32.0569],[-90.2363,32.0647],[-90.235,32.0688],[-90.2306,32.0676],[-90.2289,32.069],[-90.2279,32.0775],[-90.2267,32.0798],[-90.2303,32.0811],[-90.2317,32.0859],[-90.2356,32.0897],[-90.2346,32.0913],[-90.2289,32.0921],[-90.2268,32.0943],[-90.2288,32.0954],[-90.2385,32.0943],[-90.2411,32.0916],[-90.247,32.0941],[-90.2475,32.0991],[-90.2445,32.1007],[-90.2418,32.0996],[-90.2414,32.097],[-90.237,32.0987],[-90.2373,32.1011],[-90.2421,32.1034],[-90.2461,32.1034],[-90.2512,32.1124],[-90.249,32.1138],[-90.243,32.1137],[-90.2446,32.1164],[-90.2483,32.1183],[-90.2429,32.1199],[-90.241,32.1217],[-90.2417,32.1273],[-90.2466,32.1331],[-90.2473,32.1375],[-90.2454,32.1403],[-90.2428,32.1489],[-90.2451,32.1512],[-90.2495,32.1487],[-90.2548,32.1512],[-90.2535,32.1525],[-90.2419,32.1551],[-90.2454,32.1714],[-90.242,32.178],[-90.2363,32.178],[-90.2356,32.1735],[-90.2326,32.1736],[-90.2263,32.1789],[-90.2245,32.1777],[-90.2126,32.18],[-90.2082,32.1887],[-90.2036,32.1912],[-90.2033,32.187],[-90.1978,32.1879],[-90.1963,32.1852],[-90.1949,32.1879],[-90.1974,32.1907],[-90.1955,32.1929],[-90.1966,32.1956],[-90.1938,32.1987],[-90.1905,32.1952],[-90.1876,32.195],[-90.1858,32.1988],[-90.1817,32.2016],[-90.1898,32.2029],[-90.1906,32.2056],[-90.1885,32.2079],[-90.191,32.2097],[-90.1858,32.2196],[-90.1909,32.2228],[-90.1905,32.2267],[-90.1964,32.2253],[-90.2051,32.2313],[-90.2088,32.2364],[-90.2044,32.2346],[-90.2027,32.2367],[-90.204,32.2406],[-90.1993,32.2409],[-90.1996,32.2441],[-90.2053,32.2459],[-90.2053,32.2519],[-90.2015,32.256],[-90.1973,32.2568],[-90.1941,32.2594],[-90.194,32.2621],[-90.1861,32.2606],[-90.1836,32.2655],[-90.1875,32.2664],[-90.1865,32.2735],[-90.1797,32.2762],[-90.1784,32.2832],[-90.1794,32.2871],[-90.1736,32.2905],[-90.1715,32.2891],[-90.174,32.2869],[-90.1716,32.2839],[-90.1708,32.2875],[-90.1667,32.2869],[-90.1656,32.2839],[-90.1636,32.2861],[-90.1608,32.2858],[-90.1569,32.2879],[-90.1598,32.2903],[-90.1571,32.2938],[-90.1525,32.2901],[-90.1512,32.2917],[-90.1538,32.2964],[-90.1562,32.2973],[-90.1565,32.3017],[-90.1582,32.3007],[-90.1627,32.3062],[-90.1563,32.3105],[-90.1525,32.3105],[-90.1505,32.3132],[-90.1542,32.314],[-90.1544,32.3163],[-90.1522,32.3237],[-90.1458,32.3254],[-90.1423,32.3211],[-90.1397,32.3221],[-90.1381,32.3261],[-90.1303,32.3297],[-90.1268,32.3339],[-90.1184,32.34],[-90.116,32.3461],[-90.1128,32.3432],[-90.1101,32.3444],[-90.1097,32.3487],[-90.1131,32.3545],[-90.1114,32.3586],[-90.114,32.3605],[-90.1108,32.3628],[-90.1069,32.3614],[-90.1095,32.3548],[-90.1062,32.3555],[-90.1058,32.3596],[-90.1029,32.3629],[-90.1046,32.3664],[-90.0998,32.3668],[-90.1027,32.3693],[-90.1018,32.3757],[-90.0989,32.3731],[-90.097,32.3759],[-90.0995,32.3784],[-90.1007,32.3823],[-90.0957,32.3817],[-90.0952,32.3891],[-90.0937,32.3902],[-90.0874,32.3847],[-90.0839,32.3879],[-90.084,32.3904],[-90.0804,32.3917],[-90.0815,32.3953],[-90.0761,32.3938],[-90.0803,32.39],[-90.0779,32.3877],[-90.0739,32.3887],[-90.0679,32.3918],[-90.0663,32.3942],[-90.0688,32.3984],[-90.0657,32.3995],[-90.0641,32.3999]]]}},{"type":"Feature","properties":{"id":"28051","name":"Holmes Co."},"geometry":{"type":"Polygon","coordinates":[[[-90.1106,32.9303],[-90.2228,32.97],[-90.2737,32.9879],[-90.2932,32.9954],[-90.3076,33.0001],[-90.3162,33.0024],[-90.3383,33.0101],[-90.337,33.0141],[-90.3424,33.0212],[-90.3462,33.0224],[-90.3495,33.0206],[-90.3514,33.0144],[-90.3539,33.0121],[-90.364,33.0106],[-90.3731,33.0133],[-90.3819,33.0215],[-90.3828,33.0259],[-90.3796,33.0369],[-90.3799,33.0425],[-90.3838,33.0476],[-90.3881,33.0499],[-90.3915,33.05],[-90.4039,33.0477],[-90.4154,33.049],[-90.4254,33.0546],[-90.4283,33.0573],[-90.4298,33.061],[-90.4298,33.0709],[-90.4315,33.0815],[-90.4304,33.0894],[-90.4317,33.0969],[-90.4249,33.0975],[-90.4218,33.1009],[-90.4273,33.1051],[-90.4287,33.109],[-90.4271,33.1132],[-90.4234,33.116],[-90.4196,33.116],[-90.4163,33.1041],[-90.4144,33.1016],[-90.4104,33.1012],[-90.404,33.1055],[-90.3971,33.1047],[-90.3934,33.1017],[-90.3924,33.0976],[-90.3894,33.0916],[-90.3849,33.0873],[-90.3782,33.0861],[-90.373,33.0841],[-90.3666,33.087],[-90.3644,33.0926],[-90.3655,33.0955],[-90.3739,33.0999],[-90.3768,33.1032],[-90.3816,33.106],[-90.3863,33.1128],[-90.3831,33.1214],[-90.3763,33.1255],[-90.3689,33.1255],[-90.3656,33.1206],[-90.3671,33.1115],[-90.3662,33.1037],[-90.3631,33.1008],[-90.3593,33.0941],[-90.3541,33.0942],[-90.347,33.1012],[-90.3516,33.1064],[-90.3555,33.1131],[-90.3552,33.1196],[-90.3536,33.1228],[-90.3469,33.132],[-90.3437,33.1342],[-90.3377,33.1355],[-90.3307,33.1353],[-90.3303,33.1378],[-90.3305,33.1867],[-90.3316,33.3028],[-90.3294,33.3038],[-90.327,33.3113],[-90.3233,33.3119],[-90.3171,33.3093],[-90.3147,33.3113],[-90.3177,33.3173],[-90.3104,33.3204],[-90.3038,33.3169],[-90.306,33.3113],[-90.302,33.31],[-90.2985,33.3138],[-90.2949,33.3149],[-90.2895,33.3117],[-90.2863,33.3141],[-90.2917,33.319],[-90.2919,33.3237],[-90.2895,33.3281],[-90.2841,33.3319],[-90.2809,33.3354],[-90.2796,33.3395],[-90.2821,33.348],[-90.2867,33.356],[-90.295,33.3618],[-90.3105,33.3639],[-90.3133,33.3622],[-90.3181,33.363],[-90.3226,33.3679],[-90.3215,33.3751],[-90.3174,33.3738],[-90.243,33.3528],[-90.1251,33.3193],[-90.1218,33.3186],[-90.0032,33.285],[-90.0001,33.284],[-89.8896,33.253],[-89.808,33.2305],[-89.7494,33.2145],[-89.7486,33.2116],[-89.7507,33.2101],[-89.7504,33.2055],[-89.7586,33.1951],[-89.7609,33.1981],[-89.7629,33.196],[-89.7654,33.1973],[-89.7711,33.1942],[-89.7767,33.1938],[-89.7787,33.1915],[-89.7758,33.188],[-89.775,33.1843],[-89.7789,33.1817],[-89.7771,33.178],[-89.7743,33.1769],[-89.7758,33.174],[-89.7795,33.1715],[-89.7836,33.1621],[-89.7875,33.1616],[-89.7893,33.1587],[-89.7939,33.1595],[-89.793,33.1565],[-89.7951,33.1528],[-89.7923,33.1453],[-89.7937,33.1396],[-89.7974,33.1382],[-89.7987,33.1354],[-89.7951,33.1349],[-89.796,33.1317],[-89.7938,33.1307],[-89.7968,33.1263],[-89.796,33.1244],[-89.7999,33.1203],[-89.8043,33.1183],[-89.805,33.1164],[-89.8084,33.1168],[-89.806,33.1129],[-89.8118,33.1127],[-89.8138,33.1155],[-89.8158,33.1125],[-89.8177,33.1147],[-89.8233,33.1127],[-89.8234,33.109],[-89.8257,33.1076],[-89.8193,33.1001],[-89.8244,33.0948],[-89.8236,33.0916],[-89.8271,33.089],[-89.8271,33.0809],[-89.8237,33.0803],[-89.8261,33.0764],[-89.8213,33.0757],[-89.8227,33.066],[-89.8242,33.0641],[-89.8311,33.0633],[-89.8337,33.0613],[-89.8416,33.0583],[-89.839,33.0561],[-89.8401,33.0516],[-89.8379,33.0531],[-89.8401,33.0479],[-89.8362,33.0418],[-89.8364,33.04],[-89.8429,33.0359],[-89.8407,33.0352],[-89.8489,33.0295],[-89.8579,33.0188],[-89.8557,33.0181],[-89.8595,33.0141],[-89.8628,33.0144],[-89.8621,33.0119],[-89.8679,33.0105],[-89.8675,33.0078],[-89.8736,33.001],[-89.8815,32.9989],[-89.8812,32.9965],[-89.8777,32.993],[-89.8813,32.9885],[-89.8833,32.9892],[-89.8849,32.9846],[-89.8883,32.9806],[-89.8835,32.9752],[-89.8852,32.9716],[-89.8883,32.9724],[-89.8888,32.9693],[-89.8917,32.9679],[-89.8922,32.9645],[-89.8942,32.9648],[-89.8932,32.9608],[-89.8907,32.9612],[-89.8882,32.959],[-89.8913,32.9565],[-89.8959,32.9487],[-89.893,32.9459],[-89.8991,32.9439],[-89.8975,32.9405],[-89.8983,32.9373],[-89.8955,32.936],[-89.8985,32.9328],[-89.8985,32.9303],[-89.9064,32.9257],[-89.9124,32.926],[-89.9161,32.9249],[-89.9151,32.9223],[-89.9182,32.9229],[-89.9166,32.9162],[-89.9205,32.9098],[-89.9224,32.9117],[-89.9328,32.9078],[-89.938,32.9043],[-89.9342,32.9003],[-89.9334,32.8967],[-89.9363,32.895],[-89.9382,32.8973],[-89.9419,32.8956],[-89.9407,32.8935],[-89.9518,32.8898],[-89.9575,32.8917],[-89.9613,32.8886],[-89.9598,32.8866],[-89.9659,32.8796],[-90.1106,32.9303]]]}},{"type":"Feature","properties":{"id":"28163","name":"Yazoo Co."},"geometry":{"type":"Polygon","coordinates":[[[-90.3539,33.0121],[-90.3514,33.0144],[-90.3495,33.0206],[-90.3462,33.0224],[-90.3424,33.0212],[-90.337,33.0141],[-90.3383,33.0101],[-90.3162,33.0024],[-90.3076,33.0001],[-90.2932,32.9954],[-90.2737,32.9879],[-90.2228,32.97],[-90.1106,32.9303],[-89.9659,32.8796],[-89.9694,32.8749],[-89.9728,32.8723],[-89.9738,32.8669],[-89.9788,32.8653],[-89.9812,32.8662],[-89.9826,32.86],[-89.9852,32.8564],[-89.983,32.8566],[-89.9884,32.8496],[-89.9878,32.8474],[-89.993,32.8463],[-89.9898,32.8445],[-89.9949,32.8371],[-89.9954,32.834],[-90.0012,32.8305],[-90.0065,32.829],[-90.0074,32.8316],[-90.0103,32.8279],[-90.0135,32.8315],[-90.0175,32.827],[-90.0187,32.8215],[-90.0179,32.8127],[-90.0207,32.8052],[-90.0172,32.8032],[-90.0212,32.7989],[-90.0207,32.7934],[-90.0245,32.7849],[-90.0252,32.7781],[-90.0277,32.7757],[-90.032,32.775],[-90.0298,32.7705],[-90.0329,32.7671],[-90.0306,32.7664],[-90.0331,32.7632],[-90.0325,32.7599],[-90.0388,32.7592],[-90.04,32.7523],[-90.0395,32.7476],[-90.0424,32.7441],[-90.0466,32.7433],[-90.0467,32.74],[-90.0495,32.7385],[-90.0491,32.7357],[-90.0526,32.7342],[-90.0574,32.7356],[-90.0576,32.7312],[-90.0612,32.7331],[-90.0614,32.7308],[-90.0652,32.7293],[-90.071,32.7317],[-90.0761,32.7295],[-90.075,32.7253],[-90.0778,32.7261],[-90.0805,32.7216],[-90.0848,32.717],[-90.0898,32.7149],[-90.0874,32.7129],[-90.0906,32.7111],[-90.0905,32.7088],[-90.0957,32.7067],[-90.094,32.7048],[-90.0996,32.7003],[-90.1053,32.704],[-90.1073,32.7006],[-90.1095,32.7032],[-90.1154,32.7045],[-90.1156,32.7016],[-90.1222,32.7022],[-90.1229,32.7002],[-90.1296,32.6997],[-90.1312,32.7023],[-90.138,32.6963],[-90.136,32.691],[-90.138,32.6908],[-90.1359,32.6877],[-90.1415,32.6851],[-90.1436,32.6896],[-90.1464,32.6918],[-90.1514,32.6898],[-90.1547,32.6912],[-90.1564,32.6872],[-90.1618,32.6861],[-90.1738,32.6799],[-90.1784,32.6788],[-90.1808,32.6799],[-90.1816,32.6765],[-90.1885,32.6716],[-90.1933,32.6717],[-90.1927,32.6658],[-90.1961,32.6658],[-90.1977,32.6638],[-90.2069,32.6663],[-90.2147,32.6619],[-90.2182,32.6631],[-90.2216,32.6598],[-90.224,32.661],[-90.2261,32.6681],[-90.2298,32.6653],[-90.231,32.6676],[-90.2416,32.6645],[-90.2438,32.6624],[-90.2445,32.6587],[-90.251,32.6618],[-90.2545,32.6609],[-90.2571,32.6629],[-90.2593,32.6605],[-90.2624,32.6604],[-90.2643,32.6568],[-90.2697,32.6571],[-90.2714,32.6602],[-90.2744,32.6575],[-90.2748,32.6602],[-90.2778,32.6604],[-90.2802,32.6548],[-90.2835,32.6556],[-90.2832,32.646],[-90.2881,32.6418],[-90.2895,32.6449],[-90.2939,32.6439],[-90.2952,32.6467],[-90.2989,32.6455],[-90.3022,32.6465],[-90.3112,32.6407],[-90.3091,32.6374],[-90.3098,32.6338],[-90.3132,32.6343],[-90.3157,32.6314],[-90.3153,32.6267],[-90.3182,32.6238],[-90.3248,32.6223],[-90.3222,32.6198],[-90.3221,32.6162],[-90.3323,32.6133],[-90.3299,32.6115],[-90.3334,32.6098],[-90.3381,32.6055],[-90.3447,32.6061],[-90.3456,32.6128],[-90.3502,32.6131],[-90.3532,32.6114],[-90.3513,32.6082],[-90.3529,32.6047],[-90.3565,32.6021],[-90.3593,32.6045],[-90.3648,32.6026],[-90.3636,32.5986],[-90.3683,32.5954],[-90.3689,32.6022],[-90.3716,32.6022],[-90.3736,32.5973],[-90.3814,32.5959],[-90.3772,32.5937],[-90.3814,32.5934],[-90.383,32.5886],[-90.3889,32.587],[-90.3862,32.5837],[-90.394,32.5825],[-90.3962,32.5853],[-90.3984,32.5827],[-90.3982,32.5796],[-90.4029,32.5781],[-90.4044,32.5748],[-90.4072,32.5764],[-90.412,32.5744],[-90.4096,32.5781],[-90.4151,32.5799],[-90.4178,32.5771],[-90.4216,32.5833],[-90.4262,32.5833],[-90.4278,32.5857],[-90.4319,32.5839],[-90.4332,32.586],[-90.4441,32.5848],[-90.4461,32.5833],[-90.444,32.5812],[-90.4515,32.5778],[-90.45,32.5738],[-90.455,32.566],[-90.4512,32.5637],[-90.4537,32.5623],[-90.454,32.5583],[-90.4578,32.5569],[-90.459,32.5603],[-90.4625,32.559],[-90.4647,32.5536],[-90.4651,32.5477],[-90.471,32.5489],[-90.4726,32.5467],[-90.4715,32.5433],[-90.4817,32.5442],[-90.4864,32.5405],[-90.4869,32.5378],[-90.4924,32.5339],[-90.4913,32.5319],[-90.4987,32.5274],[-90.499,32.5239],[-90.5016,32.5254],[-90.5027,32.523],[-90.5065,32.524],[-90.5103,32.5224],[-90.5133,32.5254],[-90.5158,32.5228],[-90.5237,32.5188],[-90.5198,32.5161],[-90.5255,32.5145],[-90.5225,32.5137],[-90.5206,32.5091],[-90.5224,32.5075],[-90.5222,32.5031],[-90.532,32.5109],[-90.5365,32.5071],[-90.5404,32.5092],[-90.5397,32.5064],[-90.5423,32.5054],[-90.5466,32.5105],[-90.5538,32.5076],[-90.5539,32.5319],[-90.5879,32.5318],[-90.588,32.5461],[-90.6542,32.546],[-90.6546,32.5747],[-90.6555,32.5898],[-90.6902,32.5894],[-90.6899,32.6187],[-90.7201,32.6189],[-90.7207,32.624],[-90.7103,32.6242],[-90.7063,32.6262],[-90.7026,32.6238],[-90.6976,32.6251],[-90.6923,32.6327],[-90.6914,32.6363],[-90.693,32.6401],[-90.6983,32.642],[-90.707,32.6416],[-90.7128,32.6423],[-90.7189,32.6466],[-90.7205,32.6511],[-90.7233,32.6538],[-90.7242,32.6603],[-90.7213,32.6655],[-90.7121,32.6784],[-90.713,32.6826],[-90.7122,32.6874],[-90.708,32.6903],[-90.7044,32.6908],[-90.6993,32.6893],[-90.6956,32.6851],[-90.6949,32.6711],[-90.6932,32.6683],[-90.6874,32.6644],[-90.6842,32.6637],[-90.6758,32.6651],[-90.6677,32.671],[-90.6653,32.6745],[-90.6638,32.686],[-90.6644,32.6891],[-90.6674,32.6933],[-90.6714,32.6965],[-90.6832,32.7029],[-90.6933,32.7065],[-90.7012,32.7074],[-90.7137,32.7073],[-90.7177,32.709],[-90.7233,32.7136],[-90.7339,32.7187],[-90.7396,32.724],[-90.7426,32.7292],[-90.7416,32.7335],[-90.7373,32.7391],[-90.7352,32.7438],[-90.7367,32.7526],[-90.7358,32.7562],[-90.7296,32.7572],[-90.7219,32.7501],[-90.7176,32.748],[-90.7094,32.7474],[-90.6995,32.7501],[-90.6931,32.7543],[-90.6894,32.7609],[-90.6898,32.7659],[-90.6968,32.773],[-90.7077,32.7778],[-90.7113,32.782],[-90.7154,32.7899],[-90.7158,32.7934],[-90.7144,32.7998],[-90.7095,32.8069],[-90.7002,32.8132],[-90.6948,32.8141],[-90.6972,32.8172],[-90.7013,32.8175],[-90.7055,32.8159],[-90.7087,32.818],[-90.7154,32.8143],[-90.7203,32.815],[-90.7234,32.8189],[-90.7284,32.8186],[-90.7281,32.8157],[-90.733,32.81],[-90.741,32.8091],[-90.7471,32.8174],[-90.754,32.818],[-90.7596,32.814],[-90.7598,32.8357],[-90.7068,32.8786],[-90.6983,32.8863],[-90.6567,32.9225],[-90.6348,32.9227],[-90.6039,32.9226],[-90.5751,32.9226],[-90.5455,32.9231],[-90.5185,32.9229],[-90.4499,32.9233],[-90.4493,33.009],[-90.364,33.0099],[-90.364,33.0106],[-90.3539,33.0121]]]}},{"type":"Feature","properties":{"id":"28089","name":"Madison Co."},"geometry":{"type":"Polygon","coordinates":[[[-89.8706,32.8795],[-89.8395,32.8797],[-89.8404,32.8854],[-89.7744,32.8851],[-89.73,32.8851],[-89.7299,32.744],[-89.7303,32.6342],[-89.7361,32.6331],[-89.7357,32.6305],[-89.7394,32.6299],[-89.7411,32.6259],[-89.7516,32.6201],[-89.7592,32.6135],[-89.7613,32.6067],[-89.7659,32.6081],[-89.7709,32.6062],[-89.7714,32.6043],[-89.7671,32.6016],[-89.7708,32.5992],[-89.7818,32.5974],[-89.7813,32.5898],[-89.7841,32.5869],[-89.7859,32.5837],[-89.7888,32.5844],[-89.7875,32.592],[-89.7913,32.5911],[-89.794,32.593],[-89.7922,32.589],[-89.7939,32.5854],[-89.796,32.5848],[-89.7985,32.59],[-89.8032,32.5891],[-89.8086,32.5908],[-89.8066,32.5879],[-89.8079,32.5841],[-89.8136,32.5853],[-89.813,32.5827],[-89.8159,32.5825],[-89.8179,32.5867],[-89.8228,32.5865],[-89.8269,32.5846],[-89.8326,32.5864],[-89.8321,32.5899],[-89.8376,32.5865],[-89.8367,32.5907],[-89.8393,32.5932],[-89.8411,32.592],[-89.8417,32.5875],[-89.8454,32.5835],[-89.8491,32.5826],[-89.8589,32.5848],[-89.8623,32.5801],[-89.8638,32.5693],[-89.8666,32.5678],[-89.867,32.5645],[-89.8751,32.5592],[-89.8863,32.5632],[-89.8896,32.5585],[-89.896,32.5536],[-89.8929,32.5497],[-89.8951,32.5445],[-89.8932,32.5424],[-89.8961,32.5411],[-89.8997,32.5428],[-89.9022,32.5383],[-89.905,32.5372],[-89.91,32.5378],[-89.9129,32.5356],[-89.9106,32.5325],[-89.9112,32.5287],[-89.9233,32.5289],[-89.9233,32.5252],[-89.9261,32.5198],[-89.9286,32.5176],[-89.9279,32.5155],[-89.9314,32.5123],[-89.9346,32.5134],[-89.9419,32.5132],[-89.9456,32.509],[-89.9411,32.5083],[-89.9455,32.506],[-89.9541,32.503],[-89.9555,32.4984],[-89.9585,32.4974],[-89.9621,32.4913],[-89.9651,32.4945],[-89.9716,32.4962],[-89.9747,32.4933],[-89.9762,32.4962],[-89.9816,32.4982],[-89.9847,32.4912],[-89.9847,32.4876],[-89.9883,32.4875],[-89.9928,32.4828],[-89.9968,32.4863],[-90.0063,32.4847],[-90.007,32.4804],[-90.0103,32.4791],[-90.0129,32.4808],[-90.0154,32.4775],[-90.0193,32.4773],[-90.0186,32.4737],[-90.0249,32.4716],[-90.0242,32.4681],[-90.0264,32.4628],[-90.0306,32.4619],[-90.0311,32.4597],[-90.0409,32.4495],[-90.0401,32.4467],[-90.0381,32.4484],[-90.0368,32.4457],[-90.0407,32.4417],[-90.0465,32.4385],[-90.051,32.4377],[-90.055,32.4398],[-90.0575,32.4351],[-90.0681,32.4386],[-90.0701,32.4338],[-90.0653,32.4223],[-90.0629,32.42],[-90.0658,32.4163],[-90.0705,32.4177],[-90.0705,32.42],[-90.0742,32.42],[-90.075,32.4175],[-90.0667,32.4066],[-90.0637,32.4042],[-90.0641,32.3999],[-90.0657,32.3995],[-90.1407,32.3995],[-90.1562,32.4003],[-90.2358,32.4],[-90.2438,32.4001],[-90.2438,32.4409],[-90.2436,32.4875],[-90.2927,32.4876],[-90.3383,32.4875],[-90.3425,32.4878],[-90.3988,32.4877],[-90.4499,32.4884],[-90.4498,32.5021],[-90.45,32.5738],[-90.4515,32.5778],[-90.444,32.5812],[-90.4461,32.5833],[-90.4441,32.5848],[-90.4332,32.586],[-90.4319,32.5839],[-90.4278,32.5857],[-90.4262,32.5833],[-90.4216,32.5833],[-90.4178,32.5771],[-90.4151,32.5799],[-90.4096,32.5781],[-90.412,32.5744],[-90.4072,32.5764],[-90.4044,32.5748],[-90.4029,32.5781],[-90.3982,32.5796],[-90.3984,32.5827],[-90.3962,32.5853],[-90.394,32.5825],[-90.3862,32.5837],[-90.3889,32.587],[-90.383,32.5886],[-90.3814,32.5934],[-90.3772,32.5937],[-90.3814,32.5959],[-90.3736,32.5973],[-90.3716,32.6022],[-90.3689,32.6022],[-90.3683,32.5954],[-90.3636,32.5986],[-90.3648,32.6026],[-90.3593,32.6045],[-90.3565,32.6021],[-90.3529,32.6047],[-90.3513,32.6082],[-90.3532,32.6114],[-90.3502,32.6131],[-90.3456,32.6128],[-90.3447,32.6061],[-90.3381,32.6055],[-90.3334,32.6098],[-90.3299,32.6115],[-90.3323,32.6133],[-90.3221,32.6162],[-90.3222,32.6198],[-90.3248,32.6223],[-90.3182,32.6238],[-90.3153,32.6267],[-90.3157,32.6314],[-90.3132,32.6343],[-90.3098,32.6338],[-90.3091,32.6374],[-90.3112,32.6407],[-90.3022,32.6465],[-90.2989,32.6455],[-90.2952,32.6467],[-90.2939,32.6439],[-90.2895,32.6449],[-90.2881,32.6418],[-90.2832,32.646],[-90.2835,32.6556],[-90.2802,32.6548],[-90.2778,32.6604],[-90.2748,32.6602],[-90.2744,32.6575],[-90.2714,32.6602],[-90.2697,32.6571],[-90.2643,32.6568],[-90.2624,32.6604],[-90.2593,32.6605],[-90.2571,32.6629],[-90.2545,32.6609],[-90.251,32.6618],[-90.2445,32.6587],[-90.2438,32.6624],[-90.2416,32.6645],[-90.231,32.6676],[-90.2298,32.6653],[-90.2261,32.6681],[-90.224,32.661],[-90.2216,32.6598],[-90.2182,32.6631],[-90.2147,32.6619],[-90.2069,32.6663],[-90.1977,32.6638],[-90.1961,32.6658],[-90.1927,32.6658],[-90.1933,32.6717],[-90.1885,32.6716],[-90.1816,32.6765],[-90.1808,32.6799],[-90.1784,32.6788],[-90.1738,32.6799],[-90.1618,32.6861],[-90.1564,32.6872],[-90.1547,32.6912],[-90.1514,32.6898],[-90.1464,32.6918],[-90.1436,32.6896],[-90.1415,32.6851],[-90.1359,32.6877],[-90.138,32.6908],[-90.136,32.691],[-90.138,32.6963],[-90.1312,32.7023],[-90.1296,32.6997],[-90.1229,32.7002],[-90.1222,32.7022],[-90.1156,32.7016],[-90.1154,32.7045],[-90.1095,32.7032],[-90.1073,32.7006],[-90.1053,32.704],[-90.0996,32.7003],[-90.094,32.7048],[-90.0957,32.7067],[-90.0905,32.7088],[-90.0906,32.7111],[-90.0874,32.7129],[-90.0898,32.7149],[-90.0848,32.717],[-90.0805,32.7216],[-90.0778,32.7261],[-90.075,32.7253],[-90.0761,32.7295],[-90.071,32.7317],[-90.0652,32.7293],[-90.0614,32.7308],[-90.0612,32.7331],[-90.0576,32.7312],[-90.0574,32.7356],[-90.0526,32.7342],[-90.0491,32.7357],[-90.0495,32.7385],[-90.0467,32.74],[-90.0466,32.7433],[-90.0424,32.7441],[-90.0395,32.7476],[-90.04,32.7523],[-90.0388,32.7592],[-90.0325,32.7599],[-90.0331,32.7632],[-90.0306,32.7664],[-90.0329,32.7671],[-90.0298,32.7705],[-90.032,32.775],[-90.0277,32.7757],[-90.0252,32.7781],[-90.0245,32.7849],[-90.0207,32.7934],[-90.0212,32.7989],[-90.0172,32.8032],[-90.0207,32.8052],[-90.0179,32.8127],[-90.0187,32.8215],[-90.0175,32.827],[-90.0135,32.8315],[-90.0103,32.8279],[-90.0074,32.8316],[-90.0065,32.829],[-90.0012,32.8305],[-89.9954,32.834],[-89.9949,32.8371],[-89.9898,32.8445],[-89.993,32.8463],[-89.9878,32.8474],[-89.9884,32.8496],[-89.983,32.8566],[-89.9852,32.8564],[-89.9826,32.86],[-89.9812,32.8662],[-89.9788,32.8653],[-89.9738,32.8669],[-89.9728,32.8723],[-89.9694,32.8749],[-89.9659,32.8796],[-89.8706,32.8795]]]}},{"type":"Feature","properties":{"id":"28049","name":"Hinds Co."},"geometry":{"type":"Polygon","coordinates":[[[-90.5466,32.5105],[-90.5423,32.5054],[-90.5397,32.5064],[-90.5404,32.5092],[-90.5365,32.5071],[-90.532,32.5109],[-90.5222,32.5031],[-90.5224,32.5075],[-90.5206,32.5091],[-90.5225,32.5137],[-90.5255,32.5145],[-90.5198,32.5161],[-90.5237,32.5188],[-90.5158,32.5228],[-90.5133,32.5254],[-90.5103,32.5224],[-90.5065,32.524],[-90.5027,32.523],[-90.5016,32.5254],[-90.499,32.5239],[-90.4987,32.5274],[-90.4913,32.5319],[-90.4924,32.5339],[-90.4869,32.5378],[-90.4864,32.5405],[-90.4817,32.5442],[-90.4715,32.5433],[-90.4726,32.5467],[-90.471,32.5489],[-90.4651,32.5477],[-90.4647,32.5536],[-90.4625,32.559],[-90.459,32.5603],[-90.4578,32.5569],[-90.454,32.5583],[-90.4537,32.5623],[-90.4512,32.5637],[-90.455,32.566],[-90.45,32.5738],[-90.4498,32.5021],[-90.4499,32.4884],[-90.3988,32.4877],[-90.3425,32.4878],[-90.3383,32.4875],[-90.2927,32.4876],[-90.2436,32.4875],[-90.2438,32.4409],[-90.2438,32.4001],[-90.2358,32.4],[-90.1562,32.4003],[-90.1407,32.3995],[-90.0657,32.3995],[-90.0688,32.3984],[-90.0663,32.3942],[-90.0679,32.3918],[-90.0739,32.3887],[-90.0779,32.3877],[-90.0803,32.39],[-90.0761,32.3938],[-90.0815,32.3953],[-90.0804,32.3917],[-90.084,32.3904],[-90.0839,32.3879],[-90.0874,32.3847],[-90.0937,32.3902],[-90.0952,32.3891],[-90.0957,32.3817],[-90.1007,32.3823],[-90.0995,32.3784],[-90.097,32.3759],[-90.0989,32.3731],[-90.1018,32.3757],[-90.1027,32.3693],[-90.0998,32.3668],[-90.1046,32.3664],[-90.1029,32.3629],[-90.1058,32.3596],[-90.1062,32.3555],[-90.1095,32.3548],[-90.1069,32.3614],[-90.1108,32.3628],[-90.114,32.3605],[-90.1114,32.3586],[-90.1131,32.3545],[-90.1097,32.3487],[-90.1101,32.3444],[-90.1128,32.3432],[-90.116,32.3461],[-90.1184,32.34],[-90.1268,32.3339],[-90.1303,32.3297],[-90.1381,32.3261],[-90.1397,32.3221],[-90.1423,32.3211],[-90.1458,32.3254],[-90.1522,32.3237],[-90.1544,32.3163],[-90.1542,32.314],[-90.1505,32.3132],[-90.1525,32.3105],[-90.1563,32.3105],[-90.1627,32.3062],[-90.1582,32.3007],[-90.1565,32.3017],[-90.1562,32.2973],[-90.1538,32.2964],[-90.1512,32.2917],[-90.1525,32.2901],[-90.1571,32.2938],[-90.1598,32.2903],[-90.1569,32.2879],[-90.1608,32.2858],[-90.1636,32.2861],[-90.1656,32.2839],[-90.1667,32.2869],[-90.1708,32.2875],[-90.1716,32.2839],[-90.174,32.2869],[-90.1715,32.2891],[-90.1736,32.2905],[-90.1794,32.2871],[-90.1784,32.2832],[-90.1797,32.2762],[-90.1865,32.2735],[-90.1875,32.2664],[-90.1836,32.2655],[-90.1861,32.2606],[-90.194,32.2621],[-90.1941,32.2594],[-90.1973,32.2568],[-90.2015,32.256],[-90.2053,32.2519],[-90.2053,32.2459],[-90.1996,32.2441],[-90.1993,32.2409],[-90.204,32.2406],[-90.2027,32.2367],[-90.2044,32.2346],[-90.2088,32.2364],[-90.2051,32.2313],[-90.1964,32.2253],[-90.1905,32.2267],[-90.1909,32.2228],[-90.1858,32.2196],[-90.191,32.2097],[-90.1885,32.2079],[-90.1906,32.2056],[-90.1898,32.2029],[-90.1817,32.2016],[-90.1858,32.1988],[-90.1876,32.195],[-90.1905,32.1952],[-90.1938,32.1987],[-90.1966,32.1956],[-90.1955,32.1929],[-90.1974,32.1907],[-90.1949,32.1879],[-90.1963,32.1852],[-90.1978,32.1879],[-90.2033,32.187],[-90.2036,32.1912],[-90.2082,32.1887],[-90.2126,32.18],[-90.2245,32.1777],[-90.2263,32.1789],[-90.2326,32.1736],[-90.2356,32.1735],[-90.2363,32.178],[-90.242,32.178],[-90.2454,32.1714],[-90.2419,32.1551],[-90.2535,32.1525],[-90.2548,32.1512],[-90.2495,32.1487],[-90.2451,32.1512],[-90.2428,32.1489],[-90.2454,32.1403],[-90.2473,32.1375],[-90.2466,32.1331],[-90.2417,32.1273],[-90.241,32.1217],[-90.2429,32.1199],[-90.2483,32.1183],[-90.2446,32.1164],[-90.243,32.1137],[-90.249,32.1138],[-90.2512,32.1124],[-90.2461,32.1034],[-90.2421,32.1034],[-90.2373,32.1011],[-90.237,32.0987],[-90.2414,32.097],[-90.2418,32.0996],[-90.2445,32.1007],[-90.2475,32.0991],[-90.247,32.0941],[-90.2411,32.0916],[-90.2385,32.0943],[-90.2288,32.0954],[-90.2268,32.0943],[-90.2289,32.0921],[-90.2346,32.0913],[-90.2356,32.0897],[-90.2317,32.0859],[-90.2303,32.0811],[-90.2267,32.0798],[-90.2279,32.0775],[-90.2289,32.069],[-90.2306,32.0676],[-90.235,32.0688],[-90.2363,32.0647],[-90.2298,32.0569],[-90.232,32.0553],[-90.2303,32.0497],[-90.301,32.0496],[-90.4637,32.0497],[-90.515,32.05],[-90.5868,32.0498],[-90.6216,32.0501],[-90.6551,32.05],[-90.6552,32.0485],[-90.7183,32.0484],[-90.725,32.1474],[-90.7256,32.1547],[-90.7286,32.2251],[-90.7255,32.2301],[-90.7273,32.2319],[-90.7269,32.2415],[-90.7235,32.2421],[-90.7165,32.2475],[-90.7161,32.2508],[-90.7136,32.2524],[-90.7154,32.256],[-90.7178,32.2531],[-90.7201,32.2539],[-90.7178,32.2568],[-90.7197,32.2583],[-90.7225,32.2566],[-90.7232,32.259],[-90.7282,32.2592],[-90.7194,32.2626],[-90.7142,32.2632],[-90.7135,32.2668],[-90.7182,32.2664],[-90.7207,32.2691],[-90.717,32.2709],[-90.7195,32.2773],[-90.7146,32.276],[-90.7129,32.2797],[-90.7074,32.2824],[-90.7071,32.2862],[-90.7021,32.2864],[-90.7067,32.2923],[-90.7034,32.2909],[-90.7034,32.2935],[-90.6988,32.2974],[-90.6959,32.2977],[-90.698,32.3008],[-90.6968,32.3062],[-90.6992,32.3064],[-90.7001,32.3121],[-90.7035,32.3109],[-90.706,32.3186],[-90.7031,32.3168],[-90.7036,32.3229],[-90.7054,32.3247],[-90.6993,32.3311],[-90.6992,32.3378],[-90.7033,32.3349],[-90.7076,32.34],[-90.7047,32.3473],[-90.701,32.347],[-90.6955,32.3491],[-90.6929,32.3543],[-90.689,32.3514],[-90.6836,32.3528],[-90.6767,32.3513],[-90.6518,32.3444],[-90.6417,32.3434],[-90.6325,32.339],[-90.628,32.3395],[-90.6279,32.3454],[-90.6304,32.3495],[-90.6319,32.3615],[-90.6355,32.3681],[-90.6362,32.3745],[-90.6333,32.3771],[-90.6274,32.378],[-90.6224,32.3848],[-90.6258,32.3882],[-90.6177,32.393],[-90.6212,32.3954],[-90.6157,32.398],[-90.617,32.4017],[-90.6142,32.4045],[-90.6155,32.4094],[-90.6121,32.41],[-90.6132,32.4134],[-90.6068,32.4156],[-90.606,32.4184],[-90.603,32.4201],[-90.6,32.4246],[-90.5999,32.4352],[-90.5943,32.4412],[-90.5917,32.4399],[-90.5858,32.4451],[-90.5914,32.4481],[-90.5978,32.4503],[-90.5978,32.4573],[-90.6014,32.4582],[-90.6,32.4631],[-90.5997,32.4704],[-90.6034,32.477],[-90.6041,32.4813],[-90.6008,32.4842],[-90.5978,32.4829],[-90.5899,32.4886],[-90.5901,32.4931],[-90.5869,32.497],[-90.5845,32.4939],[-90.5823,32.494],[-90.5793,32.4982],[-90.5806,32.5018],[-90.5787,32.5037],[-90.5734,32.4991],[-90.5701,32.4996],[-90.5716,32.5041],[-90.5707,32.5063],[-90.5651,32.5056],[-90.5656,32.5029],[-90.5555,32.505],[-90.5538,32.5076],[-90.5466,32.5105]]]}},{"type":"Feature","properties":{"id":"28127","name":"Simpson Co."},"geometry":{"type":"Polygon","coordinates":[[[-90.215,32.0496],[-90.1357,32.0496],[-90.0781,32.0494],[-89.985,32.0494],[-89.9372,32.0492],[-89.9371,32.0479],[-89.882,32.0475],[-89.8469,32.0474],[-89.7782,32.0471],[-89.7301,32.0471],[-89.6621,32.0472],[-89.6544,32.0137],[-89.6547,31.9984],[-89.6548,31.9147],[-89.6548,31.8434],[-89.6545,31.7838],[-89.653,31.7807],[-89.6832,31.7792],[-89.7146,31.7768],[-89.7551,31.7747],[-89.8798,31.7669],[-89.9574,31.7627],[-90.1226,31.7527],[-90.1218,31.7559],[-90.1251,31.7617],[-90.1288,31.7659],[-90.129,31.7682],[-90.1242,31.7743],[-90.1217,31.7748],[-90.1197,31.768],[-90.1159,31.7678],[-90.1125,31.7697],[-90.1075,31.7777],[-90.1105,31.7834],[-90.111,31.7893],[-90.1154,31.7912],[-90.1235,31.7891],[-90.1373,31.7888],[-90.1408,31.7894],[-90.1439,31.7943],[-90.1507,31.7999],[-90.1487,31.8078],[-90.1423,31.8128],[-90.136,31.819],[-90.1376,31.8238],[-90.1348,31.8274],[-90.1327,31.8268],[-90.1297,31.8228],[-90.1273,31.8256],[-90.1283,31.8275],[-90.1351,31.8322],[-90.1379,31.8328],[-90.1446,31.8299],[-90.147,31.8335],[-90.1582,31.8421],[-90.1589,31.8455],[-90.1521,31.8447],[-90.1389,31.8481],[-90.1365,31.85],[-90.1364,31.8543],[-90.1326,31.8569],[-90.133,31.8599],[-90.1371,31.8643],[-90.1369,31.8708],[-90.1418,31.8874],[-90.1457,31.8929],[-90.1555,31.8972],[-90.1592,31.9005],[-90.1703,31.9045],[-90.1698,31.9176],[-90.1666,31.9236],[-90.1683,31.9305],[-90.1787,31.9427],[-90.1803,31.9389],[-90.1842,31.9377],[-90.187,31.9416],[-90.1914,31.9394],[-90.1945,31.9396],[-90.1978,31.9429],[-90.1919,31.9441],[-90.1928,31.9531],[-90.191,31.9533],[-90.19,31.9495],[-90.1875,31.952],[-90.19,31.9552],[-90.1981,31.9579],[-90.197,31.9651],[-90.2013,31.9679],[-90.2018,31.9714],[-90.2057,31.9742],[-90.207,31.9777],[-90.2051,31.9836],[-90.2061,31.988],[-90.2104,31.9892],[-90.2141,31.9864],[-90.217,31.9898],[-90.2229,31.9892],[-90.2228,31.9948],[-90.2271,32.002],[-90.2328,32.0089],[-90.2296,32.0103],[-90.2251,32.0098],[-90.2157,32.0217],[-90.2141,32.0254],[-90.2209,32.0189],[-90.2293,32.0209],[-90.2335,32.0171],[-90.2392,32.0195],[-90.2382,32.0228],[-90.2341,32.0227],[-90.2346,32.025],[-90.2436,32.0226],[-90.2438,32.0263],[-90.2479,32.0315],[-90.2427,32.0374],[-90.2367,32.0375],[-90.23,32.0467],[-90.2303,32.0497],[-90.215,32.0496]]]}},{"type":"Feature","properties":{"id":"28123","name":"Scott Co."},"geometry":{"type":"Polygon","coordinates":[[[-89.7302,32.5772],[-89.6321,32.5764],[-89.5744,32.5764],[-89.53,32.5765],[-89.3751,32.5762],[-89.3745,32.5763],[-89.3226,32.5764],[-89.3223,32.5384],[-89.3225,32.4837],[-89.3226,32.3893],[-89.3226,32.3507],[-89.3227,32.2235],[-89.3671,32.2236],[-89.3751,32.2232],[-89.4565,32.2234],[-89.5113,32.2234],[-89.5976,32.2237],[-89.7016,32.2238],[-89.7013,32.222],[-89.7248,32.2218],[-89.7304,32.222],[-89.7302,32.2501],[-89.7298,32.3353],[-89.7301,32.3527],[-89.7564,32.4694],[-89.7735,32.5439],[-89.7841,32.5869],[-89.7813,32.5898],[-89.7818,32.5974],[-89.7708,32.5992],[-89.7671,32.6016],[-89.7714,32.6043],[-89.7709,32.6062],[-89.7659,32.6081],[-89.7613,32.6067],[-89.7592,32.6135],[-89.7516,32.6201],[-89.7411,32.6259],[-89.7394,32.6299],[-89.7357,32.6305],[-89.7361,32.6331],[-89.7303,32.6342],[-89.7302,32.5772]]]}}]}