{"type":"FeatureCollection","features":[{"type":"Feature","properties":{"id":"36051","name":"Livingston Co."},"geometry":{"type":"Polygon","coordinates":[[[-77.8069,42.9882],[-77.731,42.9884],[-77.7329,42.9819],[-77.7315,42.9808],[-77.7207,42.9792],[-77.7178,42.9734],[-77.7188,42.9714],[-77.7234,42.9722],[-77.7262,42.966],[-77.725,42.9592],[-77.7284,42.953],[-77.7326,42.9559],[-77.7345,42.9548],[-77.7309,42.9484],[-77.7337,42.9453],[-77.7385,42.9477],[-77.7412,42.9452],[-77.7464,42.9441],[-77.7532,42.9456],[-77.7594,42.9445],[-77.7587,42.9405],[-77.6704,42.9402],[-77.6375,42.94],[-77.635,42.9445],[-77.6073,42.9441],[-77.5804,42.944],[-77.5779,42.9419],[-77.578,42.9394],[-77.5749,42.9382],[-77.5729,42.9354],[-77.567,42.9361],[-77.5682,42.9325],[-77.5671,42.9287],[-77.5622,42.9255],[-77.5606,42.9214],[-77.5633,42.9203],[-77.5631,42.9175],[-77.5597,42.9176],[-77.5618,42.9155],[-77.5583,42.9073],[-77.5605,42.9001],[-77.5542,42.8975],[-77.5573,42.8955],[-77.5525,42.8936],[-77.5543,42.8863],[-77.5494,42.8791],[-77.5517,42.8786],[-77.554,42.8744],[-77.5481,42.8747],[-77.5477,42.873],[-77.552,42.8708],[-77.5521,42.8687],[-77.5468,42.8691],[-77.5463,42.8657],[-77.555,42.8632],[-77.5519,42.8541],[-77.588,42.854],[-77.5882,42.763],[-77.6117,42.7632],[-77.6109,42.755],[-77.6094,42.7504],[-77.6075,42.7325],[-77.6076,42.7278],[-77.6052,42.72],[-77.5988,42.672],[-77.5162,42.6706],[-77.4869,42.6703],[-77.4883,42.6509],[-77.4899,42.6463],[-77.4909,42.5773],[-77.5747,42.5792],[-77.6207,42.5801],[-77.6599,42.5804],[-77.6613,42.5351],[-77.6971,42.5351],[-77.704,42.5346],[-77.7206,42.5351],[-77.723,42.4712],[-77.7497,42.4717],[-77.8402,42.4746],[-77.8407,42.4999],[-77.8407,42.5178],[-77.9365,42.5183],[-78.0434,42.5185],[-78.0383,42.5215],[-78.038,42.5259],[-78.0433,42.5242],[-78.0483,42.5269],[-78.0436,42.5332],[-78.0443,42.5359],[-78.0499,42.5389],[-78.0573,42.5327],[-78.0606,42.5328],[-78.0593,42.5387],[-78.0556,42.5409],[-78.05,42.5424],[-78.049,42.545],[-78.0516,42.5486],[-78.049,42.5565],[-78.0467,42.559],[-78.0375,42.5661],[-78.0349,42.5672],[-78.0283,42.5672],[-78.0323,42.5729],[-78.0357,42.5735],[-78.0385,42.5717],[-78.0451,42.5699],[-78.0503,42.5737],[-78.049,42.5785],[-78.041,42.5838],[-78.0368,42.5875],[-78.0325,42.5863],[-78.0267,42.5863],[-78.023,42.5848],[-78.0156,42.5868],[-78.0126,42.5867],[-78.0083,42.5898],[-78.0046,42.5941],[-78.0062,42.5988],[-78.0133,42.5996],[-78.0168,42.5989],[-78.0211,42.5959],[-78.026,42.5977],[-78.0291,42.6029],[-78.0259,42.6054],[-78.021,42.6051],[-78.016,42.6074],[-78.0146,42.6115],[-78.0107,42.6123],[-78.0058,42.6099],[-78.0001,42.6125],[-77.9971,42.6159],[-77.9903,42.615],[-77.9876,42.6207],[-77.9899,42.6258],[-77.9881,42.6289],[-77.9829,42.6308],[-77.9832,42.6342],[-77.977,42.6388],[-77.9775,42.6432],[-77.9725,42.6463],[-77.9722,42.6496],[-77.9745,42.6541],[-77.9712,42.6591],[-77.9672,42.6629],[-77.9624,42.662],[-77.9589,42.6665],[-77.9559,42.6679],[-77.955,42.752],[-77.9554,42.771],[-77.9552,42.8105],[-77.9546,42.851],[-77.955,42.8628],[-77.9555,42.9059],[-77.9352,42.9053],[-77.9342,42.9456],[-77.9114,42.9451],[-77.9103,42.9692],[-77.9098,42.9878],[-77.8069,42.9882]]]}},{"type":"Feature","properties":{"id":"36055","name":"Monroe Co."},"geometry":{"type":"Polygon","coordinates":[[[-77.9814,43.3672],[-77.9764,43.3692],[-77.9697,43.3672],[-77.9652,43.3681],[-77.9499,43.3637],[-77.9332,43.3596],[-77.9287,43.3575],[-77.9227,43.357],[-77.9048,43.357],[-77.9009,43.3548],[-77.8888,43.3518],[-77.8753,43.3497],[-77.8481,43.3468],[-77.8443,43.3475],[-77.8323,43.345],[-77.827,43.3428],[-77.8165,43.3436],[-77.7974,43.3399],[-77.7851,43.3393],[-77.7778,43.3396],[-77.7668,43.3412],[-77.7602,43.3412],[-77.7569,43.3374],[-77.7306,43.3302],[-77.728,43.3276],[-77.7141,43.3236],[-77.7124,43.3215],[-77.7136,43.3179],[-77.7077,43.3108],[-77.7014,43.3083],[-77.6823,43.2979],[-77.6604,43.283],[-77.6538,43.2795],[-77.6283,43.2713],[-77.5772,43.2433],[-77.5651,43.2382],[-77.551,43.2358],[-77.5395,43.2351],[-77.5301,43.236],[-77.5214,43.2385],[-77.5164,43.2408],[-77.5143,43.244],[-77.5009,43.2504],[-77.4869,43.2505],[-77.4697,43.2571],[-77.4543,43.2611],[-77.442,43.2629],[-77.4324,43.2683],[-77.4255,43.2702],[-77.4145,43.2693],[-77.4065,43.2708],[-77.391,43.2764],[-77.3831,43.2753],[-77.376,43.2762],[-77.3753,43.2245],[-77.375,43.1964],[-77.3747,43.1889],[-77.3746,43.1604],[-77.3733,43.1222],[-77.372,43.0756],[-77.3714,43.0395],[-77.3715,43.0347],[-77.3998,43.0345],[-77.4027,43.0348],[-77.4854,43.0346],[-77.4838,42.9766],[-77.4825,42.9432],[-77.5071,42.9435],[-77.5804,42.944],[-77.6073,42.9441],[-77.635,42.9445],[-77.6375,42.94],[-77.6704,42.9402],[-77.7587,42.9405],[-77.7594,42.9445],[-77.7532,42.9456],[-77.7464,42.9441],[-77.7412,42.9452],[-77.7385,42.9477],[-77.7337,42.9453],[-77.7309,42.9484],[-77.7345,42.9548],[-77.7326,42.9559],[-77.7284,42.953],[-77.725,42.9592],[-77.7262,42.966],[-77.7234,42.9722],[-77.7188,42.9714],[-77.7178,42.9734],[-77.7207,42.9792],[-77.7315,42.9808],[-77.7329,42.9819],[-77.731,42.9884],[-77.8069,42.9882],[-77.9098,42.9878],[-77.9094,43.0025],[-77.9075,43.0029],[-77.9057,43.0235],[-77.9048,43.0252],[-77.9041,43.0371],[-77.951,43.0395],[-77.9312,43.0804],[-77.9093,43.1269],[-77.9059,43.1336],[-77.9394,43.1329],[-77.9873,43.1328],[-77.9973,43.133],[-77.9969,43.1491],[-77.9971,43.1587],[-77.9969,43.2217],[-77.9966,43.2506],[-77.9957,43.285],[-77.9952,43.3235],[-77.9956,43.3652],[-77.9814,43.3672]]]}},{"type":"Feature","properties":{"id":"36069","name":"Ontario Co."},"geometry":{"type":"Polygon","coordinates":[[[-77.5071,42.9435],[-77.4825,42.9432],[-77.4838,42.9766],[-77.4854,43.0346],[-77.4027,43.0348],[-77.3998,43.0345],[-77.3715,43.0347],[-77.2468,43.0347],[-77.2466,43.0398],[-77.1343,43.0399],[-77.1334,43.0125],[-77.0071,43.0128],[-76.9639,43.0132],[-76.9636,42.9785],[-76.9633,42.903],[-76.9634,42.8729],[-76.9731,42.8716],[-76.9781,42.8685],[-76.9813,42.8612],[-76.9806,42.8571],[-76.9757,42.8431],[-76.973,42.8376],[-76.9735,42.8337],[-76.9783,42.829],[-76.9755,42.8226],[-76.9775,42.8199],[-76.9769,42.8146],[-76.9741,42.8121],[-76.9762,42.8086],[-76.9751,42.8015],[-76.977,42.7984],[-76.975,42.7901],[-76.9747,42.7829],[-76.9765,42.7817],[-76.9779,42.7732],[-76.9754,42.7692],[-76.9727,42.7679],[-76.9714,42.7642],[-77.0171,42.7638],[-77.0499,42.7638],[-77.1231,42.7633],[-77.1232,42.7617],[-77.2214,42.7615],[-77.2341,42.7614],[-77.2991,42.7616],[-77.313,42.7613],[-77.3162,42.7562],[-77.3214,42.7501],[-77.3251,42.7473],[-77.3335,42.7382],[-77.3376,42.7327],[-77.345,42.7195],[-77.3494,42.7103],[-77.3536,42.7],[-77.3557,42.6899],[-77.3574,42.668],[-77.3671,42.6679],[-77.3671,42.6637],[-77.3653,42.6634],[-77.367,42.6583],[-77.3665,42.5764],[-77.4459,42.5768],[-77.4909,42.5773],[-77.4899,42.6463],[-77.4883,42.6509],[-77.4869,42.6703],[-77.5162,42.6706],[-77.5988,42.672],[-77.6052,42.72],[-77.6076,42.7278],[-77.6075,42.7325],[-77.6094,42.7504],[-77.6109,42.755],[-77.6117,42.7632],[-77.5882,42.763],[-77.588,42.854],[-77.5519,42.8541],[-77.555,42.8632],[-77.5463,42.8657],[-77.5468,42.8691],[-77.5521,42.8687],[-77.552,42.8708],[-77.5477,42.873],[-77.5481,42.8747],[-77.554,42.8744],[-77.5517,42.8786],[-77.5494,42.8791],[-77.5543,42.8863],[-77.5525,42.8936],[-77.5573,42.8955],[-77.5542,42.8975],[-77.5605,42.9001],[-77.5583,42.9073],[-77.5618,42.9155],[-77.5597,42.9176],[-77.5631,42.9175],[-77.5633,42.9203],[-77.5606,42.9214],[-77.5622,42.9255],[-77.5671,42.9287],[-77.5682,42.9325],[-77.567,42.9361],[-77.5729,42.9354],[-77.5749,42.9382],[-77.578,42.9394],[-77.5779,42.9419],[-77.5804,42.944],[-77.5071,42.9435]]]}},{"type":"Feature","properties":{"id":"36117","name":"Wayne Co."},"geometry":{"type":"Polygon","coordinates":[[[-77.3596,43.2786],[-77.3495,43.2787],[-77.3411,43.2807],[-77.3352,43.2779],[-77.3221,43.2806],[-77.3118,43.2809],[-77.3105,43.2787],[-77.2927,43.2779],[-77.2866,43.2786],[-77.281,43.2773],[-77.2642,43.2774],[-77.2141,43.2841],[-77.1962,43.2826],[-77.1907,43.2852],[-77.1856,43.2841],[-77.1834,43.2818],[-77.1731,43.2815],[-77.156,43.2861],[-77.1496,43.2892],[-77.144,43.2894],[-77.1434,43.2876],[-77.1364,43.2856],[-77.1287,43.2856],[-77.121,43.2873],[-77.1171,43.2861],[-77.113,43.2867],[-77.1071,43.2893],[-77.0982,43.2867],[-77.0961,43.2849],[-77.0841,43.2832],[-77.0818,43.2818],[-77.0755,43.2814],[-77.0699,43.2828],[-77.0661,43.2795],[-77.0603,43.2794],[-77.0554,43.2765],[-77.0487,43.2771],[-77.0426,43.2705],[-77.0241,43.2703],[-77.0158,43.271],[-77.0132,43.2701],[-76.9997,43.2715],[-76.9884,43.2745],[-76.9827,43.2734],[-76.9752,43.2741],[-76.9744,43.273],[-76.9654,43.2721],[-76.9645,43.2705],[-76.9587,43.27],[-76.951,43.2705],[-76.9445,43.273],[-76.9395,43.2763],[-76.932,43.2797],[-76.9244,43.2853],[-76.9205,43.2848],[-76.9043,43.2918],[-76.8962,43.296],[-76.8869,43.2939],[-76.8774,43.2929],[-76.8665,43.2946],[-76.855,43.2984],[-76.8417,43.3054],[-76.8311,43.306],[-76.8262,43.3047],[-76.8091,43.3083],[-76.8043,43.308],[-76.7939,43.3094],[-76.7841,43.3123],[-76.7697,43.3177],[-76.7619,43.3212],[-76.7464,43.3311],[-76.7373,43.3377],[-76.7282,43.3437],[-76.7225,43.3436],[-76.717,43.2781],[-76.7157,43.2781],[-76.7134,43.2493],[-76.7101,43.2052],[-76.7068,43.1484],[-76.7033,43.0934],[-76.7023,43.0804],[-76.7059,43.0708],[-76.7106,43.0693],[-76.7178,43.0626],[-76.7169,43.0563],[-76.7191,43.0403],[-76.7186,43.0331],[-76.7138,43.024],[-76.7968,43.021],[-76.8786,43.0176],[-76.9639,43.0132],[-77.0071,43.0128],[-77.1334,43.0125],[-77.1343,43.0399],[-77.2466,43.0398],[-77.2468,43.0347],[-77.3715,43.0347],[-77.3714,43.0395],[-77.372,43.0756],[-77.3733,43.1222],[-77.3746,43.1604],[-77.3747,43.1889],[-77.375,43.1964],[-77.3753,43.2245],[-77.376,43.2762],[-77.3596,43.2786]]]}},{"type":"Feature","properties":{"id":"36073","name":"Orleans Co."},"geometry":{"type":"Polygon","coordinates":[[[-78.0481,43.1315],[-78.0988,43.1314],[-78.1155,43.1315],[-78.1155,43.1324],[-78.1933,43.1318],[-78.2373,43.1316],[-78.2519,43.1313],[-78.3105,43.1313],[-78.3405,43.1308],[-78.3904,43.1306],[-78.4109,43.1306],[-78.4655,43.1286],[-78.4656,43.1436],[-78.463,43.1831],[-78.4604,43.2162],[-78.4619,43.242],[-78.4664,43.3028],[-78.4655,43.3712],[-78.4519,43.3727],[-78.4476,43.372],[-78.429,43.3731],[-78.4141,43.375],[-78.4027,43.3748],[-78.3702,43.3765],[-78.3648,43.3741],[-78.3428,43.3735],[-78.3371,43.3726],[-78.3198,43.3729],[-78.3111,43.3737],[-78.3024,43.3715],[-78.2836,43.3719],[-78.2729,43.3716],[-78.2676,43.3726],[-78.2531,43.372],[-78.2467,43.3693],[-78.2336,43.3691],[-78.2222,43.3699],[-78.2097,43.3717],[-78.2002,43.3707],[-78.1894,43.3716],[-78.186,43.3704],[-78.1787,43.3707],[-78.1599,43.3748],[-78.1452,43.3755],[-78.1045,43.3756],[-78.0746,43.3723],[-78.0719,43.3713],[-78.0581,43.37],[-78.0393,43.3709],[-78.0328,43.367],[-78.0236,43.3666],[-78.0115,43.3681],[-78.0048,43.3682],[-77.9998,43.3651],[-77.9956,43.3652],[-77.9952,43.3235],[-77.9957,43.285],[-77.9966,43.2506],[-77.9969,43.2217],[-77.9971,43.1587],[-77.9969,43.1491],[-77.9973,43.133],[-78.0481,43.1315]]]}}]}